Origin Time       2018/04/09 06:38:00
Lat.              35.2
Long.             132.6
Depth. (km)       10
Mag.              3.8
Station Code      HRS003
Station Lat.      34.8143
Station Long.     132.8418
Station Height(m) 156
Record Time       2018/04/09 06:39:04
Sampling Freq(Hz) 100Hz
Duration Time(s)  60
Dir.              U-D
Scale Factor      7845(gal)/8223790
Max. Acc. (gal)   0.729
Last Correction   2018/04/09 06:39:04
Memo.             
[...]
   14006    14027    14042    14033    14008    14004    14022    14041 
   14035    14010    13998    14013    14034    14044    14033    14010 
   14003    14022    14038    14034    14023    14007    14000    14027 
   14052    14041    14008    13996    14021    14042    14031    14014 
   14011    14014    14026    14037    14034    14017    13996    14010 
   14040    14038    14025    14017    14007    14017    14026    14022 
   14025    14027    14023    14006    14006    14044    14047    14006 
   14000    14027    14037    14023    14021    14022    14008    14008 
   14035    14045    14022    13996    14010    14042    14045    14018 
   14000    14017    14040    14031    14017    14014    14018    14018 
   14023    14041    14038    14011    13994    14006    14040    14052 
   14031    14007    13996    14011    14037    14046    14030    14003 
   13998    14021    14037    14033    14017    14004    14004    14025 
   14050    14035    14006    14007    14017    14029    14038    14031 
   14018    14007    14008    14023    14035    14034    14023    14013 
   14011    14021    14031    14027    14014    14013    14021    14030 
   14033    14030    14019    14003    14010    14031    14041    14033 
   14010    14003    14021    14031    14029    14025    14025    14018 
   14011    14029    14038    14014    14007    14023    14038    14030 
   14004    14002    14027    14046    14033    14007    14013    14031 
   14029    14018    14014    14017    14023    14027    14035    14031 
   14004    13994    14018    14040    14047    14034    13986    13976 
   14038    14069    14034    14003    14000    14013    14031    14034 
   14014    14025    14044    14010    13996    14038    14042    14000 
   13998    14030    14045    14045    14023    13984    13991    14037 
   14047    14030    14010    13996    14019    14052    14040    14013 
   14014    14018    14008    14026    14042    14027    14014    14017 
   14025    14033    14022    14014    14025    14027    14018    14011 
   14027    14033    14014    14014    14025    14030    14037    14026 
   13998    13994    14022    14042    14044    14040    14008    13980 
   14004    14049    14058    14023    13987    14002    14046    14060 
   14022    13981    14003    14053    14057    14022    14000    13998 
   14000    14022    14056    14064    14027    13971    13968    14031 
   14084    14061    13992    13965    14014    14067    14057    14006 
   13981    14013    14053    14046    14010    13991    14014    14041 
   14038    14021    14014    14014    14017    14025    14035    14029 
   14007    14008    14033    14040    14023    14014    14014    14014 
   14029    14033    14025    14021    14007    14007    14029    14037 
   14027    14018    14010    14010    14026    14038    14026    14008 
   14006    14023    14035    14029    14019    14017    14019    14025 
   14027    14025    14019    14014    14014    14018    14029    14034 
   14026    14021    14008    14006    14029    14046    14034    14006 
   13995    14018    14035    14033    14026    14014    14014    14022 
   14021    14023    14034    14021    14004    14018    14038    14042 
   14033    14006    13996    14023    14041    14034    14018    14004 
   14014    14027    14022    14033    14035    14008    14000    14027 
   14037    14025    14022    14021    14013    14017    14031    14034 
   14017    14006    14026    14033    14007    14008    14037    14038 
   14010    14006    14029    14026    14026    14050    14019    13964 
   14010    14084    14053    13986    13980    14023    14054    14041 
   14007    14004    14019    14023    14035    14037    14014    14010 
   14023    14006    14010    14067    14061    13987    13977    14027 
   14044    14040    14030    14006    14000    14029    14040    14022 
   14014    14022    14025    14014    14010    14023    14034    14027 
   14013    14011    14030    14033    14011    14014    14027    14025 
   14023    14027    14025    14021    14022    14018    14021    14027 
   14022    14019    14018    14014    14029    14033    14018    14013 
   14017    14025    14034    14022    14007    14025    14042    14022 
   14008    14018    14017    14027    14044    14022    14008    14026 
   14030    14019    14018    14019    14023    14030    14027    14017 
   14013    14019    14027    14021    14019    14034    14027    14004 
   14017    14034    14027    14019    14018    14021    14027    14025 
   14019    14025    14027    14022    14019    14019    14021    14026 
   14027    14021    14014    14021    14029    14030    14025    14022 
   14019    14021    14027    14023    14025    14026    14017    14013 
   14018    14022    14030    14037    14023    14011    14014    14014 
   14023    14044    14031    14011    14011    14019    14029    14031 
   14022    14021    14026    14027    14021    14013    14013    14026 
   14042    14040    14010    13994    14018    14044    14037    14019 
   14008    14006    14022    14041    14037    14014    13996    14011 
   14042    14042    14023    14013    14014    14027    14033    14022 
   14010    14014    14026    14025    14025    14026    14019    14019 
   14029    14033    14021    14006    14014    14041    14049    14021 
   13991    13999    14031    14053    14038    14006    14007    14026 
   14029    14023    14010    14011    14040    14045    14014    13996 
   14010    14034    14040    14025    14014    14014    14018    14026 
   14023    14013    14022    14035    14021    14010    14018    14023 
   14026    14027    14021    14017    14023    14026    14018    14018 
   14026    14026    14023    14018    14017    14023    14025    14031 
   14035    14021    14006    14010    14027    14033    14022    14014 
   14019    14025    14025    14022    14022    14021    14025    14029 
   14014    14011    14019    14022    14034    14033    14011    14011 
   14030    14029    14013    14018    14033    14027    14018    14021 
   14021    14014    14014    14026    14037    14034    14019    14008 
   14014    14027    14030    14026    14026    14023    14011    14014 
   14030    14025    14017    14025    14033    14027    14010    14006 
   14022    14034    14034    14018    14006    14019    14030    14029 
   14023    14014    14014    14023    14031    14027    14018    14026 
   14025    14008    14008    14030    14040    14022    14010    14022 
   14030    14021    14011    14019    14035    14034    14018    14006 
   14013    14025    14029    14035    14034    14017    14007    14014 
   14026    14030    14027    14026    14022    14018    14021    14025 
   14021    14019    14027    14033    14023    14014    14014    14021 
   14031    14030    14023    14021    14021    14014    14017    14031 
   14033    14019    14014    14017    14021    14026    14027    14025 
   14022    14021    14026    14026    14021    14013    14014    14027 
   14033    14022    14017    14025    14027    14017    14014    14027 
   14027    14021    14022    14025    14027    14025    14022    14026 
   14025    14018    14022    14026    14018    14014    14026    14033 
   14023    14011    14014    14031    14034    14025    14019    14019 
   14023    14027    14025    14021    14014    14011    14021    14034 
   14034    14022    14018    14019    14021    14027    14027    14021 
   14014    14011    14022    14034    14029    14021    14021    14021 
   14011    14014    14033    14041    14029    14013    14011    14023 
   14027    14034    14034    14010    13999    14017    14041    14047 
   14021    14003    14021    14034    14025    14017    14025    14030 
   14017    14013    14023    14025    14025    14030    14033    14029 
   14033    14041    14037    14030    14071    14131    14027    13772 
   13761    14088    14258    14026    13805    13909    14138    14242 
   14172    13921    13730    13948    14301    14207    13821    13740 
   14079    14438    14405    14031    13776    13890    14107    14099 
   13888    13703    13703    13907    14216    14331    13992    13636 
   13979    14658    14611    13842    13396    13725    14293    14496 
   14234    13802    13640    13963    14337    14239    13867    13668 
   13749    14010    14264    14311    14073    13765    13817    14276 
   14563    14189    13565    13506    13990    14310    14104    13761 
   13851    14202    14273    14094    13976    13983    14007    13956 
   13923    14030    14160    14126    14006    13991    14026    14027 
   14080    14126    14026    13890    13907    14014    14056    14027 
   13923    13784    13852    14165    14364    14218    14003    14013 
   14087    14085    14045    13956    13964    14025    13836    13668 
   13936    14310    14255    13905    13787    13988    14203    14249 
   14096    13903    13938    14160    14199    14007    13936    14072 
   14196    14068    13765    13668    13887    14177    14270    14104 
   13841    13695    13829    14179    14409    14258    13875    13720 
   13979    14304    14318    14080    13895    13910    14077    14158 
   13963    13740    13817    14123    14316    14148    13814    13761 
   14010    14175    14121    14017    13961    13915    13899    14014 
   14134    14088    14038    14080    14057    13988    14041    14134 
   14080    13932    13868    13964    14064    14041    13994    14000 
   14072    14148    14092    13998    13983    13971    14007    14150 
   14139    13845    13672    13890    14169    14199    14060    13975 
   14035    14089    14037    14017    14072    14142    14164    14040 
   13852    13844    14013    14104    14047    13992    13979    13930 
   13927    14073    14185    14094    13903    13856    14115    14361 
   14172    13865    13891    14013    13964    13887    13884    13921 
   14008    14156    14243    14125    13925    13910    14029    14106 
   14126    14046    13918    13964    14143    14165    14029    13971 
   13988    13954    13919    13934    13938    13915    13979    14189 
   14335    14181    13887    13822    14007    14121    14026    13914 
   13923    13995    14079    14130    14090    14010    13998    14044 
   14038    14011    14089    14099    13926    13932    14150    14166 
   13988    13879    13894    13969    13975    13954    14038    14130 
   14121    13990    13852    13988    14220    14111    13890    13934 
   14088    14131    14076    14038    14068    14079    14062    14026 
   13967    13979    14010    13952    13903    13971    14090    14123 
   14054    13954    13886    13945    14061    14095    14102    14077 
   13967    13948    14099    14158    14050    14007    14046    14019 
   14027    14077    13984    13851    13900    14080    14154    14040 
   13898    13919    14075    14133    14013    13905    13973    14111 
   14084    13937    13925    14029    14084    14134    14137    13986 
   13852    13884    14038    14195    14149    13964    13940    14025 
   14057    14121    14175    14080    13933    13869    13915    14042 
   14099    14006    13923    13980    14123    14168    14014    13907 
   13998    14130    14154    13960    13736    13848    14154    14269 
   14130    13946    13948    14085    14122    14021    13922    13918 
   14011    14112    14098    13948    13811    13872    14107    14245 
   14154    13983    13879    13921    14108    14243    14156    13956 
   13868    13938    14025    14044    14027    14022    14047    14038 
   13953    13940    14040    14079    14027    13973    13953    14033 
   14169    14199    14068    13888    13849    14006    14119    14046 
   13996    14050    14079    14085    14026    13891    13918    14100 
   14152    14008    13859    13883    14047    14179    14149    13957 
   13836    13948    14152    14193    14040    13996    14111    14077 
   13937    13923    13990    13999    13957    13957    14002    14004 
   14003    14084    14141    14096    14049    14014    13983    14041 
   14126    14107    13981    13887    13948    14049    14060    14027 
   13948    13888    13983    14100    14083    14089    14153    14050 
   13903    13971    14099    14067    13956    13950    14046    14065 
   13987    13963    13965    13969    14088    14173    14062    13963 
   14007    14037    13988    13979    14031    14008    13890    13930 
   14179    14287    14127    13961    13991    14080    13950    13748 
   13803    14041    14165    14027    13865    14003    14214    14230 
   14202    14138    13999    13909    13879    13973    14177    14156 
   13860    13724    13965    14284    14272    13929    13732    13954 
   14200    14095    13855    13842    14046    14146    14010    13909 
   14064    14237    14156    13975    13887    13927    14075    14189 
   14100    13887    13852    14045    14192    14172    14058    13929 
   13876    13956    14046    14014    13948    13971    14046    14075 
   13981    13896    14031    14224    14143    13851    13760    13995 
   14127    14014    14079    14347    14386    14103    13792    13751 
   14003    14258    14122    13610    13347    13670    14192    14558 
   14624    14418    14156    13814    13459    13620    14296    14594 
   14085    13452    13448    14038    14567    14513    14053    13728 
   13717    13813    13942    14192    14419    14364    14068    13839 
   13860    14007    14067    13998    13927    13915    13933    13995 
   14096    14123    14079    14176    14319    14106    13571    13258 
   13562    14173    14372    14027    13686    13787    14207    14480 
   14334    13961    13756    13805    13929    14047    14172    14331 
   14389    14203    14088    14226    14326    14199    13861    13614 
   13772    14095    14224    14130    13919    13733    13756    14064 
   14338    14218    13923    13801    13803    13814    13791    13844 
   14150    14389    14210    13945    13980    14242    14419    14281 
   13963    13736    13682    13775    13957    14095    14121    14161 
   14181    14053    14014    14170    14152    13891    13722    13786 
   13898    13867    13826    13953    14123    14160    14076    14060 
   14179    14283    14203    13922    13765    13925    14112    14134 
   14053    14044    14189    14269    14156    13990    13825    13720 
   13825    14026    14106    14123    14088    13971    13961    14050 
   14083    14089    14077    14011    13948    13959    13969    13945 
   14062    14148    13983    13940    14064    13973    13900    14111 
   14203    13971    13772    13876    14107    14095    13839    13802 
   14138    14291    13995    13888    14220    14364    14062    13779 
   13894    14247    14319    14053    13900    13946    13988    13973 
   13973    14061    14138    14110    13984    13809    13825    14049 
   14061    13836    13878    14129    14094    13887    13898    14087 
   14160    14017    13905    13983    14108    14204    14245    14164 
   14068    14047    14027    14100    14230    14080    13770    13790 
   14033    14031    13890    13915    13953    13907    13973    14094 
   14090    14003    13921    13926    14062    14164    14084    13981 
   14054    14197    14216    14098    13950    13961    14113    14113 
   13960    13894    13923    14023    14164    14142    13976    13942 
   14038    14133    14208    14080    13818    13775    13887    13902 
   13851    13803    13832    13971    14135    14247    14269    14172 
   14010    13975    14142    14203    14011    13905    13929    13899 
   14010    14202    14142    14027    14068    14030    13923    13986 
   14111    14090    13981    13896    13848    13875    14046    14237 
   14191    13964    13886    14022    14102    14007    14014    14219 
   14220    13977    13923    14073    14115    13965    13834    13940 
   14052    13909    13802    13959    14127    14079    13905    13838 
   13930    14056    14134    14137    14096    14102    14169    14230 
   14153    13965    13876    13956    14115    14176    14054    13883 
   13821    13900    14011    14108    14166    14018    13829    13932 
   14127    14115    14031    14042    14080    14041    13915    13837 
   13910    14065    14164    14134    14044    14017    13988    13919 
   14029    14255    14162    13799    13709    13975    14227    14260 
   14060    13811    13837    14065    14170    14085    13945    13926 
   14041    14100    14072    14075    14060    13948    13882    14023 
   14183    14062    13884    13913    14025    14139    14175    14100 
   14075    14057    13995    13967    13876    13784    13872    14022 
   14113    14145    14061    14011    14129    14156    13979    13918 
   13992    13925    13839    13936    14053    14116    14141    14072 
   13996    14044    14175    14226    14125    13994    13933    13879 
   13869    14025    14170    14099    13941    13841    13833    13948 
   14118    14170    14083    14021    13992    13981    14103    14218 
   14087    13852    13863    14084    14148    14019    14002    14107 
   14088    13948    13905    13948    13987    14004    13979    14008 
   14131    14172    14014    13778    13811    14127    14233    14027 
   13907    14010    14145    14154    14057    13988    14061    14179 
   14089    13884    13899    14077    14116    13973    13844    13905 
   14108    14149    13975    13863    13886    14017    14199    14175 
   13969    13880    13932    14065    14202    14149    13991    13975 
   14041    14023    13948    13929    14031    14133    14080    14019 
   14072    14083    14030    14008    13999    14018    14046    14019 
   13998    13976    13907    13910    13999    14050    14041    14052 
   14139    14184    14099    13956    13795    13784    14041    14184 
   13973    13799    13923    14153    14254    14143    13925    13834 
   13963    14098    14040    13934    13983    14122    14184    14107 
   13996    13977    14026    14029    13980    13998    14061    14057 
   14027    14021    14011    14017    14026    14023    14083    14175 
   14165    14087    14030    13987    13969    13992    13988    13925 
   13925    14040    14087    13967    13863    13929    14061    14090 
   13999    13953    14065    14164    14125    14057    14022    14019 
   14041    14003    13940    13984    14069    14041    13942    13907 
   13953    14046    14107    14044    13957    13981    14052    14075 
   14069    14090    14110    14031    13905    13905    14049    14122 
   14007    13896    13983    14177    14211    13973    13779    13914 
   14111    14084    13977    13940    13999    14102    14080    14007 
   14045    14054    13973    13992    14100    14111    14037    14011 
   14023    14049    14115    14134    14007    13849    13882    14058 
   14134    14056    13927    13841    13899    14088    14193    14065 
   13891    13915    14038    14090    14087    14049    14047    14083 
   14065    14044    14058    14046    13973    13898    13942    14076 
   14095    14019    14035    14113    14090    13977    13911    13934 
   13984    14007    14014    14014    14004    14064    14150    14107 
   13991    13941    13946    13950    13933    13956    14050    14100 
   14049    14008    14053    14067    13984    13986    14111    14154 
