Origin Time       2018/04/09 06:38:00
Lat.              35.2
Long.             132.6
Depth. (km)       10
Mag.              3.8
Station Code      HRS003
Station Lat.      34.8143
Station Long.     132.8418
Station Height(m) 156
Record Time       2018/04/09 06:39:04
Sampling Freq(Hz) 100Hz
Duration Time(s)  60
Dir.              N-S
Scale Factor      7845(gal)/8223790
Max. Acc. (gal)   1.426
Last Correction   2018/04/09 06:39:04
Memo.             
[...]
   -3225    -3241    -3235    -3223    -3226    -3227    -3241    -3252 
   -3231    -3215    -3235    -3248    -3225    -3210    -3227    -3245 
   -3231    -3232    -3248    -3222    -3219    -3245    -3227    -3211 
   -3227    -3242    -3248    -3238    -3238    -3238    -3207    -3210 
   -3253    -3244    -3206    -3227    -3258    -3241    -3238    -3240 
   -3210    -3198    -3217    -3240    -3254    -3249    -3235    -3213 
   -3213    -3240    -3245    -3231    -3215    -3219    -3252    -3254 
   -3219    -3211    -3231    -3230    -3225    -3240    -3235    -3219 
   -3235    -3242    -3222    -3221    -3245    -3240    -3204    -3218 
   -3256    -3242    -3231    -3242    -3227    -3208    -3218    -3250 
   -3246    -3207    -3227    -3265    -3235    -3211    -3238    -3250 
   -3222    -3200    -3215    -3241    -3250    -3241    -3231    -3230 
   -3240    -3234    -3210    -3207    -3234    -3254    -3253    -3223 
   -3208    -3229    -3231    -3232    -3242    -3229    -3227    -3235 
   -3229    -3227    -3227    -3232    -3235    -3230    -3231    -3221 
   -3207    -3229    -3258    -3254    -3222    -3206    -3213    -3226 
   -3249    -3250    -3225    -3218    -3211    -3202    -3241    -3284 
   -3246    -3196    -3215    -3240    -3235    -3227    -3211    -3229 
   -3262    -3244    -3219    -3227    -3219    -3208    -3245    -3258 
   -3211    -3222    -3258    -3215    -3204    -3262    -3260    -3203 
   -3194    -3231    -3257    -3250    -3232    -3227    -3229    -3211 
   -3207    -3241    -3238    -3217    -3235    -3250    -3231    -3219 
   -3237    -3252    -3226    -3199    -3207    -3231    -3248    -3245 
   -3246    -3246    -3219    -3213    -3246    -3237    -3186    -3198 
   -3258    -3258    -3231    -3238    -3230    -3225    -3242    -3231 
   -3194    -3187    -3226    -3272    -3277    -3253    -3221    -3199 
   -3215    -3246    -3232    -3194    -3204    -3246    -3265    -3261 
   -3235    -3210    -3217    -3223    -3211    -3219    -3252    -3248 
   -3222    -3240    -3256    -3227    -3204    -3198    -3217    -3268 
   -3279    -3217    -3183    -3235    -3277    -3240    -3187    -3190 
   -3231    -3265    -3265    -3240    -3202    -3199    -3244    -3250 
   -3221    -3218    -3241    -3254    -3238    -3223    -3235    -3230 
   -3207    -3210    -3238    -3249    -3232    -3231    -3240    -3231 
   -3226    -3234    -3232    -3204    -3200    -3250    -3271    -3238 
   -3218    -3223    -3229    -3226    -3226    -3226    -3227    -3240 
   -3248    -3235    -3219    -3218    -3227    -3231    -3237    -3232 
   -3226    -3234    -3235    -3231    -3240    -3223    -3206    -3232 
   -3256    -3237    -3217    -3223    -3240    -3248    -3226    -3200 
   -3213    -3238    -3238    -3244    -3250    -3237    -3223    -3210 
   -3211    -3241    -3256    -3237    -3215    -3223    -3250    -3260 
   -3229    -3184    -3204    -3252    -3242    -3223    -3227    -3240 
   -3264    -3249    -3200    -3200    -3218    -3215    -3249    -3273 
   -3226    -3208    -3242    -3238    -3225    -3231    -3221    -3229 
   -3248    -3250    -3249    -3215    -3183    -3221    -3271    -3256 
   -3207    -3211    -3249    -3246    -3253    -3245    -3156    -3168 
   -3308    -3291    -3180    -3213    -3269    -3245    -3221    -3194 
   -3208    -3269    -3252    -3194    -3217    -3253    -3252    -3244 
   -3211    -3187    -3237    -3272    -3213    -3198    -3271    -3273 
   -3206    -3196    -3221    -3223    -3242    -3260    -3221    -3206 
   -3253    -3257    -3213    -3204    -3231    -3249    -3237    -3223 
   -3227    -3241    -3241    -3218    -3206    -3222    -3245    -3249 
   -3241    -3238    -3230    -3227    -3237    -3222    -3213    -3234 
   -3227    -3215    -3246    -3265    -3248    -3219    -3202    -3206 
   -3222    -3238    -3254    -3244    -3225    -3250    -3253    -3194 
   -3202    -3241    -3218    -3222    -3260    -3254    -3235    -3225 
   -3226    -3234    -3226    -3219    -3230    -3238    -3246    -3249 
   -3219    -3194    -3217    -3241    -3249    -3244    -3211    -3218 
   -3267    -3252    -3199    -3207    -3242    -3242    -3235    -3235 
   -3225    -3227    -3249    -3241    -3213    -3211    -3238    -3248 
   -3217    -3213    -3257    -3267    -3227    -3190    -3202    -3249 
   -3253    -3225    -3225    -3238    -3248    -3249    -3232    -3211 
   -3204    -3229    -3258    -3250    -3217    -3211    -3231    -3227 
   -3221    -3235    -3241    -3235    -3237    -3245    -3230    -3202 
   -3213    -3238    -3242    -3244    -3235    -3225    -3234    -3245 
   -3230    -3204    -3213    -3237    -3245    -3240    -3230    -3223 
   -3227    -3249    -3254    -3217    -3199    -3213    -3225    -3256 
   -3265    -3230    -3215    -3222    -3226    -3230    -3229    -3229 
   -3238    -3248    -3240    -3208    -3194    -3223    -3252    -3246 
   -3240    -3244    -3231    -3215    -3219    -3227    -3223    -3215 
   -3221    -3237    -3242    -3252    -3254    -3230    -3213    -3218 
   -3219    -3213    -3219    -3245    -3257    -3242    -3225    -3221 
   -3218    -3213    -3227    -3253    -3248    -3235    -3232    -3227 
   -3222    -3225    -3231    -3230    -3230    -3237    -3226    -3217 
   -3226    -3237    -3238    -3234    -3240    -3240    -3222    -3223 
   -3230    -3223    -3218    -3213    -3227    -3248    -3235    -3229 
   -3241    -3240    -3229    -3226    -3223    -3218    -3225    -3241 
   -3245    -3238    -3225    -3219    -3218    -3217    -3238    -3244 
   -3231    -3244    -3238    -3217    -3225    -3226    -3213    -3229 
   -3252    -3244    -3222    -3226    -3229    -3215    -3218    -3245 
   -3250    -3225    -3218    -3237    -3240    -3227    -3219    -3215 
   -3218    -3234    -3252    -3244    -3235    -3234    -3215    -3215 
   -3226    -3213    -3225    -3254    -3256    -3235    -3218    -3218 
   -3221    -3227    -3238    -3234    -3240    -3248    -3222    -3200 
   -3218    -3238    -3234    -3237    -3254    -3244    -3225    -3221 
   -3206    -3202    -3234    -3254    -3237    -3230    -3246    -3242 
   -3222    -3213    -3215    -3230    -3245    -3249    -3242    -3222 
   -3211    -3213    -3223    -3244    -3245    -3231    -3226    -3225 
   -3225    -3227    -3238    -3244    -3235    -3232    -3226    -3215 
   -3226    -3237    -3235    -3232    -3229    -3227    -3223    -3226 
   -3235    -3234    -3235    -3244    -3238    -3225    -3219    -3231 
   -3238    -3227    -3219    -3221    -3237    -3248    -3237    -3230 
   -3230    -3229    -3222    -3217    -3221    -3230    -3240    -3242 
   -3234    -3240    -3238    -3226    -3225    -3227    -3230    -3231 
   -3229    -3231    -3230    -3226    -3238    -3244    -3225    -3210 
   -3217    -3226    -3237    -3256    -3252    -3234    -3237    -3232 
   -3211    -3202    -3222    -3244    -3245    -3231    -3222    -3230 
   -3241    -3238    -3237    -3231    -3225    -3231    -3230    -3227 
   -3229    -3223    -3232    -3237    -3223    -3230    -3240    -3230 
   -3226    -3230    -3225    -3222    -3237    -3250    -3245    -3222 
   -3191    -3198    -3242    -3271    -3261    -3231    -3217    -3226 
   -3225    -3221    -3226    -3226    -3218    -3226    -3242    -3241 
   -3241    -3238    -3217    -3222    -3241    -3234    -3229    -3227 
   -3222    -3226    -3222    -3217    -3232    -3252    -3246    -3231 
   -3227    -3223    -3227    -3231    -3227    -3244    -3250    -3230 
   -3229    -3227    -3204    -3211    -3281    -3312    -3208    -3096 
   -3134    -3242    -3250    -3169    -3159    -3226    -3265    -3284 
   -3288    -3257    -3260    -3295    -3302    -3264    -3190    -3121 
   -3122    -3194    -3307    -3427    -3420    -3225    -3080    -3165 
   -3269    -3177    -2982    -2959    -3217    -3429    -3279    -3041 
   -3172    -3537    -3618    -3326    -3080    -3132    -3264    -3283 
   -3256    -3237    -3229    -3187    -3082    -3094    -3262    -3323 
   -3198    -3073    -3148    -3395    -3459    -3192    -3025    -3289 
   -3597    -3470    -3048    -2810    -2925    -3152    -3288    -3357 
   -3338    -3232    -3168    -3194    -3235    -3225    -3211    -3261 
   -3380    -3511    -3489    -3248    -3036    -3079    -3252    -3234 
   -3052    -3005    -3103    -3206    -3333    -3443    -3450    -3365 
   -3200    -3011    -2967    -3099    -3241    -3302    -3294    -3279 
   -3349    -3385    -3253    -3118    -3122    -3188    -3252    -3295 
   -3303    -3234    -3119    -3123    -3283    -3402    -3334    -3192 
   -3113    -3103    -3163    -3302    -3429    -3435    -3349    -3253 
   -3136    -3015    -2967    -2978    -3051    -3229    -3424    -3518 
   -3466    -3272    -3065    -3045    -3144    -3117    -3040    -3169 
   -3433    -3568    -3554    -3465    -3302    -3186    -3230    -3275 
   -3160    -3033    -3063    -3231    -3338    -3207    -2999    -2986 
   -3141    -3252    -3267    -3287    -3279    -3184    -3136    -3190 
   -3234    -3269    -3368    -3454    -3349    -3106    -3015    -3183 
   -3334    -3269    -3210    -3296    -3345    -3280    -3198    -3168 
   -3208    -3283    -3307    -3210    -3092    -3136    -3304    -3451 
   -3468    -3275    -3032    -3001    -3092    -3098    -3136    -3312 
   -3395    -3329    -3302    -3249    -3111    -3059    -3132    -3235 
   -3348    -3443    -3430    -3310    -3227    -3223    -3186    -3100 
   -3069    -3145    -3253    -3232    -3117    -3137    -3306    -3354 
   -3229    -3202    -3353    -3420    -3256    -3082    -3071    -3105 
   -3114    -3222    -3420    -3504    -3375    -3223    -3203    -3240 
   -3218    -3088    -2967    -3042    -3222    -3310    -3339    -3392 
   -3399    -3291    -3144    -3090    -3141    -3168    -3150    -3231 
   -3350    -3323    -3230    -3229    -3291    -3330    -3330    -3304 
   -3223    -3084    -2994    -3056    -3180    -3240    -3306    -3407 
   -3411    -3331    -3277    -3249    -3211    -3213    -3298    -3314 
   -3169    -3071    -3102    -3109    -3086    -3109    -3177    -3188 
   -3111    -3125    -3319    -3526    -3541    -3361    -3188    -3141 
   -3129    -3102    -3173    -3369    -3495    -3438    -3308    -3204 
   -3115    -3068    -3087    -3109    -3133    -3211    -3284    -3302 
   -3346    -3411    -3404    -3280    -3114    -3053    -3117    -3180 
   -3149    -3132    -3280    -3445    -3424    -3312    -3219    -3127 
   -3098    -3194    -3264    -3190    -3141    -3232    -3303    -3253 
   -3194    -3188    -3187    -3180    -3202    -3277    -3379    -3369 
   -3215    -3122    -3173    -3202    -3153    -3146    -3218    -3253 
   -3207    -3198    -3275    -3364    -3407    -3392    -3325    -3256 
   -3235    -3200    -3127    -3102    -3109    -3138    -3283    -3446 
   -3423    -3222    -3055    -3042    -3129    -3213    -3213    -3156 
   -3203    -3333    -3383    -3342    -3280    -3210    -3169    -3187 
   -3207    -3226    -3276    -3279    -3238    -3249    -3265    -3222 
   -3186    -3206    -3248    -3238    -3186    -3159    -3172    -3188 
   -3168    -3141    -3161    -3257    -3388    -3469    -3461    -3339 
   -3171    -3119    -3148    -3114    -3113    -3217    -3317    -3326 
   -3256    -3187    -3176    -3180    -3165    -3206    -3316    -3348 
   -3291    -3254    -3196    -3119    -3132    -3213    -3250    -3223 
   -3190    -3183    -3217    -3273    -3267    -3203    -3206    -3306 
   -3384    -3345    -3246    -3208    -3252    -3281    -3237    -3165 
   -3130    -3163    -3237    -3269    -3262    -3252    -3225    -3175 
   -3111    -3102    -3159    -3202    -3261    -3358    -3369    -3245 
   -3114    -3102    -3150    -3180    -3254    -3387    -3454    -3365 
   -3204    -3099    -3098    -3217    -3354    -3365    -3303    -3273 
   -3231    -3129    -3064    -3138    -3258    -3304    -3294    -3267 
   -3254    -3300    -3330    -3241    -3142    -3142    -3136    -3117 
   -3175    -3217    -3186    -3177    -3222    -3295    -3322    -3235 
   -3132    -3118    -3184    -3277    -3334    -3304    -3231    -3237 
   -3326    -3329    -3199    -3141    -3249    -3331    -3257    -3192 
   -3261    -3323    -3258    -3161    -3177    -3250    -3213    -3122 
   -3154    -3294    -3355    -3284    -3213    -3232    -3273    -3232 
   -3113    -3033    -3126    -3326    -3357    -3180    -3096    -3184 
   -3260    -3296    -3335    -3338    -3277    -3179    -3144    -3222 
   -3308    -3281    -3202    -3244    -3353    -3315    -3194    -3200 
   -3275    -3232    -3132    -3137    -3248    -3330    -3269    -3126 
   -3068    -3122    -3171    -3138    -3103    -3169    -3308    -3430 
   -3393    -3194    -3123    -3241    -3260    -3175    -3244    -3407 
   -3403    -3276    -3235    -3295    -3327    -3256    -3168    -3207 
   -3333    -3375    -3269    -3094    -2933    -2863    -2957    -3173 
   -3416    -3599    -3565    -3271    -2994    -3034    -3232    -3210 
   -3029    -3019    -3230    -3439    -3451    -3314    -3234    -3260 
   -3258    -3176    -3154    -3261    -3333    -3341    -3445    -3645 
   -3736    -3539    -3107    -2778    -2867    -3250    -3497    -3440 
   -3250    -3126    -3138    -3153    -3059    -2882    -2674    -2581 
   -2701    -2957    -3265    -3510    -3549    -3380    -3150    -3028 
   -3084    -3292    -3565    -3793    -3782    -3360    -2759    -2432 
   -2436    -2551    -2751    -3126    -3600    -4062    -4491    -4725 
   -4545    -3974    -3222    -2533    -2087    -1975    -2196    -2708 
   -3499    -4197    -4215    -3642    -3064    -2839    -2951    -3096 
   -3046    -2945    -2978    -3107    -3269    -3519    -3785    -3805 
   -3573    -3326    -3133    -2955    -2817    -2792    -2967    -3321 
   -3651    -3828    -3929    -3956    -3638    -2902    -2336    -2413 
   -2735    -2837    -2886    -3099    -3388    -3524    -3311    -2896 
   -2706    -2824    -2975    -3096    -3388    -3873    -4197    -4067 
   -3634    -3208    -2901    -2747    -2799    -3121    -3690    -4209 
   -4280    -3861    -3213    -2579    -2141    -1985    -2079    -2336 
   -2656    -2929    -3200    -3623    -4106    -4365    -4260    -3820 
   -3230    -2809    -2713    -2810    -2964    -3159    -3364    -3680 
   -4155    -4431    -4236    -3727    -3150    -2663    -2340    -2161 
   -2153    -2409    -2911    -3535    -4079    -4152    -3643    -3156 
   -3055    -2979    -2783    -2820    -3219    -3544    -3468    -3281 
   -3234    -3173    -3036    -2932    -2948    -3125    -3377    -3427 
   -3165    -2906    -2948    -3187    -3341    -3279    -3194    -3240 
   -3288    -3326    -3434    -3474    -3406    -3415    -3557    -3634 
   -3431    -3003    -2751    -2884    -3137    -3312    -3503    -3708 
   -3759    -3539    -3245    -3109    -2959    -2690    -2571    -2712 
   -2951    -3153    -3284    -3414    -3588    -3677    -3514    -3186 
   -2983    -3019    -3100    -3083    -3102    -3213    -3354    -3524 
   -3603    -3526    -3449    -3372    -3231    -3114    -3007    -2849 
   -2766    -2857    -3042    -3299    -3605    -3744    -3603    -3326 
   -3098    -3022    -3026    -2961    -2920    -3071    -3260    -3272 
   -3269    -3430    -3578    -3577    -3530    -3532    -3503    -3333 
   -3087    -2910    -2829    -2867    -3046    -3234    -3281    -3284 
   -3381    -3424    -3283    -3183    -3245    -3248    -3117    -3053 
   -3141    -3245    -3250    -3160    -3034    -2974    -3032    -3210 
   -3434    -3530    -3451    -3355    -3295    -3206    -3213    -3418 
   -3532    -3348    -3152    -3167    -3187    -3060    -2938    -2988 
   -3206    -3465    -3632    -3657    -3544    -3343    -3127    -2894 
   -2640    -2489    -2612    -3019    -3469    -3685    -3638    -3491 
   -3303    -3056    -2868    -2875    -2990    -3086    -3234    -3477 
   -3662    -3651    -3483    -3277    -3094    -2984    -3025    -3208 
   -3431    -3580    -3578    -3469    -3395    -3402    -3338    -3203 
   -3177    -3187    -3103    -3069    -3203    -3385    -3392    -3184 
   -2955    -2810    -2721    -2755    -2999    -3345    -3550    -3505 
   -3314    -3204    -3235    -3204    -3086    -3098    -3287    -3477 
   -3524    -3414    -3215    -3111    -3194    -3260    -3203    -3167 
   -3138    -3088    -3130    -3230    -3269    -3265    -3258    -3257 
   -3310    -3381    -3350    -3256    -3199    -3176    -3184    -3225 
   -3237    -3157    -3068    -3118    -3213    -3186    -3148    -3226 
   -3317    -3427    -3667    -3811    -3596    -3234    -2941    -2714 
   -2666    -2837    -3048    -3211    -3397    -3557    -3559    -3426 
   -3207    -2964    -2895    -3048    -3221    -3275    -3277    -3310 
   -3329    -3302    -3256    -3186    -3146    -3234    -3361    -3379 
   -3366    -3411    -3364    -3190    -3088    -3095    -3100    -3114 
   -3187    -3295    -3399    -3457    -3418    -3327    -3262    -3210 
   -3153    -3117    -3083    -3041    -3048    -3148    -3291    -3407 
   -3478    -3437    -3284    -3142    -3078    -3098    -3207    -3311 
   -3321    -3254    -3192    -3208    -3281    -3308    -3308    -3345 
   -3248    -2910    -2639    -2690    -2948    -3223    -3446    -3646 
   -3804    -3759    -3468    -3164    -3036    -3024    -3078    -3194 
   -3283    -3276    -3179    -3063    -3059    -3150    -3223    -3269 
   -3321    -3349    -3287    -3187    -3177    -3184    -3078    -2972 
   -3034    -3246    -3480    -3580    -3459    -3279    -3256    -3294 
   -3179    -3007    -3014    -3176    -3277    -3254    -3173    -3071 
   -3017    -3067    -3167    -3271    -3348    -3349    -3322    -3330 
   -3292    -3159    -3052    -3073    -3219    -3437    -3604    -3634 
   -3597    -3561    -3437    -3176    -2956    -2920    -2998    -3121 
   -3272    -3400    -3465    -3458    -3403    -3319    -3204    -3075 
   -2990    -2986    -2986    -2928    -2936    -3109    -3295    -3296 
   -3188    -3183    -3262    -3265    -3192    -3127    -3122    -3146 
   -3140    -3165    -3319    -3534    -3650    -3593    -3476    -3418 
   -3349    -3164    -2957    -2925    -3080    -3294    -3434    -3414 
   -3296    -3215    -3160    -3082    -3033    -3098    -3269    -3454 
   -3555    -3553    -3510    -3419    -3215    -2982    -2844    -2798 
   -2820    -2920    -3078    -3253    -3426    -3538    -3470    -3257 
   -3094    -3017    -2938    -2941    -3119    -3303    -3345    -3391 
   -3470    -3396    -3230    -3167    -3161    -3129    -3154    -3262 
   -3368    -3458    -3495    -3402    -3288    -3283    -3275    -3136 
   -2999    -3006    -3032    -2982    -3003    -3152    -3310    -3418 
   -3480    -3483    -3415    -3284    -3141    -3071    -3098    -3149 
   -3190    -3241    -3291    -3283    -3211    -3138    -3136    -3215 
   -3308    -3346    -3343    -3302    -3227    -3183    -3179    -3152 
   -3102    -3107    -3180    -3222    -3221    -3245    -3292    -3319 
   -3302    -3268    -3287    -3325    -3308    -3265    -3253    -3245 
   -3241    -3322    -3453    -3514    -3484    -3354    -3142    -2963 
   -2880    -2875    -2970    -3171    -3330    -3317    -3241    -3207 
   -3118    -2960    -2905    -3021    -3213    -3388    -3500    -3530 
