Origin Time       2018/04/09 06:38:00
Lat.              35.2
Long.             132.6
Depth. (km)       10
Mag.              3.8
Station Code      HRS003
Station Lat.      34.8143
Station Long.     132.8418
Station Height(m) 156
Record Time       2018/04/09 06:39:04
Sampling Freq(Hz) 100Hz
Duration Time(s)  60
Dir.              E-W
Scale Factor      7845(gal)/8223790
Max. Acc. (gal)   1.814
Last Correction   2018/04/09 06:39:04
Memo.             
[...]
    3369     3393     3361     3329     3343     3361     3358     3361 
    3362     3354     3352     3355     3360     3366     3360     3343 
    3346     3366     3383     3372     3339     3330     3357     3369 
    3357     3346     3355     3353     3346     3372     3383     3354 
    3345     3352     3338     3338     3362     3372     3360     3353 
    3364     3375     3358     3331     3352     3384     3350     3317 
    3355     3392     3368     3335     3336     3353     3372     3381 
    3369     3348     3333     3336     3361     3376     3368     3353 
    3346     3343     3350     3366     3369     3355     3358     3355 
    3346     3355     3365     3362     3355     3346     3349     3358 
    3353     3364     3387     3369     3352     3368     3345     3300 
    3323     3373     3388     3388     3380     3352     3339     3355 
    3360     3341     3334     3343     3365     3384     3373     3357 
    3375     3368     3322     3325     3362     3343     3327     3388 
    3434     3388     3319     3306     3339     3360     3354     3358 
    3369     3380     3381     3365     3341     3326     3336     3349 
    3346     3354     3385     3406     3383     3341     3329     3336 
    3339     3342     3357     3377     3375     3357     3361     3369 
    3354     3343     3354     3353     3334     3341     3368     3375 
    3364     3360     3366     3369     3358     3339     3334     3349 
    3354     3348     3361     3375     3376     3376     3361     3335 
    3326     3343     3368     3379     3376     3358     3330     3331 
    3361     3376     3362     3348     3355     3355     3352     3362 
    3355     3346     3368     3375     3338     3325     3361     3385 
    3369     3349     3350     3364     3362     3339     3343     3364 
    3354     3346     3362     3368     3354     3352     3354     3355 
    3365     3376     3376     3360     3326     3315     3354     3392 
    3385     3365     3353     3339     3333     3354     3376     3368 
    3349     3350     3366     3366     3350     3343     3355     3364 
    3364     3362     3357     3353     3353     3348     3352     3368 
    3369     3360     3350     3342     3353     3368     3362     3354 
    3348     3343     3364     3377     3357     3343     3357     3364 
    3364     3361     3342     3342     3354     3349     3361     3388 
    3379     3345     3326     3333     3365     3392     3375     3343 
    3346     3355     3361     3362     3345     3341     3365     3376 
    3364     3360     3361     3348     3338     3357     3365     3354 
    3352     3355     3355     3360     3369     3364     3345     3350 
    3362     3354     3350     3357     3358     3361     3366     3352 
    3350     3380     3364     3331     3354     3354     3338     3388 
    3387     3304     3319     3392     3383     3358     3365     3354 
    3335     3317     3331     3400     3415     3348     3323     3342 
    3354     3379     3383     3333     3296     3339     3400     3384 
    3353     3383     3387     3317     3299     3353     3381     3369 
    3361     3350     3357     3373     3364     3343     3342     3353 
    3360     3365     3368     3357     3343     3345     3361     3375 
    3364     3350     3357     3354     3346     3357     3365     3364 
    3361     3354     3355     3350     3331     3345     3381     3383 
    3368     3361     3333     3322     3358     3380     3365     3352 
    3362     3369     3348     3338     3365     3364     3345     3360 
    3369     3352     3348     3358     3358     3361     3366     3353 
    3345     3360     3372     3348     3327     3357     3381     3368 
    3357     3342     3334     3358     3383     3375     3348     3333 
    3350     3375     3369     3345     3339     3362     3379     3355 
    3335     3366     3383     3349     3336     3342     3341     3358 
    3373     3373     3366     3345     3336     3339     3339     3361 
    3388     3379     3350     3334     3345     3369     3369     3354 
    3355     3357     3334     3326     3360     3391     3379     3345 
    3336     3345     3354     3369     3369     3348     3339     3353 
    3369     3364     3352     3365     3368     3346     3333     3341 
    3364     3380     3368     3338     3333     3360     3380     3377 
    3365     3342     3317     3333     3372     3380     3366     3355 
    3349     3354     3361     3350     3343     3342     3348     3364 
    3376     3372     3364     3352     3336     3339     3360     3366 
    3368     3372     3362     3341     3325     3331     3362     3384 
    3385     3369     3336     3325     3343     3361     3364     3355 
    3357     3361     3349     3349     3375     3380     3360     3348 
    3339     3325     3334     3361     3369     3373     3377     3368 
    3353     3348     3348     3345     3341     3343     3354     3364 
    3366     3362     3357     3355     3369     3375     3349     3333 
    3343     3349     3346     3355     3375     3379     3368     3357 
    3354     3346     3338     3349     3358     3355     3364     3369 
    3362     3355     3349     3346     3357     3357     3349     3354 
    3366     3373     3362     3350     3353     3349     3341     3352 
    3362     3358     3360     3366     3365     3354     3352     3357 
    3348     3335     3345     3360     3364     3368     3369     3368 
    3362     3341     3325     3341     3369     3373     3368     3369 
    3362     3348     3343     3346     3358     3364     3358     3358 
    3355     3345     3348     3361     3368     3357     3349     3364 
    3365     3345     3343     3365     3372     3357     3353     3354 
    3348     3348     3354     3357     3361     3357     3348     3354 
    3376     3379     3355     3343     3349     3345     3341     3358 
    3369     3361     3361     3368     3350     3331     3338     3360 
    3372     3366     3361     3358     3350     3355     3361     3352 
    3346     3355     3368     3366     3358     3353     3349     3352 
    3352     3352     3361     3372     3366     3358     3355     3354 
    3346     3339     3348     3364     3365     3355     3362     3373 
    3362     3346     3345     3349     3348     3346     3358     3373 
    3369     3364     3372     3366     3339     3323     3336     3357 
    3368     3364     3362     3368     3357     3342     3349     3357 
    3355     3360     3364     3353     3341     3349     3369     3376 
    3368     3349     3336     3343     3350     3354     3369     3379 
    3364     3348     3346     3345     3343     3349     3360     3376 
    3373     3364     3362     3346     3321     3326     3357     3387 
    3384     3357     3350     3365     3364     3346     3336     3342 
    3346     3360     3388     3393     3357     3321     3323     3342 
    3361     3388     3388     3353     3331     3339     3357     3364 
    3364     3365     3364     3352     3334     3339     3366     3375 
    3364     3361     3358     3352     3357     3369     3364     3349 
    3361     3379     3339     3276     3296     3410     3474     3419 
    3361     3376     3358     3258     3196     3221     3262     3349 
    3489     3530     3422     3368     3427     3396     3284     3273 
    3291     3258     3284     3383     3453     3481     3519     3535 
    3439     3273     3138     3114     3269     3487     3499     3240 
    2998     3100     3434     3595     3515     3491     3586     3578 
    3419     3225     3079     3121     3388     3588     3497     3316 
    3218     3123     3127     3388     3672     3653     3438     3303 
    3272     3226     3183     3231     3331     3415     3469     3438 
    3316     3288     3391     3381     3215     3184     3379     3495 
    3403     3354     3449     3537     3572     3527     3304     3067 
    3130     3366     3393     3268     3289     3426     3491     3499 
    3500     3435     3294     3134     2986     2918     3037     3336 
    3628     3735     3699     3669     3666     3584     3353     3105 
    3005     3003     3044     3192     3393     3489     3473     3487 
    3526     3451     3349     3397     3496     3447     3330     3306 
    3335     3325     3252     3138     3119     3253     3399     3528 
    3665     3623     3346     3146     3180     3231     3186     3186 
    3321     3485     3557     3563     3553     3477     3391     3387 
    3339     3198     3180     3304     3338     3284     3331     3449 
    3522     3557     3459     3202     3049     3126     3261     3373 
    3491     3543     3472     3352     3238     3164     3196     3287 
    3323     3361     3508     3665     3701     3651     3520     3279 
    3094     3109     3160     3159     3280     3496     3542     3404 
    3291     3244     3221     3279     3410     3458     3375     3314 
    3365     3410     3341     3250     3269     3392     3530     3578 
    3510     3437     3419     3362     3229     3126     3183     3346 
    3466     3511     3510     3437     3287     3157     3144     3206 
    3284     3431     3574     3543     3369     3222     3152     3167 
    3226     3292     3414     3542     3561     3522     3478     3426 
    3412     3369     3230     3177     3273     3338     3366     3407 
    3383     3342     3403     3474     3449     3349     3211     3146 
    3235     3368     3458     3516     3514     3437     3327     3242 
    3231     3310     3380     3341     3275     3294     3383     3468 
    3461     3397     3375     3283     3100     3115     3377     3563 
    3601     3650     3650     3523     3315     3069     2922     2991 
    3177     3325     3395     3461     3542     3539     3454     3364 
    3252     3171     3213     3314     3438     3643     3781     3657 
    3407     3312     3326     3211     3048     3094     3283     3416 
    3470     3431     3303     3207     3186     3154     3169     3361 
    3577     3622     3591     3557     3447     3306     3175     3078 
    3159     3429     3628     3613     3497     3391     3317     3254 
    3180     3149     3203     3317     3393     3329     3244     3362 
    3595     3673     3595     3485     3341     3167     3046     3044 
    3180     3369     3468     3469     3426     3357     3372     3491 
    3511     3369     3288     3357     3407     3369     3372     3451 
    3446     3277     3122     3144     3257     3291     3277     3368 
    3538     3619     3572     3451     3284     3179     3222     3323 
    3369     3369     3387     3407     3372     3331     3343     3349 
    3317     3323     3426     3505     3410     3268     3232     3213 
    3187     3291     3446     3453     3400     3450     3499     3426 
    3335     3384     3485     3430     3262     3211     3300     3352 
    3302     3275     3342     3439     3472     3399     3275     3217 
    3256     3315     3391     3480     3497     3423     3321     3253 
    3281     3353     3379     3395     3429     3407     3361     3354 
    3350     3355     3403     3414     3316     3168     3115     3237 
    3412     3488     3485     3508     3553     3520     3404     3300 
    3235     3206     3231     3257     3229     3222     3310     3419 
    3440     3368     3294     3316     3415     3483     3480     3454 
    3437     3406     3323     3256     3283     3350     3387     3392 
    3355     3319     3339     3316     3210     3234     3447     3562 
    3495     3477     3492     3346     3140     3095     3208     3336 
    3411     3433     3435     3451     3437     3368     3302     3288 
    3317     3335     3295     3271     3392     3549     3489     3303 
    3246     3281     3253     3194     3246     3433     3599     3626 
    3537     3411     3283     3127     3018     3090     3262     3396 
    3488     3532     3542     3581     3574     3457     3385     3402 
    3345     3202     3115     3145     3215     3275     3357     3456 
    3510     3478     3364     3283     3345     3443     3380     3190 
    3098     3165     3268     3400     3581     3655     3532     3372 
    3327     3404     3500     3476     3329     3222     3192     3132 
    3090     3204     3415     3557     3586     3538     3478     3453 
    3325     3059     2956     3160     3424     3538     3537     3539 
    3580     3530     3292     3052     3092     3307     3391     3352 
    3400     3563     3663     3592     3450     3349     3192     2910 
    2654     2751     3399     4144     4253     3767     3295     3090 
    3021     3021     3165     3403     3469     3207     2849     2766 
    3003     3287     3375     3300     3307     3497     3669     3688 
    3726     3805     3643     3208     2889     2930     3242     3696 
    4213     4603     4571     4017     3264     2740     2540     2596 
    2921     3411     3786     3790     3404     2980     2898     3137 
    3456     3638     3464     3065     2895     2991     3090     3186 
    3306     3411     3569     3748     3769     3643     3431     3044 
    2673     2720     3177     3684     4006     4145     4101     3788 
    3192     2527     2169     2311     2794     3449     4014     4099 
    3898     3928     3970     3592     3060     2848     3032     3354 
    3501     3383     3203     3073     2870     2682     2821     3427 
    4270     4715     4306     3311     2251     1539     1560     2373 
    3609     4727     5258     5208     4855     4156     3119     2258 
    2023     2269     2574     2817     3153     3622     4067     4357 
    4419     4139     3458     2679     2398     2768     3269     3454 
    3299     3059     3113     3527     3943     4047     3766     3146 
    2477     2231     2538     3153     3825     4275     4192     3634 
    3141     3051     3102     3121     3250     3434     3539     3650 
    3842     3991     3925     3597     3105     2648     2411     2489 
    2913     3456     3728     3653     3462     3253     3063     3061 
    3303     3712     4079     4039     3646     3349     3249     3249 
    3430     3680     3689     3451     3152     2910     2866     2983 
    3001     2990     3256     3649     3781     3672     3569     3476 
    3341     3254     3179     2986     2782     2874     3339     3834 
    4048     3982     3789     3609     3414     3068     2712     2647 
    2818     2986     3280     3763     4054     3989     3775     3501 
    3199     2961     2775     2679     2886     3410     3870     3970 
    3863     3769     3662     3473     3215     3032     3102     3316 
    3419     3424     3430     3407     3476     3628     3554     3289 
    3196     3231     3194     3184     3240     3190     3045     3041 
    3227     3451     3618     3597     3346     3169     3254     3314 
    3176     3053     3046     3096     3273     3640     3946     3910 
    3692     3504     3302     3202     3298     3325     3179     3144 
    3304     3397     3334     3306     3384     3446     3416     3326 
    3223     3107     3079     3287     3576     3666     3615     3645 
    3658     3469     3231     3187     3283     3258     3132     3202 
    3355     3300     3308     3597     3801     3747     3628     3453 
    3222     3086     3018     2971     3029     3144     3213     3289 
    3414     3530     3605     3674     3754     3778     3658     3403 
    3142     3011     2975     3003     3167     3362     3435     3474 
    3601     3742     3645     3215     2829     2876     3186     3403 
    3477     3487     3469     3443     3392     3316     3173     2967 
    2948     3252     3615     3743     3686     3658     3653     3495 
    3215     3057     3082     3090     3051     3146     3369     3526 
    3586     3593     3528     3445     3427     3407     3292     3168 
    3121     3106     3129     3267     3474     3657     3770     3743 
    3607     3514     3470     3435     3411     3357     3240     3121 
    3121     3194     3146     3067     3154     3291     3361     3411 
    3446     3485     3553     3532     3334     3160     3192     3287 
    3312     3391     3586     3738     3690     3572     3514     3379 
    3148     3076     3222     3369     3422     3385     3211     3015 
    2982     3073     3241     3492     3666     3595     3424     3397 
    3439     3369     3221     3096     3102     3321     3624     3740 
    3639     3500     3349     3211     3213     3246     3179     3213 
    3457     3667     3651     3468     3275     3204     3176     3071 
    3052     3230     3415     3496     3526     3468     3304     3187 
    3154     3137     3262     3569     3811     3886     3824     3613 
    3411     3327     3225     3094     3087     3191     3280     3271 
    3100     2848     2786     3064     3442     3628     3684     3738 
    3697     3526     3308     3083     2948     3019     3240     3503 
    3765     3917     3823     3539     3272     3121     3134     3362 
    3627     3667     3510     3353     3244     3154     3137     3164 
    3169     3218     3375     3550     3589     3459     3323     3280 
    3276     3284     3314     3379     3472     3473     3341     3256 
    3322     3368     3291     3268     3368     3453     3508     3573 
    3555     3412     3249     3168     3171     3213     3258     3296 
    3312     3275     3221     3206     3191     3190     3303     3516 
    3673     3678     3593     3496     3387     3253     3150     3176 
    3308     3424     3458     3457     3438     3357     3276     3276 
    3262     3230     3334     3504     3507     3345     3226     3269 
    3400     3457     3440     3505     3566     3391     3069     2903 
    2995     3227     3440     3549     3565     3585     3618     3515 
    3295     3210     3304     3327     3176     3084     3217     3418 
    3532     3576     3553     3500     3495     3407     3171     3071 
    3213     3315     3292     3314     3403     3462     3411     3289 
    3250     3321     3375     3431     3558     3595     3449     3336 
    3336     3316     3298     3308     3272     3272     3376     3426 
    3369     3381     3450     3429     3369     3336     3264     3172 
    3183     3299     3392     3418     3424     3431     3473     3542 
    3504     3350     3225     3153     3076     3059     3211     3453 
    3607     3678     3746     3727     3527     3222     3009     3056 
    3279     3424     3478     3542     3518     3379     3283     3299 
    3346     3342     3271     3186     3138     3140     3213     3348 
    3451     3484     3523     3547     3438     3211     3053     3082 
    3208     3284     3335     3466     3630     3672     3601     3461 
    3215     3032     3109     3321     3426     3422     3450     3549 
    3588     3489     3355     3310     3287     3207     3194     3283 
    3316     3308     3368     3451     3450     3327     3194     3200 
    3292     3353     3418     3497     3508     3453     3400     3372 
    3377     3388     3336     3240     3218     3336     3476     3481 
    3426     3488     3632     3628     3395     3136     3059     3140 
    3245     3330     3422     3468     3418     3326     3213     3117 
    3198     3461     3631     3585     3514     3485     3355     3105 
