Origin Time       2018/04/09 06:38:00
Lat.              35.2
Long.             132.6
Depth. (km)       10
Mag.              3.8
Station Code      TTR008
Station Lat.      35.4258
Station Long.     133.3301
Station Height(m) 2
Record Time       2018/04/09 06:39:10
Sampling Freq(Hz) 100Hz
Duration Time(s)  60
Dir.              U-D
Scale Factor      7845(gal)/8223790
Max. Acc. (gal)   1.239
Last Correction   2018/04/09 06:39:10
Memo.             
[...]
   10786    10773    10766    10760    10760    10764    10766    10775 
   10787    10787    10782    10781    10779    10777    10775    10773 
   10774    10777    10774    10773    10770    10764    10763    10767 
   10767    10767    10774    10775    10774    10781    10786    10786 
   10787    10790    10788    10787    10786    10783    10782    10783 
   10783    10781    10778    10773    10768    10768    10766    10764 
   10760    10760    10768    10774    10778    10782    10782    10779 
   10778    10777    10774    10773    10774    10779    10783    10781 
   10777    10770    10773    10785    10782    10767    10766    10774 
   10777    10774    10775    10782    10790    10791    10787    10786 
   10783    10778    10774    10771    10767    10768    10777    10778 
   10768    10766    10773    10771    10763    10764    10775    10781 
   10778    10768    10767    10773    10774    10778    10782    10787 
   10791    10787    10781    10781    10783    10778    10774    10771 
   10768    10774    10781    10781    10781    10785    10778    10773 
   10774    10771    10767    10766    10763    10760    10762    10766 
   10773    10774    10775    10782    10791    10795    10790    10785 
   10786    10779    10767    10766    10773    10777    10774    10764 
   10762    10767    10770    10774    10783    10782    10779    10787 
   10787    10781    10782    10779    10768    10764    10771    10778 
   10777    10770    10771    10779    10786    10791    10794    10786 
   10777    10773    10762    10754    10760    10763    10763    10774 
   10782    10781    10787    10797    10798    10793    10787    10779 
   10773    10770    10764    10758    10758    10760    10763    10770 
   10775    10775    10778    10782    10781    10779    10783    10782 
   10778    10786    10801    10801    10793    10790    10782    10767 
   10759    10751    10751    10768    10777    10771    10779    10790 
   10786    10781    10782    10775    10766    10767    10773    10771 
   10763    10760    10763    10766    10771    10775    10779    10787 
   10797    10793    10786    10783    10782    10781    10779    10781 
   10779    10778    10781    10782    10777    10774    10773    10768 
   10770    10778    10778    10768    10766    10770    10767    10767 
   10774    10779    10775    10774    10778    10782    10781    10783 
   10785    10779    10775    10768    10764    10766    10767    10770 
   10781    10787    10787    10788    10786    10778    10778    10778 
   10773    10773    10779    10781    10777    10779    10783    10775 
   10770    10770    10760    10758    10767    10771    10774    10781 
   10786    10785    10779    10771    10766    10770    10777    10778 
   10777    10775    10764    10741    10735    10759    10795    10813 
   10810    10785    10744    10733    10774    10854    10902    10832 
   10693    10669    10795    10902    10899    10902    10948    10875 
   10658    10523    10561    10600    10546    10514    10616    10775 
   10860    10899    11009    11051    10890    10818    10939    10889 
   10685    10692    10817    10759    10629    10682    10836    10802 
   10631    10666    10836    10782    10674    10844    11002    10813 
   10625    10767    10889    10702    10552    10727    11016    11105 
   10935    10736    10700    10739    10754    10722    10644    10605 
   10619    10586    10585    10759    11045    11180    10996    10788 
   10824    10820    10697    10741    10793    10571    10338    10458 
   10820    10955    10767    10732    11014    11105    10833    10700 
   10887    10967    10774    10692    10837    10881    10758    10692 
   10720    10737    10666    10624    10709    10710    10646    10755 
   10893    10878    10866    10917    10847    10659    10594    10701 
   10816    10854    10831    10817    10881    10912    10783    10683 
   10743    10694    10513    10554    10791    10863    10754    10741 
   10840    10867    10833    10836    10854    10821    10785    10820 
   10859    10795    10689    10687    10801    10860    10779    10712 
   10779    10893    10893    10791    10748    10727    10666    10705 
   10794    10754    10678    10706    10763    10743    10686    10701 
   10801    10903    10875    10708    10620    10719    10854    10905 
   10871    10832    10836    10821    10746    10736    10872    10922 
   10746    10613    10682    10802    10864    10801    10667    10629 
   10702    10777    10766    10705    10736    10867    10937    10913 
   10886    10821    10720    10764    10922    10885    10671    10621 
   10758    10827    10755    10671    10667    10717    10783    10798 
   10693    10600    10665    10746    10674    10598    10737    10962 
   11005    10968    11011    10953    10804    10821    10895    10785 
   10674    10744    10774    10635    10611    10794    10879    10754 
   10658    10733    10812    10731    10617    10650    10791    10867 
   10790    10760    10914    10986    10837    10728    10783    10835 
   10802    10763    10712    10646    10705    10886    10936    10747 
   10550    10605    10810    10862    10737    10720    10874    10921 
   10758    10636    10702    10814    10816    10786    10801    10762 
   10732    10836    10878    10748    10701    10859    10976    10839 
   10638    10686    10903    10939    10712    10561    10696    10854 
   10845    10814    10816    10806    10763    10617    10494    10563 
   10666    10685    10768    10893    10957    11024    11018    10854 
   10728    10809    10893    10787    10700    10797    10812    10577 
   10428    10593    10798    10837    10805    10748    10675    10717 
   10897    11013    10996    10930    10809    10716    10787    10874 
   10812    10687    10678    10808    10831    10677    10639    10733 
   10712    10636    10708    10832    10802    10720    10778    10821 
   10736    10721    10781    10750    10716    10788    10908    10974 
   10924    10821    10797    10818    10781    10677    10627    10712 
   10821    10835    10802    10801    10797    10793    10860    10878 
   10710    10582    10686    10836    10845    10746    10704    10802 
   10866    10773    10692    10762    10895    10902    10724    10566 
   10593    10666    10683    10755    10914    10986    10899    10812 
   10832    10872    10832    10763    10762    10781    10746    10694 
   10650    10628    10666    10717    10774    10909    11029    10944 
   10735    10677    10777    10786    10659    10609    10701    10786 
   10768    10739    10764    10766    10779    10933    11045    10901 
   10706    10733    10844    10793    10678    10706    10787    10746 
   10679    10714    10790    10828    10839    10845    10821    10710 
   10601    10666    10820    10847    10777    10801    10876    10786 
   10644    10743    10899    10808    10665    10737    10870    10814 
   10667    10674    10820    10893    10852    10839    10887    10878 
   10783    10720    10721    10698    10636    10643    10770    10890 
   10890    10831    10818    10837    10809    10755    10724    10692 
   10689    10767    10848    10808    10673    10596    10605    10659 
   10760    10818    10787    10766    10763    10764    10854    10995 
   11018    10914    10795    10724    10701    10673    10652    10736 
   10859    10867    10775    10736    10801    10843    10801    10783 
   10854    10932    10912    10813    10755    10741    10679    10609 
   10612    10677    10767    10798    10686    10565    10611    10751 
   10805    10758    10755    10895    11048    10990    10808    10778 
   10845    10786    10660    10633    10721    10829    10805    10686 
   10727    10887    10890    10755    10728    10839    10891    10804 
   10741    10728    10642    10602    10724    10812    10750    10719 
   10858    11026    11059    11011    10963    10868    10746    10677 
   10589    10432    10347    10482    10777    10903    10727    10640 
   10856    11016    10890    10743    10816    10912    10840    10805 
   10905    10943    10881    10816    10720    10562    10451    10488 
   10650    10810    10862    10828    10806    10844    10883    10816 
   10755    10894    10979    10782    10650    10764    10809    10724 
   10736    10828    10871    10849    10774    10714    10781    10890 
   10801    10585    10547    10667    10739    10771    10806    10805 
   10775    10767    10773    10770    10793    10828    10810    10774 
   10786    10812    10782    10740    10817    10970    10974    10813 
   10727    10777    10810    10750    10662    10666    10709    10667 
   10697    10871    10897    10743    10721    10843    10845    10706 
   10628    10677    10728    10712    10681    10686    10736    10790 
   10849    10952    10957    10791    10728    10908    10995    10810 
   10640    10678    10770    10751    10619    10535    10673    10894 
   10941    10885    10935    11007    10945    10839    10805    10767 
   10687    10644    10629    10625    10674    10719    10747    10840 
   10871    10721    10624    10719    10816    10794    10790    10939 
   11057    10906    10656    10570    10621    10667    10640    10655 
   10814    10959    10917    10775    10694    10739    10863    10918 
   10818    10720    10813    10971    10897    10650    10600    10768 
   10827    10692    10608    10735    10854    10779    10777    10910 
   10854    10712    10763    10839    10787    10744    10800    10867 
   10812    10721    10732    10728    10639    10605    10673    10766 
   10758    10651    10725    10979    10918    10586    10627    10989 
   11068    10845    10747    10885    10995    10887    10636    10438 
   10490    10710    10783    10716    10816    11053    11095    10895 
   10766    10895    11047    10845    10442    10427    10791    10835 
   10496    10465    10833    10995    10767    10615    10787    10928 
   10832    10748    10764    10782    10781    10728    10658    10719 
   10883    10944    10854    10754    10721    10775    10859    10831 
   10720    10709    10788    10728    10540    10566    10773    10794 
   10759    10960    11121    10932    10714    10829    10990    10856 
   10648    10601    10706    10866    10818    10589    10563    10766 
   10928    10924    10817    10755    10755    10744    10710    10635 
   10540    10554    10704    10848    10979    11159    11190    10963 
   10754    10724    10727    10679    10575    10395    10250    10342 
   10667    10916    10966    11094    11349    11348    10902    10424 
   10438    10665    10569    10474    10747    10995    11036    11068 
   10995    10795    10828    11024    10858    10482    10544    10971 
   11060    10596    10226    10453    10878    10995    10858    10692 
   10593    10575    10592    10644    10744    10764    10708    10741 
   10849    10914    10886    10814    10848    11007    11097    10986 
   10858    10912    10949    10775    10534    10386    10346    10382 
   10574    10993    11326    11191    10883    10879    10979    10881 
   10751    10729    10739    10631    10362    10268    10562    10917 
   11122    11249    11126    10712    10555    10943    11186    10790 
   10276    10103    10115    10104    10052    10035    10265    10832 
   11313    11330    11318    11708    12043    11904    11596    11365 
   11173    11047    10777    10139     9618     9826    10307    10227 
    9929    10187    10580    10396    10145    10575    11288    11491 
   11198    11119    11547    11886    11682    11345    11173    10808 
   10197     9880    10044    10296    10328    10311    10517    10790 
   10905    10949    11049    11097    10868    10440    10230    10427 
   10719    10836    10928    11067    11016    10926    11126    11242 
   10966    10782    10939    11014    10762    10550    10763    11067 
   10987    10821    10962    11103    10841    10434    10400    10589 
   10551    10372    10281    10258    10327    10480    10555    10530 
   10534    10463    10174     9976    10201    10671    11017    11151 
   11323    11662    11927    11986    11989    11988    11859    11518 
   11070    10623    10265    10174    10249    10164     9981    10031 
   10349    10623    10642    10611    10725    10786    10687    10658 
   10818    10944    10801    10601    10706    10889    10689    10351 
   10345    10577    10817    11041    11175    11244    11443    11662 
   11591    11292    11036    10802    10388     9865     9583     9694 
    9972    10137    10185    10427    11048    11642    11739    11611 
   11689    11720    11375    10955    10731    10477    10161    10139 
   10366    10405    10265    10327    10642    10901    10935    10935 
   10993    10910    10754    10785    10913    10920    10852    10878 
   10979    10982    10899    10903    10895    10666    10331    10142 
   10164    10258    10342    10558    10920    11191    11330    11421 
   11402    11306    11213    10995    10623    10382    10393    10353 
   10156    10138    10377    10643    10908    11229    11455    11455 
   11356    11306    11192    10920    10666    10542    10423    10347 
   10392    10323    10135    10257    10739    11092    11062    10996 
   11227    11445    11264    10916    10774    10762    10584    10254 
   10018     9903     9803     9771     9888    10149    10501    10935 
   11472    11904    11998    11974    12074    12060    11676    11099 
   10671    10493    10397    10215    10015    10044    10287    10442 
   10489    10750    11195    11365    11165    10996    10920    10697 
   10432    10318    10281    10277    10358    10513    10685    10849 
   10991    11017    10959    11060    11263    11198    10868    10589 
   10463    10423    10407    10355    10272    10296    10527    10817 
   10949    10980    11142    11384    11475    11441    11410    11371 
   11269    11122    10976    10816    10633    10504    10404    10276 
   10184    10199    10303    10392    10368    10289    10312    10465 
   10636    10748    10858    11017    11161    11260    11326    11298 
   11219    11230    11233    11060    10883    10886    10854    10638 
   10489    10551    10594    10474    10342    10308    10320    10326 
   10328    10361    10462    10598    10671    10687    10758    10921 
   11141    11319    11346    11302    11310    11329    11326    11286 
   11164    11036    10932    10719    10423    10280    10314    10277 
   10150    10208    10432    10547    10597    10786    11028    11144 
   11219    11306    11249    11098    11036    11001    10912    10816 
   10710    10585    10489    10381    10208    10135    10276    10405 
   10365    10366    10539    10656    10597    10616    10870    11132 
   11187    11164    11277    11476    11511    11327    11167    11188 
   11214    11017    10689    10484    10431    10358    10251    10268 
   10431    10569    10597    10632    10767    10947    11075    11092 
   11029    10993    11001    10941    10760    10570    10503    10552 
   10575    10476    10361    10389    10544    10706    10798    10788 
   10751    10831    11034    11175    11126    11013    10987    11002 
   10939    10795    10663    10600    10552    10471    10442    10520 
   10625    10710    10812    10908    10930    10903    10918    11010 
   11080    11060    11043    11051    11001    10918    10825    10702 
   10627    10636    10643    10598    10584    10655    10710    10623 
   10486    10473    10540    10528    10446    10450    10547    10596 
   10588    10646    10801    10982    11169    11368    11504    11508 
   11415    11294    11188    11097    10991    10875    10746    10573 
   10427    10413    10462    10413    10295    10273    10385    10488 
   10500    10520    10621    10717    10766    10848    10932    10926 
   10913    10936    10921    10894    10878    10821    10770    10760 
   10760    10748    10735    10743    10787    10820    10791    10760 
   10801    10845    10821    10816    10875    10924    10914    10878 
   10851    10832    10829    10847    10843    10795    10773    10795 
   10771    10685    10636    10619    10602    10665    10793    10835 
   10750    10651    10617    10612    10600    10659    10785    10836 
   10835    10917    11020    11010    10924    10858    10836    10806 
   10759    10760    10804    10817    10801    10779    10763    10763 
   10727    10667    10675    10710    10694    10635    10605    10674 
   10778    10818    10829    10845    10866    10895    10879    10808 
   10751    10731    10766    10812    10759    10671    10656    10667 
   10694    10752    10795    10837    10893    10903    10893    10928 
   10949    10868    10766    10743    10744    10708    10671    10686 
   10727    10714    10682    10744    10848    10863    10797    10702 
   10602    10559    10563    10547    10547    10621    10687    10687 
   10710    10774    10813    10881    11029    11140    11110    11071 
   11134    11168    11101    11065    11101    11074    10956    10870 
   10840    10733    10537    10435    10485    10528    10473    10463 
   10566    10616    10573    10561    10574    10543    10521    10602 
   10751    10829    10821    10837    10889    10890    10847    10831 
   10874    10933    10963    10982    11021    11079    11099    11020 
   10862    10717    10635    10577    10503    10442    10438    10463 
   10463    10471    10561    10694    10771    10798    10832    10837 
   10824    10874    10971    11037    11038    10989    10925    10878 
   10843    10809    10804    10843    10881    10868    10847    10887 
   10963    10968    10882    10810    10800    10794    10737    10655 
   10639    10692    10698    10658    10674    10733    10758    10732 
   10687    10677    10722    10747    10679    10592    10565    10558 
   10507    10424    10395    10454    10547    10652    10791    10887 
   10901    10963    11124    11241    11249    11265    11326    11306 
   11152    10976    10868    10821    10766    10660    10575    10558 
   10550    10530    10542    10609    10675    10679    10663    10678 
   10698    10697    10671    10615    10561    10590    10701    10805 
   10876    10925    10949    10962    10918    10832    10835    10874 
   10777    10606    10565    10673    10762    10770    10816    10933 
   10994    10984    11013    11029    10932    10812    10798    10793 
   10652    10484    10484    10594    10600    10511    10493    10579 
   10669    10721    10770    10824    10874    10893    10847    10831 
   10926    10974    10897    10862    10883    10868    10854    10867 
   10859    10824    10798    10813    10866    10908    10913    10882 
   10802    10709    10671    10663    10593    10511    10513    10574 
   10620    10640    10644    10681    10805    10941    10971    10913 
   10881    10910    10910    10805    10693    10682    10748    10821 
   10825    10721    10628    10704    10814    10754    10663    10720 
   10786    10752    10751    10843    10901    10864    10808    10787 
   10813    10851    10856    10854    10864    10837    10762    10682 
   10640    10654    10678    10686    10709    10735    10752    10805 
