Origin Time       2018/04/09 06:38:00
Lat.              35.2
Long.             132.6
Depth. (km)       10
Mag.              3.8
Station Code      TTR008
Station Lat.      35.4258
Station Long.     133.3301
Station Height(m) 2
Record Time       2018/04/09 06:39:10
Sampling Freq(Hz) 100Hz
Duration Time(s)  60
Dir.              E-W
Scale Factor      7845(gal)/8223790
Max. Acc. (gal)   3.517
Last Correction   2018/04/09 06:39:10
Memo.             
[...]
   -4036    -4040    -4043    -4045    -4050    -4052    -4048    -4043 
   -4035    -4031    -4036    -4045    -4047    -4044    -4048    -4058 
   -4060    -4058    -4055    -4052    -4058    -4063    -4055    -4052 
   -4060    -4064    -4060    -4054    -4052    -4051    -4043    -4041 
   -4050    -4051    -4047    -4044    -4045    -4044    -4039    -4039 
   -4041    -4044    -4045    -4041    -4039    -4044    -4048    -4051 
   -4054    -4052    -4050    -4047    -4044    -4045    -4045    -4043 
   -4051    -4058    -4058    -4055    -4058    -4060    -4058    -4052 
   -4055    -4060    -4060    -4052    -4043    -4041    -4043    -4043 
   -4044    -4044    -4043    -4047    -4051    -4051    -4052    -4051 
   -4047    -4050    -4055    -4055    -4052    -4048    -4050    -4047 
   -4041    -4039    -4039    -4050    -4058    -4058    -4059    -4059 
   -4058    -4055    -4052    -4050    -4044    -4039    -4032    -4032 
   -4044    -4058    -4059    -4058    -4059    -4058    -4055    -4055 
   -4055    -4048    -4041    -4040    -4039    -4036    -4040    -4043 
   -4047    -4054    -4055    -4054    -4055    -4058    -4058    -4055 
   -4051    -4047    -4044    -4041    -4040    -4041    -4051    -4054 
   -4047    -4047    -4050    -4052    -4058    -4062    -4062    -4054 
   -4044    -4043    -4048    -4051    -4048    -4041    -4043    -4051 
   -4050    -4045    -4047    -4048    -4050    -4051    -4052    -4055 
   -4059    -4060    -4058    -4048    -4039    -4033    -4032    -4036 
   -4041    -4045    -4048    -4044    -4041    -4040    -4039    -4045 
   -4060    -4071    -4071    -4060    -4054    -4043    -4035    -4039 
   -4047    -4055    -4063    -4064    -4058    -4047    -4036    -4040 
   -4045    -4052    -4059    -4060    -4062    -4062    -4051    -4043 
   -4040    -4035    -4040    -4054    -4063    -4071    -4074    -4067 
   -4059    -4050    -4040    -4036    -4036    -4041    -4048    -4051 
   -4052    -4054    -4052    -4048    -4044    -4045    -4054    -4054 
   -4050    -4052    -4054    -4050    -4041    -4035    -4031    -4033 
   -4036    -4045    -4060    -4068    -4066    -4066    -4064    -4055 
   -4048    -4043    -4039    -4036    -4040    -4044    -4044    -4048 
   -4055    -4055    -4054    -4054    -4052    -4052    -4055    -4054 
   -4051    -4052    -4048    -4043    -4044    -4043    -4040    -4044 
   -4050    -4054    -4058    -4058    -4059    -4059    -4047    -4039 
   -4036    -4031    -4032    -4041    -4048    -4059    -4068    -4067 
   -4060    -4055    -4055    -4054    -4052    -4051    -4051    -4050 
   -4047    -4044    -4047    -4052    -4055    -4059    -4059    -4054 
   -4054    -4054    -4048    -4045    -4044    -4043    -4048    -4050 
   -4045    -4047    -4048    -4048    -4051    -4050    -4050    -4054 
   -4054    -4054    -4051    -4044    -4044    -4044    -4040    -4041 
   -4044    -4050    -4055    -4055    -4055    -4055    -4052    -4047 
   -4045    -4044    -4047    -4050    -4050    -4047    -4050    -4055 
   -4058    -4058    -4060    -4062    -4055    -4045    -4041    -4036 
   -4036    -4036    -4039    -4044    -4051    -4055    -4054    -4052 
   -4054    -4050    -4041    -4036    -4035    -4039    -4048    -4055 
   -4058    -4059    -4063    -4060    -4058    -4058    -4052    -4048 
   -4054    -4052    -4048    -4050    -4048    -4043    -4040    -4039 
   -4040    -4047    -4048    -4045    -4052    -4054    -4045    -4043 
   -4048    -4050    -4047    -4047    -4051    -4052    -4050    -4048 
   -4050    -4048    -4048    -4047    -4044    -4043    -4041    -4039 
   -4039    -4044    -4048    -4044    -4045    -4045    -4044    -4050 
   -4055    -4060    -4064    -4058    -4045    -4041    -4044    -4047 
   -4047    -4050    -4055    -4055    -4050    -4047    -4050    -4051 
   -4052    -4050    -4048    -4047    -4048    -4054    -4055    -4059 
   -4055    -4047    -4044    -4043    -4039    -4045    -4060    -4064 
   -4062    -4058    -4055    -4054    -4047    -4040    -4041    -4044 
   -4043    -4036    -4039    -4044    -4047    -4043    -4041    -4045 
   -4051    -4048    -4043    -4048    -4054    -4052    -4055    -4055 
   -4051    -4052    -4047    -4036    -4041    -4050    -4050    -4051 
   -4055    -4058    -4055    -4055    -4045    -4036    -4036    -4047 
   -4052    -4055    -4058    -4054    -4048    -4047    -4045    -4043 
   -4044    -4048    -4048    -4047    -4045    -4047    -4050    -4051 
   -4052    -4055    -4055    -4055    -4055    -4058    -4058    -4055 
   -4052    -4052    -4051    -4041    -4035    -4036    -4041    -4048 
   -4054    -4055    -4055    -4051    -4051    -4052    -4051    -4058 
   -4063    -4059    -4051    -4045    -4044    -4041    -4036    -4039 
   -4043    -4045    -4054    -4058    -4054    -4048    -4048    -4048 
   -4045    -4044    -4047    -4051    -4059    -4067    -4067    -4060 
   -4050    -4036    -4032    -4032    -4035    -4040    -4048    -4058 
   -4066    -4068    -4063    -4055    -4052    -4051    -4041    -4029 
   -4033    -4043    -4051    -4063    -4067    -4055    -4047    -4047 
   -4044    -4036    -4036    -4044    -4051    -4044    -4036    -4045 
   -4064    -4074    -4066    -4052    -4045    -4040    -4035    -4039 
   -4055    -4071    -4069    -4055    -4052    -4067    -4067    -4060 
   -4071    -4069    -4036    -4010    -4002    -4006    -4040    -4083 
   -4074    -4032    -4014    -4024    -4035    -4016    -3987    -4016 
   -4067    -4047    -4005    -4052    -4140    -4163    -4110    -4059 
   -4060    -4079    -4059    -4017    -4016    -4035    -4010    -3981 
   -3991    -4014    -4055    -4128    -4168    -4151    -4128    -4133 
   -4131    -4077    -3998    -3951    -3943    -3963    -3981    -3973 
   -3979    -4009    -4010    -4002    -4025    -4090    -4178    -4205 
   -4147    -4088    -4041    -3974    -3956    -4029    -4109    -4110 
   -4063    -4021    -3982    -3948    -3947    -3997    -4083    -4143 
   -4104    -4028    -4027    -4045    -4006    -3979    -4050    -4167 
   -4213    -4152    -4093    -4109    -4117    -4062    -4012    -4002 
   -3994    -3987    -4010    -4036    -4044    -4079    -4118    -4081 
   -4002    -3982    -3986    -3963    -3958    -3973    -3975    -4005 
   -4068    -4090    -4059    -4036    -4041    -4044    -4040    -4059 
   -4122    -4215    -4275    -4220    -4072    -3979    -3986    -3987 
   -3954    -3967    -4032    -4051    -4000    -3984    -4052    -4121 
   -4140    -4143    -4143    -4135    -4104    -4055    -4036    -4060 
   -4091    -4074    -4005    -3940    -3928    -3965    -4001    -4005 
   -4013    -4051    -4068    -4024    -3950    -3916    -3954    -4006 
   -4024    -4032    -4055    -4078    -4097    -4121    -4113    -4072 
   -4066    -4098    -4140    -4174    -4158    -4110    -4071    -4040 
   -4059    -4135    -4180    -4149    -4086    -4027    -3973    -3923 
   -3899    -3920    -3963    -3981    -3951    -3932    -3971    -4029 
   -4048    -4055    -4083    -4112    -4110    -4085    -4064    -4081 
   -4109    -4099    -4081    -4097    -4104    -4072    -4025    -3975 
   -3963    -4008    -4048    -4052    -4051    -4055    -4045    -4008 
   -3963    -3962    -4031    -4124    -4172    -4171    -4155    -4140 
   -4117    -4067    -4012    -4001    -4043    -4071    -4047    -4009 
   -4008    -4066    -4144    -4153    -4090    -4044    -4023    -3973 
   -3917    -3899    -3940    -4031    -4095    -4064    -3993    -4006 
   -4085    -4095    -4028    -4001    -4040    -4063    -4054    -4071 
   -4107    -4114    -4104    -4106    -4105    -4086    -4068    -4054 
   -4017    -3964    -3924    -3927    -3969    -4014    -4054    -4101 
   -4144    -4163    -4140    -4099    -4097    -4124    -4102    -4055 
   -4048    -4062    -4045    -3986    -3912    -3908    -3982    -4035 
   -4017    -4000    -4045    -4121    -4133    -4071    -4033    -4062 
   -4081    -4017    -3919    -3885    -3942    -4014    -4055    -4085 
   -4143    -4209    -4215    -4174    -4149    -4140    -4125    -4086 
   -3996    -3896    -3850    -3861    -3906    -3977    -4074    -4153 
   -4175    -4167    -4166    -4171    -4183    -4172    -4117    -4043 
   -3951    -3854    -3807    -3825    -3871    -3915    -3958    -4039 
   -4158    -4233    -4232    -4222    -4240    -4237    -4191    -4147 
   -4113    -4055    -3986    -3950    -3947    -3937    -3912    -3901 
   -3929    -3960    -3977    -4008    -4074    -4148    -4172    -4140 
   -4101    -4088    -4069    -4009    -3950    -3958    -4009    -4047 
   -4074    -4104    -4106    -4077    -4052    -4051    -4060    -4062 
   -4047    -4041    -4040    -4028    -4032    -4051    -4062    -4087 
   -4105    -4050    -3971    -3958    -3996    -4031    -4040    -4031 
   -4035    -4051    -4036    -4005    -4028    -4107    -4139    -4083 
   -4023    -4012    -4025    -4024    -4010    -4025    -4068    -4109 
   -4122    -4093    -4055    -4072    -4105    -4086    -4044    -4055 
   -4121    -4148    -4101    -4051    -4032    -4005    -3962    -3951 
   -4017    -4121    -4145    -4062    -3982    -3975    -4006    -4024 
   -4020    -4024    -4054    -4066    -4044    -4027    -4036    -4081 
   -4114    -4077    -4012    -4006    -4031    -4010    -3978    -4001 
   -4063    -4112    -4133    -4140    -4132    -4102    -4067    -4043 
   -4016    -3974    -3951    -3991    -4052    -4066    -4048    -4064 
   -4126    -4191    -4194    -4139    -4095    -4085    -4048    -3971 
   -3916    -3927    -3962    -3979    -3990    -4006    -4039    -4066 
   -4044    -3994    -3993    -4036    -4064    -4072    -4085    -4071 
   -4024    -3993    -4025    -4101    -4151    -4140    -4106    -4085 
   -4054    -3996    -3990    -4085    -4168    -4121    -4005    -3983 
   -4062    -4093    -4047    -4055    -4151    -4214    -4159    -4055 
   -4031    -4072    -4041    -3939    -3909    -3969    -4000    -3936 
   -3844    -3838    -3928    -3994    -3990    -4023    -4128    -4185 
   -4131    -4069    -4091    -4151    -4170    -4140    -4128    -4151 
   -4156    -4097    -4010    -3978    -4012    -4035    -4017    -4005 
   -4027    -4082    -4137    -4140    -4109    -4099    -4105    -4086 
   -4032    -3987    -3990    -3982    -3929    -3896    -3916    -3962 
   -4017    -4074    -4104    -4094    -4074    -4069    -4071    -4068 
   -4079    -4083    -4055    -4012    -3965    -3925    -3921    -3974 
   -4051    -4087    -4078    -4093    -4164    -4240    -4271    -4248 
   -4176    -4105    -4078    -4050    -3997    -3971    -4000    -4032 
   -4003    -3936    -3932    -4013    -4062    -4003    -3925    -3946 
   -4040    -4107    -4124    -4104    -4059    -4021    -3996    -3958 
   -3936    -3981    -4069    -4122    -4116    -4101    -4117    -4124 
   -4085    -4031    -4017    -4036    -4040    -4021    -3989    -3970 
   -3993    -4021    -4029    -4074    -4139    -4132    -4093    -4101 
   -4124    -4105    -4051    -3997    -3983    -4000    -4027    -4079 
   -4147    -4163    -4110    -4063    -4068    -4072    -4051    -4043 
   -4032    -3994    -3986    -4027    -4068    -4087    -4097    -4094 
   -4058    -4001    -3974    -4008    -4058    -4024    -3916    -3847 
   -3842    -3861    -3919    -4021    -4133    -4205    -4215    -4217 
   -4240    -4256    -4248    -4214    -4155    -4086    -4027    -4002 
   -4009    -4006    -3993    -3974    -3932    -3889    -3858    -3865 
   -3942    -4040    -4093    -4098    -4083    -4068    -4055    -4029 
   -4027    -4086    -4153    -4155    -4098    -4054    -4058    -4072 
   -4055    -4010    -3981    -3983    -3986    -3969    -3977    -4054 
   -4168    -4237    -4205    -4116    -4055    -4021    -3990    -3983 
   -4003    -4029    -4055    -4066    -4043    -4024    -4017    -4025 
   -4048    -4048    -4027    -4047    -4105    -4125    -4071    -4035 
   -4086    -4121    -4043    -3958    -3967    -3987    -3950    -3924 
   -3971    -4051    -4087    -4059    -4028    -4060    -4125    -4140 
   -4105    -4085    -4102    -4106    -4090    -4059    -4024    -4032 
   -4081    -4082    -4043    -4067    -4166    -4215    -4170    -4116 
   -4117    -4109    -4035    -3962    -3960    -3993    -3986    -3932 
   -3908    -3975    -4069    -4078    -4032    -4002    -3981    -3956 
   -3951    -3971    -4000    -4058    -4156    -4207    -4135    -4033 
   -4041    -4117    -4121    -4041    -4003    -4058    -4094    -4016 
   -3902    -3896    -3993    -4063    -4043    -4005    -4014    -4050 
   -4081    -4114    -4148    -4167    -4158    -4104    -4041    -4023 
   -4021    -4014    -4048    -4099    -4085    -4000    -3971    -4066 
   -4170    -4172    -4102    -4048    -4041    -4028    -3981    -3965 
   -4023    -4087    -4068    -3974    -3923    -3975    -4020    -3986 
   -3975    -4031    -4052    -4005    -3978    -4060    -4205    -4293 
   -4278    -4199    -4135    -4140    -4171    -4094    -3935    -3897 
   -3982    -3962    -3815    -3775    -3925    -4095    -4133    -4068 
   -4055    -4164    -4253    -4218    -4158    -4191    -4286    -4275 
   -4106    -3973    -4023    -4159    -4247    -4263    -4275    -4374 
   -4522    -4611    -4646    -4671    -4610    -4356    -3920    -3430 
   -3018    -2706    -2313    -1733    -1267    -1270    -1668    -2200 
   -2797    -3591    -4658    -5718    -6393    -6766    -7191    -7649 
   -7736    -7246    -6463    -5742    -5019    -4006    -2805    -1908 
   -1590    -1653    -1818    -2056    -2497    -3063    -3459    -3615 
   -3740    -3901    -3916    -3757    -3600    -3542    -3601    -3827 
   -4261    -4847    -5381    -5713    -5929    -6161    -6330    -6216 
   -5737    -5076    -4410    -3638    -2616    -1532     -761     -419 
    -390     -733    -1640    -2957    -4263    -5352    -6285    -7094 
   -7641    -7730    -7406    -6913    -6313    -5490    -4484    -3565 
   -3007    -2852    -2874    -2849    -2806    -2933    -3345    -3889 
   -4153    -3936    -3491    -3073    -2671    -2231    -1869    -1795 
   -2042    -2392    -2666    -2947    -3438    -4186    -4989    -5574 
   -5869    -6064    -6272    -6369    -6219    -5838    -5350    -4876 
   -4332    -3613    -2929    -2594    -2662    -2975    -3407    -3917 
   -4430    -4785    -4873    -4764    -4623    -4492    -4279    -3991 
   -3761    -3719    -3902    -4140    -4228    -4185    -4129    -4113 
   -4094    -3939    -3622    -3331    -3180    -3024    -2772    -2605 
   -2724    -3063    -3453    -3927    -4557    -5151    -5452    -5525 
   -5576    -5598    -5443    -5086    -4652    -4162    -3553    -2984 
   -2740    -2872    -3180    -3500    -3848    -4315    -4849    -5277 
   -5443    -5324    -5070    -4812    -4425    -3775    -3051    -2574 
   -2369    -2250    -2276    -2668    -3338    -3923    -4245    -4421 
   -4556    -4588    -4499    -4403    -4376    -4384    -4336    -4183 
   -4045    -4068    -4233    -4468    -4754    -4993    -4997    -4783 
   -4575    -4395    -4082    -3700    -3481    -3447    -3395    -3254 
   -3219    -3385    -3569    -3622    -3601    -3615    -3678    -3672 
   -3580    -3626    -3889    -4148    -4233    -4279    -4486    -4800 
   -5011    -5049    -4978    -4858    -4683    -4410    -4094    -3916 
   -3959    -4133    -4288    -4347    -4360    -4445    -4564    -4575 
   -4436    -4220    -3958    -3574    -3064    -2614    -2432    -2494 
   -2629    -2816    -3161    -3662    -4228    -4839    -5452    -5898 
   -6038    -5856    -5395    -4772    -4136    -3541    -2976    -2498 
   -2230    -2219    -2411    -2728    -3126    -3592    -4097    -4553 
   -4872    -5050    -5164    -5228    -5169    -4978    -4706    -4360 
   -3948    -3585    -3407    -3407    -3473    -3603    -3910    -4332 
   -4599    -4661    -4776    -5020    -5112    -4866    -4464    -4120 
   -3836    -3555    -3325    -3207    -3144    -3086    -3100    -3213 
   -3365    -3585    -3955    -4405    -4706    -4741    -4635    -4534 
   -4425    -4270    -4093    -3977    -3998    -4106    -4144    -4098 
   -4113    -4243    -4406    -4531    -4568    -4468    -4271    -4082 
   -3909    -3701    -3488    -3354    -3303    -3308    -3366    -3466 
   -3649    -3963    -4310    -4523    -4583    -4603    -4633    -4585 
   -4410    -4215    -4090    -4028    -3964    -3820    -3628    -3543 
   -3607    -3707    -3784    -3888    -4071    -4270    -4340    -4274 
   -4194    -4151    -4104    -4023    -3925    -3893    -4017    -4248 
   -4428    -4495    -4549    -4641    -4638    -4401    -4025    -3709 
   -3504    -3339    -3184    -3090    -3079    -3109    -3173    -3321 
   -3612    -4020    -4421    -4756    -5053    -5300    -5448    -5441 
   -5232    -4857    -4441    -4066    -3738    -3492    -3387    -3407 
   -3469    -3526    -3626    -3816    -4074    -4324    -4475    -4490 
   -4399    -4271    -4126    -3928    -3680    -3476    -3404    -3435 
   -3442    -3395    -3453    -3712    -4016    -4155    -4200    -4378 
   -4649    -4753    -4641    -4540    -4567    -4600    -4527    -4382 
   -4283    -4294    -4310    -4222    -4097    -4021    -3951    -3840 
   -3757    -3765    -3816    -3844    -3819    -3734    -3636    -3608 
   -3661    -3751    -3850    -3962    -4067    -4131    -4156    -4195 
   -4243    -4233    -4140    -4058    -4074    -4107    -4040    -3942 
   -3932    -3974    -3963    -3924    -3935    -3997    -4041    -4043 
   -4052    -4128    -4256    -4378    -4463    -4502    -4461    -4337 
   -4185    -4044    -3917    -3827    -3801    -3798    -3744    -3647 
   -3597    -3631    -3719    -3855    -4041    -4217    -4270    -4166 
   -4005    -3908    -3874    -3877    -3942    -4062    -4155    -4152 
   -4105    -4131    -4243    -4359    -4444    -4515    -4557    -4526 
   -4437    -4363    -4360    -4390    -4359    -4237    -4095    -3974 
   -3861    -3765    -3684    -3627    -3622    -3645    -3665    -3715 
   -3821    -3913    -3946    -3965    -3990    -3983    -3967    -3993 
   -4050    -4072    -4025    -3973    -3965    -3965    -3948    -3978 
   -4095    -4228    -4287    -4263    -4225    -4260    -4365    -4448 
   -4475    -4480    -4434    -4309    -4183    -4133    -4118    -4043 
   -3854    -3613    -3458    -3422    -3423    -3439    -3526    -3701 
   -3917    -4102    -4223    -4266    -4236    -4189    -4163    -4143 
   -4102    -4045    -4010    -4008    -3989    -3923    -3838    -3770 
   -3713    -3693    -3771    -3973    -4218    -4399    -4463    -4467 
   -4488    -4519    -4500    -4446    -4401    -4359    -4301    -4233 
   -4171    -4140    -4156    -4171    -4128    -4031    -3940    -3920 
   -3958    -3975    -3946    -3913    -3913    -3932    -3931    -3898 
   -3866    -3848    -3821    -3784    -3776    -3851    -3982    -4068 
   -4062    -3996    -3936    -3924    -3932    -3917    -3883    -3865 
   -3859    -3824    -3767    -3785    -3899    -4025    -4106    -4171 
   -4251    -4315    -4310    -4271    -4280    -4324    -4320    -4243 
   -4153    -4085    -4036    -4039    -4110    -4225    -4345    -4423 
   -4444    -4444    -4442    -4393    -4282    -4153    -4055    -3987 
   -3940    -3897    -3844    -3788    -3743    -3736    -3774    -3832 
