Origin Time       2018/04/09 06:38:00
Lat.              35.2
Long.             132.6
Depth. (km)       10
Mag.              3.8
Station Code      TTR008
Station Lat.      35.4258
Station Long.     133.3301
Station Height(m) 2
Record Time       2018/04/09 06:39:10
Sampling Freq(Hz) 100Hz
Duration Time(s)  60
Dir.              N-S
Scale Factor      7845(gal)/8223790
Max. Acc. (gal)   3.112
Last Correction   2018/04/09 06:39:10
Memo.             
[...]
  -10758   -10759   -10751   -10754   -10770   -10773   -10771   -10777 
  -10774   -10770   -10771   -10770   -10767   -10773   -10779   -10768 
  -10750   -10744   -10747   -10755   -10771   -10777   -10773   -10773 
  -10771   -10767   -10763   -10759   -10755   -10755   -10762   -10764 
  -10763   -10764   -10766   -10766   -10762   -10752   -10755   -10764 
  -10759   -10760   -10766   -10762   -10758   -10758   -10759   -10766 
  -10770   -10766   -10764   -10767   -10775   -10781   -10774   -10767 
  -10770   -10770   -10767   -10767   -10763   -10755   -10751   -10751 
  -10758   -10764   -10766   -10764   -10768   -10767   -10762   -10758 
  -10755   -10752   -10758   -10767   -10781   -10786   -10781   -10777 
  -10773   -10771   -10774   -10773   -10771   -10768   -10764   -10763 
  -10755   -10752   -10752   -10751   -10752   -10762   -10766   -10767 
  -10768   -10764   -10762   -10766   -10774   -10779   -10781   -10777 
  -10766   -10763   -10770   -10767   -10759   -10763   -10766   -10755 
  -10748   -10758   -10764   -10759   -10763   -10768   -10763   -10763 
  -10768   -10767   -10764   -10770   -10773   -10770   -10766   -10767 
  -10767   -10764   -10770   -10771   -10763   -10759   -10755   -10754 
  -10755   -10760   -10768   -10778   -10779   -10774   -10764   -10762 
  -10762   -10759   -10763   -10771   -10771   -10768   -10762   -10751 
  -10746   -10752   -10764   -10767   -10762   -10755   -10750   -10752 
  -10758   -10764   -10767   -10763   -10758   -10754   -10751   -10752 
  -10760   -10768   -10771   -10770   -10773   -10775   -10775   -10778 
  -10779   -10773   -10767   -10766   -10766   -10768   -10771   -10764 
  -10758   -10758   -10763   -10763   -10758   -10754   -10760   -10764 
  -10770   -10779   -10779   -10768   -10759   -10747   -10747   -10760 
  -10774   -10779   -10783   -10785   -10779   -10773   -10771   -10763 
  -10752   -10759   -10767   -10771   -10775   -10773   -10770   -10766 
  -10754   -10741   -10740   -10752   -10767   -10777   -10781   -10783 
  -10782   -10771   -10759   -10755   -10755   -10755   -10755   -10755 
  -10763   -10767   -10764   -10762   -10759   -10758   -10760   -10768 
  -10777   -10781   -10773   -10762   -10755   -10750   -10748   -10748 
  -10755   -10763   -10764   -10770   -10779   -10783   -10779   -10771 
  -10760   -10752   -10750   -10748   -10747   -10751   -10759   -10763 
  -10770   -10775   -10777   -10775   -10768   -10755   -10750   -10752 
  -10762   -10768   -10767   -10763   -10760   -10754   -10748   -10746 
  -10750   -10762   -10775   -10783   -10787   -10787   -10785   -10782 
  -10778   -10777   -10777   -10773   -10773   -10778   -10777   -10771 
  -10763   -10754   -10752   -10754   -10755   -10758   -10758   -10758 
  -10758   -10762   -10766   -10763   -10763   -10763   -10759   -10760 
  -10760   -10760   -10764   -10768   -10770   -10768   -10763   -10762 
  -10768   -10770   -10770   -10771   -10770   -10767   -10763   -10763 
  -10770   -10767   -10759   -10760   -10764   -10767   -10767   -10767 
  -10766   -10764   -10764   -10762   -10760   -10759   -10760   -10763 
  -10759   -10755   -10759   -10762   -10762   -10764   -10768   -10773 
  -10778   -10774   -10762   -10760   -10771   -10775   -10768   -10762 
  -10759   -10760   -10766   -10766   -10760   -10759   -10763   -10764 
  -10764   -10766   -10773   -10781   -10781   -10768   -10760   -10762 
  -10758   -10752   -10755   -10764   -10768   -10767   -10762   -10758 
  -10764   -10774   -10777   -10781   -10785   -10786   -10781   -10773 
  -10763   -10758   -10755   -10759   -10759   -10755   -10758   -10763 
  -10762   -10759   -10760   -10763   -10767   -10771   -10771   -10770 
  -10768   -10766   -10764   -10768   -10770   -10767   -10768   -10771 
  -10768   -10773   -10778   -10778   -10773   -10771   -10766   -10754 
  -10748   -10754   -10758   -10762   -10758   -10755   -10764   -10768 
  -10768   -10778   -10783   -10775   -10768   -10766   -10759   -10752 
  -10755   -10760   -10755   -10754   -10760   -10764   -10768   -10770 
  -10764   -10762   -10766   -10762   -10754   -10755   -10763   -10767 
  -10770   -10771   -10775   -10781   -10779   -10763   -10744   -10743 
  -10754   -10762   -10773   -10785   -10787   -10786   -10783   -10774 
  -10763   -10762   -10764   -10766   -10764   -10763   -10762   -10760 
  -10758   -10755   -10758   -10763   -10764   -10766   -10766   -10762 
  -10758   -10758   -10758   -10762   -10764   -10766   -10766   -10766 
  -10768   -10771   -10771   -10764   -10758   -10760   -10764   -10764 
  -10766   -10764   -10758   -10754   -10752   -10752   -10755   -10763 
  -10768   -10773   -10777   -10782   -10782   -10777   -10770   -10762 
  -10754   -10747   -10744   -10751   -10762   -10771   -10777   -10781 
  -10785   -10782   -10774   -10763   -10754   -10752   -10755   -10759 
  -10764   -10770   -10767   -10763   -10762   -10759   -10760   -10763 
  -10760   -10755   -10755   -10758   -10766   -10777   -10783   -10778 
  -10767   -10758   -10754   -10755   -10759   -10764   -10773   -10773 
  -10768   -10766   -10760   -10754   -10751   -10750   -10755   -10766 
  -10771   -10775   -10782   -10779   -10770   -10771   -10779   -10783 
  -10783   -10774   -10754   -10754   -10774   -10771   -10754   -10754 
  -10764   -10759   -10741   -10737   -10751   -10766   -10773   -10773 
  -10788   -10812   -10793   -10759   -10755   -10759   -10751   -10747 
  -10739   -10741   -10762   -10771   -10758   -10751   -10760   -10773 
  -10764   -10735   -10709   -10705   -10709   -10721   -10752   -10797 
  -10843   -10866   -10841   -10797   -10779   -10802   -10837   -10835 
  -10804   -10787   -10755   -10696   -10671   -10693   -10706   -10719 
  -10744   -10755   -10744   -10760   -10793   -10798   -10782   -10754 
  -10744   -10786   -10827   -10805   -10748   -10700   -10698   -10744 
  -10782   -10806   -10829   -10810   -10746   -10716   -10747   -10767 
  -10747   -10744   -10793   -10809   -10743   -10689   -10732   -10816 
  -10836   -10785   -10764   -10795   -10795   -10755   -10735   -10771 
  -10837   -10870   -10849   -10798   -10735   -10682   -10666   -10670 
  -10671   -10692   -10752   -10805   -10773   -10700   -10677   -10692 
  -10702   -10728   -10783   -10854   -10918   -10941   -10887   -10808 
  -10779   -10779   -10770   -10770   -10788   -10814   -10831   -10817 
  -10766   -10696   -10636   -10620   -10633   -10659   -10716   -10787 
  -10809   -10766   -10719   -10700   -10710   -10747   -10781   -10787 
  -10788   -10804   -10817   -10820   -10841   -10879   -10887   -10860 
  -10828   -10771   -10693   -10646   -10640   -10655   -10696   -10752 
  -10764   -10714   -10709   -10802   -10894   -10886   -10821   -10809 
  -10821   -10763   -10667   -10652   -10725   -10797   -10795   -10741 
  -10724   -10770   -10791   -10751   -10721   -10754   -10804   -10820 
  -10802   -10782   -10764   -10754   -10764   -10782   -10771   -10737 
  -10725   -10773   -10856   -10878   -10802   -10705   -10663   -10683 
  -10710   -10710   -10736   -10818   -10876   -10845   -10782   -10775 
  -10821   -10843   -10788   -10706   -10663   -10667   -10677   -10654 
  -10612   -10613   -10689   -10755   -10755   -10781   -10862   -10926 
  -10932   -10897   -10854   -10837   -10863   -10858   -10774   -10724 
  -10804   -10894   -10878   -10808   -10764   -10733   -10689   -10648 
  -10623   -10594   -10559   -10555   -10589   -10631   -10704   -10802 
  -10845   -10836   -10862   -10912   -10916   -10870   -10825   -10812 
  -10812   -10793   -10744   -10709   -10728   -10752   -10724   -10697 
  -10720   -10758   -10763   -10743   -10744   -10785   -10817   -10804 
  -10760   -10735   -10748   -10785   -10812   -10802   -10758   -10743 
  -10794   -10848   -10827   -10754   -10752   -10843   -10895   -10836 
  -10762   -10770   -10813   -10787   -10679   -10609   -10642   -10678 
  -10638   -10582   -10609   -10719   -10801   -10798   -10783   -10810 
  -10833   -10841   -10854   -10833   -10798   -10804   -10798   -10733 
  -10689   -10727   -10795   -10840   -10844   -10820   -10786   -10778 
  -10793   -10783   -10747   -10741   -10781   -10778   -10709   -10669 
  -10693   -10735   -10767   -10782   -10788   -10802   -10802   -10782 
  -10788   -10827   -10835   -10760   -10656   -10646   -10725   -10751 
  -10689   -10648   -10658   -10662   -10667   -10712   -10768   -10805 
  -10872   -10960   -10968   -10903   -10845   -10820   -10801   -10767 
  -10724   -10694   -10701   -10712   -10673   -10602   -10596   -10696 
  -10839   -10929   -10930   -10883   -10849   -10862   -10881   -10839 
  -10767   -10746   -10748   -10709   -10644   -10638   -10720   -10806 
  -10795   -10709   -10656   -10689   -10748   -10766   -10751   -10766 
  -10808   -10806   -10758   -10740   -10768   -10795   -10806   -10810 
  -10794   -10751   -10710   -10705   -10712   -10709   -10724   -10771 
  -10810   -10802   -10774   -10762   -10781   -10820   -10844   -10836 
  -10810   -10778   -10755   -10782   -10847   -10868   -10816   -10750 
  -10712   -10687   -10678   -10706   -10755   -10773   -10740   -10712 
  -10739   -10793   -10818   -10805   -10793   -10782   -10747   -10717 
  -10705   -10696   -10706   -10732   -10736   -10722   -10710   -10706 
  -10708   -10706   -10722   -10779   -10851   -10878   -10856   -10836 
  -10844   -10849   -10818   -10795   -10824   -10829   -10760   -10693 
  -10698   -10751   -10782   -10762   -10746   -10786   -10821   -10778 
  -10687   -10659   -10725   -10779   -10741   -10687   -10704   -10744 
  -10746   -10739   -10767   -10806   -10828   -10828   -10816   -10821 
  -10858   -10876   -10844   -10777   -10712   -10679   -10673   -10683 
  -10719   -10770   -10794   -10766   -10702   -10660   -10689   -10770 
  -10848   -10906   -10936   -10914   -10843   -10779   -10767   -10779 
  -10777   -10741   -10677   -10613   -10586   -10609   -10646   -10656 
  -10674   -10735   -10783   -10788   -10795   -10841   -10894   -10885 
  -10828   -10810   -10851   -10859   -10785   -10708   -10719   -10774 
  -10773   -10719   -10706   -10764   -10797   -10770   -10760   -10809 
  -10849   -10812   -10706   -10627   -10662   -10773   -10829   -10787 
  -10736   -10736   -10755   -10768   -10781   -10808   -10851   -10879 
  -10858   -10802   -10762   -10758   -10762   -10741   -10702   -10678 
  -10665   -10656   -10679   -10722   -10727   -10708   -10732   -10788 
  -10821   -10820   -10813   -10841   -10879   -10867   -10829   -10805 
  -10766   -10719   -10717   -10759   -10797   -10804   -10770   -10702 
  -10628   -10598   -10650   -10744   -10814   -10854   -10874   -10849 
  -10797   -10762   -10759   -10782   -10801   -10798   -10759   -10704 
  -10712   -10779   -10805   -10800   -10831   -10854   -10794   -10694 
  -10638   -10636   -10662   -10678   -10660   -10627   -10627   -10667 
  -10722   -10788   -10879   -10957   -10966   -10914   -10879   -10878 
  -10872   -10852   -10840   -10849   -10843   -10763   -10648   -10613 
  -10675   -10741   -10740   -10714   -10741   -10786   -10777   -10735 
  -10728   -10752   -10774   -10755   -10710   -10694   -10737   -10797 
  -10805   -10760   -10743   -10774   -10777   -10736   -10716   -10744 
  -10791   -10817   -10817   -10809   -10787   -10746   -10704   -10700 
  -10744   -10800   -10814   -10795   -10766   -10728   -10708   -10732 
  -10777   -10804   -10821   -10854   -10871   -10859   -10827   -10782 
  -10748   -10708   -10635   -10597   -10652   -10728   -10741   -10698 
  -10689   -10773   -10859   -10863   -10847   -10889   -10956   -10952 
  -10858   -10768   -10741   -10736   -10687   -10615   -10606   -10692 
  -10774   -10783   -10759   -10754   -10781   -10806   -10766   -10686 
  -10665   -10716   -10748   -10710   -10679   -10702   -10708   -10683 
  -10698   -10752   -10827   -10894   -10895   -10858   -10832   -10809 
  -10790   -10774   -10755   -10762   -10806   -10862   -10889   -10854 
  -10802   -10800   -10809   -10779   -10768   -10812   -10841   -10816 
  -10771   -10733   -10694   -10654   -10658   -10706   -10722   -10681 
  -10662   -10721   -10808   -10821   -10739   -10681   -10720   -10748 
  -10674   -10597   -10635   -10731   -10760   -10729   -10758   -10871 
  -10936   -10866   -10755   -10746   -10847   -10913   -10835   -10731 
  -10739   -10795   -10798   -10773   -10808   -10897   -10926   -10852 
  -10775   -10806   -10901   -10906   -10770   -10617   -10578   -10620 
  -10629   -10563   -10523   -10623   -10771   -10777   -10678   -10669 
  -10770   -10849   -10852   -10818   -10787   -10762   -10743   -10727 
  -10728   -10774   -10848   -10894   -10885   -10805   -10677   -10629 
  -10747   -10894   -10887   -10781   -10760   -10818   -10814   -10750 
  -10750   -10852   -10953   -10937   -10835   -10777   -10802   -10801 
  -10720   -10656   -10670   -10705   -10712   -10698   -10675   -10648 
  -10651   -10739   -10851   -10841   -10714   -10632   -10654   -10646 
  -10567   -10575   -10737   -10903   -10930   -10829   -10743   -10806 
  -10949   -10987   -10914   -10879   -10897   -10833   -10679   -10593 
  -10658   -10759   -10754   -10659   -10598   -10648   -10770   -10825 
  -10729   -10619   -10655   -10759   -10783   -10722   -10662   -10700 
  -10824   -10882   -10833   -10808   -10886   -10984   -10891   -10574 
  -10293   -10185   -10050    -9753    -9491    -9502    -9755   -10029 
  -10250   -10640   -11354   -12122   -12580   -12792   -13112   -13631 
  -14027   -13957   -13405   -12610   -11715   -10710    -9680    -8833 
   -8319    -8120    -7986    -7732    -7592    -8005    -9008   -10133 
  -11002   -11720   -12442   -12927   -12849   -12333   -11785   -11368 
  -10943   -10329    -9621    -9130    -8984    -9054    -9275    -9726 
  -10382   -11056   -11605   -12028   -12356   -12598   -12741   -12687 
  -12275   -11504   -10646   -10029    -9783    -9834   -10011   -10183 
  -10382   -10639   -10852   -10984   -11130   -11299   -11313   -11025 
  -10552   -10158    -9904    -9624    -9224    -8824    -8599    -8626 
   -8876    -9301    -9925   -10724   -11487   -11942   -12036   -11908 
  -11691   -11454   -11298   -11315   -11469   -11637   -11793   -11974 
  -12168   -12359   -12530   -12629   -12584   -12341   -11927   -11542 
  -11348   -11203   -10875   -10342    -9752    -9220    -8729    -8257 
   -7978    -8148    -8741    -9391    -9902   -10423   -11034   -11492 
  -11595   -11554   -11661   -11809   -11731   -11406   -11007   -10706 
  -10532   -10465   -10578   -10894   -11244   -11422   -11395   -11222 
  -10906   -10496   -10172    -9987    -9801    -9553    -9379    -9440 
   -9698   -10002   -10303   -10624   -10944   -11225   -11493   -11801 
  -12136   -12422   -12533   -12314   -11772   -11178   -10795   -10604 
  -10427   -10247   -10177   -10215   -10228   -10164   -10145   -10312 
  -10624   -10863   -10868   -10740   -10733   -10903   -11084   -11218 
  -11392   -11600   -11630   -11290   -10717   -10329   -10235   -10130 
   -9891    -9751    -9807    -9871    -9853    -9921   -10197   -10574 
  -10833   -10872   -10781   -10722   -10778   -10949   -11223   -11497 
  -11645   -11672   -11672   -11751   -11927   -12097   -12210   -12236 
  -12040   -11592   -11086   -10671   -10323   -10000    -9724    -9555 
   -9468    -9375    -9329    -9451    -9721   -10000   -10118   -10088 
  -10107   -10203   -10291   -10408   -10658   -11025   -11373   -11578 
  -11628   -11566   -11450   -11330   -11184   -10932   -10555   -10177 
   -9938    -9879    -9958   -10157   -10465   -10840   -11217   -11534 
  -11804   -12083   -12337   -12457   -12411   -12243   -11985   -11620 
  -11167   -10774   -10547   -10368   -10091    -9806    -9738    -9903 
  -10077   -10138   -10187   -10301   -10358   -10239   -10072   -10111 
  -10389   -10687   -10794   -10760   -10801   -10918   -10914   -10736 
  -10570   -10594   -10774   -10922   -10941   -10878   -10800   -10719 
  -10613   -10478   -10343   -10288   -10384   -10590   -10835   -11109 
  -11441   -11765   -11904   -11816   -11663   -11541   -11402   -11222 
  -11016   -10817   -10624   -10399   -10168   -10022    -9996   -10038 
  -10111   -10204   -10309   -10404   -10419   -10341   -10293   -10376 
  -10509   -10542   -10503   -10597   -10854   -11076   -11171   -11225 
  -11275   -11260   -11155   -11014   -10895   -10812   -10733   -10636 
  -10584   -10646   -10791   -10905   -10952   -11013   -11141   -11307 
  -11454   -11515   -11452   -11277   -11001   -10652   -10315   -10054 
   -9895    -9807    -9767    -9857   -10111   -10416   -10681   -10903 
  -11119   -11349   -11530   -11628   -11693   -11716   -11614   -11372 
  -11084   -10844   -10654   -10478   -10347   -10299   -10276   -10208 
  -10158   -10243   -10442   -10592   -10635   -10673   -10731   -10740 
  -10671   -10574   -10542   -10590   -10616   -10582   -10590   -10683 
  -10790   -10847   -10894   -10991   -11103   -11125   -11032   -10902 
  -10808   -10740   -10651   -10555   -10511   -10504   -10493   -10493 
  -10551   -10681   -10849   -11020   -11183   -11327   -11446   -11560 
  -11659   -11703   -11670   -11587   -11448   -11226   -10929   -10615 
  -10347   -10166   -10064    -9953    -9791    -9672    -9672    -9752 
   -9852    -9979   -10164   -10368   -10525   -10632   -10729   -10859 
  -11003   -11094   -11098   -11060   -11048   -11074   -11097   -11098 
  -11088   -11070   -11032   -10966   -10876   -10800   -10767   -10768 
  -10768   -10764   -10760   -10724   -10633   -10540   -10494   -10482 
  -10462   -10461   -10574   -10806   -11001   -11076   -11156   -11329 
  -11500   -11550   -11503   -11464   -11464   -11455   -11372   -11186 
  -10947   -10712   -10478   -10238   -10068   -10064   -10172   -10263 
  -10289   -10272   -10265   -10301   -10359   -10413   -10492   -10642 
  -10841   -11005   -11083   -11075   -10991   -10879   -10790   -10725 
  -10654   -10580   -10539   -10551   -10617   -10698   -10764   -10824 
  -10881   -10902   -10905   -10948   -11041   -11122   -11134   -11070 
  -10982   -10920   -10856   -10782   -10736   -10719   -10686   -10633 
  -10569   -10498   -10449   -10447   -10447   -10411   -10423   -10543 
  -10677   -10716   -10692   -10704   -10778   -10854   -10895   -10895 
  -10870   -10848   -10806   -10719   -10669   -10725   -10804   -10797 
  -10746   -10740   -10801   -10902   -11016   -11114   -11159   -11124 
  -11045   -10956   -10858   -10763   -10694   -10659   -10640   -10609 
  -10577   -10605   -10709   -10814   -10849   -10841   -10848   -10851 
  -10785   -10656   -10559   -10540   -10586   -10669   -10763   -10839 
  -10863   -10827   -10770   -10744   -10790   -10897   -11003   -11024 
  -10967   -10924   -10924   -10908   -10868   -10866   -10916   -10967 
  -10972   -10951   -10941   -10959   -10974   -10922   -10797   -10648 
  -10523   -10420   -10322   -10261   -10270   -10324   -10381   -10411 
  -10415   -10434   -10504   -10620   -10696   -10696   -10678   -10673 
  -10667   -10650   -10631   -10628   -10643   -10673   -10735   -10844 
  -11001   -11191   -11360   -11439   -11429   -11353   -11227   -11065 
  -10893   -10712   -10523   -10349   -10224   -10170   -10181   -10254 
  -10374   -10514   -10667   -10816   -10941   -11036   -11114   -11194 
  -11253   -11244   -11171   -11078   -10960   -10813   -10678   -10580 
