Origin Time       2018/04/09 06:38:00
Lat.              35.2
Long.             132.6
Depth. (km)       10
Mag.              3.8
Station Code      TTRH03
Station Lat.      35.3553
Station Long.     133.4918
Station Height(m) 220
Record Time       2018/04/09 06:39:13
Sampling Freq(Hz) 100Hz
Duration Time(s)  120
Dir.              3
Scale Factor      2942(gal)/8224139
Max. Acc. (gal)   0.102
Last Correction   2018/04/09 06:38:58
Memo.             
[...]
  151879   151881   151880   151880   151881   151881   151883   151881 
  151881   151883   151880   151879   151879   151880   151881   151880 
  151880   151883   151879   151877   151881   151881   151880   151881 
  151881   151879   151880   151880   151877   151877   151880   151881 
  151881   151881   151877   151877   151881   151881   151881   151881 
  151880   151880   151877   151876   151877   151877   151879   151877 
  151880   151884   151884   151881   151879   151877   151880   151880 
  151876   151877   151883   151883   151877   151876   151879   151880 
  151879   151877   151877   151875   151876   151880   151881   151880 
  151879   151877   151877   151877   151877   151879   151879   151879 
  151880   151880   151880   151879   151879   151879   151879   151881 
  151883   151879   151879   151881   151881   151881   151880   151879 
  151880   151880   151877   151877   151879   151879   151879   151877 
  151879   151880   151880   151881   151881   151877   151877   151880 
  151880   151880   151880   151881   151881   151876   151873   151879 
  151877   151879   151881   151880   151879   151879   151877   151880 
  151881   151880   151880   151879   151879   151880   151880   151879 
  151879   151879   151880   151881   151879   151879   151880   151879 
  151875   151877   151880   151880   151879   151879   151877   151879 
  151879   151879   151879   151880   151880   151879   151880   151880 
  151879   151879   151880   151879   151876   151877   151880   151880 
  151881   151880   151879   151880   151880   151876   151877   151880 
  151880   151881   151881   151879   151877   151879   151880   151881 
  151879   151877   151880   151880   151881   151883   151881   151877 
  151879   151880   151881   151879   151877   151880   151881   151879 
  151879   151883   151881   151880   151881   151883   151879   151877 
  151881   151883   151880   151879   151881   151881   151879   151877 
  151879   151880   151880   151879   151879   151879   151877   151877 
  151879   151879   151877   151877   151877   151879   151881   151881 
  151880   151879   151879   151880   151880   151879   151879   151879 
  151880   151880   151880   151880   151876   151876   151877   151879 
  151881   151880   151877   151880   151881   151880   151881   151881 
  151881   151879   151877   151880   151880   151880   151881   151881 
  151879   151879   151881   151881   151880   151881   151881   151877 
  151877   151881   151880   151876   151877   151881   151881   151881 
  151883   151880   151880   151884   151883   151881   151883   151881 
  151879   151879   151880   151880   151881   151881   151879   151879 
  151883   151885   151884   151881   151877   151877   151880   151880 
  151881   151881   151879   151877   151880   151883   151883   151879 
  151881   151884   151883   151880   151879   151880   151881   151880 
  151877   151879   151880   151881   151881   151879   151881   151880 
  151876   151877   151880   151879   151880   151881   151880   151880 
  151879   151877   151883   151881   151877   151880   151879   151873 
  151872   151875   151875   151875   151873   151876   151877   151873 
  151872   151872   151873   151877   151880   151880   151879   151883 
  151885   151884   151885   151885   151883   151884   151883   151879 
  151880   151884   151884   151888   151896   151895   151885   151879 
  151875   151885   151897   151907   151920   151920   151880   151831 
  151823   151857   151889   151879   151845   151850   151900   151935 
  151912   151869   151862   151888   151884   151834   151800   151833 
  151883   151881   151843   151839   151897   151954   151924   151846 
  151829   151888   151931   151912   151888   151879   151873   151879 
  151866   151852   151891   151929   151897   151849   151849   151879 
  151907   151929   151907   151873   151893   151920   151876   151825 
  151862   151916   151870   151811   151850   151914   151933   151914 
  151864   151843   151885   151897   151856   151862   151910   151883 
  151833   151881   151922   151845   151791   151857   151931   151908 
  151814   151783   151889   151974   151885   151772   151808   151910 
  151931   151870   151835   151884   151946   151943   151908   151911 
  151919   151869   151860   151937   151939   151854   151848   151906 
  151918   151888   151849   151821   151864   151946   151906   151772 
  151767   151885   151916   151858   151868   151910   151887   151839 
  151843   151893   151915   151884   151850   151870   151939   151956 
  151885   151848   151895   151947   151922   151823   151773   151821 
  151864   151883   151895   151883   151883   151895   151908   151922 
  151895   151834   151808   151854   151934   151931   151834   151815 
  151919   151977   151937   151861   151823   151881   151930   151884 
  151854   151865   151881   151924   151892   151791   151792   151876 
  151914   151906   151892   151881   151876   151892   151910   151875 
  151826   151839   151869   151872   151891   151906   151892   151896 
  151895   151845   151822   151879   151931   151939   151918   151879 
  151899   151947   151918   151879   151865   151833   151814   151816 
  151846   151903   151914   151865   151842   151876   151892   151853 
  151842   151884   151895   151872   151869   151880   151881   151888 
  151920   151929   151880   151864   151893   151896   151896   151897 
  151877   151880   151897   151902   151907   151914   151903   151873 
  151864   151877   151875   151845   151825   151862   151916   151904 
  151869   151881   151895   151881   151877   151872   151853   151833 
  151812   151826   151879   151896   151868   151868   151919   151943 
  151920   151904   151877   151848   151877   151930   151922   151875 
  151861   151869   151865   151877   151899   151896   151888   151889 
  151865   151854   151896   151904   151854   151835   151869   151897 
  151885   151869   151875   151876   151893   151916   151889   151868 
  151903   151922   151896   151888   151919   151926   151868   151821 
  151846   151876   151850   151831   151864   151875   151846   151848 
  151884   151916   151918   151880   151848   151872   151902   151881 
  151872   151889   151870   151848   151869   151897   151891   151868 
  151877   151893   151881   151881   151897   151897   151887   151872 
  151864   151888   151908   151876   151852   151876   151880   151865 
  151885   151895   151873   151889   151915   151883   151856   151864 
  151875   151893   151902   151880   151862   151888   151927   151908 
  151877   151889   151875   151821   151821   151877   151920   151923 
  151918   151930   151931   151885   151826   151827   151862   151866 
  151846   151838   151877   151923   151923   151896   151868   151870 
  151897   151873   151843   151860   151862   151857   151868   151864 
  151872   151922   151930   151873   151854   151869   151880   151900 
  151897   151866   151860   151877   151883   151880   151892   151906 
  151888   151852   151842   151856   151866   151887   151904   151903 
  151907   151903   151866   151838   151845   151869   151879   151865 
  151850   151870   151912   151906   151848   151837   151895   151926 
  151900   151903   151931   151908   151872   151864   151846   151825 
  151825   151854   151899   151915   151906   151911   151924   151910 
  151885   151870   151846   151842   151861   151862   151864   151870 
  151879   151896   151891   151875   151885   151883   151841   151843 
  151896   151906   151891   151902   151881   151845   151872   151896 
  151861   151866   151916   151902   151864   151892   151916   151889 
  151880   151884   151872   151875   151889   151884   151865   151858 
  151857   151852   151860   151879   151896   151908   151897   151866 
  151864   151899   151907   151869   151839   151857   151877   151865 
  151861   151879   151895   151926   151929   151872   151835   151858 
  151888   151895   151873   151854   151889   151918   151893   151883 
  151906   151893   151858   151879   151923   151907   151854   151853 
  151883   151846   151810   151875   151906   151852   151856   151907 
  151920   151904   151861   151823   151838   151862   151868   151865 
  151877   151914   151922   151892   151887   151903   151910   151896 
  151881   151880   151879   151872   151862   151873   151907   151910 
  151872   151852   151861   151873   151880   151893   151896   151872 
  151865   151889   151899   151895   151883   151857   151842   151860 
  151884   151893   151892   151895   151885   151864   151868   151887 
  151895   151879   151852   151854   151875   151891   151892   151872 
  151880   151912   151911   151879   151856   151853   151856   151883 
  151897   151866   151862   151885   151883   151866   151861   151916 
  151956   151879   151818   151860   151903   151914   151902   151875 
  151885   151911   151902   151889   151903   151899   151872   151860 
  151864   151856   151819   151831   151920   151958   151903   151864 
  151883   151900   151868   151833   151873   151910   151858   151818 
  151841   151869   151876   151872   151895   151954   151954   151881 
  151849   151892   151911   151862   151830   151865   151896   151877 
  151858   151873   151893   151904   151900   151893   151883   151861 
  151857   151877   151904   151915   151892   151868   151850   151842 
  151872   151879   151838   151839   151870   151872   151885   151907 
  151893   151880   151903   151899   151856   151850   151870   151870 
  151877   151896   151902   151922   151930   151891   151869   151880 
  151872   151856   151865   151883   151879   151856   151850   151877 
  151904   151902   151869   151843   151860   151891   151896   151896 
  151899   151884   151876   151872   151849   151865   151903   151885 
  151876   151927   151943   151881   151839   151868   151885   151860 
  151843   151869   151899   151891   151884   151899   151888   151876 
  151887   151872   151843   151848   151884   151923   151927   151880 
  151846   151860   151868   151870   151887   151899   151903   151889 
  151873   151892   151918   151895   151860   151866   151870   151846 
  151857   151899   151918   151911   151887   151865   151879   151881 
  151857   151862   151892   151897   151866   151833   151846   151883 
  151888   151860   151839   151876   151920   151907   151875   151873 
  151887   151892   151873   151849   151872   151912   151893   151875 
  151910   151923   151884   151854   151861   151887   151895   151868 
  151856   151883   151915   151919   151885   151856   151862   151879 
  151872   151860   151857   151858   151873   151888   151893   151915 
  151914   151877   151861   151881   151885   151841   151819   151865 
  151896   151891   151896   151903   151884   151869   151875   151876 
  151877   151879   151860   151869   151915   151931   151912   151891 
  151866   151866   151885   151869   151843   151854   151879   151896 
  151899   151879   151879   151906   151906   151879   151852   151834 
  151845   151864   151865   151875   151903   151919   151906   151885 
  151880   151879   151868   151850   151846   151872   151896   151899 
  151893   151893   151906   151910   151893   151872   151843   151831 
  151853   151875   151889   151899   151887   151876   151876   151873 
  151868   151875   151889   151887   151862   151833   151834   151884 
  151934   151927   151866   151846   151903   151892   151800   151808 
  151918   151958   151910   151868   151883   151914   151902   151852 
  151835   151879   151903   151888   151900   151908   151857   151827 
  151879   151904   151866   151835   151853   151908   151939   151899 
  151846   151864   151907   151893   151852   151856   151897   151918 
  151902   151880   151854   151833   151854   151908   151922   151884 
  151881   151923   151934   151892   151841   151833   151864   151873 
  151858   151852   151883   151927   151904   151848   151889   151958 
  151922   151838   151802   151833   151892   151906   151877   151856 
  151849   151869   151876   151849   151861   151910   151924   151866 
  151811   151879   151951   151877   151794   151829   151880   151868 
  151884   151972   152010   151924   151833   151835   151881   151884 
  151825   151784   151837   151920   151961   151953   151912   151908 
  151954   151954   151885   151850   151879   151885   151829   151762 
  151764   151857   151939   151900   151833   151873   151961   151927 
  151800   151769   151852   151899   151849   151784   151843   151977 
  151987   151868   151800   151876   152011   152053   151956   151853 
  151834   151802   151762   151852   151995   152000   151893   151822 
  151849   151915   151896   151856   151965   152085   151965   151733 
  151746   151942   151942   151788   151760   151834   151906   151954 
  151879   151687   151667   151833   151920   151942   151926   151835 
  151852   151938   151912   151930   152020   151943   151768   151762 
  151877   151848   151717   151723   151853   151960   151900   151719 
  151757   151970   152011   151988   152031   151985   151929   151969 
  151980   151904   151875   151988   152024   151835   151717   151800 
  151849   151806   151823   151918   151947   151872   151804   151827 
  151876   151884   151916   151984   152016   151981   151850   151722 
  151729   151837   151914   151845   151703   151663   151789   151973 
  151987   151954   152112   152165   151926   151803   151960   152050 
  151923   151714   151605   151711   151868   151919   151902   151839 
  151846   151912   151884   151860   151923   151956   151951   151942 
  151904   151929   151993   151918   151812   151888   151973   151900 
  151818   151760   151669   151669   151784   151880   151903   151891 
  151870   151881   151912   151899   151907   151938   151833   151723 
  151825   151935   151896   151843   151866   151972   152061   151980 
  151865   151903   151962   151937   151858   151769   151802   151976 
  152030   151895   151839   151883   151864   151857   151872   151808 
  151771   151850   151945   151924   151827   151837   151906   151902 
  151957   152041   151962   151888   151966   151999   151858   151741 
  151777   151830   151838   151868   151912   151897   151826   151787 
  151764   151762   151853   151926   151900   151877   151904   151916 
  151887   151883   151907   151896   151891   151889   151870   151879 
  151868   151838   151889   151974   151974   151876   151785   151858 
  152004   151961   151833   151877   151965   151939   151899   151872 
  151811   151818   151926   151934   151789   151779   151968   152000 
  151830   151781   151839   151852   151854   151837   151830   151919 
  151992   151949   151887   151904   151935   151906   151860   151850 
  151906   151912   151796   151796   151966   152022   151908   151818 
  151843   151888   151848   151779   151758   151807   151888   151903 
  151873   151903   151941   151903   151889   151957   151974   151935 
  151934   151896   151849   151893   151884   151781   151784   151899 
  151934   151822   151731   151823   151950   151922   151821   151815 
  151916   151966   151872   151802   151877   151938   151876   151829 
  151899   151970   151892   151740   151777   151976   151978   151814 
  151837   151978   151966   151857   151818   151872   151935   151919 
  151830   151798   151858   151858   151795   151808   151862   151899 
  151926   151923   151938   151973   151927   151830   151830   151937 
  151961   151839   151802   151922   152005   151942   151810   151767 
  151842   151880   151853   151850   151892   151970   151984   151903 
  151902   151950   151920   151893   151869   151802   151791   151856 
  151892   151892   151927   151938   151888   151854   151879   151927 
  151915   151821   151783   151858   151902   151846   151810   151825 
  151838   151843   151838   151865   151916   151916   151902   151915 
  151916   151912   151903   151891   151907   151911   151877   151881 
  151907   151877   151884   151929   151884   151841   151864   151830 
  151789   151839   151879   151876   151852   151781   151753   151833 
  151924   151903   151803   151822   151950   151916   151795   151868 
  151991   151956   151915   151907   151888   151938   151942   151861 
  151876   151938   151945   151970   151956   151842   151804   151864 
  151883   151860   151875   151916   151911   151902   151918   151866 
  151821   151884   151934   151864   151768   151808   151935   151924 
  151807   151823   151939   151962   151915   151891   151896   151903 
  151875   151841   151842   151842   151819   151814   151864   151896 
  151872   151857   151841   151854   151929   151919   151852   151868 
  151897   151879   151862   151875   151915   151943   151904   151862 
  151870   151853   151852   151916   151918   151883   151900   151893 
  151875   151891   151893   151900   151899   151839   151819   151893 
  151966   151964   151884   151821   151823   151857   151904   151879 
  151796   151822   151915   151899   151839   151876   151912   151881 
  151860   151849   151864   151908   151884   151864   151943   151964 
  151889   151864   151858   151834   151852   151853   151806   151839 
  151926   151911   151846   151853   151895   151911   151907   151904 
  151907   151875   151850   151918   151970   151916   151845   151842 
  151891   151893   151831   151804   151842   151893   151893   151862 
  151904   151965   151933   151873   151869   151875   151869   151885 
  151865   151814   151865   151935   151911   151906   151916   151865 
  151846   151916   151965   151906   151864   151930   151964   151930 
  151914   151880   151869   151907   151868   151795   151819   151854 
  151833   151848   151877   151848   151835   151845   151814   151799 
  151841   151888   151895   151854   151822   151835   151883   151934 
  151950   151904   151843   151848   151881   151879   151846   151848 
  151887   151887   151854   151868   151903   151903   151860   151846 
  151902   151927   151870   151833   151884   151946   151924   151877 
  151904   151957   151953   151908   151880   151915   151951   151908 
  151858   151873   151915   151902   151821   151792   151866   151923 
  151911   151875   151845   151848   151857   151850   151835   151815 
  151845   151915   151906   151857   151892   151933   151904   151872 
  151868   151892   151920   151879   151806   151811   151860   151872 
  151889   151919   151899   151861   151857   151875   151906   151912 
  151880   151845   151841   151862   151880   151896   151919   151906 
  151880   151906   151934   151908   151883   151896   151888   151849 
  151872   151946   151968   151937   151881   151833   151843   151879 
  151884   151860   151831   151834   151873   151896   151856   151822 
  151866   151924   151923   151875   151838   151861   151891   151876 
  151865   151881   151889   151895   151893   151870   151864   151892 
  151912   151907   151891   151877   151857   151845   151861   151872 
  151865   151869   151865   151870   151922   151933   151887   151881 
  151912   151904   151864   151841   151853   151880   151888   151875 
  151869   151880   151896   151892   151858   151833   151831   151872 
