Origin Time       2018/04/09 06:38:00
Lat.              35.2
Long.             132.6
Depth. (km)       10
Mag.              3.8
Station Code      TTRH03
Station Lat.      35.3553
Station Long.     133.4918
Station Height(m) 420
Record Time       2018/04/09 06:39:13
Sampling Freq(Hz) 100Hz
Duration Time(s)  120
Dir.              6
Scale Factor      7845(gal)/8223790
Max. Acc. (gal)   0.811
Last Correction   2018/04/09 06:38:58
Memo.             
[...]
   15888    15888    15889    15886    15884    15886    15889    15888 
   15888    15888    15886    15886    15889    15890    15886    15884 
   15885    15888    15892    15893    15893    15893    15892    15893 
   15894    15894    15897    15894    15889    15884    15880    15882 
   15892    15896    15901    15905    15901    15886    15874    15881 
   15903    15920    15936    15957    15938    15843    15750    15768 
   15874    15958    15946    15863    15826    15886    15973    15984 
   15923    15878    15892    15898    15839    15768    15796    15897 
   15925    15861    15828    15907    16025    16027    15885    15790 
   15866    15986    15986    15885    15793    15788    15849    15878 
   15881    15936    15973    15908    15834    15842    15903    15963 
   15986    15928    15836    15822    15890    15923    15876    15849 
   15886    15886    15816    15816    15931    16017    15989    15881 
   15796    15820    15885    15912    15915    15890    15851    15840 
   15842    15843    15881    15938    15957    15943    15927    15866 
   15786    15844    16001    15989    15816    15751    15826    15896 
   15924    15917    15913    15957    16002    15974    15915    15904 
   15911    15885    15859    15836    15813    15834    15861    15842 
   15838    15836    15793    15832    15981    16025    15900    15804 
   15884    16011    15992    15904    15915    15948    15888    15813 
   15842    15932    15958    15893    15815    15805    15884    15957 
   15923    15840    15839    15901    15890    15788    15747    15832 
   15934    15990    16006    15951    15870    15886    15996    16012 
   15866    15734    15754    15882    15975    15924    15823    15842 
   15946    15996    15969    15924    15909    15901    15857    15830 
   15832    15822    15839    15842    15755    15730    15859    15981 
   15979    15923    15897    15908    15916    15904    15904    15932 
   15939    15916    15917    15916    15901    15930    15971    15934 
   15839    15805    15880    15973    15984    15908    15795    15736 
   15778    15830    15836    15823    15822    15862    15882    15855 
   15904    16028    16056    15978    15935    15935    15903    15876 
   15897    15904    15861    15823    15830    15858    15886    15909 
   15927    15915    15876    15866    15903    15934    15909    15838 
   15801    15827    15885    15934    15921    15886    15905    15916 
   15894    15908    15925    15904    15894    15924    15961    15954 
   15888    15843    15854    15851    15836    15832    15786    15722 
   15772    15911    15969    15928    15904    15924    15965    16021 
   16047    15977    15880    15888    15940    15894    15800    15790 
   15850    15878    15869    15865    15869    15847    15812    15809 
   15840    15890    15946    15951    15897    15867    15920    15996 
   16004    15944    15913    15939    15943    15894    15853    15869 
   15903    15896    15855    15819    15817    15822    15792    15784 
   15842    15904    15921    15903    15865    15853    15904    15990 
   16048    16032    15928    15819    15811    15870    15921    15938 
   15893    15813    15789    15836    15892    15920    15920    15930 
   15959    15943    15869    15846    15907    15940    15892    15834 
   15826    15866    15896    15857    15804    15820    15884    15948 
   15957    15882    15853    15939    15969    15886    15865    15932 
   15966    15942    15908    15882    15870    15880    15889    15896 
   15901    15870    15819    15799    15826    15905    15981    15965 
   15885    15831    15823    15855    15900    15917    15915    15907 
   15892    15904    15938    15951    15954    15944    15898    15862 
   15851    15828    15808    15797    15781    15795    15855    15927 
   15970    15963    15931    15903    15890    15909    15940    15944 
   15912    15870    15862    15894    15920    15923    15904    15870 
   15846    15830    15820    15847    15888    15885    15863    15869 
   15882    15892    15907    15908    15903    15905    15907    15898 
   15893    15928    15981    15963    15892    15889    15967    16009 
   15959    15888    15849    15805    15759    15738    15730    15731 
   15772    15870    15958    15965    15959    15982    15973    15948 
   15959    15958    15921    15896    15885    15866    15849    15857 
   15894    15919    15911    15898    15880    15835    15812    15836 
   15850    15850    15873    15878    15858    15881    15921    15940 
   15982    16006    15966    15938    15928    15896    15884    15894 
   15873    15832    15812    15812    15823    15835    15832    15820 
   15816    15834    15898    15994    16024    15957    15909    15954 
   16009    15979    15907    15874    15871    15855    15839    15834 
   15849    15885    15893    15865    15853    15857    15862    15873 
   15885    15892    15905    15921    15932    15931    15907    15894 
   15905    15890    15873    15928    15979    15924    15824    15768 
   15747    15788    15915    15984    15898    15830    15894    15975 
   15967    15882    15797    15792    15867    15958    16009    15985 
   15900    15859    15893    15916    15932    15974    15940    15824 
   15785    15835    15849    15819    15836    15915    15951    15892 
   15827    15826    15863    15923    15971    15942    15877    15880 
   15938    15962    15955    15942    15880    15788    15790    15898 
   15973    15939    15863    15822    15824    15851    15876    15885 
   15888    15869    15842    15836    15854    15909    15978    15975 
   15909    15890    15936    15955    15919    15892    15907    15927 
   15905    15869    15858    15855    15842    15828    15850    15905 
   15908    15850    15840    15934    16017    15975    15885    15873 
   15896    15907    15927    15905    15820    15765    15797    15855 
   15876    15855    15850    15911    15985    15977    15915    15903 
   15942    15932    15861    15838    15896    15905    15813    15759 
   15834    15936    15974    15986    16017    16020    15935    15811 
   15751    15799    15881    15882    15786    15745    15839    15930 
   15928    15930    15998    16042    15975    15869    15836    15874 
   15913    15924    15900    15843    15805    15831    15892    15921 
   15908    15894    15901    15900    15890    15904    15920    15886 
   15828    15807    15813    15843    15900    15912    15870    15855 
   15882    15921    15971    16005    15974    15909    15877    15880 
   15897    15924    15927    15882    15832    15819    15839    15867 
   15894    15916    15916    15893    15885    15907    15932    15944 
   15925    15859    15790    15777    15836    15923    15919    15835 
   15836    15917    15923    15867    15863    15903    15917    15901 
   15886    15905    15947    15970    15970    15943    15893    15892 
   15930    15885    15801    15822    15901    15907    15832    15758 
   15773    15867    15924    15936    15951    15942    15901    15888 
   15903    15924    15947    15931    15862    15828    15863    15905 
   15920    15900    15857    15831    15834    15869    15932    15948 
   15890    15840    15854    15880    15858    15854    15932    15998 
   15951    15842    15831    15954    16029    15946    15822    15788 
   15835    15871    15857    15861    15905    15901    15847    15858 
   15924    15950    15920    15884    15901    15942    15925    15878 
   15877    15919    15950    15905    15800    15755    15807    15854 
   15859    15863    15880    15882    15888    15959    16060    16054 
   15932    15869    15927    15952    15869    15781    15773    15836 
   15888    15873    15849    15839    15817    15842    15916    15958 
   15955    15919    15877    15901    15963    15974    15931    15877 
   15859    15897    15917    15871    15816    15803    15836    15894 
   15921    15886    15844    15862    15920    15935    15876    15834 
   15878    15936    15951    15958    15957    15905    15846    15836 
   15870    15901    15882    15805    15765    15834    15944    15992 
   15952    15900    15904    15931    15934    15912    15861    15800 
   15797    15886    15967    15943    15882    15871    15874    15874 
   15903    15934    15928    15886    15842    15849    15900    15927 
   15924    15897    15857    15869    15896    15842    15801    15853 
   15896    15881    15844    15834    15890    15944    15900    15842 
   15865    15921    15974    16023    16000    15886    15815    15873 
   15961    15984    15940    15865    15844    15896    15888    15809 
   15795    15826    15820    15826    15865    15898    15932    15939 
   15893    15859    15877    15916    15971    16006    15943    15853 
   15863    15925    15925    15863    15804    15795    15834    15881 
   15896    15907    15947    15959    15874    15813    15911    16035 
   15998    15834    15731    15782    15878    15917    15934    15921 
   15847    15799    15847    15934    15997    16000    15916    15804 
   15782    15855    15889    15861    15870    15909    15897    15904 
   16043    16174    16042    15741    15624    15782    15947    15919 
   15777    15716    15800    15951    16063    16042    15924    15873 
   15903    15920    15951    16000    15958    15790    15583    15527 
   15773    16117    16202    16016    15834    15822    15915    15943 
   15847    15757    15778    15815    15770    15780    15951    16136 
   16166    15998    15788    15850    16156    16217    15900    15641 
   15624    15650    15689    15836    15998    16042    15951    15817 
   15813    16006    16181    16133    15971    15878    15862    15820 
   15723    15672    15749    15878    15923    15876    15835    15847 
   15874    15857    15788    15763    15876    16011    15935    15687 
   15550    15620    15823    16051    16101    16017    16131    16394 
   16441    16263    16106    16036    16011    15985    15865    15622 
   15314    15125    15263    15556    15662    15708    15948    16189 
   16183    16050    16032    16182    16293    16187    15997    15977 
   16050    15920    15628    15515    15666    15853    15915    15923 
   15947    15915    15799    15635    15519    15600    15812    15939 
   15967    15932    15796    15745    16029    16476    16687    16555 
   16362    16355    16314    15936    15434    15236    15352    15495 
   15487    15340    15206    15244    15449    15720    15963    16092 
   16137    16213    16285    16276    16239    16205    16168    16183 
   16306    16422    16320    16001    15739    15668    15673    15668 
   15631    15543    15439    15383    15442    15547    15581    15688 
   15932    16039    16012    16209    16506    16425    16108    16028 
   16089    16012    15942    16016    16036    15844    15595    15464 
   15425    15431    15588    15909    16135    16098    16013    16040 
   16029    15940    15915    15943    15917    15861    15763    15587 
   15514    15681    15871    15908    15963    16191    16413    16459 
   16399    16251    16000    15768    15638    15599    15611    15627 
   15624    15592    15530    15565    15781    15981    16085    16210 
   16271    16141    15947    15878    15896    15789    15593    15607 
   15851    16020    15974    15866    15822    15834    15896    15950 
   15963    16013    16065    15974    15819    15770    15766    15728 
   15753    15871    15977    15974    15942    16023    16119    16046 
   15924    15963    16070    15986    15736    15672    15857    15863 
   15646    15618    15822    16025    16141    16156    16150    16167 
   16055    15854    15815    15882    15782    15527    15387    15514 
   15720    15714    15525    15456    15677    16027    16218    16175 
   16100    16158    16248    16233    16160    16159    16213    16152 
   15948    15773    15701    15678    15682    15668    15580    15491 
   15545    15741    15917    15992    16016    16058    16171    16336 
   16383    16186    15897    15805    15836    15642    15307    15264 
   15514    15646    15565    15584    15834    16093    16179    16202 
   16351    16549    16529    16293    16150    16171    16069    15766 
   15515    15433    15466    15562    15565    15457    15477    15651 
   15753    15786    15878    15998    16098    16160    16181    16168 
   16101    16069    16137    16100    15907    15830    15921    15984 
   15915    15782    15751    15880    16000    15989    15924    15850 
   15777    15792    15838    15741    15616    15697    15849    15888 
   15897    15869    15766    15759    15850    15888    15921    15997 
   16038    16040    15989    15885    15901    16008    16016    15993 
   16017    15982    15896    15828    15778    15753    15715    15660 
   15693    15809    15882    15950    16063    16074    15930    15867 
   16015    16151    16096    15963    15889    15878    15880    15832 
   15761    15750    15790    15788    15736    15738    15804    15862 
   15894    15903    15877    15854    15849    15843    15873    15962 
   16039    16016    15919    15873    15884    15889    15897    15893 
   15857    15824    15819    15890    16035    16119    16106    16097 
   16050    15935    15911    16004    16055    15997    15874    15774 
   15732    15674    15576    15504    15469    15431    15399    15441 
   15627    15927    16162    16209    16241    16472    16740    16729 
   16497    16333    16274    16120    15822    15557    15472    15468 
   15395    15284    15232    15279    15412    15550    15658    15808 
   15982    16060    16024    16020    16109    16167    16163    16197 
   16239    16195    16128    16117    16108    16039    15970    15973 
   15966    15834    15701    15724    15762    15669    15570    15611 
   15736    15804    15797    15801    15788    15728    15747    15900 
   16074    16117    15998    15878    15924    16075    16129    16078 
   16083    16124    16071    15967    15880    15778    15681    15657 
   15650    15581    15541    15606    15687    15718    15739    15792 
   15884    15984    16016    15989    16036    16171    16249    16213 
   16147    16128    16132    16056    15930    15865    15849    15790 
   15682    15630    15730    15916    16011    15992    15965    15948 
   15896    15843    15835    15839    15799    15718    15633    15611 
   15685    15754    15750    15762    15838    15916    15981    16032 
   16032    15998    16025    16128    16191    16167    16116    16040 
   15903    15808    15842    15866    15741    15576    15565    15665 
   15697    15707    15827    15971    16004    16011    16081    16102 
   16031    15985    16008    16028    15993    15907    15827    15826 
   15896    15954    15923    15817    15727    15716    15743    15742 
   15761    15799    15742    15641    15664    15813    15951    15996 
   15965    15913    15927    16060    16227    16295    16256    16156 
   16040    15955    15909    15865    15816    15781    15722    15604 
   15526    15583    15692    15747    15750    15778    15889    16004 
   16032    16055    16163    16251    16198    16078    16006    15973 
   15909    15801    15693    15638    15639    15654    15665    15684 
   15714    15770    15838    15874    15921    16032    16163    16210 
   16148    16102    16152    16187    16104    15965    15859    15809 
   15769    15687    15606    15601    15639    15653    15668    15709 
   15735    15715    15678    15726    15930    16162    16232    16183 
   16173    16202    16201    16175    16146    16106    16052    15975 
   15892    15830    15792    15758    15693    15611    15569    15576 
   15596    15639    15692    15711    15741    15831    15919    15947 
   15957    15986    16023    16025    16021    16056    16101    16123 
   16104    16028    15985    16023    16047    16006    15939    15863 
   15807    15774    15741    15709    15674    15650    15669    15691 
   15699    15755    15851    15913    15934    15970    16009    15998 
   15989    16036    16097    16127    16101    16023    15938    15871 
   15826    15812    15809    15766    15719    15732    15766    15755 
   15728    15742    15812    15889    15935    15985    16050    16069 
   16043    16039    16065    16082    16087    16060    15963    15853 
   15824    15831    15765    15684    15668    15653    15615    15631 
   15689    15714    15718    15768    15877    16016    16121    16135 
   16105    16135    16195    16204    16181    16178    16163    16102 
   16016    15912    15790    15687    15603    15523    15460    15425 
   15427    15485    15584    15700    15815    15897    15970    16086 
   16225    16337    16380    16308    16179    16125    16117    16051 
   15950    15863    15778    15703    15668    15642    15601    15596 
   15643    15714    15809    15909    15966    15990    16016    16042 
   16070    16086    16039    15952    15880    15828    15789    15739 
   15668    15642    15692    15741    15762    15804    15857    15917 
   16002    16083    16151    16193    16185    16151    16127    16112 
   16097    16050    15942    15813    15747    15736    15705    15646 
   15599    15583    15608    15664    15707    15745    15799    15843 
   15885    15936    15963    15963    15969    15971    15985    16035 
   16086    16087    16052    16036    16047    16029    15963    15901 
   15880    15865    15811    15745    15731    15750    15742    15699 
   15688    15759    15866    15944    15982    15986    15984    15994 
   16015    16039    16039    16004    15957    15904    15854    15811 
   15772    15757    15765    15765    15759    15759    15768    15813 
   15894    15935    15931    15942    15965    15973    15981    16009 
   16029    16006    15973    15959    15951    15943    15928    15894 
   15858    15822    15769    15715    15696    15726    15782    15820 
   15823    15823    15849    15915    15996    16051    16060    16028 
   15992    16000    16046    16060    15988    15884    15847    15844 
   15820    15830    15866    15847    15778    15742    15769    15816 
   15830    15816    15800    15786    15801    15863    15920    15927 
   15917    15958    16031    16046    16006    15996    16005    15959 
   15886    15867    15885    15867    15827    15816    15832    15839 
   15828    15808    15822    15871    15919    15947    15939    15900 
   15900    15950    15988    16001    15986    15938    15885    15863 
   15861    15846    15820    15785    15730    15687    15700    15753 
   15799    15846    15920    16000    16044    16039    16031    16077 
   16133    16110    16042    16001    15975    15935    15882    15819 
   15759    15711    15676    15673    15714    15776    15822    15849 
   15880    15907    15916    15932    15961    15977    15962    15915 
   15882    15907    15954    15963    15935    15911    15908    15912 
   15907    15867    15815    15797    15822    15853    15876    15878 
   15867    15866    15870    15869    15880    15907    15913    15904 
   15927    15978    15993    15959    15927    15925    15928    15911 
   15890    15877    15853    15835    15843    15850    15827    15807 
