Origin Time       2018/04/09 06:38:00
Lat.              35.2
Long.             132.6
Depth. (km)       10
Mag.              3.8
Station Code      TTRH03
Station Lat.      35.3553
Station Long.     133.4918
Station Height(m) 220
Record Time       2018/04/09 06:39:13
Sampling Freq(Hz) 100Hz
Duration Time(s)  120
Dir.              2
Scale Factor      2942(gal)/8224139
Max. Acc. (gal)   0.151
Last Correction   2018/04/09 06:38:58
Memo.             
[...]
  136745   136742   136746   136750   136748   136744   136746   136750 
  136746   136740   136744   136755   136753   136748   136742   136744 
  136752   136750   136741   136745   136749   136746   136749   136753 
  136750   136748   136742   136744   136748   136744   136744   136748 
  136744   136749   136753   136745   136745   136750   136748   136746 
  136748   136745   136744   136746   136750   136746   136744   136748 
  136744   136744   136749   136745   136744   136749   136750   136749 
  136746   136746   136746   136746   136750   136752   136749   136750 
  136750   136748   136746   136749   136752   136748   136749   136750 
  136748   136748   136745   136744   136749   136749   136745   136750 
  136752   136746   136744   136748   136749   136748   136753   136756 
  136748   136744   136748   136752   136748   136742   136752   136757 
  136750   136748   136746   136748   136750   136750   136752   136752 
  136744   136741   136748   136755   136745   136741   136753   136750 
  136744   136749   136745   136738   136745   136749   136744   136744 
  136749   136752   136753   136750   136749   136753   136750   136748 
  136749   136748   136746   136748   136750   136750   136750   136752 
  136750   136746   136746   136746   136746   136749   136750   136746 
  136744   136748   136752   136750   136748   136744   136742   136748 
  136750   136748   136746   136752   136756   136745   136741   136748 
  136748   136746   136750   136748   136750   136756   136749   136744 
  136746   136745   136744   136748   136753   136752   136748   136745 
  136745   136750   136753   136746   136744   136748   136748   136745 
  136748   136750   136745   136742   136750   136752   136748   136748 
  136742   136741   136749   136752   136745   136746   136748   136742 
  136746   136750   136749   136753   136750   136742   136742   136748 
  136750   136745   136745   136749   136741   136744   136753   136744 
  136737   136748   136753   136748   136745   136748   136745   136745 
  136750   136749   136744   136750   136752   136746   136748   136748 
  136744   136748   136748   136746   136752   136752   136749   136744 
  136741   136746   136748   136742   136745   136749   136749   136748 
  136746   136749   136752   136746   136744   136749   136752   136742 
  136742   136746   136745   136745   136748   136746   136748   136752 
  136749   136745   136748   136746   136744   136746   136750   136749 
  136748   136750   136749   136746   136749   136750   136748   136745 
  136745   136745   136749   136749   136745   136746   136748   136745 
  136748   136748   136748   136750   136745   136742   136749   136750 
  136744   136745   136749   136744   136746   136752   136746   136745 
  136753   136750   136742   136745   136753   136753   136749   136748 
  136746   136750   136753   136748   136740   136741   136746   136749 
  136746   136745   136746   136748   136752   136753   136746   136742 
  136750   136756   136750   136749   136749   136750   136752   136749 
  136748   136749   136750   136750   136748   136746   136749   136756 
  136752   136742   136746   136752   136749   136749   136752   136750 
  136748   136750   136746   136746   136753   136748   136745   136750 
  136746   136748   136753   136749   136746   136749   136749   136746 
  136740   136742   136753   136748   136744   136745   136742   136745 
  136746   136740   136742   136742   136734   136746   136761   136753 
  136745   136752   136748   136737   136745   136749   136742   136742 
  136744   136744   136749   136748   136744   136748   136748   136746 
  136753   136749   136741   136746   136756   136753   136748   136750 
  136746   136741   136749   136750   136742   136746   136745   136737 
  136741   136744   136741   136742   136745   136745   136742   136740 
  136742   136737   136734   136745   136750   136745   136744   136749 
  136753   136748   136745   136756   136755   136742   136744   136752 
  136752   136753   136750   136746   136756   136757   136740   136732 
  136744   136757   136765   136775   136790   136786   136732   136680 
  136705   136768   136796   136771   136714   136691   136726   136760 
  136755   136730   136733   136780   136792   136742   136703   136715 
  136767   136787   136742   136717   136740   136761   136744   136687 
  136691   136763   136799   136796   136776   136741   136732   136755 
  136765   136761   136787   136769   136682   136669   136718   136719 
  136728   136763   136757   136740   136765   136784   136740   136717 
  136780   136823   136767   136702   136721   136761   136780   136775 
  136715   136696   136761   136756   136710   136757   136803   136750 
  136688   136730   136784   136736   136703   136763   136821   136791 
  136672   136628   136745   136819   136726   136655   136722   136775 
  136740   136723   136738   136764   136807   136817   136783   136742 
  136749   136806   136798   136760   136769   136753   136746   136775 
  136745   136710   136686   136649   136691   136750   136728   136679 
  136684   136755   136798   136791   136788   136752   136741   136796 
  136798   136776   136786   136779   136761   136722   136711   136775 
  136783   136730   136729   136761   136771   136732   136683   136687 
  136723   136771   136809   136771   136690   136684   136767   136841 
  136809   136710   136660   136709   136829   136846   136703   136641 
  136725   136803   136802   136728   136680   136744   136818   136792 
  136749   136764   136763   136775   136786   136706   136701   136772 
  136740   136699   136707   136710   136750   136764   136709   136702 
  136753   136759   136737   136775   136833   136822   136761   136725 
  136729   136732   136744   136776   136776   136760   136741   136694 
  136711   136790   136787   136738   136719   136717   136723   136715 
  136733   136792   136780   136707   136719   136802   136799   136696 
  136684   136775   136800   136746   136696   136687   136749   136815 
  136783   136728   136737   136773   136773   136728   136750   136807 
  136755   136707   136734   136765   136775   136730   136726   136777 
  136765   136750   136734   136702   136742   136784   136771   136752 
  136723   136722   136760   136780   136765   136742   136752   136753 
  136733   136737   136726   136718   136749   136744   136719   136734 
  136760   136748   136715   136725   136765   136813   136827   136764 
  136719   136746   136771   136765   136736   136715   136744   136746 
  136698   136714   136798   136798   136729   136733   136775   136786 
  136798   136772   136726   136737   136763   136765   136733   136711 
  136752   136759   136723   136722   136745   136779   136771   136714 
  136695   136725   136769   136776   136730   136715   136721   136715 
  136742   136791   136802   136756   136721   136737   136777   136791 
  136740   136705   136756   136783   136746   136730   136723   136705 
  136715   136749   136753   136752   136769   136742   136722   136777 
  136795   136757   136760   136769   136763   136752   136723   136711 
  136745   136749   136711   136723   136749   136733   136714   136707 
  136734   136787   136783   136752   136768   136782   136775   136771 
  136752   136745   136755   136736   136725   136755   136776   136765 
  136755   136764   136769   136755   136723   136734   136763   136748 
  136738   136740   136742   136757   136736   136717   136742   136750 
  136734   136718   136741   136784   136755   136711   136730   136736 
  136738   136784   136788   136738   136728   136744   136745   136771 
  136780   136741   136737   136742   136736   136777   136772   136705 
  136717   136750   136718   136713   136752   136742   136728   136756 
  136755   136732   136745   136779   136782   136760   136772   136786 
  136756   136722   136725   136752   136730   136715   136763   136769 
  136745   136761   136763   136723   136718   136761   136750   136721 
  136749   136748   136748   136777   136746   136723   136745   136753 
  136748   136744   136757   136769   136767   136771   136783   136786 
  136741   136709   136745   136759   136744   136744   136732   136741 
  136768   136761   136745   136753   136782   136784   136737   136692 
  136715   136759   136755   136740   136749   136746   136729   136717 
  136703   136728   136759   136738   136740   136783   136773   136740 
  136772   136784   136713   136722   136796   136772   136723   136711 
  136730   136791   136807   136761   136732   136738   136749   136726 
  136717   136750   136767   136752   136740   136744   136736   136741 
  136773   136765   136752   136757   136741   136755   136760   136728 
  136750   136784   136753   136713   136740   136787   136748   136709 
  136728   136725   136730   136748   136749   136756   136767   136764 
  136753   136765   136782   136755   136741   136742   136740   136769 
  136768   136709   136676   136711   136753   136738   136733   136768 
  136763   136752   136761   136742   136740   136771   136798   136788 
  136726   136699   136738   136763   136772   136764   136729   136709 
  136725   136764   136769   136750   136777   136788   136732   136710 
  136753   136791   136787   136744   136706   136715   136740   136744 
  136738   136733   136741   136769   136759   136730   136744   136745 
  136749   136759   136722   136729   136759   136748   136750   136748 
  136755   136768   136746   136750   136752   136738   136757   136769 
  136759   136715   136695   136746   136767   136771   136771   136733 
  136748   136760   136763   136814   136787   136705   136688   136709 
  136713   136710   136738   136745   136736   136763   136755   136719 
  136746   136787   136773   136737   136741   136786   136779   136718 
  136711   136760   136771   136745   136753   136773   136760   136744 
  136744   136725   136699   136725   136791   136786   136745   136761 
  136750   136706   136699   136721   136775   136761   136690   136713 
  136752   136742   136760   136769   136755   136761   136768   136748 
  136744   136772   136757   136722   136714   136709   136759   136806 
  136761   136736   136733   136711   136741   136773   136757   136748 
  136753   136742   136734   136765   136760   136703   136725   136750 
  136715   136738   136782   136795   136784   136701   136680   136765 
  136777   136732   136706   136713   136753   136760   136726   136710 
  136738   136775   136756   136738   136759   136759   136768   136772 
  136732   136730   136755   136740   136722   136729   136742   136755 
  136756   136734   136730   136753   136742   136742   136745   136709 
  136726   136769   136768   136738   136729   136773   136787   136745 
  136706   136683   136738   136791   136752   136741   136759   136733 
  136723   136757   136796   136780   136723   136722   136740   136726 
  136748   136784   136776   136755   136722   136684   136706   136755 
  136745   136723   136718   136722   136757   136750   136715   136756 
  136799   136773   136715   136686   136745   136794   136760   136718 
  136707   136745   136764   136725   136736   136791   136799   136745 
  136717   136736   136737   136729   136713   136729   136806   136803 
  136742   136721   136729   136773   136771   136723   136722   136718 
  136726   136748   136742   136748   136744   136744   136753   136753 
  136771   136745   136721   136763   136760   136748   136742   136686 
  136698   136783   136804   136744   136701   136722   136749   136764 
  136763   136748   136752   136749   136784   136790   136710   136723 
  136768   136760   136779   136718   136668   136744   136752   136719 
  136750   136765   136725   136696   136746   136765   136732   136730 
  136715   136744   136806   136792   136767   136752   136736   136732 
  136733   136752   136769   136773   136742   136692   136702   136744 
  136760   136733   136711   136746   136749   136755   136788   136740 
  136732   136791   136761   136728   136734   136723   136723   136728 
  136741   136749   136740   136753   136752   136730   136721   136757 
  136817   136794   136736   136741   136765   136728   136668   136734 
  136819   136777   136725   136692   136684   136737   136765   136764 
  136738   136711   136752   136765   136753   136759   136709   136714 
  136768   136737   136726   136750   136737   136745   136786   136769 
  136709   136729   136800   136803   136757   136728   136737   136755 
  136728   136701   136722   136725   136702   136741   136791   136767 
  136755   136799   136803   136755   136709   136709   136763   136771 
  136719   136706   136721   136744   136744   136707   136734   136788 
  136759   136741   136780   136769   136767   136802   136757   136707 
  136723   136737   136726   136680   136674   136761   136775   136691 
  136688   136791   136840   136748   136678   136759   136830   136802 
  136768   136767   136763   136728   136690   136663   136692   136776 
  136782   136730   136710   136713   136764   136772   136695   136683 
  136718   136694   136653   136692   136779   136786   136723   136686 
  136702   136806   136873   136802   136767   136810   136829   136804 
  136806   136917   136989   136895   136714   136566   136602   136684 
  136645   136682   136721   136628   136610   136674   136663   136645 
  136775   136949   136942   136861   136777   136691   136742   136753 
  136621   136634   136849   136962   136722   136441   136555   136772 
  136709   136645   136922   137168   137045   136914   136821   136591 
  136512   136706   136912   136857   136674   136647   136615   136557 
  136588   136653   136806   136892   136792   136682   136675   136803 
  136865   136761   136722   136757   136707   136566   136591   136794 
  136733   136532   136628   136763   136698   136715   136853   136857 
  136792   136827   136840   136782   136709   136669   136846   136926 
  136679   136682   136896   136890   136753   136594   136637   136761 
  136730   136787   136741   136598   136642   136672   136815   137010 
  136944   136899   136880   136728   136663   136763   136890   136709 
  136426   136644   136896   136717   136633   136745   136732   136601 
  136549   136711   136883   136885   136788   136678   136687   136857 
  136941   136721   136595   136807   136837   136687   136728   136729 
  136595   136553   136637   136687   136713   136926   137076   136917 
  136732   136647   136753   136910   136772   136734   136815   136625 
  136588   136696   136575   136528   136722   136911   136885   136755 
  136656   136564   136661   136842   136877   136844   136688   136707 
  136957   136792   136498   136663   136873   136775   136630   136665 
  136761   136799   136800   136792   136818   136763   136661   136790 
  137034   137065   136782   136574   136819   136946   136567   136426 
  136794   136954   136759   136649   136611   136676   136844   136761 
  136655   136759   136777   136725   136748   136790   136715   136624 
  136765   136877   136732   136632   136698   136721   136644   136625 
  136713   136814   136902   136907   136813   136749   136728   136761 
  136840   136695   136503   136597   136663   136653   136753   136750 
  136640   136653   136856   136900   136674   136675   136790   136679 
  136628   136701   136802   136892   136899   136887   136787   136671 
  136701   136756   136782   136741   136711   136786   136777   136806 
  136892   136688   136543   136809   137030   136858   136591   136706 
  136993   136872   136582   136645   136836   136734   136603   136748 
  136800   136699   136726   136737   136721   136792   136829   136818 
  136733   136636   136648   136584   136559   136767   136879   136783 
  136732   136836   136918   136769   136655   136740   136759   136723 
  136692   136648   136742   136836   136783   136717   136710   136794 
  136810   136676   136683   136779   136692   136628   136675   136686 
  136705   136707   136763   136879   136830   136715   136695   136798 
  136907   136738   136597   136744   136829   136784   136736   136734 
  136837   136864   136667   136482   136598   136841   136837   136719 
  136718   136730   136745   136733   136648   136694   136779   136728 
  136715   136788   136890   136914   136792   136737   136809   136863 
  136815   136749   136844   136883   136713   136566   136540   136652 
  136729   136609   136602   136796   136860   136732   136709   136888 
  136884   136678   136709   136841   136798   136753   136714   136651 
  136721   136838   136817   136717   136736   136798   136756   136749 
  136729   136598   136610   136777   136817   136714   136610   136541 
  136566   136667   136740   136746   136738   136837   136939   136844 
  136796   136922   136879   136763   136764   136678   136641   136699 
  136679   136788   136869   136686   136584   136713   136841   136741 
  136597   136730   136860   136784   136695   136622   136694   136848 
  136795   136706   136696   136694   136782   136779   136622   136607 
  136750   136806   136744   136742   136806   136831   136819   136736 
  136640   136687   136815   136838   136802   136796   136757   136755 
  136840   136865   136806   136757   136746   136676   136607   136788 
  136881   136665   136726   136899   136719   136595   136656   136696 
  136701   136701   136771   136802   136736   136669   136671   136726 
  136675   136637   136788   136880   136825   136764   136753   136814 
  136830   136736   136698   136752   136784   136782   136745   136688 
  136711   136767   136722   136691   136773   136794   136740   136748 
  136780   136799   136733   136652   136737   136803   136783   136795 
  136709   136648   136719   136671   136599   136665   136680   136644 
  136684   136730   136742   136786   136799   136734   136728   136760 
  136757   136796   136819   136802   136777   136749   136831   136853 
  136715   136733   136810   136726   136684   136744   136763   136705 
  136661   136691   136742   136750   136703   136706   136761   136722 
  136676   136733   136794   136783   136738   136764   136854   136840 
  136746   136779   136864   136773   136644   136664   136736   136819 
  136869   136823   136794   136761   136694   136711   136765   136745 
  136707   136749   136829   136787   136675   136660   136679   136702 
  136732   136679   136648   136699   136709   136674   136707   136760 
  136728   136717   136719   136709   136817   136830   136777   136844 
  136764   136683   136740   136699   136715   136755   136707   136783 
  136809   136718   136749   136786   136760   136763   136741   136737 
  136767   136757   136738   136744   136788   136815   136740   136657 
  136687   136777   136790   136714   136661   136652   136723   136818 
  136802   136765   136752   136741   136732   136664   136706   136819 
  136782   136728   136718   136746   136782   136706   136672   136710 
  136728   136787   136796   136765   136759   136730   136723   136714 
  136709   136737   136715   136737   136796   136763   136730   136772 
  136864   136881   136756   136669   136691   136776   136802   136732 
  136775   136830   136755   136691   136661   136702   136757   136756 
  136767   136713   136672   136757   136833   136821   136732   136687 
  136742   136742   136705   136736   136768   136760   136737   136734 
