Origin Time       2018/04/09 06:38:00
Lat.              35.2
Long.             132.6
Depth. (km)       10
Mag.              3.8
Station Code      TTRH03
Station Lat.      35.3553
Station Long.     133.4918
Station Height(m) 420
Record Time       2018/04/09 06:39:13
Sampling Freq(Hz) 100Hz
Duration Time(s)  120
Dir.              5
Scale Factor      7845(gal)/8223790
Max. Acc. (gal)   1.102
Last Correction   2018/04/09 06:38:58
Memo.             
[...]
    3654     3657     3655     3653     3651     3650     3651     3654 
    3657     3657     3655     3657     3658     3655     3653     3655 
    3654     3653     3655     3658     3654     3651     3653     3654 
    3655     3657     3655     3654     3653     3653     3655     3657 
    3657     3655     3653     3650     3651     3653     3651     3651 
    3655     3657     3655     3657     3655     3654     3657     3659 
    3654     3651     3655     3655     3651     3653     3655     3654 
    3654     3654     3654     3653     3654     3654     3651     3654 
    3654     3653     3658     3658     3654     3653     3655     3655 
    3653     3650     3655     3658     3651     3653     3658     3657 
    3654     3654     3655     3657     3654     3655     3658     3653 
    3651     3655     3655     3654     3654     3653     3657     3658 
    3655     3657     3655     3651     3651     3657     3658     3653 
    3653     3657     3655     3654     3655     3655     3657     3657 
    3654     3654     3654     3653     3654     3655     3654     3655 
    3657     3657     3657     3657     3657     3655     3653     3654 
    3654     3651     3651     3655     3655     3653     3653     3653 
    3655     3658     3657     3654     3651     3654     3655     3653 
    3650     3654     3654     3654     3657     3658     3657     3655 
    3657     3654     3650     3653     3654     3654     3658     3658 
    3654     3655     3657     3655     3655     3655     3654     3655 
    3659     3658     3654     3654     3655     3657     3657     3657 
    3657     3655     3654     3653     3651     3654     3654     3654 
    3655     3655     3654     3653     3654     3655     3655     3654 
    3653     3651     3653     3655     3657     3654     3653     3653 
    3654     3657     3657     3654     3655     3654     3651     3654 
    3655     3653     3654     3657     3657     3657     3655     3651 
    3650     3651     3650     3651     3653     3654     3655     3654 
    3654     3655     3654     3653     3653     3651     3651     3654 
    3651     3649     3647     3649     3650     3649     3649     3653 
    3654     3650     3647     3646     3647     3647     3646     3651 
    3661     3662     3655     3654     3663     3665     3653     3657 
    3681     3685     3662     3650     3667     3693     3690     3655 
    3620     3616     3646     3692     3716     3716     3711     3694 
    3646     3592     3593     3645     3678     3678     3662     3639 
    3624     3628     3630     3627     3631     3634     3627     3628 
    3636     3630     3627     3640     3659     3682     3685     3635 
    3578     3572     3600     3624     3647     3682     3703     3678 
    3655     3680     3696     3680     3693     3717     3670     3607 
    3616     3658     3682     3699     3708     3685     3639     3642 
    3701     3713     3677     3681     3692     3673     3681     3689 
    3663     3665     3693     3655     3558     3545     3646     3709 
    3663     3624     3624     3596     3582     3619     3662     3682 
    3674     3634     3609     3612     3588     3561     3599     3643 
    3634     3618     3608     3584     3609     3684     3703     3682 
    3701     3730     3707     3636     3613     3693     3757     3738 
    3727     3740     3712     3662     3669     3704     3678     3624 
    3630     3661     3676     3713     3757     3750     3724     3719 
    3693     3642     3635     3661     3640     3620     3651     3612 
    3477     3442     3578     3684     3622     3534     3557     3613 
    3592     3512     3497     3611     3746     3771     3720     3696 
    3724     3744     3715     3667     3627     3586     3608     3694 
    3717     3647     3597     3620     3662     3650     3605     3619 
    3672     3685     3699     3743     3746     3694     3682     3732 
    3778     3781     3763     3734     3689     3658     3653     3631 
    3580     3545     3562     3626     3678     3658     3615     3635 
    3690     3712     3677     3593     3555     3613     3647     3596 
    3549     3546     3546     3532     3541     3586     3599     3551 
    3543     3645     3757     3769     3728     3716     3734     3767 
    3790     3766     3716     3693     3708     3701     3663     3657 
    3670     3678     3690     3650     3555     3547     3638     3676 
    3638     3630     3700     3771     3758     3708     3693     3681 
    3682     3750     3775     3677     3581     3588     3599     3547 
    3518     3542     3561     3562     3581     3605     3618     3639 
    3692     3732     3699     3627     3615     3649     3665     3665 
    3647     3596     3578     3630     3654     3605     3577     3615 
    3662     3681     3696     3720     3736     3740     3750     3739 
    3699     3685     3700     3693     3685     3715     3721     3690 
    3709     3757     3713     3620     3608     3654     3663     3640 
    3630     3634     3653     3674     3677     3676     3665     3622 
    3572     3557     3580     3600     3601     3591     3564     3528 
    3534     3589     3626     3613     3609     3636     3638     3603 
    3608     3658     3669     3651     3661     3693     3703     3672 
    3645     3665     3682     3669     3670     3700     3751     3801 
    3800     3771     3780     3798     3778     3731     3703     3719 
    3726     3677     3624     3626     3638     3607     3550     3515 
    3508     3528     3565     3588     3618     3681     3712     3655 
    3603     3646     3705     3673     3595     3576     3612     3649 
    3678     3678     3622     3588     3635     3693     3694     3653 
    3624     3653     3682     3651     3612     3627     3654     3645 
    3622     3618     3626     3622     3616     3643     3686     3708 
    3716     3732     3726     3692     3680     3688     3682     3690 
    3734     3770     3754     3720     3727     3750     3735     3686 
    3631     3577     3551     3558     3538     3501     3535     3599 
    3595     3565     3573     3591     3612     3676     3746     3754 
    3721     3715     3713     3662     3597     3607     3646     3623 
    3582     3584     3600     3611     3632     3657     3661     3658 
    3662     3680     3708     3732     3750     3763     3770     3773 
    3762     3724     3686     3681     3696     3705     3701     3674 
    3635     3619     3619     3599     3574     3561     3555     3555 
    3539     3524     3558     3605     3627     3658     3689     3666 
    3638     3654     3669     3658     3663     3654     3616     3631 
    3681     3673     3628     3636     3690     3728     3735     3744 
    3751     3719     3676     3661     3657     3654     3640     3642 
    3684     3703     3647     3604     3635     3677     3663     3609 
    3604     3684     3747     3730     3709     3720     3711     3667 
    3620     3588     3576     3597     3626     3613     3608     3642 
    3628     3547     3518     3569     3626     3635     3616     3612 
    3601     3578     3609     3676     3708     3748     3800     3782 
    3748     3780     3771     3665     3608     3663     3703     3654 
    3615     3653     3680     3626     3558     3559     3605     3640 
    3649     3650     3662     3670     3659     3634     3630     3700 
    3794     3781     3672     3626     3678     3696     3640     3636 
    3713     3748     3716     3700     3701     3665     3599     3530 
    3481     3501     3589     3645     3618     3584     3585     3578 
    3564     3581     3626     3682     3701     3649     3591     3612 
    3673     3680     3662     3705     3774     3774     3721     3728 
    3790     3800     3773     3767     3724     3632     3593     3631 
    3665     3654     3647     3650     3630     3591     3574     3626 
    3696     3689     3634     3620     3631     3595     3526     3526 
    3608     3650     3595     3562     3623     3678     3674     3674 
    3712     3726     3663     3597     3618     3684     3707     3692 
    3681     3672     3655     3638     3623     3630     3672     3708 
    3678     3597     3549     3570     3613     3649     3701     3765 
    3786     3748     3705     3703     3726     3747     3747     3715 
    3661     3616     3605     3630     3681     3715     3682     3620 
    3599     3601     3597     3611     3624     3597     3557     3538 
    3547     3580     3619     3645     3645     3635     3640     3655 
    3658     3676     3728     3786     3790     3726     3646     3597 
    3585     3604     3645     3682     3711     3719     3689     3624 
    3572     3586     3628     3639     3662     3709     3692     3630 
    3626     3674     3684     3632     3600     3647     3704     3696 
    3712     3802     3847     3796     3736     3682     3607     3569 
    3613     3659     3636     3588     3596     3640     3631     3597 
    3613     3620     3576     3539     3543     3566     3588     3595 
    3597     3639     3678     3661     3653     3703     3761     3763 
    3699     3643     3645     3655     3655     3669     3685     3690 
    3685     3674     3673     3693     3727     3735     3715     3709 
    3712     3696     3672     3658     3666     3669     3636     3618 
    3643     3632     3561     3546     3611     3636     3597     3581 
    3618     3635     3588     3537     3532     3566     3616     3643 
    3631     3626     3653     3680     3697     3730     3765     3751 
    3700     3707     3784     3813     3753     3711     3748     3765 
    3688     3603     3596     3635     3649     3609     3576     3592 
    3609     3608     3612     3615     3609     3584     3542     3549 
    3591     3601     3615     3669     3723     3750     3724     3659 
    3646     3696     3732     3744     3735     3692     3662     3674 
    3684     3654     3607     3619     3684     3674     3578     3545 
    3597     3624     3609     3599     3578     3555     3568     3597 
    3624     3663     3727     3785     3793     3775     3773     3740 
    3669     3650     3689     3693     3651     3636     3676     3735 
    3747     3709     3669     3630     3591     3586     3601     3604 
    3609     3623     3638     3653     3662     3653     3631     3613 
    3597     3586     3615     3669     3678     3647     3631     3624 
    3611     3600     3600     3616     3624     3592     3573     3628 
    3708     3726     3709     3743     3780     3738     3658     3613 
    3635     3707     3735     3699     3701     3740     3738     3708 
    3673     3650     3670     3688     3674     3669     3667     3627 
    3601     3632     3623     3555     3565     3651     3678     3643 
    3628     3627     3584     3526     3515     3535     3577     3646 
    3693     3704     3715     3711     3703     3730     3747     3731 
    3731     3739     3735     3709     3636     3573     3576     3585 
    3564     3551     3564     3596     3634     3654     3640     3640 
    3711     3784     3736     3612     3591     3696     3738     3645 
    3607     3715     3785     3701     3609     3628     3661     3632 
    3646     3744     3825     3832     3754     3611     3538     3588 
    3626     3589     3580     3627     3662     3643     3605     3582 
    3541     3457     3419     3480     3551     3588     3634     3654 
    3604     3593     3690     3800     3856     3852     3765     3680 
    3699     3728     3715     3785     3910     3898     3747     3616 
    3599     3677     3742     3717     3681     3712     3705     3559 
    3431     3504     3688     3792     3788     3790     3854     3859 
    3716     3550     3512     3555     3609     3672     3632     3366 
    3014     2855     2886     2990     3238     3605     3924     4140 
    4114     3773     3491     3626     4005     4260     4247     4060 
    3801     3450     3087     2967     3126     3356     3626     3943 
    4099     4051     4004     4045     4093     4083     4037     4010 
    3951     3727     3380     3173     3250     3439     3607     3890 
    4248     4276     3847     3388     3196     3115     3067     3144 
    3330     3501     3495     3327     3369     3773     4120     4124 
    4044     4097     4121     3910     3600     3457     3376     3125 
    2933     3083     3329     3370     3321     3360     3472     3613 
    3762     3867     3970     4112     4167     4024     3789     3658 
    3705     3838     3892     3840     3805     3823     3770     3607 
    3538     3689     3823     3775     3727     3789     3871     3919 
    3960     4002     4047     4105     4025     3632     3191     3175 
    3445     3419     3103     3038     3249     3200     2832     2713 
    3042     3335     3276     3167     3292     3543     3774     3997 
    4172     4191     4117     4099     4052     3838     3597     3518 
    3576     3707     3851     3882     3805     3829     4062     4287 
    4276     4144     4089     4078     4037     3985     3950     3885 
    3755     3653     3612     3532     3388     3267     3273     3453 
    3601     3451     3196     3233     3391     3244     2965     3034 
    3379     3514     3318     3122     3149     3299     3484     3723 
    3915     3951     3937     3971     3956     3792     3570     3419 
    3277     3048     2871     2957     3265     3605     3947     4272 
    4429     4495     4673     4810     4662     4365     4201     4136 
    3933     3666     3576     3526     3385     3427     3707     3896 
    3820     3618     3584     3809     3904     3662     3510     3646 
    3703     3507     3245     3091     3086     3102     3040     3017 
    3099     3177     3200     3240     3316     3358     3360     3457 
    3716     3996     4122     4029     3767     3576     3654     3819 
    3816     3738     3765     3819     3769     3696     3734     3843 
    3923     3970     4004     3955     3836     3797     3858     3923 
    3981     4005     3944     3871     3844     3767     3613     3520 
    3564     3642     3615     3508     3480     3564     3577     3430 
    3330     3411     3451     3350     3334     3446     3492     3439 
    3383     3379     3477     3626     3674     3596     3497     3449 
    3426     3352     3264     3339     3558     3701     3746     3824 
    3967     4129     4248     4279     4233     4186     4206     4195 
    3966     3661     3574     3604     3503     3389     3450     3601 
    3693     3658     3555     3545     3669     3763     3750     3750 
    3798     3805     3778     3761     3747     3766     3705     3427 
    3164     3107     3078     3018     3046     3153     3318     3504 
    3626     3735     3874     3921     3873     3812     3719     3672 
    3789     3929     3885     3758     3769     3862     3856     3809 
    3850     3910     3861     3681     3515     3503     3514     3360 
    3184     3217     3383     3478     3532     3654     3793     3883 
    3937     3958     3944     3875     3739     3635     3585     3528 
    3492     3478     3485     3584     3747     3832     3824     3840 
    3937     4009     3970     3901     3858     3759     3603     3469 
    3403     3412     3442     3443     3478     3566     3619     3600 
    3538     3453     3387     3414     3562     3747     3856     3842 
    3750     3670     3623     3577     3561     3568     3520     3437 
    3391     3337     3262     3287     3457     3678     3832     3900 
    3989     4118     4166     4125     4141     4205     4172     4055 
    3936     3790     3603     3478     3458     3429     3321     3277 
    3408     3541     3493     3373     3354     3449     3588     3700 
    3736     3754     3794     3770     3684     3682     3789     3886 
    3894     3839     3788     3721     3631     3557     3478     3422 
    3476     3581     3566     3476     3503     3585     3507     3334 
    3333     3503     3584     3480     3366     3381     3484     3542 
    3505     3535     3738     3947     3990     3904     3807     3780 
    3824     3874     3905     3943     3983     4000     3955     3839 
    3775     3869     3942     3831     3715     3763     3846     3820 
    3736     3676     3650     3642     3624     3547     3466     3514 
    3613     3562     3388     3303     3375     3447     3402     3345 
    3384     3395     3299     3254     3357     3496     3555     3545 
    3547     3609     3700     3788     3847     3889     3967     4032 
    3973     3813     3746     3862     3974     3920     3820     3774 
    3685     3558     3518     3516     3477     3480     3524     3520 
    3456     3376     3381     3519     3658     3693     3704     3765 
    3840     3862     3805     3759     3840     3940     3858     3651 
    3532     3549     3588     3591     3632     3748     3870     3940 
    3963     3983     4045     4090     4035     3913     3802     3716 
    3604     3420     3219     3107     3075     3056     3051     3083 
    3134     3210     3361     3545     3622     3554     3465     3454 
    3470     3466     3474     3507     3541     3601     3721     3844 
    3858     3790     3825     3990     4136     4201     4226     4268 
    4338     4347     4253     4160     4137     4151     4114     3947 
    3692     3528     3532     3551     3450     3321     3308     3369 
    3353     3253     3191     3240     3352     3396     3280     3117 
    3115     3240     3292     3276     3343     3499     3624     3670 
    3686     3750     3835     3816     3732     3744     3852     3915 
    3867     3796     3788     3798     3754     3689     3666     3677 
    3693     3712     3744     3796     3831     3835     3844     3855 
    3850     3863     3881     3867     3859     3844     3778     3684 
    3592     3530     3530     3584     3673     3761     3785     3782 
    3809     3817     3778     3757     3751     3690     3549     3385 
    3277     3237     3208     3168     3129     3088     3028     2960 
    2907     2917     3042     3233     3350     3396     3500     3667 
    3800     3924     4132     4361     4473     4487     4495     4463 
    4345     4260     4301     4332     4247     4145     4110     4066 
    3936     3771     3647     3564     3485     3392     3303     3257 
    3230     3173     3122     3117     3152     3208     3237     3202 
    3163     3171     3177     3150     3181     3318     3469     3557 
    3615     3705     3834     3929     3958     3952     3948     3962 
    3982     3985     3985     3994     3982     3931     3861     3817 
    3848     3917     3920     3831     3720     3659     3645     3636 
    3635     3666     3692     3673     3654     3681     3701     3685 
    3690     3743     3780     3750     3684     3645     3635     3582 
    3478     3393     3335     3262     3208     3217     3248     3256 
    3257     3277     3321     3372     3424     3505     3615     3692 
    3728     3797     3898     3954     3947     3935     3940     3900 
    3782     3688     3686     3726     3758     3811     3886     3955 
    4002     4005     3964     3919     3901     3885     3825     3730 
    3662     3643     3623     3572     3532     3532     3527     3488 
