Origin Time       2018/04/09 06:38:00
Lat.              35.2
Long.             132.6
Depth. (km)       10
Mag.              3.8
Station Code      TTRH03
Station Lat.      35.3553
Station Long.     133.4918
Station Height(m) 420
Record Time       2018/04/09 06:39:13
Sampling Freq(Hz) 100Hz
Duration Time(s)  120
Dir.              4
Scale Factor      7845(gal)/8223790
Max. Acc. (gal)   1.078
Last Correction   2018/04/09 06:38:58
Memo.             
[...]
    1768     1765     1764     1765     1765     1765     1765     1767 
    1768     1768     1765     1765     1768     1768     1768     1767 
    1767     1767     1765     1765     1764     1765     1765     1765 
    1768     1769     1767     1765     1768     1768     1767     1767 
    1765     1765     1769     1769     1767     1767     1767     1764 
    1765     1764     1763     1767     1768     1764     1763     1765 
    1768     1768     1765     1764     1765     1767     1765     1764 
    1765     1764     1761     1765     1768     1765     1763     1764 
    1768     1769     1764     1764     1765     1765     1767     1767 
    1768     1768     1765     1763     1764     1767     1764     1761 
    1765     1768     1764     1767     1769     1764     1764     1768 
    1767     1767     1767     1764     1764     1767     1767     1764 
    1765     1767     1767     1767     1764     1765     1769     1768 
    1765     1767     1767     1764     1764     1765     1767     1764 
    1764     1765     1764     1765     1767     1764     1763     1765 
    1767     1765     1765     1764     1765     1768     1769     1768 
    1767     1764     1763     1767     1768     1765     1764     1765 
    1768     1767     1765     1765     1765     1768     1769     1767 
    1764     1765     1767     1767     1767     1764     1764     1765 
    1768     1764     1761     1765     1767     1765     1767     1768 
    1765     1764     1767     1765     1763     1763     1765     1765 
    1765     1768     1768     1764     1761     1764     1767     1765 
    1764     1764     1768     1767     1763     1765     1769     1768 
    1765     1767     1768     1765     1767     1767     1765     1765 
    1765     1765     1765     1767     1767     1765     1765     1765 
    1764     1767     1769     1767     1764     1767     1767     1765 
    1767     1768     1765     1765     1767     1765     1763     1764 
    1765     1767     1768     1767     1768     1767     1765     1765 
    1767     1768     1765     1763     1767     1768     1764     1764 
    1769     1768     1763     1764     1767     1764     1764     1765 
    1765     1768     1767     1763     1767     1771     1767     1764 
    1765     1765     1763     1764     1765     1763     1764     1767 
    1768     1767     1764     1767     1769     1764     1760     1765 
    1767     1760     1764     1769     1765     1764     1768     1765 
    1763     1768     1769     1764     1765     1768     1767     1767 
    1767     1763     1764     1765     1765     1765     1767     1765 
    1765     1768     1768     1765     1765     1767     1767     1765 
    1763     1764     1767     1765     1764     1768     1768     1764 
    1760     1764     1768     1765     1763     1765     1768     1765 
    1765     1764     1761     1764     1767     1765     1763     1764 
    1767     1763     1760     1765     1767     1764     1764     1767 
    1768     1765     1765     1767     1767     1767     1767     1765 
    1765     1767     1767     1764     1764     1768     1765     1761 
    1764     1768     1765     1764     1767     1767     1763     1765 
    1768     1764     1763     1767     1768     1763     1764     1769 
    1767     1765     1765     1765     1767     1765     1767     1768 
    1767     1767     1767     1764     1763     1763     1765     1768 
    1767     1764     1765     1767     1769     1767     1765     1767 
    1764     1760     1765     1769     1768     1767     1767     1765 
    1765     1763     1763     1765     1765     1763     1765     1767 
    1765     1767     1768     1765     1763     1764     1765     1764 
    1765     1767     1763     1761     1765     1765     1763     1763 
    1764     1764     1760     1757     1764     1768     1761     1763 
    1773     1773     1761     1750     1752     1761     1763     1775 
    1811     1819     1765     1717     1737     1792     1813     1779 
    1730     1725     1777     1827     1813     1750     1728     1772 
    1804     1772     1733     1761     1818     1813     1760     1732 
    1753     1777     1732     1651     1661     1772     1845     1821 
    1777     1771     1772     1768     1759     1750     1755     1745 
    1706     1690     1728     1790     1825     1803     1757     1745 
    1791     1842     1806     1705     1707     1838     1881     1760 
    1696     1776     1813     1765     1733     1715     1722     1799 
    1863     1817     1741     1761     1814     1800     1779     1763 
    1705     1687     1776     1814     1718     1686     1819     1919 
    1840     1706     1653     1679     1740     1780     1756     1733 
    1783     1823     1786     1745     1745     1736     1725     1755 
    1777     1763     1752     1722     1687     1738     1814     1783 
    1729     1782     1852     1819     1748     1759     1799     1783 
    1794     1850     1800     1683     1719     1854     1848     1734 
    1705     1752     1790     1830     1845     1763     1672     1717 
    1834     1853     1765     1679     1669     1773     1910     1884 
    1678     1563     1692     1854     1831     1690     1630     1729 
    1880     1922     1795     1651     1663     1777     1830     1791 
    1726     1690     1718     1804     1850     1776     1671     1691 
    1776     1771     1691     1642     1661     1725     1782     1813 
    1825     1823     1833     1875     1885     1819     1764     1790 
    1829     1849     1871     1844     1772     1745     1769     1784 
    1759     1703     1686     1737     1779     1757     1706     1702 
    1744     1782     1779     1713     1657     1709     1788     1779 
    1717     1703     1749     1786     1780     1756     1740     1753 
    1786     1792     1763     1749     1798     1849     1811     1734 
    1730     1777     1817     1830     1795     1742     1728     1719 
    1661     1595     1621     1711     1750     1759     1802     1822 
    1795     1829     1931     1952     1861     1810     1854     1908 
    1918     1903     1876     1842     1831     1830     1777     1691 
    1640     1630     1609     1563     1544     1568     1605     1651 
    1728     1787     1767     1713     1710     1737     1722     1705 
    1757     1819     1818     1792     1765     1746     1800     1908 
    1933     1850     1802     1853     1887     1819     1748     1740 
    1755     1784     1814     1790     1748     1768     1799     1780 
    1776     1799     1748     1671     1695     1755     1749     1740 
    1767     1753     1696     1709     1800     1858     1849     1819 
    1786     1794     1864     1896     1809     1696     1699     1756 
    1738     1672     1626     1610     1647     1714     1706     1633 
    1628     1679     1674     1644     1680     1728     1750     1798 
    1861     1884     1864     1867     1921     1948     1911     1915 
    1969     1953     1863     1804     1806     1825     1845     1852 
    1813     1740     1679     1663     1672     1660     1609     1564 
    1548     1559     1620     1694     1734     1759     1786     1806 
    1821     1818     1792     1775     1794     1836     1863     1860 
    1841     1817     1809     1830     1858     1867     1849     1834 
    1818     1776     1733     1706     1667     1598     1539     1525 
    1540     1576     1624     1644     1664     1721     1787     1821 
    1837     1860     1877     1858     1838     1860     1902     1956 
    2007     2011     1985     1975     1953     1872     1760     1688 
    1675     1705     1742     1726     1664     1626     1634     1633 
    1567     1513     1557     1618     1629     1680     1786     1857 
    1883     1911     1914     1844     1771     1765     1794     1794 
    1786     1810     1818     1767     1728     1737     1741     1730 
    1730     1745     1787     1834     1819     1750     1698     1676 
    1682     1701     1715     1753     1831     1884     1865     1821 
    1790     1779     1791     1794     1773     1761     1773     1815 
    1867     1875     1844     1840     1854     1823     1750     1688 
    1679     1725     1765     1750     1725     1710     1684     1698 
    1744     1709     1615     1593     1641     1684     1709     1733 
    1765     1802     1817     1810     1788     1756     1740     1755 
    1791     1834     1853     1842     1818     1800     1813     1827 
    1817     1799     1804     1834     1854     1846     1838     1845 
    1846     1813     1749     1707     1709     1714     1715     1737 
    1717     1626     1613     1733     1802     1748     1709     1738 
    1757     1753     1782     1796     1745     1718     1771     1776 
    1702     1701     1768     1768     1760     1838     1881     1833 
    1786     1757     1718     1699     1707     1709     1691     1703 
    1773     1831     1814     1780     1802     1837     1833     1799 
    1765     1759     1779     1806     1823     1834     1848     1857 
    1833     1772     1741     1772     1795     1768     1752     1769 
    1773     1756     1755     1732     1664     1641     1686     1719 
    1702     1661     1641     1674     1759     1813     1775     1722 
    1730     1764     1773     1779     1779     1728     1680     1750 
    1873     1900     1850     1807     1769     1745     1803     1898 
    1914     1869     1856     1863     1829     1756     1694     1683 
    1744     1821     1817     1755     1725     1706     1636     1599 
    1676     1755     1729     1680     1710     1757     1738     1713 
    1755     1810     1823     1803     1779     1784     1823     1837 
    1791     1757     1802     1844     1787     1694     1687     1752 
    1786     1761     1740     1748     1742     1711     1711     1759 
    1800     1814     1826     1831     1813     1796     1787     1765 
    1768     1804     1831     1813     1746     1683     1675     1714 
    1771     1811     1802     1771     1763     1768     1780     1780 
    1725     1653     1652     1711     1763     1777     1772     1777 
    1809     1821     1767     1725     1757     1803     1804     1777 
    1768     1779     1788     1787     1790     1811     1821     1780 
    1723     1726     1752     1699     1641     1719     1830     1794 
    1702     1710     1765     1764     1737     1740     1776     1815 
    1834     1830     1799     1761     1779     1813     1772     1711 
    1750     1842     1868     1818     1744     1707     1711     1703 
    1699     1732     1752     1753     1777     1817     1849     1842 
    1783     1738     1773     1833     1833     1803     1786     1763 
    1741     1733     1717     1688     1674     1690     1719     1736 
    1730     1706     1695     1721     1722     1674     1663     1748 
    1838     1842     1798     1780     1817     1879     1890     1841 
    1821     1860     1879     1838     1804     1814     1817     1792 
    1769     1760     1756     1740     1706     1680     1694     1722 
    1711     1667     1667     1721     1746     1732     1737     1737 
    1707     1718     1783     1819     1799     1794     1842     1885 
    1861     1787     1737     1745     1776     1791     1780     1746 
    1701     1680     1723     1765     1741     1715     1729     1748 
    1756     1769     1798     1815     1779     1738     1760     1795 
    1769     1728     1752     1842     1923     1907     1799     1738 
    1775     1802     1767     1755     1794     1829     1815     1794 
    1800     1771     1683     1640     1660     1676     1682     1694 
    1699     1710     1752     1792     1787     1745     1718     1709 
    1696     1707     1755     1782     1773     1799     1867     1873 
    1802     1749     1742     1759     1799     1831     1840     1848 
    1846     1822     1822     1854     1834     1732     1629     1605 
    1672     1767     1809     1818     1831     1831     1796     1740 
    1713     1733     1736     1701     1710     1772     1810     1817 
    1817     1782     1722     1694     1706     1699     1652     1614 
    1628     1695     1780     1818     1799     1759     1723     1729 
    1761     1784     1811     1844     1858     1872     1884     1841 
    1780     1809     1877     1860     1821     1856     1887     1875 
    1852     1787     1692     1665     1713     1737     1707     1676 
    1647     1599     1609     1703     1757     1702     1640     1663 
    1726     1757     1756     1746     1726     1709     1725     1753 
    1769     1814     1884     1895     1857     1891     1966     1937 
    1827     1769     1764     1752     1763     1833     1863     1764 
    1653     1667     1752     1800     1784     1707     1610     1632 
    1800     1895     1764     1603     1638     1775     1815     1796 
    1825     1846     1786     1703     1710     1804     1841     1726 
    1580     1607     1850     2072     2043     1885     1846     1910 
    1902     1796     1715     1725     1780     1783     1661     1563 
    1699     1898     1846     1661     1649     1780     1868     1894 
    1817     1587     1378     1358     1467     1584     1669     1706 
    1659     1576     1572     1660     1795     1958     2104     2150 
    2068     1921     1733     1502     1344     1355     1445     1545 
    1614     1560     1433     1436     1634     1917     2170     2471 
    2833     2895     2439     1858     1599     1649     1814     1972 
    2004     1923     1887     1849     1699     1618     1867     2357 
    2620     2401     1979     1597     1233     1005     1031     1183 
    1312     1368     1364     1410     1572     1703     1694     1669 
    1688     1609     1416     1239     1116     1074     1269     1678 
    1902     1749     1632     1831     2020     1976     1953     2122 
    2308     2324     2169     1995     1984     2185     2405     2363 
    2062     1769     1629     1674     1976     2408     2623     2516 
    2255     1987     1800     1695     1553     1410     1449     1614 
    1647     1431     1065      780      805     1105     1368     1425 
    1453     1613     1709     1567     1432     1474     1480     1452 
    1651     1972     2042     1873     1782     1798     1757     1760 
    1942     2150     2272     2378     2377     2135     1927     2053 
    2289     2376     2432     2506     2444     2231     1989     1800 
    1694     1714     1850     1846     1480     1053      985     1188 
    1309     1294     1356     1551     1664     1545     1291     1104 
    1097     1223     1386     1552     1732     1907     1977     1899 
    1753     1555     1287     1151     1372     1714     1794     1761 
    1937     2126     2014     1863     2110     2538     2683     2643 
    2664     2592     2374     2327     2438     2305     1989     1919 
    2049     2027     1837     1678     1617     1636     1686     1629 
    1424     1250     1159     1047      982     1085     1225     1256 
    1239     1243     1212     1150     1198     1410     1637     1752 
    1807     1918     2079     2116     1942     1799     1877     2002 
    2058     2147     2239     2235     2147     2030     1962     1993 
    2027     1960     1842     1792     1879     2018     2016     1899 
    1918     2100     2219     2134     1903     1722     1675     1644 
    1588     1572     1547     1440     1335     1312     1314     1278 
    1267     1370     1479     1408     1229     1233     1443     1601 
    1641     1740     1938     2088     2058     1892     1746     1726 
    1827     1944     1992     2015     2053     2076     2049     1992 
    2030     2180     2261     2232     2242     2305     2299     2216 
    2128     1992     1795     1680     1668     1590     1420     1370 
    1466     1437     1283     1287     1412     1424     1320     1213 
    1188     1296     1462     1603     1690     1661     1580     1586 
    1602     1537     1578     1871     2207     2354     2320     2170 
    1956     1819     1868     1958     1949     1988     2172     2241 
    2060     1890     1884     1895     1890     1962     1996     1911 
    1895     1953     1860     1633     1482     1472     1524     1526 
    1444     1360     1325     1359     1510     1678     1732     1753 
    1809     1837     1786     1680     1655     1784     1927     1985 
    1999     1899     1630     1383     1321     1389     1526     1695 
    1810     1864     1884     1838     1707     1575     1578     1755 
    1972     2011     1830     1657     1701     1907     2092     2178 
    2249     2305     2262     2184     2145     2095     2014     1946 
    1919     1888     1810     1753     1776     1803     1745     1617 
    1518     1505     1516     1514     1501     1444     1332     1255 
    1294     1358     1337     1282     1285     1358     1435     1491 
    1594     1769     1957     2085     2142     2188     2241     2200 
    2035     1946     2034     2043     1804     1586     1660     1887 
    1966     1848     1733     1730     1732     1705     1761     1898 
    1998     2020     2003     1999     2047     2126     2173     2161 
    2068     1896     1728     1632     1549     1435     1382     1455 
    1553     1576     1543     1509     1455     1337     1254     1343 
    1516     1509     1332     1262     1364     1463     1528     1655 
    1815     1908     1931     1953     2020     2139     2257     2311 
    2367     2486     2570     2508     2324     2134     2014     1977 
    1975     1877     1701     1626     1621     1513     1394     1445 
    1551     1509     1399     1378     1381     1356     1383     1433 
    1436     1476     1599     1652     1587     1559     1633     1702 
    1692     1710     1846     2003     2073     2080     2084     2101 
    2097     2033     1934     1857     1819     1821     1852     1919 
    2043     2161     2164     2077     2011     1977     1900     1787 
    1749     1795     1810     1744     1667     1641     1597     1472 
    1316     1173     1105     1175     1293     1313     1294     1358 
    1449     1485     1537     1706     1922     2060     2138     2215 
    2199     2068     2007     2046     2002     1879     1830     1837 
    1827     1827     1837     1830     1852     1938     2030     2037 
    1946     1865     1887     1972     2030     2010     1934     1861 
    1786     1671     1570     1536     1513     1459     1433     1441 
    1453     1514     1607     1628     1597     1611     1661     1669 
    1621     1602     1648     1664     1656     1725     1806     1780 
    1722     1776     1922     2002     1968     1975     2095     2155 
    2047     1894     1817     1800     1802     1819     1849     1858 
    1818     1769     1761     1756     1738     1760     1804     1802 
    1755     1715     1706     1714     1723     1730     1748     1769 
    1753     1690     1618     1556     1522     1541     1556     1505 
    1435     1435     1512     1613     1723     1858     1975     2008 
    1993     2006     2029     2020     2002     1989     1995     2022 
    1999     1872     1717     1620     1602     1664     1740     1773 
    1800     1838     1861     1887     1912     1906     1868     1821 
