Origin Time       2018/04/09 06:38:00
Lat.              35.2
Long.             132.6
Depth. (km)       10
Mag.              3.8
Station Code      TTRH03
Station Lat.      35.3553
Station Long.     133.4918
Station Height(m) 220
Record Time       2018/04/09 06:39:13
Sampling Freq(Hz) 100Hz
Duration Time(s)  120
Dir.              1
Scale Factor      2942(gal)/8224139
Max. Acc. (gal)   0.247
Last Correction   2018/04/09 06:38:58
Memo.             
[...]
  -42797   -42800   -42799   -42796   -42797   -42799   -42799   -42801 
  -42800   -42797   -42797   -42797   -42799   -42797   -42795   -42796 
  -42799   -42800   -42799   -42797   -42797   -42797   -42799   -42799 
  -42797   -42799   -42800   -42799   -42800   -42797   -42796   -42799 
  -42800   -42797   -42796   -42797   -42799   -42800   -42799   -42799 
  -42799   -42800   -42799   -42797   -42797   -42799   -42799   -42799 
  -42797   -42797   -42800   -42799   -42796   -42799   -42800   -42799 
  -42797   -42797   -42797   -42797   -42796   -42797   -42799   -42799 
  -42799   -42797   -42799   -42801   -42799   -42796   -42797   -42801 
  -42801   -42799   -42799   -42797   -42796   -42797   -42800   -42801 
  -42797   -42795   -42797   -42799   -42799   -42799   -42799   -42797 
  -42797   -42797   -42796   -42799   -42801   -42800   -42797   -42796 
  -42800   -42801   -42799   -42797   -42799   -42799   -42799   -42800 
  -42799   -42799   -42799   -42796   -42800   -42803   -42799   -42799 
  -42801   -42801   -42800   -42800   -42800   -42799   -42799   -42797 
  -42799   -42801   -42799   -42797   -42801   -42801   -42800   -42801 
  -42799   -42796   -42797   -42800   -42799   -42796   -42796   -42797 
  -42801   -42801   -42797   -42799   -42799   -42797   -42800   -42799 
  -42797   -42799   -42799   -42800   -42801   -42799   -42797   -42801 
  -42799   -42797   -42799   -42797   -42797   -42800   -42800   -42800 
  -42799   -42799   -42797   -42799   -42797   -42796   -42799   -42800 
  -42799   -42797   -42797   -42799   -42801   -42800   -42799   -42800 
  -42801   -42800   -42797   -42799   -42800   -42800   -42799   -42797 
  -42797   -42797   -42797   -42799   -42800   -42800   -42800   -42800 
  -42799   -42797   -42797   -42797   -42799   -42800   -42800   -42799 
  -42797   -42797   -42797   -42797   -42795   -42793   -42796   -42799 
  -42800   -42800   -42799   -42797   -42796   -42797   -42799   -42799 
  -42799   -42800   -42799   -42796   -42796   -42797   -42800   -42801 
  -42801   -42801   -42801   -42799   -42796   -42799   -42796   -42795 
  -42797   -42799   -42797   -42797   -42796   -42796   -42799   -42797 
  -42796   -42799   -42800   -42801   -42803   -42800   -42797   -42800 
  -42797   -42795   -42797   -42800   -42800   -42797   -42796   -42797 
  -42797   -42797   -42797   -42799   -42797   -42797   -42796   -42796 
  -42799   -42796   -42795   -42797   -42797   -42797   -42797   -42796 
  -42796   -42799   -42797   -42795   -42797   -42800   -42800   -42799 
  -42796   -42796   -42799   -42799   -42796   -42796   -42799   -42797 
  -42797   -42801   -42801   -42796   -42796   -42799   -42797   -42797 
  -42797   -42796   -42797   -42801   -42799   -42796   -42799   -42799 
  -42796   -42799   -42799   -42799   -42801   -42800   -42797   -42799 
  -42799   -42797   -42800   -42799   -42797   -42800   -42800   -42797 
  -42799   -42799   -42797   -42800   -42799   -42797   -42797   -42800 
  -42801   -42799   -42799   -42800   -42799   -42799   -42799   -42797 
  -42796   -42797   -42799   -42799   -42799   -42797   -42797   -42796 
  -42796   -42799   -42800   -42799   -42799   -42800   -42799   -42799 
  -42800   -42799   -42799   -42797   -42797   -42799   -42797   -42797 
  -42800   -42799   -42800   -42801   -42800   -42797   -42799   -42799 
  -42796   -42797   -42801   -42797   -42795   -42800   -42800   -42795 
  -42799   -42803   -42799   -42797   -42799   -42797   -42800   -42800 
  -42796   -42796   -42799   -42797   -42799   -42797   -42796   -42796 
  -42800   -42801   -42803   -42800   -42799   -42800   -42799   -42797 
  -42799   -42801   -42801   -42796   -42795   -42797   -42799   -42799 
  -42800   -42799   -42795   -42797   -42799   -42799   -42799   -42797 
  -42797   -42801   -42803   -42800   -42799   -42800   -42801   -42797 
  -42796   -42799   -42800   -42797   -42796   -42796   -42797   -42797 
  -42797   -42800   -42800   -42797   -42796   -42792   -42796   -42804 
  -42804   -42797   -42793   -42792   -42785   -42785   -42808   -42831 
  -42827   -42796   -42770   -42776   -42801   -42807   -42795   -42801 
  -42819   -42819   -42793   -42768   -42776   -42811   -42834   -42822 
  -42789   -42774   -42781   -42788   -42790   -42796   -42805   -42823 
  -42827   -42792   -42759   -42773   -42816   -42828   -42796   -42782 
  -42804   -42799   -42769   -42785   -42817   -42803   -42773   -42792 
  -42832   -42832   -42808   -42799   -42796   -42796   -42808   -42797 
  -42772   -42784   -42812   -42805   -42777   -42769   -42785   -42807 
  -42823   -42807   -42788   -42805   -42805   -42782   -42788   -42813 
  -42812   -42784   -42772   -42790   -42815   -42809   -42777   -42769 
  -42820   -42871   -42827   -42757   -42789   -42858   -42839   -42782 
  -42781   -42808   -42813   -42805   -42789   -42762   -42757   -42792 
  -42820   -42803   -42768   -42770   -42789   -42780   -42782   -42808 
  -42815   -42805   -42811   -42832   -42803   -42754   -42777   -42850 
  -42874   -42812   -42774   -42813   -42804   -42781   -42793   -42784 
  -42792   -42811   -42789   -42777   -42789   -42788   -42773   -42809 
  -42866   -42827   -42750   -42739   -42781   -42840   -42853   -42807 
  -42789   -42778   -42742   -42751   -42799   -42830   -42828   -42790 
  -42789   -42840   -42855   -42800   -42754   -42792   -42863   -42865 
  -42807   -42766   -42765   -42786   -42793   -42795   -42820   -42803 
  -42750   -42755   -42784   -42785   -42793   -42816   -42830   -42811 
  -42795   -42793   -42766   -42759   -42815   -42853   -42831   -42793 
  -42774   -42803   -42830   -42803   -42799   -42834   -42834   -42789 
  -42772   -42808   -42823   -42789   -42770   -42774   -42799   -42812 
  -42781   -42782   -42817   -42799   -42770   -42765   -42766   -42812 
  -42840   -42786   -42749   -42788   -42835   -42859   -42840   -42796 
  -42799   -42817   -42801   -42784   -42801   -42828   -42835   -42816 
  -42773   -42777   -42828   -42785   -42736   -42799   -42823   -42792 
  -42790   -42778   -42781   -42809   -42793   -42777   -42800   -42816 
  -42801   -42751   -42763   -42834   -42838   -42805   -42781   -42788 
  -42830   -42812   -42776   -42801   -42840   -42836   -42792   -42759 
  -42765   -42786   -42803   -42813   -42820   -42832   -42834   -42801 
  -42762   -42782   -42842   -42840   -42795   -42770   -42768   -42823 
  -42834   -42741   -42736   -42807   -42809   -42804   -42808   -42795 
  -42786   -42788   -42793   -42800   -42797   -42784   -42797   -42822 
  -42807   -42786   -42789   -42795   -42807   -42826   -42817   -42782 
  -42786   -42842   -42842   -42773   -42770   -42830   -42827   -42790 
  -42795   -42803   -42777   -42765   -42780   -42782   -42803   -42836 
  -42805   -42762   -42789   -42820   -42807   -42800   -42811   -42803 
  -42788   -42786   -42803   -42809   -42795   -42797   -42799   -42789 
  -42789   -42772   -42799   -42847   -42828   -42809   -42805   -42772 
  -42769   -42805   -42809   -42793   -42800   -42801   -42792   -42780 
  -42763   -42790   -42827   -42805   -42795   -42816   -42823   -42822 
  -42803   -42770   -42780   -42789   -42776   -42789   -42811   -42807 
  -42780   -42768   -42793   -42823   -42824   -42786   -42782   -42823 
  -42807   -42780   -42811   -42831   -42812   -42792   -42778   -42773 
  -42792   -42792   -42784   -42813   -42830   -42817   -42800   -42780 
  -42778   -42811   -42851   -42817   -42753   -42772   -42807   -42790 
  -42782   -42803   -42807   -42803   -42800   -42797   -42811   -42805 
  -42786   -42790   -42800   -42813   -42824   -42804   -42780   -42784 
  -42793   -42795   -42808   -42809   -42762   -42751   -42824   -42855 
  -42804   -42766   -42782   -42824   -42839   -42808   -42765   -42750 
  -42784   -42817   -42811   -42812   -42826   -42807   -42784   -42805 
  -42817   -42785   -42763   -42776   -42804   -42799   -42768   -42780 
  -42815   -42807   -42765   -42762   -42811   -42842   -42853   -42834 
  -42777   -42778   -42831   -42827   -42800   -42808   -42799   -42772 
  -42770   -42782   -42801   -42815   -42805   -42795   -42788   -42781 
  -42785   -42793   -42789   -42795   -42817   -42809   -42774   -42780 
  -42809   -42808   -42803   -42786   -42769   -42805   -42826   -42809 
  -42804   -42786   -42812   -42861   -42815   -42738   -42745   -42799 
  -42817   -42795   -42800   -42834   -42817   -42786   -42788   -42797 
  -42816   -42824   -42823   -42803   -42757   -42757   -42784   -42808 
  -42820   -42790   -42789   -42808   -42781   -42780   -42817   -42817 
  -42782   -42781   -42805   -42819   -42823   -42801   -42799   -42835 
  -42835   -42782   -42738   -42754   -42804   -42817   -42804   -42792 
  -42801   -42817   -42790   -42773   -42803   -42800   -42782   -42807 
  -42819   -42808   -42816   -42808   -42762   -42761   -42800   -42800 
  -42808   -42830   -42817   -42812   -42801   -42797   -42811   -42788 
  -42768   -42782   -42792   -42808   -42823   -42784   -42753   -42800 
  -42824   -42805   -42822   -42817   -42789   -42803   -42811   -42774 
  -42776   -42836   -42832   -42782   -42784   -42803   -42801   -42789 
  -42795   -42819   -42788   -42750   -42777   -42807   -42823   -42822 
  -42785   -42768   -42800   -42835   -42823   -42786   -42788   -42816 
  -42838   -42811   -42769   -42788   -42800   -42766   -42762   -42786 
  -42820   -42831   -42804   -42786   -42786   -42797   -42799   -42785 
  -42807   -42824   -42807   -42807   -42795   -42777   -42796   -42790 
  -42777   -42815   -42831   -42804   -42777   -42780   -42817   -42838 
  -42797   -42772   -42809   -42828   -42792   -42765   -42797   -42838 
  -42832   -42805   -42770   -42757   -42799   -42811   -42778   -42789 
  -42812   -42795   -42778   -42786   -42799   -42816   -42832   -42827 
  -42813   -42790   -42768   -42780   -42823   -42831   -42769   -42734 
  -42782   -42808   -42788   -42797   -42834   -42844   -42805   -42776 
  -42788   -42796   -42812   -42827   -42792   -42785   -42822   -42804 
  -42770   -42800   -42826   -42789   -42778   -42811   -42796   -42781 
  -42809   -42813   -42804   -42790   -42772   -42793   -42800   -42768 
  -42778   -42812   -42811   -42799   -42792   -42782   -42795   -42809 
  -42805   -42819   -42824   -42805   -42797   -42778   -42770   -42797 
  -42824   -42827   -42803   -42800   -42812   -42797   -42778   -42780 
  -42809   -42820   -42795   -42776   -42799   -42823   -42799   -42797 
  -42797   -42766   -42789   -42809   -42789   -42797   -42816   -42807 
  -42778   -42776   -42804   -42822   -42822   -42812   -42805   -42812 
  -42799   -42795   -42831   -42803   -42736   -42770   -42813   -42789 
  -42781   -42792   -42797   -42805   -42803   -42803   -42804   -42790 
  -42797   -42813   -42793   -42801   -42826   -42800   -42784   -42789 
  -42792   -42813   -42807   -42788   -42808   -42807   -42785   -42774 
  -42774   -42796   -42809   -42811   -42815   -42796   -42785   -42804 
  -42819   -42815   -42795   -42788   -42796   -42785   -42799   -42826 
  -42790   -42747   -42765   -42807   -42838   -42830   -42790   -42773 
  -42765   -42770   -42816   -42835   -42816   -42803   -42781   -42797 
  -42838   -42801   -42750   -42778   -42831   -42820   -42778   -42784 
  -42805   -42822   -42824   -42799   -42793   -42800   -42799   -42801 
  -42788   -42801   -42827   -42800   -42781   -42786   -42789   -42793 
  -42781   -42768   -42774   -42808   -42840   -42817   -42788   -42809 
  -42813   -42788   -42784   -42785   -42769   -42800   -42832   -42789 
  -42795   -42830   -42782   -42772   -42804   -42784   -42777   -42815 
  -42834   -42824   -42809   -42790   -42782   -42797   -42789   -42781 
  -42823   -42839   -42799   -42773   -42788   -42811   -42816   -42793 
  -42777   -42786   -42797   -42785   -42777   -42813   -42824   -42803 
  -42820   -42819   -42789   -42772   -42768   -42797   -42824   -42808 
  -42784   -42785   -42803   -42808   -42793   -42768   -42792   -42847 
  -42838   -42785   -42782   -42817   -42827   -42826   -42817   -42785 
  -42761   -42753   -42763   -42778   -42776   -42785   -42804   -42808 
  -42823   -42819   -42758   -42749   -42808   -42822   -42822   -42832 
  -42805   -42782   -42780   -42780   -42792   -42820   -42842   -42830 
  -42795   -42778   -42792   -42811   -42804   -42785   -42807   -42834 
  -42803   -42772   -42799   -42819   -42785   -42754   -42773   -42800 
  -42799   -42797   -42822   -42834   -42792   -42763   -42811   -42838 
  -42805   -42768   -42754   -42792   -42838   -42805   -42763   -42785 
  -42813   -42773   -42734   -42793   -42878   -42880   -42827   -42786 
  -42781   -42817   -42843   -42790   -42765   -42796   -42782   -42751 
  -42754   -42804   -42831   -42778   -42754   -42819   -42874   -42830 
  -42781   -42811   -42811   -42785   -42777   -42759   -42765   -42795 
  -42823   -42839   -42827   -42817   -42793   -42745   -42778   -42861 
  -42828   -42751   -42754   -42808   -42827   -42804   -42790   -42772 
  -42757   -42730   -42678   -42696   -42732   -42695   -42674   -42751 
  -42831   -42847   -42885   -42892   -42799   -42753   -42809   -42877 
  -42923   -42936   -42866   -42751   -42668   -42585   -42570   -42715 
  -42911   -42973   -42882   -42813   -42882   -42942   -42823   -42684 
  -42761   -42959   -43028   -42869   -42664   -42665   -42786   -42758 
  -42677   -42850   -43189   -43372   -43313   -43144   -43039   -42904 
  -42607   -42461   -42654   -42803   -42660   -42433   -42288   -42159 
  -42109   -42369   -42808   -43006   -42993   -43082   -43235   -43262 
  -43101   -42912   -42971   -43082   -42812   -42412   -42394   -42612 
  -42693   -42607   -42506   -42573   -42777   -42989   -43128   -42985 
  -42757   -42822   -42920   -42788   -42638   -42665   -42831   -42996 
  -43008   -42876   -42777   -42743   -42782   -42913   -42943   -42855 
  -42839   -42916   -42955   -42751   -42450   -42503   -42701   -42603 
  -42604   -42920   -43028   -42770   -42512   -42489   -42658   -42986 
  -43232   -43035   -42757   -42670   -42618   -42777   -43005   -42971 
  -42795   -42762   -42911   -42840   -42589   -42606   -42832   -43017 
  -43042   -42943   -42800   -42743   -42886   -42923   -42784   -42790 
  -42828   -42742   -42680   -42645   -42660   -42722   -42781   -42915 
  -42908   -42765   -42820   -42830   -42658   -42654   -42850   -42912 
  -42730   -42638   -42689   -42714   -42790   -42820   -42761   -42757 
  -42824   -42894   -42735   -42529   -42726   -42997   -42839   -42591 
  -42758   -42974   -42858   -42782   -42803   -42774   -42826   -42790 
  -42693   -42753   -42832   -42940   -43027   -42862   -42727   -42847 
  -42936   -42907   -42826   -42692   -42701   -42881   -42900   -42759 
  -42765   -42925   -42977   -42815   -42684   -42755   -42903   -42928 
  -42919   -43006   -42838   -42452   -42507   -42909   -42986   -42719 
  -42600   -42687   -42751   -42750   -42666   -42639   -42696   -42715 
  -42811   -42942   -43052   -43131   -42958   -42786   -42893   -42912 
  -42716   -42573   -42603   -42750   -42786   -42674   -42681   -42828 
  -42908   -42793   -42634   -42750   -43013   -42970   -42723   -42714 
  -42851   -42789   -42608   -42557   -42662   -42778   -42876   -42925 
  -42784   -42781   -43000   -42888   -42707   -42815   -42809   -42750 
  -42835   -42859   -42785   -42697   -42708   -42835   -42858   -42770 
  -42843   -42982   -42839   -42693   -42882   -43006   -42890   -42788 
  -42731   -42770   -42807   -42745   -42827   -42869   -42688   -42634 
  -42726   -42766   -42831   -42919   -42881   -42747   -42720   -42803 
  -42880   -42869   -42724   -42668   -42803   -42876   -42812   -42695 
  -42688   -42925   -43046   -42863   -42781   -42840   -42777   -42754 
  -42885   -42893   -42765   -42681   -42651   -42778   -42971   -42839 
  -42525   -42597   -42936   -42955   -42685   -42618   -42786   -42857 
  -42827   -42805   -42789   -42847   -42901   -42816   -42741   -42820 
  -42889   -42876   -42840   -42727   -42738   -42896   -42890   -42784 
  -42728   -42749   -42777   -42736   -42739   -42839   -42927   -42838 
  -42660   -42638   -42670   -42695   -42704   -42669   -42780   -42924 
  -42880   -42759   -42754   -42888   -42930   -42884   -42894   -42866 
  -42874   -42911   -42846   -42817   -42840   -42849   -42880   -42838 
  -42726   -42705   -42758   -42804   -42796   -42720   -42745   -42847 
  -42793   -42642   -42616   -42687   -42705   -42751   -42861   -42943 
  -42942   -42827   -42817   -42936   -42892   -42769   -42784   -42911 
  -42994   -42925   -42867   -42950   -42890   -42618   -42534   -42705 
  -42788   -42695   -42654   -42723   -42772   -42750   -42673   -42746 
  -42996   -43048   -42874   -42769   -42785   -42799   -42793   -42761 
  -42685   -42672   -42681   -42680   -42735   -42738   -42747   -42812 
  -42807   -42785   -42827   -42942   -43006   -42913   -42826   -42807 
  -42844   -42927   -42847   -42674   -42685   -42830   -42890   -42761 
  -42647   -42720   -42766   -42734   -42738   -42757   -42819   -42873 
  -42823   -42770   -42792   -42807   -42742   -42693   -42811   -42903 
  -42842   -42846   -42851   -42762   -42739   -42759   -42834   -42969 
  -42962   -42843   -42793   -42746   -42676   -42697   -42768   -42761 
  -42699   -42716   -42790   -42851   -42838   -42724   -42759   -42903 
  -42881   -42816   -42839   -42897   -42912   -42880   -42846   -42807 
  -42836   -42874   -42796   -42687   -42709   -42792   -42703   -42654 
  -42815   -42871   -42763   -42707   -42774   -42843   -42780   -42705 
  -42780   -42940   -42954   -42788   -42708   -42809   -42923   -42877 
  -42746   -42759   -42842   -42800   -42728   -42753   -42813   -42867 
  -42863   -42800   -42824   -42836   -42731   -42762   -42869   -42774 
  -42661   -42757   -42878   -42809   -42707   -42773   -42867   -42843 
  -42782   -42768   -42784   -42815   -42847   -42811   -42790   -42878 
  -42832   -42655   -42666   -42828   -42863   -42712   -42664   -42793 
  -42857   -42862   -42827   -42766   -42809   -42850   -42843   -42822 
  -42754   -42759   -42808   -42785   -42786   -42858   -42894   -42811 
  -42715   -42727   -42800   -42870   -42811   -42693   -42774   -42886 
  -42855   -42784   -42749   -42789   -42795   -42796   -42826   -42793 
  -42847   -42884   -42781   -42790   -42850   -42816   -42800   -42816 
  -42786   -42743   -42785   -42803   -42753   -42785   -42843   -42793 
  -42724   -42746   -42822   -42835   -42770   -42763   -42823   -42839 
  -42847   -42834   -42792   -42811   -42801   -42774   -42777   -42731 
  -42746   -42799   -42805   -42832   -42839   -42815   -42768   -42735 
  -42801   -42844   -42774   -42731   -42811   -42893   -42816   -42735 
  -42773   -42803   -42813   -42792   -42747   -42770   -42785   -42772 
  -42807   -42842   -42858   -42847   -42839   -42863   -42807   -42732 
  -42745   -42732   -42743   -42830   -42850   -42797   -42770   -42792 
  -42803   -42789   -42792   -42799   -42822   -42824   -42797   -42805 
  -42842   -42840   -42776   -42722   -42739   -42800   -42834   -42817 
  -42786   -42788   -42885   -42938   -42807   -42742   -42826   -42862 
  -42817   -42776   -42755   -42734   -42781   -42816   -42741   -42745 
  -42831   -42824   -42761   -42773   -42851   -42880   -42824   -42768 
  -42782   -42766   -42743   -42826   -42853   -42805   -42822   -42828 
