Origin Time       2018/04/09 06:38:00
Lat.              35.2
Long.             132.6
Depth. (km)       10
Mag.              3.8
Station Code      SMN015
Station Lat.      35.3644
Station Long.     133.1704
Station Height(m) 32
Record Time       2018/04/09 06:39:06
Sampling Freq(Hz) 100Hz
Duration Time(s)  60
Dir.              N-S
Scale Factor      7845(gal)/8223790
Max. Acc. (gal)   1.712
Last Correction   2018/04/09 06:39:05
Memo.             
[...]
     120      118      116      117      118      117      116      116 
     117      118      120      118      120      118      118      120 
     120      118      120      120      118      118      118      120 
     120      118      118      120      120      118      118      121 
     120      118      118      118      117      116      116      118 
     120      120      118      117      118      118      116      117 
     117      118      117      116      117      120      116      114 
     117      118      118      120      118      117      118      120 
     117      116      118      120      117      117      118      118 
     118      117      117      117      116      114      114      116 
     117      116      117      117      116      118      120      117 
     117      118      116      116      118      118      118      117 
     117      117      117      117      116      116      116      117 
     117      116      118      121      117      114      116      117 
     118      118      117      117      118      118      116      117 
     120      120      120      118      120      120      117      118 
     117      116      118      121      118      118      117      118 
     120      117      116      118      118      120      118      118 
     121      118      117      120      118      117      120      120 
     120      120      118      117      117      120      121      118 
     117      120      118      117      117      118      117      117 
     118      120      120      118      116      116      118      118 
     117      118      118      118      120      120      117      118 
     120      117      116      118      118      117      117      117 
     117      118      118      116      117      118      120      120 
     120      118      117      120      118      117      118      118 
     118      117      117      120      118      117      118      120 
     120      118      118      118      117      117      117      118 
     118      117      117      121      120      117      117      117 
     116      116      118      121      118      116      118      121 
     117      117      117      116      117      120      117      117 
     120      120      118      117      116      117      118      116 
     117      118      117      117      117      118      120      120 
     118      117      118      118      117      116      116      117 
     118      116      114      117      118      118      118      117 
     114      117      120      117      117      120      118      116 
     116      118      118      117      116      116      118      120 
     116      117      120      118      117      118      117      116 
     116      117      117      118      120      117      117      120 
     121      121      120      117      117      118      117      117 
     117      116      118      117      116      117      117      118 
     118      117      118      120      116      116      118      120 
     118      116      117      118      118      118      118      117 
     117      117      116      116      118      117      117      117 
     117      116      114      116      120      120      116      118 
     118      116      116      118      117      114      118      121 
     116      112      118      118      117      120      118      116 
     117      120      117      116      117      120      117      116 
     118      118      118      118      118      117      120      120 
     117      117      120      120      120      118      120      121 
     118      117      118      118      118      117      116      117 
     118      117      118      117      116      118      118      118 
     117      117      117      118      117      117      118      118 
     117      117      117      117      116      117      120      118 
     116      118      120      117      116      117      117      117 
     120      120      117      117      117      116      120      118 
     117      118      118      118      118      120      120      118 
     117      117      116      116      116      118      120      118 
     118      121      118      116      118      120      118      118 
     117      116      118      120      117      117      118      117 
     117      120      118      117      118      120      120      118 
     118      118      117      117      120      120      117      118 
     120      118      116      117      120      120      117      116 
     120      121      118      117      117      117      118      120 
     118      117      118      120      118      120      121      118 
     118      117      117      120      121      120      117      117 
     117      117      116      117      120      118      117      118 
     118      117      118      118      120      120      120      120 
     118      120      120      117      117      117      117      118 
     120      120      117      117      118      117      117      118 
     118      120      120      118      121      120      114      118 
     122      118      117      118      117      116      117      117 
     120      118      117      120      118      117      118      118 
     117      117      117      117      118      118      117      118 
     118      116      116      118      117      118      118      118 
     120      118      117      118      118      118      120      117 
     116      117      117      116      116      118      118      118 
     117      117      118      118      117      118      120      120 
     118      118      118      117      118      118      118      118 
     118      114      114      118      117      114      117      118 
     117      120      120      118      120      121      120      118 
     117      120      117      112      116      118      117      117 
     118      120      118      116      116      117      117      118 
     118      116      116      118      120      118      120      118 
     117      116      118      118      116      117      118      118 
     117      118      120      120      117      117      118      117 
     117      117      117      120      117      116      117      118 
     118      120      120      118      117      120      121      117 
     116      116      120      121      117      114      118      121 
     118      117      118      117      116      117      120      118 
     117      118      118      120      118      116      117      120 
     118      117      118      120      120      118      117      117 
     117      117      117      118      120      118      118      120 
     117      116      117      117      117      117      116      116 
     117      117      117      114      112      114      116      116 
     116      122      129      117       87       79      126      199 
     209      125       35       14       62      147      222      228 
     153       22      -67       40      255      310      214      120 
      16      -43       51      163      187      171       95       49 
      83       43       47      221      243       64       17      117 
     170      162      178      222      197       67       -2       54 
     101      117      167      182      116       70      112      140 
      86       75      109       91       81      109      157      190 
     125       68      176      251      105       -4       81      151 
     140      121       76       59       94       94      101      162 
     180      175      175       94       13       40      101      175 
     186       89       75      143      162      205      221      117 
       5      -11       72      184      190      131      109       81 
      56       64      105      193      225      147       85       52 
      36      126      225      195      116       63       44       87 
     116       95      108      106       74      102      133      108 
     129      193      183      147      131       94       81      125 
     120       89      112      137      153      182      143       72 
     108      168      129       56        4       17      102      152 
     143      131      124      117      117      126      159      190 
     163      102       60       31       64      166      195      114 
      70      112      141      143      137      121      129      117 
      36       45      153      168      133      136      136      172 
     190      108       64      108      116      101      114      112 
     101      108       85       76      126      144      117       86 
      74      116      166      174      178      160       87       39 
      56       79       94      125      135      112       98      102 
     143      217      240      184      140      149      147       83 
      35       62      108      124      105       47       32      101 
     126      108      141      153      112      120      171      175 
     131       98       81       85      116      112       75       82 
     120      163      171      108       65       75      108      160 
     149      108      136      144      110      131      167      153 
     112       79       86      131      152      124       91       98 
     135      148      110       47       47      137      157       67 
      58      147      184      147       94       98      153      156 
     110       93      117      151      139      101       89       90 
      99      102      102      121      140      149      129       87 
     122      176      136       93      105      105       83       71 
     118      186      170      116      101       97      101      106 
     125      144      121      106      114       85       75      116 
     128      114      122      106       76      129      182      151 
     131      140      147      131       93      116      164      133 
      70       58       94       95       78      129      171      153 
     151      128       91      109      121      103      117      148 
     117       55       90      174      139       62       72      121 
     164      143       75      120      184      133       91      120 
     139      110       56       41      101      168      141       65 
      76      147      167      129      103      112      129      163 
     189      151      118      160      166       94       85      120 
      97       74       63       43       67       93       82      120 
     172      152      116      112      137      180      163      109 
     118      149      155      156      108       27       51      159 
     152       43       31      114      151      109       85      136 
     162      120      120      152      171      198      176      120 
      89       90      118      108       71       89      103       79 
      68       90      114      112      122      137      125      120 
     120      144      184      135       62       95      176      180 
     118      112      160      163      120       99      139      156 
      81       27       55       79       78       72       76       94 
      94       99      155      214      218      176      137      126 
     131      121      102      102       91       59       47       91 
     152      160      116       97      139      170      151      121 
     114      144      160      116       68       68      101      126 
     120      118      129      106       79       95      160      187 
     108       68      148      160       74       62      128      162 
     129       93      136      180      110       40       86      163 
     183      126       23       10      120      178      133      112 
     137      148      139      126      128      129       81       37 
      87      151      144       94       60       74      124      189 
     212      141       75      139      197      125      102      163 
     108       22       47       83      110      159      155      108 
      90       87       99      137      149      144      155      133 
      79       62       89      128      147      106      105      191 
     193      114       93      114      174      151       16       17 
     109      105       85      103      153      221      176       23 
      22      206      261      157      114      120      114       99 
      60       49       87      103       81       75       97      133 
     166      122       43       90      205      205      135      117 
     141      117       52       95      193      152       82      106 
     128      120       93       95      212      266       94      -52 
      -1      117      197      167       86       93      129      105 
      97      167      202      108       36       62       85      122 
     160      114      101      151      133      108      195      280 
     186       -5      -20      120      143       68       54       85 
     101       82       63      140      265      225      118      174 
     217      168      174      162      144      203      245      245 
     225      193      152       49      -37      -27      -67     -131 
     -68       95      360      662      916     1159     1209      838 
     230     -265     -562     -828    -1119    -1351    -1549    -1653 
   -1460     -924     -257      238      442      473      584      961 
    1447     1784     1912     1723     1232      714      396      359 
     367       36     -556    -1026    -1230    -1193     -947     -645 
    -438     -360     -340     -241       21      499     1112     1512 
    1503     1296     1088      881      649      373       54     -237 
    -483     -751    -1011    -1096     -928     -683     -490     -216 
     144      438      699      990     1233     1310     1136      733 
     283      -93     -410     -621     -661     -603     -510     -391 
    -225      -11      194      425      672      754      675      572 
     469      357      214       23     -125     -187     -221     -201 
    -144      -72      129      317      322      313      305      183 
      16      -74      -49        8       39       60       20      -32 
     118      344      380      324      282      241      243      286 
     382      433      298      125       71       20     -137     -307 
    -344     -291     -259     -211      -72      109      205      159 
     112      168      243      263      252      203      109       40 
      18      -39     -116     -131     -118     -110      -45       83 
     207      324      467      616      730      761      680      519 
     348      178       64       27     -106     -344     -468     -456 
    -388     -272     -137       13      203      391      467      453 
     499      540      422      272      225      129      -36     -118 
    -159     -151      -44       18        8        0      -17      -37 
      -4       58       91      170      298      318      295      376 
     471      438      294      171       95      -18     -149     -224 
    -209      -47      162      265      305      275      170      171 
     238      176       59        1      -11        4       60      164 
     237      259      283      245      139       83      109      141 
      94        2      -28      -87     -202     -139       44       76 
      63      216      423      417      198       75      133      162 
      32      -94      -27       63       62      117      162      129 
      95       83      144      171       68       29      140      205 
     147      124      157      170      148       95      105      157 
     137       76       17       11      102      186      197      152 
     126      176      228      259      292      286      266      276 
     241      164      106       25      -97     -228     -303     -263 
    -178     -102       13      197      403      488      438      390 
     353      274      147       49       47       70       55       10 
     -31        2      108      144       59      -18       14      144 
     303      336      225      194      246      205       91       35 
      63       91       20      -54      -14       25       10        8 
      14       10       58      189      283      306      348      395 
     386      275      139      114      129       98       54       18 
     -29      -99     -112       -5      120      148      122      122 
     126      129      144      144      155      129       63       65 
      93       74       89      129       99       37       55      120 
     129       98      110      163      180      157      141      149 
     194      241      232      198      144       49      -27      -68 
    -106      -98      -56      -37      -11       65      157      199 
     224      278      291      225      180      222      298      306 
     246      209      246      299      282      225      182      116 
      49       39       89      112       39      -32      -31       14 
      49       35       28       72       97       78       68       65 
      51       58       93      133      175      205      222      246 
     246      189      157      194      209      189      156       78 
     -14      -70      -85      -71      -82     -131     -118       -4 
     101      156      225      282      272      252      311      405 
     386      287      253      246      151      -54     -225     -243 
    -194     -164     -122      -36       63      117      164      278 
     370      356      319      314      268      178      109       91 
      87       51       29       68       90       55       55      128 
     198      229      252      279      299      261      149       47 
       1      -32      -51      -28      -16       -9       43       87 
      74       60      114      221      283      261      222      209 
     229      238      178       98       32      -49      -86      -43 
      -5       13       32       47       79      129      186      236 
     265      274      249      212      218      244      207       89 
       1       27       78       79       54       32       22       21 
      23       39       70      112      164      241      299      301 
     291      309      301      232      147       72        5      -67 
    -156     -178     -117      -59      -37        8      102      201 
     263      288      317      336      280      195      176      171 
     122       59       -5      -71      -90      -54      -13       22 
      70      126      186      224      249      297      332      318 
     287      228      135       68       47       23      -13      -23 
       5       68      129      187      248      265      218      156 
     114       78       21      -51      -87      -52       -8        0 
      28       99      162      197      236      263      271      283 
     284      249      163       82       74       79       54       31 
      39       71       81       65       71      101      114      106 
     155      236      255      237      232      230      202      151 
     120      106       75       36       20       47       97      108 
      82       68       78       87       76       62       72       95 
