Origin Time       2018/04/09 06:38:00
Lat.              35.2
Long.             132.6
Depth. (km)       10
Mag.              3.8
Station Code      SMN015
Station Lat.      35.3644
Station Long.     133.1704
Station Height(m) 32
Record Time       2018/04/09 06:39:06
Sampling Freq(Hz) 100Hz
Duration Time(s)  60
Dir.              E-W
Scale Factor      7845(gal)/8223790
Max. Acc. (gal)   3.532
Last Correction   2018/04/09 06:39:05
Memo.             
[...]
   -2334    -2332    -2334    -2336    -2335    -2334    -2335    -2335 
   -2334    -2334    -2335    -2332    -2330    -2331    -2332    -2334 
   -2334    -2332    -2334    -2335    -2335    -2336    -2335    -2332 
   -2334    -2336    -2336    -2335    -2335    -2336    -2336    -2334 
   -2334    -2336    -2335    -2335    -2334    -2334    -2334    -2332 
   -2332    -2335    -2332    -2334    -2336    -2335    -2332    -2335 
   -2335    -2332    -2334    -2334    -2332    -2334    -2336    -2336 
   -2334    -2334    -2334    -2335    -2332    -2332    -2335    -2336 
   -2335    -2334    -2334    -2335    -2336    -2336    -2334    -2332 
   -2335    -2336    -2332    -2334    -2338    -2335    -2334    -2334 
   -2335    -2335    -2335    -2335    -2334    -2334    -2335    -2335 
   -2332    -2335    -2336    -2335    -2335    -2335    -2334    -2335 
   -2334    -2332    -2332    -2332    -2336    -2336    -2335    -2334 
   -2334    -2332    -2332    -2335    -2336    -2335    -2334    -2334 
   -2335    -2335    -2334    -2334    -2335    -2335    -2334    -2334 
   -2336    -2336    -2335    -2334    -2332    -2332    -2335    -2334 
   -2334    -2334    -2335    -2335    -2335    -2336    -2336    -2334 
   -2334    -2334    -2334    -2334    -2334    -2335    -2336    -2334 
   -2334    -2334    -2334    -2335    -2335    -2334    -2334    -2336 
   -2335    -2335    -2335    -2334    -2334    -2334    -2335    -2338 
   -2335    -2332    -2334    -2336    -2336    -2335    -2335    -2335 
   -2336    -2335    -2335    -2336    -2336    -2335    -2335    -2338 
   -2336    -2335    -2335    -2335    -2335    -2336    -2336    -2335 
   -2335    -2334    -2334    -2335    -2334    -2334    -2335    -2334 
   -2335    -2338    -2336    -2334    -2335    -2335    -2335    -2336 
   -2335    -2335    -2336    -2336    -2335    -2334    -2334    -2335 
   -2335    -2336    -2336    -2334    -2335    -2335    -2332    -2334 
   -2336    -2336    -2336    -2334    -2332    -2335    -2338    -2335 
   -2336    -2335    -2332    -2332    -2334    -2334    -2336    -2338 
   -2336    -2336    -2338    -2338    -2335    -2335    -2336    -2334 
   -2332    -2335    -2336    -2335    -2334    -2332    -2334    -2334 
   -2335    -2335    -2335    -2335    -2334    -2332    -2331    -2331 
   -2336    -2338    -2332    -2332    -2335    -2335    -2334    -2334 
   -2335    -2335    -2335    -2334    -2335    -2336    -2335    -2335 
   -2336    -2336    -2336    -2335    -2332    -2334    -2336    -2332 
   -2331    -2334    -2334    -2334    -2336    -2335    -2336    -2336 
   -2332    -2332    -2335    -2336    -2335    -2332    -2332    -2335 
   -2334    -2332    -2332    -2332    -2334    -2335    -2335    -2334 
   -2332    -2335    -2335    -2334    -2334    -2334    -2332    -2334 
   -2335    -2335    -2335    -2335    -2335    -2334    -2331    -2332 
   -2335    -2335    -2335    -2335    -2334    -2334    -2335    -2334 
   -2332    -2334    -2335    -2334    -2334    -2334    -2335    -2335 
   -2335    -2335    -2335    -2334    -2334    -2334    -2336    -2336 
   -2334    -2335    -2334    -2334    -2335    -2334    -2332    -2334 
   -2334    -2334    -2334    -2335    -2335    -2334    -2334    -2334 
   -2335    -2335    -2335    -2335    -2336    -2336    -2335    -2334 
   -2335    -2336    -2334    -2334    -2335    -2334    -2334    -2334 
   -2334    -2334    -2331    -2332    -2335    -2332    -2332    -2335 
   -2332    -2332    -2334    -2334    -2335    -2336    -2332    -2332 
   -2335    -2332    -2331    -2336    -2336    -2334    -2335    -2336 
   -2335    -2336    -2336    -2334    -2336    -2335    -2334    -2335 
   -2335    -2332    -2335    -2336    -2335    -2336    -2335    -2334 
   -2334    -2335    -2335    -2335    -2335    -2336    -2335    -2334 
   -2336    -2335    -2335    -2335    -2335    -2335    -2334    -2332 
   -2334    -2335    -2335    -2335    -2335    -2334    -2335    -2336 
   -2335    -2334    -2335    -2336    -2335    -2335    -2336    -2335 
   -2334    -2334    -2336    -2338    -2336    -2335    -2335    -2336 
   -2338    -2338    -2336    -2334    -2335    -2336    -2334    -2332 
   -2335    -2335    -2335    -2335    -2334    -2334    -2334    -2334 
   -2334    -2335    -2336    -2335    -2335    -2335    -2334    -2331 
   -2332    -2334    -2334    -2335    -2338    -2335    -2335    -2335 
   -2335    -2335    -2335    -2334    -2334    -2335    -2332    -2332 
   -2335    -2335    -2334    -2335    -2335    -2336    -2335    -2334 
   -2334    -2332    -2331    -2334    -2335    -2332    -2332    -2334 
   -2334    -2334    -2338    -2334    -2331    -2334    -2336    -2335 
   -2335    -2335    -2334    -2334    -2338    -2338    -2334    -2332 
   -2335    -2335    -2335    -2335    -2334    -2334    -2335    -2335 
   -2334    -2332    -2331    -2334    -2335    -2334    -2335    -2335 
   -2334    -2335    -2335    -2334    -2334    -2334    -2334    -2335 
   -2335    -2334    -2332    -2334    -2336    -2334    -2334    -2334 
   -2332    -2334    -2334    -2334    -2336    -2336    -2334    -2336 
   -2336    -2334    -2334    -2335    -2335    -2335    -2334    -2334 
   -2334    -2334    -2332    -2334    -2334    -2334    -2335    -2335 
   -2331    -2330    -2334    -2336    -2336    -2335    -2332    -2334 
   -2335    -2334    -2334    -2335    -2334    -2334    -2334    -2334 
   -2334    -2331    -2332    -2334    -2334    -2334    -2335    -2334 
   -2332    -2331    -2334    -2336    -2332    -2330    -2331    -2334 
   -2332    -2332    -2332    -2332    -2334    -2335    -2334    -2332 
   -2335    -2336    -2334    -2335    -2336    -2334    -2334    -2335 
   -2335    -2332    -2334    -2334    -2330    -2332    -2338    -2332 
   -2331    -2335    -2335    -2334    -2335    -2335    -2335    -2335 
   -2334    -2336    -2336    -2334    -2332    -2336    -2336    -2335 
   -2334    -2334    -2335    -2334    -2334    -2332    -2332    -2336 
   -2336    -2335    -2336    -2335    -2332    -2334    -2335    -2334 
   -2332    -2334    -2335    -2332    -2332    -2335    -2335    -2335 
   -2334    -2334    -2335    -2334    -2332    -2335    -2338    -2336 
   -2334    -2332    -2334    -2334    -2334    -2334    -2335    -2334 
   -2335    -2338    -2334    -2332    -2335    -2336    -2335    -2334 
   -2334    -2334    -2335    -2334    -2334    -2335    -2334    -2332 
   -2334    -2334    -2334    -2335    -2332    -2332    -2336    -2335 
   -2332    -2336    -2336    -2334    -2335    -2335    -2334    -2332 
   -2332    -2335    -2336    -2334    -2331    -2332    -2335    -2335 
   -2334    -2332    -2335    -2336    -2336    -2335    -2334    -2335 
   -2336    -2335    -2335    -2334    -2334    -2334    -2334    -2335 
   -2335    -2332    -2334    -2336    -2335    -2335    -2336    -2338 
   -2338    -2342    -2343    -2346    -2344    -2340    -2336    -2338 
   -2338    -2324    -2299    -2300    -2338    -2362    -2328    -2276 
   -2281    -2365    -2444    -2431    -2369    -2309    -2199    -2088 
   -2166    -2407    -2555    -2501    -2357    -2285    -2327    -2354 
   -2327    -2367    -2398    -2289    -2235    -2388    -2492    -2346 
   -2187    -2254    -2340    -2278    -2311    -2438    -2382    -2273 
   -2316    -2354    -2316    -2309    -2323    -2299    -2274    -2336 
   -2457    -2458    -2332    -2276    -2307    -2300    -2255    -2261 
   -2358    -2424    -2347    -2327    -2447    -2435    -2281    -2273 
   -2398    -2411    -2285    -2214    -2249    -2311    -2386    -2394 
   -2293    -2250    -2319    -2374    -2365    -2382    -2442    -2415 
   -2296    -2231    -2236    -2272    -2322    -2354    -2389    -2404 
   -2358    -2343    -2384    -2394    -2354    -2239    -2158    -2267 
   -2431    -2458    -2373    -2278    -2270    -2330    -2338    -2316 
   -2342    -2376    -2359    -2312    -2297    -2359    -2450    -2455 
   -2365    -2299    -2284    -2243    -2215    -2274    -2334    -2308 
   -2272    -2346    -2485    -2481    -2343    -2307    -2376    -2359 
   -2296    -2309    -2296    -2204    -2204    -2311    -2365    -2351 
   -2349    -2393    -2455    -2461    -2400    -2344    -2344    -2347 
   -2277    -2204    -2230    -2282    -2284    -2319    -2405    -2417 
   -2355    -2332    -2390    -2438    -2389    -2328    -2328    -2300 
   -2223    -2215    -2301    -2350    -2317    -2290    -2311    -2338 
   -2357    -2378    -2392    -2374    -2350    -2386    -2444    -2392 
   -2304    -2338    -2362    -2253    -2211    -2281    -2276    -2187 
   -2196    -2330    -2386    -2344    -2369    -2427    -2425    -2390 
   -2354    -2362    -2413    -2378    -2269    -2286    -2390    -2363 
   -2282    -2324    -2384    -2336    -2289    -2322    -2358    -2354 
   -2330    -2315    -2305    -2288    -2270    -2267    -2309    -2371 
   -2371    -2347    -2378    -2398    -2328    -2265    -2307    -2355 
   -2355    -2367    -2380    -2366    -2328    -2272    -2272    -2332 
   -2343    -2305    -2317    -2366    -2371    -2343    -2330    -2338 
   -2365    -2390    -2378    -2340    -2319    -2326    -2347    -2373 
   -2358    -2307    -2270    -2249    -2265    -2343    -2394    -2330 
   -2254    -2309    -2397    -2390    -2355    -2340    -2317    -2311 
   -2332    -2353    -2342    -2300    -2276    -2285    -2332    -2405 
   -2376    -2269    -2278    -2366    -2371    -2332    -2359    -2409 
   -2398    -2378    -2374    -2330    -2308    -2331    -2305    -2276 
   -2309    -2346    -2319    -2288    -2313    -2335    -2313    -2309 
   -2330    -2361    -2381    -2342    -2308    -2343    -2363    -2331 
   -2290    -2289    -2338    -2353    -2299    -2304    -2396    -2425 
   -2354    -2296    -2323    -2347    -2305    -2311    -2374    -2355 
   -2307    -2338    -2351    -2301    -2309    -2363    -2361    -2355 
   -2386    -2365    -2304    -2312    -2361    -2346    -2301    -2315 
   -2319    -2269    -2307    -2420    -2380    -2251    -2289    -2398 
   -2358    -2278    -2350    -2438    -2373    -2278    -2296    -2343 
   -2330    -2309    -2312    -2313    -2336    -2361    -2338    -2293 
   -2295    -2359    -2392    -2322    -2289    -2367    -2389    -2322 
   -2295    -2319    -2331    -2327    -2377    -2424    -2344    -2263 
   -2305    -2363    -2376    -2332    -2250    -2272    -2385    -2363 
   -2262    -2319    -2405    -2338    -2300    -2377    -2371    -2292 
   -2290    -2336    -2355    -2363    -2355    -2309    -2292    -2338 
   -2355    -2315    -2336    -2403    -2388    -2343    -2361    -2361 
   -2308    -2289    -2311    -2327    -2316    -2284    -2303    -2353 
   -2338    -2327    -2359    -2349    -2340    -2380    -2362    -2297 
   -2315    -2370    -2340    -2296    -2346    -2386    -2324    -2263 
   -2316    -2407    -2369    -2288    -2338    -2371    -2282    -2251 
   -2312    -2347    -2344    -2335    -2319    -2307    -2338    -2374 
   -2357    -2336    -2344    -2369    -2388    -2373    -2376    -2374 
   -2297    -2231    -2254    -2312    -2335    -2309    -2303    -2354 
   -2388    -2377    -2393    -2431    -2412    -2332    -2286    -2308 
   -2313    -2255    -2215    -2249    -2300    -2311    -2299    -2330 
   -2411    -2436    -2380    -2358    -2401    -2401    -2346    -2334 
   -2355    -2313    -2231    -2254    -2366    -2396    -2331    -2305 
   -2349    -2377    -2336    -2299    -2326    -2342    -2301    -2281 
   -2311    -2357    -2370    -2319    -2292    -2370    -2435    -2397 
   -2353    -2353    -2349    -2338    -2328    -2303    -2297    -2303 
   -2278    -2259    -2259    -2290    -2357    -2357    -2319    -2376 
   -2419    -2347    -2295    -2332    -2393    -2417    -2369    -2297 
   -2286    -2313    -2334    -2357    -2378    -2381    -2344    -2293 
   -2312    -2377    -2367    -2277    -2215    -2259    -2380    -2412 
   -2300    -2251    -2324    -2317    -2288    -2403    -2486    -2419 
   -2354    -2351    -2359    -2365    -2351    -2296    -2227    -2243 
   -2307    -2296    -2296    -2380    -2397    -2307    -2277    -2366 
   -2409    -2343    -2338    -2419    -2393    -2265    -2235    -2299 
   -2297    -2251    -2282    -2362    -2405    -2404    -2362    -2307 
   -2338    -2408    -2373    -2336    -2373    -2338    -2274    -2312 
   -2353    -2338    -2303    -2262    -2273    -2324    -2394    -2444 
   -2349    -2247    -2350    -2425    -2307    -2242    -2334    -2369 
   -2257    -2185    -2330    -2496    -2392    -2209    -2286    -2428 
   -2374    -2369    -2508    -2467    -2272    -2209    -2239    -2246 
   -2297    -2359    -2344    -2299    -2315    -2382    -2370    -2272 
   -2286    -2419    -2446    -2355    -2289    -2267    -2265    -2292 
   -2349    -2398    -2407    -2343    -2276    -2335    -2466    -2446 
   -2259    -2180    -2296    -2358    -2301    -2313    -2353    -2300 
   -2282    -2347    -2394    -2454    -2475    -2319    -2181    -2285 
   -2417    -2361    -2284    -2292    -2277    -2278    -2347    -2382 
   -2366    -2377    -2389    -2350    -2371    -2465    -2427    -2319 
   -2316    -2313    -2289    -2362    -2420    -2381    -2424    -2539 
   -2517    -2452    -2498    -2539    -2493    -2388    -2284    -2288 
   -2370    -2370    -2257    -2168    -2130    -1981    -1679    -1228 
    -622     -183     -187     -463    -1034    -2084    -3284    -4236 
   -5011    -5688    -6037    -5809    -5142    -4355    -3488    -2535 
   -1680     -935     -174      451      715      648      342     -236 
   -1023    -1741    -2295    -2844    -3443    -3896    -4079    -4109 
   -3975    -3596    -3218    -3005    -2736    -2305    -1911    -1707 
   -1630    -1610    -1757    -2091    -2412    -2587    -2583    -2446 
   -2334    -2315    -2269    -2072    -1826    -1711    -1690    -1722 
   -1877    -2121    -2394    -2664    -2841    -2951    -3113    -3217 
   -3067    -2721    -2369    -2128    -2007    -1956    -1933    -1956 
   -2073    -2180    -2205    -2367    -2641    -2651    -2381    -2123 
   -2007    -2038    -2033    -1880    -1876    -2141    -2377    -2478 
   -2608    -2791    -2924    -2917    -2768    -2643    -2604    -2532 
   -2442    -2392    -2336    -2276    -2265    -2309    -2297    -2155 
   -2018    -1985    -1954    -1908    -1923    -2033    -2246    -2428 
   -2448    -2427    -2479    -2538    -2494    -2408    -2396    -2394 
   -2361    -2380    -2442    -2505    -2546    -2485    -2334    -2208 
   -2193    -2234    -2185    -2083    -2079    -2149    -2191    -2204 
   -2247    -2336    -2398    -2411    -2432    -2473    -2501    -2512 
   -2540    -2523    -2409    -2386    -2519    -2571    -2489    -2400 
   -2319    -2262    -2289    -2311    -2166    -1926    -1873    -1999 
   -1979    -1852    -1961    -2239    -2401    -2504    -2659    -2795 
   -2884    -2930    -2891    -2749    -2581    -2458    -2349    -2200 
   -2022    -1949    -2093    -2245    -2182    -2072    -2126    -2249 
   -2303    -2315    -2292    -2281    -2371    -2421    -2386    -2459 
   -2559    -2493    -2351    -2319    -2390    -2357    -2208    -2162 
   -2243    -2326    -2351    -2334    -2327    -2347    -2358    -2382 
   -2454    -2451    -2323    -2258    -2304    -2319    -2250    -2111 
   -2000    -2006    -1996    -1966    -2091    -2241    -2307    -2452 
   -2609    -2647    -2701    -2798    -2822    -2748    -2616    -2536 
   -2542    -2512    -2431    -2357    -2267    -2172    -2144    -2150 
   -2031    -1854    -1873    -2031    -2118    -2203    -2309    -2344 
   -2412    -2492    -2457    -2416    -2428    -2428    -2446    -2452 
   -2353    -2281    -2385    -2458    -2355    -2263    -2280    -2301 
   -2230    -2139    -2196    -2335    -2358    -2317    -2361    -2454 
   -2525    -2567    -2573    -2527    -2454    -2409    -2400    -2355 
   -2253    -2146    -2115    -2142    -2155    -2214    -2355    -2434 
   -2416    -2452    -2539    -2546    -2475    -2389    -2307    -2266 
   -2226    -2157    -2144    -2230    -2331    -2336    -2261    -2214 
   -2196    -2205    -2282    -2381    -2401    -2380    -2419    -2448 
   -2390    -2342    -2323    -2282    -2261    -2273    -2289    -2295 
   -2311    -2386    -2473    -2515    -2521    -2496    -2467    -2447 
   -2401    -2359    -2286    -2165    -2130    -2188    -2211    -2207 
   -2219    -2232    -2267    -2359    -2452    -2444    -2370    -2358 
   -2398    -2346    -2230    -2231    -2299    -2315    -2382    -2504 
   -2538    -2500    -2451    -2385    -2343    -2338    -2331    -2331 
   -2299    -2204    -2146    -2153    -2187    -2259    -2303    -2288 
   -2331    -2415    -2415    -2363    -2326    -2278    -2242    -2259 
   -2319    -2385    -2394    -2357    -2351    -2355    -2347    -2404 
   -2444    -2401    -2423    -2493    -2482    -2440    -2401    -2369 
   -2401    -2393    -2277    -2224    -2277    -2280    -2247    -2262 
   -2269    -2235    -2201    -2205    -2278    -2353    -2347    -2296 
   -2257    -2251    -2307    -2384    -2408    -2397    -2396    -2430 
   -2508    -2524    -2432    -2362    -2376    -2407    -2381    -2296 
   -2226    -2196    -2172    -2142    -2139    -2168    -2191    -2207 
   -2272    -2394    -2484    -2497    -2501    -2506    -2481    -2432 
   -2374    -2336    -2285    -2208    -2215    -2296    -2319    -2335 
   -2371    -2346    -2311    -2350    -2400    -2416    -2438    -2451 
   -2423    -2389    -2392    -2382    -2319    -2253    -2245    -2245 
   -2201    -2203    -2269    -2278    -2250    -2307    -2394    -2403 
   -2355    -2308    -2261    -2246    -2319    -2408    -2416    -2378 
   -2376    -2412    -2419    -2380    -2358    -2355    -2335    -2317 
   -2322    -2315    -2285    -2274    -2303    -2303    -2258    -2257 
   -2305    -2331    -2297    -2272    -2299    -2312    -2296    -2288 
   -2277    -2280    -2312    -2380    -2457    -2494    -2512    -2536 
   -2513    -2434    -2373    -2365    -2344    -2296    -2257    -2232 
   -2215    -2222    -2231    -2230    -2215    -2200    -2219    -2285 
   -2377    -2451    -2481    -2484    -2501    -2527    -2505    -2436 
   -2394    -2373    -2305    -2218    -2166    -2141    -2130    -2160 
   -2228    -2292    -2332    -2378    -2417    -2417    -2409    -2424 
   -2442    -2430    -2397    -2366    -2319    -2259    -2234    -2247 
   -2276    -2331    -2419    -2490    -2521    -2539    -2527    -2448 
   -2359    -2308    -2238    -2141    -2062    -2037    -2093    -2177 
   -2211    -2251    -2347    -2416    -2428    -2442    -2486    -2521 
   -2509    -2479    -2469    -2455    -2427    -2405    -2380    -2332 
   -2247    -2130    -2056    -2065    -2110    -2116    -2121    -2207 
   -2301    -2313    -2326    -2403    -2471    -2494    -2519    -2571 
   -2602    -2569    -2500    -2439    -2389    -2338    -2277    -2205 
   -2163    -2165    -2172    -2172    -2205    -2270    -2312    -2340 
   -2376    -2384    -2373    -2403    -2481    -2523    -2484    -2446 
   -2448    -2407    -2313    -2255    -2223    -2196    -2200    -2218 
   -2251    -2282    -2255    -2250    -2322    -2369    -2374    -2407 
   -2461    -2469    -2417    -2377    -2385    -2397    -2358    -2280 
