Origin Time       2018/04/09 06:38:00
Lat.              35.2
Long.             132.6
Depth. (km)       10
Mag.              3.8
Station Code      SMN015
Station Lat.      35.3644
Station Long.     133.1704
Station Height(m) 32
Record Time       2018/04/09 06:39:06
Sampling Freq(Hz) 100Hz
Duration Time(s)  60
Dir.              U-D
Scale Factor      7845(gal)/8223790
Max. Acc. (gal)   0.554
Last Correction   2018/04/09 06:39:05
Memo.             
   24636    24636    24638    24640    24638    24637    24637    24638 
   24638    24637    24638    24637    24636    24636    24636    24636 
   24637    24637    24637    24636    24634    24636    24640    24640 
   24636    24637    24640    24637    24637    24640    24638    24637 
   24638    24636    24636    24637    24637    24637    24636    24637 
   24638    24637    24637    24638    24640    24637    24636    24637 
   24640    24638    24637    24637    24636    24638    24637    24636 
   24637    24638    24637    24636    24638    24638    24636    24637 
   24638    24637    24638    24638    24638    24637    24637    24640 
   24640    24637    24636    24638    24638    24636    24636    24638 
   24638    24637    24634    24636    24637    24636    24636    24637 
   24637    24637    24637    24636    24636    24638    24638    24637 
   24637    24638    24638    24637    24638    24637    24636    24636 
   24636    24637    24638    24638    24638    24640    24638    24637 
   24636    24636    24637    24637    24638    24640    24636    24633 
   24636    24638    24636    24637    24638    24637    24637    24637 
   24634    24634    24637    24637    24637    24637    24638    24637 
   24637    24637    24638    24637    24637    24640    24640    24638 
   24637    24637    24637    24637    24636    24636    24638    24638 
   24638    24638    24638    24637    24637    24637    24636    24636 
   24638    24638    24636    24636    24638    24637    24637    24640 
   24640    24638    24638    24638    24637    24637    24638    24640 
   24638    24638    24638    24636    24636    24638    24636    24636 
   24641    24638    24634    24637    24638    24636    24637    24640 
   24640    24637    24637    24638    24638    24637    24638    24638 
   24638    24638    24636    24636    24637    24634    24636    24640 
   24640    24637    24638    24638    24638    24636    24636    24637 
   24637    24637    24637    24637    24637    24636    24637    24641 
   24638    24634    24636    24638    24638    24640    24638    24638 
   24638    24637    24636    24637    24638    24638    24637    24637 
   24637    24636    24634    24636    24637    24637    24634    24636 
   24640    24641    24637    24638    24640    24637    24636    24637 
   24640    24640    24637    24637    24637    24636    24636    24637 
   24638    24637    24636    24638    24640    24637    24637    24637 
   24637    24637    24637    24637    24638    24638    24640    24640 
   24640    24640    24636    24638    24640    24640    24638    24636 
   24637    24637    24636    24637    24638    24638    24638    24638 
   24638    24637    24637    24637    24637    24637    24640    24641 
   24638    24637    24637    24636    24636    24638    24638    24638 
   24638    24638    24637    24637    24640    24636    24634    24638 
   24640    24638    24637    24636    24637    24638    24638    24638 
   24637    24637    24638    24638    24637    24637    24638    24638 
   24636    24636    24638    24636    24634    24637    24640    24640 
   24640    24637    24637    24640    24638    24636    24637    24638 
   24640    24638    24637    24637    24636    24637    24640    24638 
   24637    24638    24637    24637    24638    24637    24636    24637 
   24640    24640    24636    24636    24636    24636    24637    24636 
   24636    24637    24636    24636    24638    24640    24638    24637 
   24638    24640    24636    24636    24637    24637    24638    24637 
   24637    24638    24638    24637    24637    24637    24640    24641 
   24637    24636    24638    24637    24637    24640    24640    24637 
   24637    24638    24638    24637    24637    24638    24637    24637 
   24640    24640    24640    24637    24636    24636    24637    24638 
   24638    24638    24637    24637    24637    24638    24637    24636 
   24637    24638    24638    24638    24637    24636    24636    24636 
   24636    24638    24638    24638    24640    24640    24640    24638 
   24638    24638    24634    24634    24640    24638    24636    24637 
   24638    24636    24637    24640    24640    24638    24638    24638 
   24637    24638    24637    24637    24638    24640    24637    24637 
   24640    24638    24637    24640    24640    24636    24634    24640 
   24641    24637    24637    24640    24640    24638    24638    24638 
   24638    24638    24637    24638    24640    24638    24637    24638 
   24640    24640    24638    24637    24636    24638    24638    24638 
   24638    24637    24638    24640    24638    24636    24637    24638 
   24636    24636    24638    24637    24637    24640    24640    24638 
   24638    24638    24636    24636    24638    24638    24637    24638 
   24638    24636    24633    24636    24640    24638    24636    24638 
   24638    24637    24638    24637    24636    24640    24641    24637 
   24637    24640    24637    24636    24637    24638    24637    24637 
   24638    24638    24638    24638    24637    24636    24636    24638 
   24640    24637    24637    24638    24638    24636    24638    24640 
   24638    24636    24634    24637    24641    24640    24638    24638 
   24638    24637    24637    24637    24638    24640    24638    24636 
   24637    24638    24638    24640    24640    24640    24638    24637 
   24634    24633    24636    24637    24636    24637    24638    24638 
   24638    24637    24637    24640    24640    24637    24638    24638 
   24634    24637    24638    24637    24637    24637    24637    24636 
   24636    24636    24638    24641    24638    24637    24640    24641 
   24637    24634    24636    24637    24637    24637    24637    24637 
   24638    24638    24638    24638    24636    24637    24638    24638 
   24638    24638    24638    24636    24636    24638    24640    24637 
   24636    24637    24638    24637    24636    24638    24638    24637 
   24640    24640    24637    24637    24637    24638    24638    24636 
   24636    24637    24637    24640    24640    24637    24637    24638 
   24637    24636    24637    24638    24636    24636    24637    24636 
   24636    24637    24637    24637    24636    24636    24634    24636 
   24637    24637    24636    24636    24637    24636    24634    24637 
   24637    24638    24640    24636    24636    24640    24638    24637 
   24637    24636    24637    24640    24637    24636    24636    24637 
   24636    24638    24638    24637    24637    24637    24637    24638 
   24638    24638    24638    24638    24638    24638    24637    24636 
   24637    24637    24636    24637    24637    24636    24637    24638 
   24637    24638    24638    24636    24637    24638    24636    24638 
   24638    24637    24638    24638    24637    24640    24640    24637 
   24638    24638    24638    24638    24637    24637    24638    24638 
   24638    24637    24637    24638    24640    24640    24638    24640 
   24642    24638    24636    24638    24638    24636    24636    24638 
   24638    24637    24637    24636    24634    24630    24622    24618 
   24618    24622    24625    24624    24629    24646    24660    24649 
   24648    24729    24857    24831    24544    24198    24169    24555 
   25008    25161    25057    24848    24456    24057    24127    24636 
   25033    24962    24552    24344    24624    24829    24598    24505 
   24636    24499    24449    24742    24773    24602    24715    24857 
   24704    24447    24443    24719    24780    24552    24568    24773 
   24746    24614    24582    24560    24594    24729    24740    24591 
   24547    24675    24780    24746    24611    24472    24532    24691 
   24614    24557    24719    24648    24436    24586    24836    24819 
   24692    24548    24470    24622    24763    24688    24653    24694 
   24601    24474    24433    24499    24753    24904    24702    24540 
   24588    24617    24649    24630    24506    24557    24732    24790 
   24783    24732    24642    24509    24385    24528    24821    24872 
   24733    24601    24571    24641    24598    24534    24680    24759 
   24668    24579    24395    24364    24717    24912    24759    24648 
   24595    24579    24659    24575    24479    24641    24659    24584 
   24806    24810    24462    24495    24777    24741    24617    24622 
   24626    24719    24811    24671    24580    24637    24520    24463 
   24653    24633    24443    24536    24752    24811    24713    24522 
   24547    24799    24831    24663    24618    24657    24591    24474 
   24497    24652    24730    24686    24652    24622    24549    24560 
   24718    24819    24684    24505    24597    24804    24713    24435 
   24462    24722    24710    24528    24592    24657    24597    24734 
   24767    24536    24605    24817    24686    24526    24568    24651 
   24746    24742    24582    24559    24717    24684    24503    24571 
   24776    24729    24486    24435    24625    24688    24602    24636 
   24692    24655    24609    24516    24511    24722    24838    24744 
   24688    24686    24587    24470    24534    24700    24703    24590 
   24655    24811    24710    24462    24437    24605    24719    24696 
   24599    24632    24772    24718    24571    24582    24597    24595 
   24694    24732    24669    24610    24538    24534    24671    24780 
   24719    24592    24540    24607    24768    24802    24618    24493 
   24514    24599    24722    24714    24621    24607    24570    24584 
   24678    24651    24603    24621    24606    24657    24770    24725 
   24583    24555    24563    24537    24660    24807    24645    24479 
   24694    24859    24665    24471    24540    24759    24848    24661 
   24486    24556    24668    24626    24505    24505    24646    24773 
   24795    24660    24497    24580    24757    24688    24540    24617 
   24761    24678    24521    24564    24672    24713    24686    24578 
   24603    24692    24548    24499    24738    24810    24638    24533 
   24601    24686    24611    24568    24672    24678    24652    24714 
   24664    24564    24583    24603    24588    24664    24713    24580 
   24513    24672    24793    24659    24490    24590    24671    24525 
   24606    24883    24822    24551    24503    24632    24672    24629 
   24637    24665    24696    24715    24605    24529    24648    24704 
   24605    24560    24669    24744    24624    24540    24655    24717 
   24609    24503    24601    24852    24810    24490    24471    24648 
   24651    24622    24592    24565    24696    24770    24598    24545 
   24796    24791    24435    24466    24822    24784    24540    24595 
   24707    24621    24597    24671    24602    24528    24584    24602 
   24645    24727    24628    24574    24732    24684    24506    24572 
   24669    24671    24700    24659    24657    24768    24660    24471 
   24609    24777    24669    24545    24580    24648    24682    24664 
   24570    24551    24704    24796    24642    24443    24480    24719 
   24823    24657    24567    24704    24769    24611    24486    24614 
   24734    24629    24591    24648    24611    24615    24656    24671 
   24683    24617    24557    24618    24690    24667    24572    24552 
   24610    24628    24634    24652    24696    24742    24663    24552 
   24570    24682    24750    24645    24526    24584    24665    24642 
   24591    24617    24699    24667    24571    24598    24722    24795 
   24715    24594    24614    24657    24555    24503    24667    24750 
   24572    24460    24583    24675    24634    24667    24783    24752 
   24587    24549    24649    24694    24630    24547    24564    24690 
   24721    24621    24610    24706    24745    24695    24640    24638 
   24628    24541    24507    24606    24655    24563    24552    24648 
   24630    24613    24695    24667    24628    24726    24777    24711 
   24583    24525    24692    24773    24597    24598    24738    24613 
   24424    24453    24659    24916    24891    24524    24364    24568 
   24706    24672    24610    24584    24667    24749    24657    24565 
   24645    24667    24534    24572    24852    24941    24667    24466 
   24540    24611    24636    24691    24603    24452    24544    24719 
   24695    24664    24698    24598    24511    24580    24667    24702 
   24684    24709    24777    24651    24482    24603    24703    24540 
   24506    24699    24784    24694    24582    24574    24663    24661 
   24540    24583    24827    24842    24514    24294    24518    24877 
   24798    24516    24557    24659    24680    24717    24578    24549 
   24818    24818    24470    24368    24663    24902    24779    24486 
   24437    24703    24826    24611    24495    24644    24711    24633 
   24667    24779    24722    24521    24385    24377    24462    24699 
   24977    24896    24587    24575    24621    24445    24551    24842 
   24793    24700    24699    24594    24560    24480    24394    24744 
   25053    24768    24436    24366    24457    24777    24873    24518 
   24443    24741    24707    24511    24700    24813    24486    24412 
   24726    24858    24896    24852    24489    24354    24637    24614 
   24426    24715    24948    24557    24264    24580    24884    24858 
   24770    24568    24479    24741    24773    24486    24521    24723 
   24584    24453    24572    24541    24575    24872    24813    24537 
   24653    24845    24742    24575    24588    24719    24690    24538 
   24547    24661    24718    24611    24525    24802    25002    24710 
   24490    24582    24613    24511    24417    24387    24393    24509 
   24688    24644    24590    24838    24935    24683    24571    24699 
   24638    24291    24124    24403    24734    24734    24668    24864 
   24922    24564    24449    24777    24835    24609    24618    24721 
   24651    24618    24810    24962    24760    24560    24753    24857 
   24615    24514    24671    24717    24453    24125    24179    24568 
   24756    24598    24574    24922    25146    24883    24630    24786 
   24910    24756    24572    24360    24232    24379    24453    24402 
   24606    24770    24587    24597    24952    25026    24784    24676 
   24676    24636    24565    24521    24572    24574    24397    24290 
   24463    24699    24673    24549    24622    24680    24618    24687 
   24722    24609    24707    24854    24707    24590    24624    24653 
   24725    24776    24838    24987    24976    24715    24514    24518 
   24517    24341    24156    24156    24159    24167    24426    24659 
   24719    24906    25043    24999    25022    25043    24960    24883 
   24829    24702    24507    24426    24436    24385    24426    24613 
   24749    24779    24736    24675    24686    24722    24588    24344 
   24331    24574    24665    24552    24511    24474    24359    24410 
   24582    24622    24618    24711    24891    25066    24991    24682 
   24598    24800    24916    24827    24595    24499    24738    24738 
   24318    24270    24632    24652    24332    24271    24578    24811 
   24763    24641    24634    24709    24713    24667    24765    24840 
   24709    24725    24850    24671    24564    24741    24687    24561 
   24707    24752    24568    24490    24571    24607    24610    24659 
   24663    24575    24439    24367    24456    24529    24486    24509 
   24664    24825    24821    24625    24483    24582    24810    24911 
   24729    24567    24704    24770    24602    24526    24606    24713 
   24717    24575    24529    24636    24668    24607    24606    24683 
   24663    24543    24543    24602    24603    24637    24622    24529 
   24560    24692    24813    24800    24625    24668    24910    24825 
   24521    24482    24694    24767    24591    24479    24574    24799 
   24884    24611    24453    24590    24633    24722    24841    24652 
   24483    24583    24618    24526    24474    24497    24657    24795 
   24668    24536    24607    24671    24624    24572    24625    24756 
   24811    24695    24501    24497    24706    24779    24633    24463 
   24432    24587    24680    24586    24624    24802    24790    24668 
   24634    24610    24556    24575    24698    24723    24649    24709 
   24730    24591    24534    24552    24547    24575    24651    24657 
   24580    24669    24858    24713    24416    24522    24831    24823 
   24614    24560    24710    24844    24702    24520    24663    24750 
   24543    24506    24649    24622    24564    24609    24634    24609 
   24567    24538    24538    24561    24571    24552    24614    24747 
   24786    24719    24695    24768    24792    24668    24497    24490 
   24717    24802    24571    24478    24638    24675    24536    24486 
   24646    24804    24699    24468    24482    24661    24722    24710 
   24675    24656    24729    24694    24565    24603    24660    24610 
   24609    24606    24609    24704    24694    24572    24579    24640 
   24624    24609    24625    24668    24672    24591    24610    24690 
   24626    24598    24676    24700    24722    24713    24651    24717 
   24807    24750    24703    24710    24641    24570    24572    24544 
   24524    24611    24655    24571    24507    24540    24617    24644 
   24599    24586    24653    24682    24580    24498    24574    24686 
   24676    24564    24552    24692    24721    24625    24649    24732 
   24709    24673    24660    24628    24653    24704    24656    24591 
   24622    24704    24740    24646    24536    24598    24687    24583 
   24501    24602    24652    24599    24603    24644    24669    24675 
   24633    24618    24702    24752    24688    24646    24680    24652 
   24578    24624    24734    24706    24605    24594    24637    24652 
   24624    24588    24567    24586    24663    24663    24598    24652 
   24664    24541    24575    24714    24696    24651    24688    24684 
   24618    24582    24646    24750    24710    24538    24507    24676 
   24746    24628    24560    24587    24592    24617    24667    24702 
   24702    24653    24599    24575    24567    24586    24663    24687 
   24611    24599    24663    24602    24475    24551    24732    24707 
   24583    24633    24740    24725    24664    24645    24676    24667 
   24588    24597    24652    24609    24598    24694    24749    24710 
   24641    24610    24629    24609    24556    24611    24714    24678 
   24629    24707    24706    24601    24557    24543    24564    24649 
   24679    24625    24556    24548    24614    24664    24648    24657 
   24732    24741    24664    24649    24683    24638    24584    24595 
   24567    24520    24544    24603    24682    24744    24722    24660 
   24628    24648    24723    24733    24586    24525    24648    24651 
   24544    24595    24678    24664    24700    24732    24649    24626 
   24713    24718    24611    24557    24592    24603    24559    24561 
   24607    24605    24625    24692    24673    24618    24649    24710 
   24695    24651    24667    24688    24655    24625    24645    24671 
   24641    24583    24592    24655    24668    24667    24678    24640 
   24595    24588    24599    24642    24665    24595    24545    24606 
   24633    24574    24560    24602    24636    24606    24556    24592 
   24671    24718    24709    24661    24714    24822    24764    24594 
