Origin Time       2018/04/09 06:38:00
Lat.              35.2
Long.             132.6
Depth. (km)       10
Mag.              3.8
Station Code      YMG001
Station Lat.      34.6173
Station Long.     131.6019
Station Height(m) 6
Record Time       2018/04/09 06:39:21
Sampling Freq(Hz) 100Hz
Duration Time(s)  60
Dir.              E-W
Scale Factor      7845(gal)/8223790
Max. Acc. (gal)   1.474
Last Correction   2018/04/09 06:39:21
Memo.             
[...]
    -650     -653     -652     -643     -629     -610     -598     -581 
    -568     -572     -585     -595     -602     -618     -637     -653 
    -657     -664     -683     -688     -676     -665     -660     -650 
    -607     -532     -488     -518     -592     -645     -649     -650 
    -696     -727     -702     -679     -687     -684     -641     -608 
    -652     -718     -676     -546     -500     -577     -626     -612 
    -631     -681     -653     -530     -457     -518     -648     -751 
    -747     -626     -518     -531     -642     -745     -753     -656 
    -515     -411     -425     -566     -670     -662     -677     -715 
    -719     -685     -639     -662     -731     -723     -637     -557 
    -548     -606     -648     -657     -665     -654     -656     -704 
    -753     -718     -585     -460     -448     -549     -653     -685 
    -710     -733     -693     -614     -540     -540     -614     -654 
    -608     -526     -484     -526     -585     -634     -693     -737 
    -758     -758     -719     -664     -612     -572     -572     -587 
    -521     -411     -421     -545     -664     -741     -758     -707 
    -666     -649     -579     -531     -588     -639     -623     -631 
    -706     -783     -776     -707     -668     -643     -564     -495 
    -514     -566     -596     -642     -726     -808     -838     -820 
    -760     -664     -576     -483     -422     -496     -607     -658 
    -691     -673     -607     -566     -546     -508     -479     -521 
    -600     -625     -614     -623     -616     -568     -579     -689 
    -710     -585     -538     -607     -618     -560     -595     -739 
    -792     -718     -664     -653     -639     -619     -612     -685 
    -823     -850     -708     -596     -625     -668     -658     -653 
    -619     -517     -464     -521     -606     -656     -643     -588 
    -575     -611     -619     -588     -564     -592     -657     -673 
    -629     -579     -553     -565     -603     -658     -687     -641 
    -626     -689     -684     -562     -454     -484     -645     -795 
    -807     -726     -681     -676     -637     -579     -556     -600 
    -650     -612     -560     -566     -604     -672     -737     -724 
    -642     -575     -587     -652     -715     -722     -633     -553 
    -596     -656     -638     -607     -576     -535     -526     -575 
    -623     -631     -660     -726     -723     -623     -540     -569 
    -649     -648     -594     -591     -615     -610     -596     -604 
    -608     -595     -596     -600     -579     -612     -706     -733 
    -707     -728     -762     -761     -718     -645     -584     -532 
    -503     -552     -648     -722     -728     -696     -662     -596 
    -514     -477     -508     -602     -699     -731     -689     -596 
    -493     -459     -518     -602     -660     -681     -643     -598 
    -598     -579     -535     -544     -615     -708     -761     -738 
    -715     -722     -676     -603     -596     -633     -670     -724 
    -766     -722     -595     -525     -569     -649     -700     -693 
    -638     -589     -573     -579     -621     -668     -631     -545 
    -514     -537     -603     -675     -675     -622     -585     -591 
    -598     -550     -514     -556     -610     -627     -656     -706 
    -704     -637     -607     -649     -699     -722     -706     -622 
    -495     -400     -415     -568     -745     -835     -854     -820 
    -723     -626     -604     -637     -648     -615     -579     -600 
    -650     -621     -560     -560     -607     -657     -654     -606 
    -600     -658     -711     -681     -612     -618     -669     -658 
    -587     -533     -537     -565     -589     -607     -625     -631 
    -618     -608     -621     -641     -626     -577     -571     -604 
    -599     -556     -552     -603     -650     -680     -699     -697 
    -680     -658     -675     -734     -746     -688     -614     -550 
    -529     -577     -642     -657     -638     -658     -707     -727 
    -724     -687     -616     -611     -653     -638     -604     -606 
    -577     -521     -491     -502     -557     -648     -711     -684 
    -615     -600     -626     -642     -634     -604     -561     -533 
    -553     -591     -622     -660     -684     -664     -625     -621 
    -638     -643     -642     -650     -680     -706     -695     -666 
    -639     -642     -669     -680     -680     -697     -728     -715 
    -623     -526     -523     -589     -622     -612     -611     -596 
    -557     -550     -588     -602     -542     -473     -495     -579 
    -641     -660     -643     -634     -660     -693     -696     -669 
    -653     -643     -616     -595     -592     -603     -662     -751 
    -764     -691     -612     -583     -599     -637     -681     -712 
    -706     -666     -612     -607     -666     -710     -688     -618 
    -571     -577     -587     -595     -608     -598     -576     -585 
    -602     -576     -533     -517     -530     -573     -592     -583 
    -591     -589     -583     -602     -626     -666     -720     -743 
    -727     -681     -649     -672     -702     -702     -702     -715 
    -699     -654     -631     -648     -649     -598     -553     -579 
    -635     -648     -604     -553     -553     -589     -583     -553 
    -592     -673     -707     -672     -602     -565     -594     -623 
    -604     -591     -629     -658     -611     -575     -626     -691 
    -722     -737     -699     -614     -566     -579     -598     -576 
    -557     -585     -619     -623     -604     -564     -540     -598 
    -704     -749     -702     -665     -684     -691     -648     -603 
    -608     -615     -571     -535     -569     -635     -692     -738 
    -756     -728     -696     -693     -685     -631     -552     -526 
    -577     -622     -631     -639     -638     -607     -573     -553 
    -552     -577     -611     -619     -604     -579     -579     -607 
    -614     -602     -584     -573     -608     -670     -684     -646 
    -607     -610     -652     -684     -691     -697     -714     -696 
    -623     -565     -594     -675     -723     -691     -623     -607 
    -656     -707     -715     -669     -616     -608     -619     -614 
    -594     -573     -540     -517     -538     -600     -654     -661 
    -635     -639     -662     -661     -629     -584     -566     -577 
    -592     -611     -627     -642     -641     -599     -568     -573 
    -583     -602     -626     -642     -662     -634     -562     -589 
    -726     -803     -750     -670     -673     -706     -664     -579 
    -571     -654     -727     -702     -627     -602     -633     -664 
    -664     -643     -604     -583     -596     -579     -561     -583 
    -588     -572     -585     -616     -618     -588     -583     -616 
    -626     -592     -566     -572     -584     -602     -625     -629 
    -643     -704     -731     -662     -591     -602     -658     -702 
    -689     -630     -599     -618     -654     -685     -695     -714 
    -756     -741     -652     -581     -581     -599     -588     -564 
    -579     -654     -715     -680     -596     -542     -518     -525 
    -584     -656     -676     -642     -581     -557     -595     -645 
    -646     -615     -606     -614     -612     -606     -579     -560 
    -594     -616     -589     -587     -664     -760     -789     -746 
    -670     -625     -629     -627     -594     -560     -583     -653 
    -700     -722     -737     -695     -602     -571     -627     -668 
    -662     -631     -587     -568     -569     -568     -583     -615 
    -629     -626     -616     -573     -526     -546     -615     -668 
    -670     -631     -623     -672     -679     -615     -602     -669 
    -707     -665     -611     -610     -637     -657     -664     -630 
    -598     -619     -637     -627     -642     -673     -661     -611 
    -579     -577     -572     -562     -568     -618     -711     -774 
    -770     -704     -589     -495     -496     -569     -648     -680 
    -661     -648     -661     -669     -637     -556     -514     -573 
    -649     -658     -633     -621     -660     -702     -656     -566 
    -575     -673     -722     -665     -588     -579     -619     -638 
    -611     -579     -602     -652     -661     -630     -604     -638 
    -679     -631     -573     -595     -621     -604     -610     -662 
    -688     -639     -584     -616     -699     -702     -627     -591 
    -618     -666     -681     -643     -606     -587     -579     -603 
    -634     -621     -589     -618     -677     -675     -629     -618 
    -627     -616     -623     -641     -614     -594     -641     -676 
    -658     -615     -587     -614     -625     -583     -565     -576 
    -591     -639     -689     -695     -695     -707     -677     -608 
    -577     -615     -669     -695     -692     -664     -625     -604 
    -587     -548     -529     -576     -657     -700     -676     -631 
    -596     -529     -479     -526     -595     -630     -679     -711 
    -693     -666     -626     -544     -511     -622     -745     -728 
    -637     -600     -639     -650     -621     -656     -714     -687 
    -607     -587     -658     -733     -741     -699     -625     -553 
    -519     -504     -533     -633     -710     -693     -627     -577 
    -558     -558     -587     -623     -635     -661     -673     -645 
    -616     -599     -589     -599     -621     -634     -634     -627 
    -608     -603     -645     -699     -720     -718     -696     -662 
    -618     -557     -513     -552     -666     -710     -654     -608 
    -575     -557     -596     -621     -602     -616     -670     -688 
    -660     -621     -603     -627     -650     -619     -565     -565 
    -622     -643     -631     -648     -702     -750     -714     -625 
    -591     -618     -645     -629     -614     -641     -658     -630 
    -579     -569     -618     -657     -649     -615     -602     -608 
    -588     -575     -621     -685     -710     -670     -598     -565 
    -598     -622     -589     -546     -576     -670     -700     -630 
    -583     -591     -608     -612     -630     -695     -738     -689 
    -633     -618     -619     -643     -676     -637     -561     -575 
    -631     -645     -639     -645     -661     -639     -591     -600 
    -622     -602     -598     -619     -621     -600     -618     -657 
    -643     -610     -629     -649     -611     -566     -587     -685 
    -767     -760     -722     -685     -635     -592     -577     -595 
    -626     -645     -645     -622     -588     -558     -535     -544 
    -594     -654     -688     -693     -679     -622     -568     -583 
    -635     -668     -657     -606     -565     -576     -611     -623 
    -645     -689     -711     -685     -625     -571     -575     -626 
    -673     -672     -627     -591     -587     -589     -587     -585 
    -603     -627     -604     -576     -629     -720     -766     -711 
    -589     -587     -696     -730     -702     -712     -722     -677 
    -621     -562     -500     -503     -540     -549     -595     -639 
    -615     -618     -662     -695     -707     -670     -602     -572 
    -587     -595     -589     -592     -619     -668     -684     -621 
    -538     -540     -604     -669     -724     -734     -688     -621 
    -566     -553     -592     -635     -633     -648     -715     -712 
    -583     -490     -538     -626     -606     -525     -542     -681 
    -781     -711     -599     -611     -693     -761     -751     -616 
    -506     -535     -577     -552     -540     -583     -637     -639 
    -626     -706     -824     -830     -781     -799     -807     -715 
    -549     -421     -409     -456     -438     -286     -118     -124 
    -241     -315     -403     -626     -949    -1223    -1290    -1196 
   -1163    -1169     -974     -608     -351     -356     -564     -766 
    -737     -588     -715    -1043     -961     -425     -222     -707 
   -1128     -753     -151     -367    -1173    -1483    -1039     -529 
    -429     -394      -14      280      -78     -629     -514      157 
     457       21     -511     -669     -772    -1159    -1547    -1304 
    -432      149     -131     -689     -715     -309     -182     -523 
    -728     -448     -297     -803    -1377    -1328     -886     -621 
    -826    -1208    -1212     -958     -951    -1209    -1367    -1190 
    -912     -886     -864     -370      313      508      244      -17 
    -306     -735    -1000    -1017    -1077    -1202    -1178     -993 
    -715     -400     -206     -168     -129      -20      125      259 
     298      218      -47     -669    -1443    -1818    -1603    -1201 
   -1071    -1115     -982     -814     -862     -862     -606     -367 
    -178      211      627      699      391      -54     -341     -504 
    -830    -1252    -1449    -1494    -1658    -1753    -1449     -950 
    -692     -645     -517     -348     -225       -5      271      357 
     112     -414     -980    -1420    -1825    -2120    -1980    -1491 
   -1177    -1115     -909     -549     -382     -394     -289      -32 
     168      166       14     -128     -299     -517     -595     -565 
    -626     -761     -923    -1031     -855     -535     -511     -697 
    -645     -180      486      842      645      417      531      526 
      40     -588    -1007    -1279    -1606    -1992    -2173    -2016 
   -1740    -1552    -1503    -1476    -1204     -683     -210       -4 
    -149     -522     -815     -915     -958    -1080    -1269    -1399 
   -1424    -1331    -1032     -565     -166        0       27      206 
     519      600      488      423      289        9     -278     -488 
    -696    -1019    -1362    -1435    -1159     -741     -399     -311 
    -454     -535     -440     -334     -287     -222     -117      -64 
    -209     -546     -854    -1000    -1086    -1228    -1431    -1572 
   -1457    -1116     -828     -750     -788     -820     -724     -434 
    -136      -75     -279     -621     -932    -1132    -1279    -1397 
   -1391    -1256    -1124    -1020     -932     -872     -639     -202 
      74       51      -62     -187     -338     -394     -298     -249 
    -357     -449     -409     -379     -467     -531     -515     -477 
    -456     -594     -714     -471     -248     -326     -216       76 
      83     -120     -203     -101      -59     -268     -583     -800 
    -888     -989    -1225    -1457    -1525    -1399    -1116     -831 
    -800    -1163    -1621    -1679    -1483    -1439    -1397    -1237 
   -1146    -1174    -1255    -1269    -1140     -934     -730     -529 
    -313     -149      -87      -51       56      225      305      265 
     367      589      537      286      279      457      475      291 
      67     -148     -413     -714     -992    -1133    -1011     -880 
   -1077    -1316    -1196     -997    -1128    -1339    -1314    -1273 
   -1298    -1202    -1058     -993    -1035    -1150    -1159    -1089 
   -1019     -812     -653     -720     -687     -630     -791     -795 
    -611     -552     -495     -427     -533     -747     -770     -560 
    -367     -225     -109      -54       10       22      -41      -74 
    -116     -106       25       62     -108     -302     -406     -503 
    -526     -373     -321     -529     -796    -1020    -1090    -1009 
   -1021    -1131    -1244    -1332    -1243    -1046     -950     -924 
    -923     -965    -1132    -1413    -1475    -1217     -899     -745 
    -845     -893     -649     -396     -348     -407     -432     -356 
    -230      -54       79       25       28      131       21     -153 
    -116      -20      -97     -330     -475     -469     -565     -756 
    -756     -603     -641     -864     -920     -846     -893    -1019 
   -1144    -1224    -1260    -1378    -1463    -1367    -1202    -1019 
    -884     -862     -838     -758     -619     -436     -367     -445 
    -471     -388     -344     -353     -271      -81       31      -18 
    -112     -157     -162     -166     -201     -303     -480     -621 
    -610     -499     -445     -594     -951    -1270    -1308    -1165 
   -1048    -1020    -1015     -987     -967     -973     -939     -830 
    -665     -472     -301     -314     -553     -765     -791     -714 
    -633     -639     -666     -526     -326     -301     -425     -526 
    -504     -388     -340     -444     -572     -583     -504     -434 
    -441     -526     -614     -722     -892     -987     -927     -824 
    -710     -568     -513     -585     -735     -876     -877     -730 
    -592     -538     -476     -432     -467     -515     -569     -634 
    -629     -604     -692     -843     -841     -641     -511     -618 
    -791     -820     -665     -442     -336     -414     -558     -653 
    -697     -711     -692     -669     -684     -773     -922    -1008 
    -958     -838     -680     -488     -430     -573     -704     -675 
    -583     -511     -425     -324     -249     -209     -201     -255 
    -406     -616     -761     -760     -662     -550     -463     -486 
    -637     -746     -699     -607     -607     -666     -680     -676 
    -776     -959    -1074    -1065    -1019     -978     -889     -741 
    -688     -761     -737     -612     -631     -731     -676     -518 
    -461     -556     -660     -625     -467     -311     -184     -117 
    -197     -315     -341     -430     -656     -792     -754     -712 
    -708     -603     -454     -454     -595     -738     -826     -872 
    -903     -897     -819     -746     -751     -757     -676     -546 
    -464     -467     -475     -418     -317     -287     -376     -490 
    -562     -630     -712     -756     -731     -769     -897     -961 
    -929     -909     -903     -843     -733     -689     -762     -797 
    -692     -602     -629     -641     -581     -545     -548     -537 
    -532     -607     -702     -645     -434     -243     -220     -328 
    -375     -306     -268     -328     -390     -406     -436     -522 
    -656     -799     -928    -1057    -1120    -1032     -858     -764 
    -797     -815     -743     -718     -769     -791     -757     -692 
    -626     -621     -637     -561     -423     -359     -419     -540 
    -592     -526     -449     -425     -463     -544     -588     -558 
    -533     -571     -646     -700     -687     -648     -615     -577 
    -558     -604     -722     -842     -908     -954    -1008    -1039 
    -978     -827     -751     -801     -758     -573     -456     -511 
    -615     -614     -513     -461     -533     -579     -484     -329 
    -183      -93     -126     -248     -368     -441     -444     -402 
    -368     -390     -476     -564     -611     -680     -797     -893 
    -918     -923     -985    -1073    -1078    -1042    -1067    -1058 
    -938     -849     -861     -843     -783     -789     -828     -805 
    -745     -699     -664     -631     -606     -565     -461     -326 
    -243     -238     -259     -243     -190     -153     -184     -301 
    -444     -537     -560     -560     -550     -490     -444     -517 
    -607     -573     -508     -585     -758     -855     -854     -846 
