Origin Time       2018/04/09 06:38:00
Lat.              35.2
Long.             132.6
Depth. (km)       10
Mag.              3.8
Station Code      YMG001
Station Lat.      34.6173
Station Long.     131.6019
Station Height(m) 6
Record Time       2018/04/09 06:39:21
Sampling Freq(Hz) 100Hz
Duration Time(s)  60
Dir.              N-S
Scale Factor      7845(gal)/8223790
Max. Acc. (gal)   1.610
Last Correction   2018/04/09 06:39:21
Memo.             
[...]
     346      365      375      357      348      363      368      351 
     344      361      368      361      359      352      349      359 
     365      361      356      357      367      363      348      351 
     370      376      360      348      349      355      356      356 
     355      355      357      357      364      368      360      363 
     376      372      361      364      370      365      355      346 
     342      341      341      344      352      364      382      391 
     391      395      402      399      395      399      395      375 
     357      351      330      283      256      283      317      322 
     333      383      422      409      379      383      425      449 
     400      319      280      282      274      259      261      280 
     315      353      387      418      440      445      432      409 
     396      388      363      328      338      383      382      336 
     329      367      375      336      338      390      395      363 
     382      454      491      450      398      351      289      256 
     259      287      332      337      272      225      279      407 
     486      446      355      288      294      346      375      394 
     429      446      405      336      302      309      342      382 
     363      286      236      283      372      388      353      353 
     395      436      418      380      388      405      414      441 
     461      434      369      322      332      360      336      294 
     356      476      469      330      237      263      346      411 
     425      414      406      361      289      265      276      253 
     198      174      199      271      369      441      460      444 
     425      413      365      319      338      368      352      333 
     336      307      307      450      573      508      396      369 
     409      488      518      442      359      337      336      325 
     346      373      329      282      305      319      284      307 
     406      392      248      199      305      425      492      487 
     372      195      133      236      337      361      368      368 
     330      286      315      413      488      490      422      368 
     418      503      506      454      407      344      288      284 
     280      263      310      418      503      487      409      349 
     318      311      319      307      283      276      303      352 
     360      301      268      348      461      490      411      292 
     238      272      336      387      395      400      448      475 
     429      363      311      278      268      259      224      234 
     391      572      579      454      341      298      353      421 
     395      319      287      337      410      411      378      396 
     445      425      318      232      225      275      348      411 
     387      284      276      413      517      475      383      337 
     299      246      230      287      411      518      526      449 
     337      263      279      336      332      253      225      318 
     438      477      450      417      379      352      363      352 
     294      268      322      380      398      427      467      460 
     410      349      305      288      278      268      301      359 
     382      365      318      268      294      370      415      421 
     415      398      378      352      325      337      388      419 
     421      417      380      332      353      410      402      359 
     356      357      311      284      334      398      402      369 
     340      309      298      353      437      445      398      359 
     313      259      228      243      309      375      405      413 
     402      379      346      309      263      225      282      440 
     542      513      434      355      294      307      368      413 
     461      486      432      353      305      299      356      419 
     415      340      243      214      266      317      344      391 
     429      392      321      282      288      326      368      373 
     370      386      399      399      382      360      370      379 
     322      276      324      406      434      411      376      342 
     325      341      378      409      433      445      430      382 
     306      257      276      341      409      433      400      368 
     379      387      361      349      365      353      328      333 
     336      314      311      319      289      259      289      338 
     375      421      440      409      360      317      305      340 
     398      423      392      361      361      368      394      413 
     379      319      309      348      367      341      344      417 
     463      434      386      353      337      318      289      280 
     286      307      328      306      268      295      388      467 
     491      457      373      314      344      421      449      429 
     409      386      357      336      325      332      363      379 
     344      309      336      387      402      373      321      278 
     271      299      337      348      367      406      383      302 
     245      256      314      375      414      413      394      403 
     415      388      338      318      364      430      442      407 
     391      405      399      357      329      321      292      306 
     410      498      476      419      375      295      225      251 
     317      341      326      317      313      303      319      368 
     414      444      436      380      324      301      288      270 
     292      383      459      454      423      386      333      329 
     369      376      368      383      392      400      438      469 
     427      344      306      322      344      353      333      288 
     265      271      276      279      314      375      414      411 
     361      299      297      365      434      454      445      438 
     417      373      344      328      315      321      329      321 
     324      363      410      441      450      429      387      342 
     309      294      315      368      378      324      279      276 
     313      363      391      391      383      379      363      333 
     326      360      405      425      414      359      297      306 
     367      396      386      370      349      305      266      280 
     344      422      472      487      460      410      369      344 
     342      341      314      289      303      338      346      324 
     319      324      313      328      380      432      464      464 
     421      390      398      387      336      280      265      302 
     346      361      344      324      330      349      341      333 
     378      441      433      383      361      364      373      361 
     321      295      286      284      315      359      363      349 
     361      367      363      372      379      390      419      425 
     383      348      360      386      379      355      351      372 
     394      383      346      359      430      459      395      332 
     330      357      364      333      284      255      275      326 
     357      372      390      383      357      328      294      270 
     301      365      398      390      376      392      417      410 
     380      349      348      376      380      342      310      315 
     365      433      450      411      373      365      373      363 
     328      315      340      355      336      311      338      398 
     411      382      346      306      292      324      348      332 
     313      348      418      419      363      356      383      376 
     352      340      375      425      418      382      387      414 
     425      402      338      276      256      279      313      352 
     399      418      396      363      340      328      337      357 
     359      344      333      353      369      332      283      276 
     299      348      411      438      410      378      364      355 
     344      333      346      382      383      351      351      402 
     415      367      338      361      388      403      413      409 
     378      352      375      407      400      375      367      352 
     329      317      317      328      337      311      272      276 
     321      395      461      429      311      252      283      326 
     349      369      386      365      314      272      261      313 
     400      434      406      373      344      338      396      468 
     483      479      469      421      361      329      342      403 
     448      406      301      252      314      382      382      369 
     380      383      353      309      265      259      286      288 
     278      309      359      392      425      421      349      319 
     367      375      326      324      361      379      363      314 
     278      318      388      410      400      391      383      405 
     438      419      344      287      314      407      464      441 
     383      351      360      405      442      423      383      372 
     360      326      302      310      360      383      330      279 
     286      306      289      245      241      315      390      400 
     398      427      433      382      334      342      375      398 
     407      368      298      284      324      369      434      459 
     406      361      356      351      349      353      332      294 
     289      333      394      442      433      348      278      305 
     383      441      450      419      380      357      338      311 
     315      364      375      322      291      315      368      427 
     461      427      360      346      364      328      282      310 
     382      403      352      299      297      301      289      317 
     369      387      383      383      378      364      324      295 
     342      405      402      365      373      440      488      483 
     441      376      346      351      332      311      333      367 
     370      334      306      338      372      356      342      346 
     329      289      259      275      325      392      476      503 
     425      328      284      306      365      399      375      329 
     318      353      387      390      396      405      368      313 
     336      425      471      432      367      338      334      289 
     225      222      291      368      395      383      370      357 
     341      346      369      392      405      409      415      379 
     310      311      353      365      391      417      383      346 
     361      375      344      307      295      317      363      403 
     402      378      375      383      380      359      338      352 
     363      306      210      217      332      434      460      433 
     415      406      399      415      382      317      336      369 
     334      291      275      309      378      422      438      437 
     410      376      360      355      356      349      365      386 
     310      230      265      302      311      365      379      340 
     324      319      329      370      387      344      302      297 
     340      419      451      418      406      414      392      360 
     314      295      413      542      471      337      349      407 
     396      363      332      332      372      395      380      311 
     240      270      344      387      405      344      319      410 
     387      280      319      405      406      364      324      313 
     333      346      338      313      266      237      276      344 
     380      370      348      373      421      413      376      388 
     425      453      448      388      324      303      333      383 
     395      379      364      351      382      454      490      453 
     395      375      379      357      309      295      356      414 
     379      295      265      301      330      311      333      414 
     445      392      352      349      305      222      191      229 
     287      307      280      224      153      102       68       40 
      56      157      306      390      399      446      546      639 
     722      751      702      672      616      440      333      490 
     762      949      999      951      828      622      433      379 
     360      141     -333     -735     -615       22      727     1148 
    1308     1316     1046      402     -283     -550     -364     -139 
    -243     -562     -710     -606     -390      -81      295      622 
     799      760      569      386      322      409      500      387 
     144       81      352      805     1127     1125      824      390 
      89      143      523      999     1337     1381     1100      627 
     129     -159      -52      233      324      195       40      -13 
     183      542      487     -106     -432      -39      599     1030 
    1081      727      332      278      430      562      733      981 
    1119      857      131     -662    -1051     -946     -700     -648 
    -602     -270       81       99      -11       32      190      448 
     903     1318     1377     1133      778      425      243      263 
     391      630      872      895      761      689      791     1059 
    1308     1390     1375     1293     1107      857      588      319 
      31     -255     -469     -646     -869    -1129    -1320    -1329 
   -1125     -715     -197      209      419      573      731      746 
     532      278      243      423      614      711      726      691 
     650      627      679      877     1143     1306     1308     1115 
     778      569      538      545      687      915      924      737 
     568      383      109     -124     -220     -272     -344     -359 
    -230      -64      -47     -159     -256     -229      -14      228 
     314      360      423      332      105     -135     -333     -315 
     -97       32      110      289      417      468      618      881 
    1135     1300     1341     1246     1162     1237     1269     1062 
     835      842      969      924      745      660      540      159 
    -283     -513     -446     -167       35       58       62       28 
    -120     -198      -74       87      180      175       11     -157 
    -189     -159     -122      -14      237      545      661      584 
     629      773      681      469      456      540      532      454 
     357      322      386      418      311      205      248      373 
     523      689      831      932      920      762      603      525 
     488      492      533      513      481      627      741      587 
     479      645      765      637      438      313      309      370 
     341      205       -5     -205     -268     -351     -552     -669 
    -638     -540     -413     -425     -646     -676     -286      155 
     402      488      483      564      693      712      722      823 
     984     1039      950      951      969      859      868      974 
     901      783      857     1089     1296     1263     1004      750 
     576      499      488      365      168      120      174       74 
    -178     -298     -251     -252     -326     -388     -396     -309 
    -164      -86      -98      -87       49      230      229       54 
      35      315      557      529      491      594      557      344 
     286      406      495      546      562      508      467      526 
     635      702      795      854      805      828      830      621 
     436      337      184      108      214      421      607      650 
     556      442      364      356      484      618      568      461 
     430      363      271      251      212      153      166      212 
     233      163       -5     -167     -233     -180      -74       47 
     236      382      357      228      118      153      272      266 
     167      140      159      156      195      259      329      479 
     652      777      812      666      532      611      711      738 
     726      565      456      723      980      773      484      513 
     661      646      565      612      649      533      353      209 
     214      313      291      162       83      103      157      120 
     -16      -98      -75      -63      -95      -65       47      137 
     126       94      125      183      209      186      153      241 
     486      670      656      598      610      611      545      454 
     421      493      619      672      598      484      415      380 
     379      425      504      557      556      577      611      561 
     542      600      538      348      198      152      209      322 
     383      383      398      399      333      248      197      194 
     237      255      186      120      166      255      251      176 
     136      164      209      194      135      120      197      322 
     396      370      314      246      141      105      184      270 
     356      503      653      715      681      619      618      645 
     606      518      445      391      383      434      487      525 
     599      689      750      814      870      800      583      387 
     279      153       43       44      106      118       89       90 
     116      135      157      148      118      133       97      -35 
     -55       94      244      334      325      224      197      265 
     302      352      488      584      548      492      537      652 
     760      835      869      834      745      652      540      405 
     306      263      244      259      303      310      276      280 
     334      359      282      155      116      151      143      114 
     103       64       40       67       68       70      191      387 
     523      540      468      419      459      504      548      633 
     670      610      558      553      533      533      595      604 
     519      434      396      399      445      490      464      357 
     240      224      270      232      159      186      248      206 
      99       43       36       62      147      222      197      135 
     147      238      337      396      442      495      523      517 
     463      398      409      425      334      238      234      307 
     442      569      589      526      495      549      643      700 
     684      627      588      579      537      444      400      419 
     425      413      399      378      344      325      334      314 
     255      222      182      109       71       59       36       47 
      94      101       47       -2       18       95      140      167 
     244      356      418      367      274      236      238      261 
     341      429      442      423      425      434      490      631 
     807      951     1039     1035      920      754      618      544 
     515      483      433      423      446      472      500      496 
     467      475      500      451      314      180      109       62 
       8      -39      -54      -94     -184     -229     -202     -144 
     -20      160      276      279      225      160      126      144 
     172      178      175      183      202      236      324      456 
