Origin Time       2018/04/09 06:38:00
Lat.              35.2
Long.             132.6
Depth. (km)       10
Mag.              3.8
Station Code      YMG001
Station Lat.      34.6173
Station Long.     131.6019
Station Height(m) 6
Record Time       2018/04/09 06:39:21
Sampling Freq(Hz) 100Hz
Duration Time(s)  60
Dir.              U-D
Scale Factor      7845(gal)/8223790
Max. Acc. (gal)   0.718
Last Correction   2018/04/09 06:39:21
Memo.             
[...]
    8229     8218     8218     8220     8222     8230     8228     8215 
    8220     8225     8220     8220     8221     8224     8226     8222 
    8214     8212     8221     8236     8237     8226     8215     8214 
    8224     8229     8220     8214     8225     8236     8229     8214 
    8215     8232     8236     8222     8212     8213     8222     8235 
    8226     8212     8224     8237     8224     8214     8220     8232 
    8233     8220     8214     8222     8228     8224     8221     8222 
    8221     8217     8220     8233     8232     8214     8225     8243 
    8226     8210     8228     8247     8237     8221     8215     8210 
    8202     8208     8214     8206     8215     8239     8237     8222 
    8210     8210     8232     8251     8248     8260     8270     8245 
    8201     8160     8139     8124     8113     8141     8202     8259 
    8284     8274     8256     8245     8226     8226     8293     8370 
    8397     8352     8251     8149     8095     8075     8085     8144 
    8210     8181     8102     8133     8317     8479     8453     8328 
    8248     8175     8083     8085     8174     8244     8266     8236 
    8206     8190     8158     8182     8264     8272     8220     8186 
    8176     8241     8351     8313     8139     8089     8199     8303 
    8310     8241     8176     8163     8182     8220     8251     8257 
    8236     8177     8147     8215     8251     8197     8235     8364 
    8428     8314     8093     8087     8251     8237     8186     8189 
    8133     8152     8215     8278     8376     8324     8193     8139 
    8066     8060     8189     8324     8428     8398     8240     8202 
    8239     8206     8235     8235     8091     8077     8217     8241 
    8222     8262     8237     8176     8163     8202     8268     8306 
    8301     8262     8203     8163     8149     8206     8321     8319 
    8199     8129     8094     8104     8248     8330     8218     8177 
    8212     8154     8248     8457     8397     8301     8379     8247 
    8006     8066     8203     8206     8213     8208     8171     8186 
    8208     8253     8297     8215     8171     8262     8232     8152 
    8244     8303     8239     8213     8245     8303     8333     8271 
    8131     8009     8082     8182     8135     8266     8451     8314 
    8174     8199     8190     8159     8133     8181     8329     8352 
    8247     8226     8218     8170     8229     8313     8280     8235 
    8186     8066     8043     8198     8324     8322     8291     8259 
    8202     8203     8290     8291     8167     8144     8275     8290 
    8164     8116     8105     8110     8291     8424     8248     8095 
    8198     8280     8274     8280     8248     8286     8343     8189 
    8073     8209     8267     8182     8168     8175     8131     8104 
    8162     8274     8372     8417     8324     8185     8205     8255 
    8208     8212     8236     8235     8268     8232     8164     8202 
    8220     8202     8239     8166     8066     8163     8236     8213 
    8279     8275     8190     8233     8280     8230     8205     8217 
    8191     8141     8179     8283     8329     8337     8276     8129 
    8078     8167     8283     8380     8359     8232     8149     8139 
    8209     8305     8294     8264     8286     8253     8144     8046 
    8052     8156     8240     8286     8326     8297     8199     8137 
    8166     8182     8182     8272     8310     8270     8310     8295 
    8203     8214     8190     8137     8214     8244     8208     8239 
    8213     8137     8155     8201     8225     8299     8364     8340 
    8279     8199     8139     8203     8293     8270     8210     8156 
    8091     8073     8121     8190     8283     8363     8344     8272 
    8230     8162     8133     8251     8322     8263     8241     8195 
    8109     8149     8202     8168     8222     8330     8343     8290 
    8220     8152     8121     8160     8245     8291     8305     8337 
    8306     8191     8155     8166     8128     8156     8214     8175 
    8139     8139     8168     8229     8237     8240     8293     8298 
    8291     8291     8255     8306     8398     8338     8214     8148 
    8093     8067     8118     8209     8276     8305     8283     8214 
    8203     8245     8171     8083     8159     8245     8243     8272 
    8324     8301     8206     8139     8185     8263     8222     8155 
    8214     8301     8313     8276     8206     8143     8114     8139 
    8220     8259     8235     8248     8271     8267     8279     8257 
    8191     8186     8221     8215     8195     8203     8237     8239 
    8212     8202     8179     8201     8289     8290     8244     8255 
    8225     8158     8155     8174     8194     8248     8217     8125 
    8201     8309     8274     8303     8365     8267     8171     8171 
    8141     8133     8209     8279     8299     8298     8260     8168 
    8132     8194     8220     8215     8252     8229     8182     8229 
    8251     8205     8185     8154     8141     8212     8284     8303 
    8311     8324     8263     8168     8187     8248     8221     8160 
    8158     8197     8240     8270     8281     8299     8309     8284 
    8236     8175     8151     8151     8117     8120     8198     8236 
    8202     8206     8225     8181     8163     8229     8302     8340 
    8338     8286     8224     8208     8208     8185     8193     8220 
    8222     8209     8162     8144     8175     8194     8266     8333 
    8278     8228     8233     8224     8251     8270     8209     8198 
    8295     8322     8224     8220     8299     8224     8111     8139 
    8149     8129     8190     8226     8177     8151     8198     8264 
    8286     8270     8252     8266     8247     8185     8220     8280 
    8236     8215     8243     8230     8233     8241     8218     8226 
    8237     8197     8218     8264     8189     8139     8202     8230 
    8235     8217     8193     8237     8257     8222     8218     8210 
    8214     8248     8221     8167     8191     8224     8215     8213 
    8263     8332     8295     8206     8198     8199     8185     8205 
    8203     8235     8316     8275     8171     8177     8189     8176 
    8256     8297     8194     8144     8190     8208     8215     8259 
    8316     8309     8208     8158     8193     8198     8225     8268 
    8206     8137     8176     8247     8295     8314     8237     8127 
    8144     8253     8286     8248     8241     8267     8260     8213 
    8175     8185     8203     8202     8230     8276     8232     8132 
    8144     8256     8268     8199     8236     8290     8193     8117 
    8213     8321     8322     8276     8248     8257     8229     8139 
    8144     8218     8201     8181     8221     8208     8177     8212 
    8239     8235     8222     8209     8222     8221     8221     8290 
    8309     8272     8281     8222     8121     8144     8215     8255 
    8272     8248     8248     8278     8202     8104     8167     8241 
    8203     8221     8275     8225     8194     8236     8228     8190 
    8175     8185     8255     8281     8212     8201     8253     8253 
    8243     8264     8256     8185     8139     8174     8229     8262 
    8260     8239     8199     8172     8187     8210     8224     8236 
    8266     8294     8237     8193     8256     8274     8255     8293 
    8241     8159     8168     8136     8156     8319     8340     8193 
    8125     8141     8164     8185     8186     8195     8230     8244 
    8240     8266     8268     8225     8217     8221     8224     8268 
    8271     8245     8272     8232     8139     8182     8281     8289 
    8270     8271     8241     8191     8143     8116     8167     8237 
    8233     8226     8245     8233     8210     8195     8208     8271 
    8284     8221     8222     8244     8218     8243     8270     8239 
    8225     8206     8179     8149     8114     8199     8317     8267 
    8168     8174     8221     8232     8186     8168     8266     8364 
    8352     8294     8214     8104     8085     8172     8222     8260 
    8343     8319     8181     8121     8167     8222     8262     8262 
    8256     8297     8290     8176     8094     8127     8174     8197 
    8228     8229     8202     8214     8270     8299     8280     8268 
    8264     8218     8172     8189     8248     8267     8240     8226 
    8172     8094     8144     8257     8272     8280     8321     8299 
    8274     8248     8133     8089     8177     8220     8259     8338 
    8291     8179     8163     8149     8131     8209     8275     8281 
    8348     8340     8177     8121     8214     8239     8195     8164 
    8156     8199     8253     8272     8233     8141     8136     8218 
    8233     8263     8336     8305     8243     8256     8255     8220 
    8214     8199     8162     8191     8257     8302     8338     8268 
    8139     8139     8158     8105     8149     8262     8314     8307 
    8264     8235     8186     8083     8125     8316     8332     8197 
    8166     8205     8239     8262     8237     8244     8297     8275 
    8191     8160     8214     8302     8314     8218     8128     8127 
    8186     8220     8202     8167     8185     8274     8310     8283 
    8283     8225     8158     8225     8256     8160     8136     8206 
    8239     8225     8226     8281     8329     8280     8239     8245 
    8174     8111     8182     8256     8274     8281     8243     8172 
    8147     8135     8129     8217     8333     8355     8324     8278 
    8182     8075     8051     8139     8230     8263     8310     8347 
    8307     8209     8141     8209     8274     8210     8202     8236 
    8172     8179     8255     8206     8160     8209     8226     8222 
    8240     8244     8248     8271     8310     8306     8195     8095 
    8118     8202     8294     8340     8305     8298     8281     8154 
    8090     8118     8078     8110     8259     8324     8333     8348 
    8266     8149     8167     8235     8213     8179     8194     8198 
    8181     8182     8235     8284     8293     8276     8228     8187 
    8208     8240     8295     8340     8298     8248     8191     8078 
    8052     8122     8171     8215     8286     8314     8260     8210 
    8198     8182     8228     8311     8278     8243     8302     8256 
    8139     8144     8201     8208     8201     8198     8225     8284 
    8293     8239     8198     8181     8170     8214     8291     8268 
    8158     8156     8221     8220     8270     8313     8225     8209 
    8243     8195     8215     8260     8237     8251     8232     8171 
    8215     8276     8248     8201     8182     8233     8248     8144 
    8090     8136     8222     8301     8259     8195     8243     8299 
    8306     8283     8256     8276     8316     8284     8172     8089 
    8113     8155     8144     8171     8268     8280     8190     8172 
    8190     8189     8268     8306     8215     8210     8295     8307 
    8281     8247     8201     8209     8229     8205     8167     8197 
    8280     8263     8213     8241     8159     8048     8159     8266 
    8241     8299     8348     8252     8193     8217     8220     8225 
    8233     8239     8240     8179     8149     8177     8163     8197 
    8290     8286     8210     8181     8221     8256     8257     8275 
    8297     8274     8235     8177     8125     8141     8182     8235 
    8344     8391     8290     8164     8128     8144     8170     8201 
    8251     8298     8281     8198     8163     8208     8201     8162 
    8218     8286     8280     8228     8209     8279     8255     8125 
    8154     8235     8209     8252     8345     8286     8133     8098 
    8228     8322     8256     8190     8217     8226     8186     8133 
    8132     8224     8286     8248     8244     8301     8305     8286 
    8290     8235     8191     8241     8243     8210     8195     8094 
    8078     8239     8257     8155     8245     8361     8232     8160 
    8256     8210     8179     8302     8330     8293     8248     8120 
    8058     8176     8283     8243     8208     8270     8280     8203 
    8148     8118     8155     8257     8259     8217     8281     8290 
    8182     8168     8235     8226     8205     8248     8274     8272 
    8291     8257     8191     8213     8218     8159     8221     8372 
    8451     8398     8203     8013     8025     8181     8174     8059 
    8164     8302     8253     8256     8244     8125     8167     8239 
    8147     8147     8170     8082     8152     8274     8274     8351 
    8363     8239     8283     8384     8375     8385     8326     8224 
    8307     8356     8087     7852     8032     8309     8305     8230 
    8291     8324     8270     8176     8027     7973     8082     8136 
    8136     8270     8486     8617     8581     8378     8089     7915 
    7977     8027     7889     7898     8181     8395     8378     8309 
    8410     8529     8414     8286     8230     8133     8232     8486 
    8467     8139     7832     7878     8195     8352     8313     8262 
    8158     8023     7897     7847     7986     8149     8212     8262 
    8291     8379     8571     8695     8734     8677     8375     8052 
    8046     8194     8357     8573     8577     8444     8414     8078 
    7608     7699     7920     7906     7962     7900     7789     7948 
    8058     8189     8526     8527     8245     8233     8256     8100 
    8014     8023     8078     8109     8044     8236     8738     8976 
    8846     8789     8843     8756     8530     8311     8147     8048 
    8037     7992     7830     7789     7940     8050     8102     8136 
    8120     8171     8233     8081     7912     7990     8055     7971 
    8039     8294     8437     8414     8384     8421     8496     8573 
    8568     8430     8301     8260     8160     7964     7917     8071 
    8190     8208     8091     7875     7925     8222     8294     8190 
    8266     8434     8469     8385     8329     8437     8583     8467 
    8220     8256     8494     8394     7974     7875     8097     8151 
    8094     8125     8182     8190     8067     7892     7847     7933 
    8012     8002     8024     8256     8451     8456     8631     8860 
    8769     8700     8743     8532     8248     8081     7911     7916 
    8106     8155     8066     7993     7927     7881     7877     7936 
    8071     8190     8247     8291     8321     8313     8316     8421 
    8525     8449     8365     8365     8255     8078     8024     8116 
    8276     8311     8226     8248     8281     8137     8063     8218 
    8317     8267     8187     8129     8201     8338     8397     8367 
    8275     8255     8321     8275     8144     8113     8148     8058 
    7846     7812     8050     8224     8226     8251     8289     8360 
    8477     8467     8410     8380     8257     8160     8175     8124 
    8043     8063     8097     8081     8093     8228     8398     8487 
    8527     8496     8444     8451     8370     8270     8341     8370 
    8203     8091     8111     8071     7959     7882     7886     7969 
    8012     8004     8114     8228     8166     8141     8197     8163 
    8221     8461     8537     8372     8229     8137     8143     8240 
    8252     8336     8410     8299     8295     8318     8336     8482 
    8413     8329     8486     8440     8267     8271     8240     8163 
    8156     8073     7958     7955     7916     7902     8085     8141 
    8031     8141     8344     8387     8414     8383     8290     8332 
    8294     8097     8095     8247     8230     8052     7992     8148 
    8182     8071     8155     8259     8202     8217     8259     8218 
    8279     8347     8239     8272     8487     8430     8297     8406 
    8433     8375     8441     8321     8047     8035     8182     8251 
    8237     8158     8128     8195     8189     8168     8257     8248 
    8141     8185     8215     8077     8073     8280     8418     8421 
    8240     8063     8229     8280     8033     8100     8266     8194 
    8158     8055     7960     8064     8073     8067     8203     8248 
    8181     8086     8060     8212     8338     8361     8490     8644 
    8581     8447     8469     8482     8414     8447     8510     8487 
    8397     8218     8052     7998     8014     7925     7740     7767 
    7823     7717     7893     8154     8132     8189     8272     8280 
    8464     8576     8583     8676     8615     8499     8469     8329 
    8244     8240     8071     7973     8010     7933     7847     7788 
    7844     8131     8172     7938     8073     8421     8496     8519 
    8625     8592     8526     8533     8499     8451     8411     8359 
    8330     8270     8190     8185     8171     8056     7896     7809 
    7846     7854     7799     7839     7931     8001     8078     8148 
    8202     8247     8255     8319     8461     8513     8513     8567 
    8568     8513     8494     8454     8388     8378     8398     8394 
    8324     8252     8182     8058     8001     8059     8077     8098 
    8179     8218     8174     8039     7933     7985     8077     8108 
    8113     8113     8131     8163     8218     8340     8482     8499 
    8418     8398     8329     8144     8082     8090     8068     8171 
    8236     8116     8101     8210     8233     8198     8152     8189 
    8330     8349     8248     8236     8274     8329     8449     8509 
    8467     8480     8430     8248     8230     8298     8170     8070 
    8100     8046     8020     8114     8139     8154     8205     8141 
    8093     8102     7989     7969     8111     8124     8148     8297 
    8351     8390     8459     8406     8359     8383     8330     8205 
    8104     8116     8232     8266     8208     8214     8248     8260 
    8267     8217     8124     8077     8090     8128     8182     8271 
    8344     8348     8330     8297     8253     8272     8324     8324 
    8271     8186     8118     8129     8205     8266     8251     8187 
    8160     8194     8232     8210     8174     8210     8220     8137 
    8105     8182     8297     8343     8271     8213     8276     8311 
    8264     8232     8199     8160     8129     8127     8233     8341 
    8316     8319     8341     8226     8143     8185     8214     8244 
    8236     8132     8113     8125     8021     8089     8286     8205 
    8063     8152     8206     8158     8190     8272     8344     8394 
    8407     8407     8383     8334     8330     8383     8407     8383 
    8329     8229     8125     8054     7997     7996     8066     8139 
    8182     8172     8139     8195     8264     8179     8116     8191 
    8214     8199     8295     8398     8365     8299     8317     8317 
    8274     8256     8185     8135     8189     8144     8085     8212 
    8247     8110     8128     8255     8272     8218     8194     8241 
    8281     8268     8260     8232     8206     8228     8190     8118 
    8144     8239     8319     8340     8263     8220     8275     8263 
    8179     8143     8136     8176     8253     8280     8283     8267 
    8229     8222     8217     8225     8293     8324     8286     8276 
    8278     8233     8213     8245     8244     8199     8143     8055 
    8017     8091     8151     8158     8189     8197     8212     8322 
