Origin Time       2018/04/09 06:38:00
Lat.              35.2
Long.             132.6
Depth. (km)       10
Mag.              3.8
Station Code      SMNH04
Station Lat.      35.0918
Station Long.     132.5308
Station Height(m) 240
Record Time       2018/04/09 06:38:51
Sampling Freq(Hz) 100Hz
Duration Time(s)  120
Dir.              6
Scale Factor      7845(gal)/8223790
Max. Acc. (gal)   10.846
Last Correction   2018/04/09 06:38:36
Memo.             
[...]
    5483     5464     5489     5486     5471     5483     5479     5478 
    5486     5476     5476     5485     5481     5482     5483     5478 
    5483     5486     5478     5483     5486     5474     5476     5485 
    5479     5482     5482     5472     5481     5489     5475     5474 
    5493     5486     5470     5482     5491     5475     5479     5487 
    5478     5482     5483     5472     5485     5489     5472     5479 
    5491     5478     5475     5486     5483     5478     5486     5485 
    5475     5478     5487     5486     5475     5481     5487     5476 
    5481     5487     5476     5475     5486     5485     5475     5483 
    5486     5472     5487     5490     5470     5485     5493     5470 
    5479     5491     5472     5476     5494     5471     5470     5497 
    5483     5468     5485     5487     5478     5482     5482     5479 
    5485     5481     5476     5485     5491     5483     5467     5478 
    5495     5476     5478     5493     5476     5475     5490     5481 
    5468     5485     5498     5475     5474     5493     5478     5470 
    5493     5490     5476     5481     5481     5481     5479     5481 
    5487     5475     5470     5483     5487     5479     5479     5494 
    5481     5464     5486     5485     5479     5490     5478     5481 
    5495     5479     5468     5483     5485     5478     5486     5485 
    5472     5483     5493     5479     5476     5479     5481     5489 
    5483     5476     5479     5479     5478     5479     5482     5485 
    5482     5478     5483     5489     5475     5468     5483     5489 
    5479     5479     5483     5478     5478     5483     5481     5476 
    5482     5486     5479     5479     5482     5475     5486     5486 
    5468     5481     5493     5483     5476     5476     5486     5481 
    5475     5485     5476     5476     5487     5479     5479     5482 
    5478     5481     5483     5482     5481     5481     5479     5479 
    5478     5482     5483     5476     5479     5483     5478     5483 
    5486     5481     5479     5475     5478     5485     5481     5482 
    5481     5479     5486     5476     5478     5486     5474     5474 
    5483     5476     5478     5487     5482     5475     5485     5485 
    5476     5481     5483     5479     5481     5482     5476     5474 
    5478     5483     5481     5478     5482     5482     5475     5478 
    5485     5476     5476     5486     5482     5479     5483     5479 
    5479     5481     5478     5479     5482     5482     5485     5483 
    5483     5486     5481     5478     5485     5479     5475     5483 
    5482     5474     5482     5485     5479     5482     5483     5478 
    5479     5483     5481     5479     5483     5481     5479     5483 
    5485     5476     5476     5482     5478     5482     5489     5478 
    5479     5487     5481     5475     5481     5478     5472     5485 
    5487     5475     5479     5489     5481     5476     5483     5482 
    5478     5483     5485     5474     5479     5489     5478     5481 
    5487     5478     5476     5483     5483     5482     5481     5482 
    5485     5482     5479     5482     5482     5481     5482     5483 
    5479     5482     5481     5476     5485     5482     5474     5483 
    5483     5475     5481     5483     5481     5482     5483     5482 
    5478     5478     5482     5483     5481     5481     5483     5482 
    5479     5481     5482     5479     5478     5481     5481     5478 
    5481     5481     5476     5482     5486     5478     5478     5485 
    5481     5481     5485     5478     5481     5486     5476     5479 
    5485     5474     5479     5491     5478     5474     5486     5481 
    5476     5481     5479     5482     5483     5483     5482     5478 
    5482     5482     5482     5482     5479     5485     5486     5478 
    5482     5487     5482     5479     5483     5482     5479     5479 
    5483     5482     5479     5481     5481     5479     5481     5479 
    5479     5481     5479     5482     5482     5478     5481     5483 
    5481     5481     5482     5479     5478     5482     5481     5475 
    5481     5483     5478     5481     5485     5478     5476     5483 
    5481     5475     5481     5483     5478     5478     5485     5481 
    5478     5483     5481     5479     5485     5483     5479     5479 
    5478     5482     5482     5475     5482     5485     5475     5481 
    5485     5478     5481     5482     5479     5481     5482     5481 
    5481     5479     5479     5481     5481     5481     5479     5482 
    5483     5479     5481     5482     5478     5479     5482     5479 
    5478     5481     5481     5479     5481     5479     5479     5482 
    5483     5479     5476     5481     5482     5475     5479     5482 
    5478     5482     5483     5475     5476     5483     5479     5476 
    5483     5482     5478     5482     5486     5479     5478     5483 
    5481     5474     5479     5483     5479     5481     5482     5476 
    5482     5486     5481     5479     5482     5485     5481     5475 
    5483     5486     5476     5481     5483     5478     5481     5482 
    5479     5481     5481     5479     5481     5481     5479     5481 
    5481     5481     5479     5478     5481     5478     5478     5483 
    5476     5478     5485     5475     5478     5485     5478     5481 
    5481     5481     5487     5481     5478     5483     5481     5479 
    5482     5481     5482     5481     5481     5481     5479     5482 
    5479     5479     5482     5481     5479     5482     5479     5479 
    5482     5481     5482     5483     5482     5482     5482     5478 
    5478     5483     5485     5479     5479     5485     5481     5478 
    5483     5483     5479     5482     5481     5476     5481     5485 
    5481     5479     5479     5483     5482     5479     5482     5479 
    5478     5483     5478     5478     5483     5482     5482     5482 
    5481     5481     5481     5482     5481     5479     5479     5485 
    5483     5476     5482     5483     5478     5485     5483     5475 
    5479     5483     5479     5481     5485     5479     5479     5483 
    5481     5479     5483     5482     5478     5482     5482     5479 
    5479     5482     5482     5483     5482     5478     5481     5482 
    5479     5479     5481     5482     5479     5476     5481     5483 
    5478     5478     5482     5481     5478     5482     5483     5478 
    5478     5483     5483     5481     5478     5481     5483     5479 
    5479     5485     5481     5479     5482     5483     5481     5479 
    5482     5478     5476     5485     5485     5479     5481     5479 
    5479     5483     5482     5479     5482     5482     5478     5479 
    5482     5482     5481     5481     5483     5479     5476     5481 
    5482     5481     5483     5482     5479     5481     5479     5478 
    5481     5482     5481     5478     5481     5482     5478     5479 
    5482     5478     5482     5485     5476     5478     5483     5481 
    5481     5482     5479     5479     5479     5481     5485     5479 
    5475     5486     5483     5474     5478     5482     5483     5481 
    5479     5481     5479     5478     5481     5482     5481     5478 
    5481     5486     5481     5478     5482     5483     5479     5481 
    5482     5478     5476     5481     5481     5481     5481     5482 
    5479     5476     5482     5483     5476     5481     5483     5476 
    5478     5482     5476     5475     5482     5483     5478     5478 
    5482     5481     5475     5479     5483     5481     5483     5483 
    5479     5481     5482     5476     5479     5482     5479     5481 
    5481     5479     5481     5478     5476     5478     5482     5481 
    5476     5479     5483     5479     5479     5482     5482     5479 
    5476     5479     5479     5478     5479     5481     5479     5478 
    5479     5482     5482     5478     5479     5482     5482     5481 
    5479     5479     5479     5481     5483     5481     5479     5481 
    5479     5479     5481     5481     5482     5481     5481     5482 
    5481     5479     5481     5479     5479     5481     5481     5481 
    5479     5479     5482     5482     5482     5482     5482     5479 
    5478     5481     5478     5478     5481     5479     5478     5481 
    5483     5483     5478     5475     5483     5485     5478     5481 
    5485     5481     5479     5485     5483     5479     5481     5479 
    5478     5481     5479     5478     5485     5485     5476     5476 
    5481     5479     5481     5482     5479     5479     5479     5481 
    5481     5481     5478     5479     5482     5482     5481     5483 
    5481     5478     5482     5481     5476     5481     5482     5479 
    5481     5481     5481     5479     5479     5483     5483     5479 
    5481     5485     5479     5482     5487     5479     5474     5483 
    5483     5479     5481     5481     5481     5481     5481     5482 
    5482     5482     5481     5479     5482     5479     5476     5481 
    5481     5476     5482     5485     5478     5478     5481     5481 
    5482     5481     5481     5483     5481     5478     5481     5483 
    5482     5481     5481     5482     5482     5482     5481     5479 
    5481     5481     5481     5485     5482     5476     5478     5482 
    5483     5481     5481     5481     5481     5483     5479     5476 
    5481     5483     5481     5478     5479     5482     5479     5479 
    5481     5481     5479     5481     5482     5479     5481     5486 
    5483     5481     5483     5481     5475     5479     5485     5479 
    5478     5485     5483     5474     5471     5483     5491     5475 
    5467     5493     5490     5460     5482     5499     5467     5468 
    5491     5481     5475     5483     5485     5481     5476     5481 
    5483     5481     5478     5476     5485     5486     5475     5482 
    5486     5478     5479     5479     5478     5482     5475     5479 
    5487     5478     5475     5485     5479     5475     5481     5485 
    5482     5482     5482     5475     5476     5482     5478     5478 
    5485     5476     5474     5489     5485     5472     5482     5483 
    5476     5483     5485     5481     5481     5481     5482     5482 
    5481     5481     5483     5487     5481     5475     5481     5482 
    5478     5481     5482     5481     5481     5481     5483     5482 
    5476     5479     5487     5482     5474     5487     5493     5470 
    5470     5490     5490     5471     5474     5495     5483     5466 
    5489     5489     5470     5482     5487     5478     5479     5481 
    5483     5483     5475     5481     5482     5479     5485     5483 
    5479     5479     5479     5479     5481     5483     5479     5482 
    5485     5476     5479     5487     5481     5481     5485     5481 
    5483     5483     5476     5482     5487     5481     5481     5485 
    5478     5479     5483     5476     5479     5486     5481     5479 
    5486     5481     5475     5485     5483     5474     5483     5485 
    5474     5483     5486     5475     5485     5486     5475     5487 
    5482     5472     5485     5478     5475     5487     5481     5481 
    5483     5476     5483     5486     5476     5479     5483     5483 
    5478     5478     5487     5482     5471     5482     5486     5476 
    5482     5483     5478     5476     5481     5486     5478     5474 
    5489     5482     5475     5489     5485     5475     5481     5487 
    5483     5476     5483     5479     5471     5485     5487     5478 
    5479     5481     5482     5479     5474     5485     5491     5472 
    5474     5493     5485     5475     5482     5485     5481     5479 
    5489     5481     5472     5489     5483     5472     5487     5476 
    5468     5490     5487     5478     5481     5478     5483     5482 
    5478     5487     5483     5468     5485     5490     5476     5482 
    5482     5476     5485     5482     5475     5486     5487     5475 
    5481     5487     5481     5479     5478     5478     5483     5482 
    5482     5481     5475     5483     5489     5475     5476     5489 
    5483     5475     5479     5481     5479     5478     5478     5483 
    5485     5479     5481     5483     5483     5485     5481     5479 
    5479     5479     5485     5485     5479     5483     5482     5479 
    5485     5483     5478     5481     5486     5483     5478     5485 
    5485     5476     5482     5486     5479     5481     5483     5478 
    5481     5483     5481     5482     5483     5483     5483     5481 
    5481     5482     5479     5481     5483     5482     5481     5483 
    5481     5476     5478     5479     5479     5482     5482     5483 
    5481     5478     5485     5481     5478     5485     5481     5479 
    5485     5481     5479     5481     5479     5485     5485     5478 
    5481     5483     5479     5476     5482     5482     5482     5487 
    5481     5478     5489     5483     5476     5487     5483     5476 
    5483     5481     5481     5487     5482     5479     5482     5479 
    5481     5481     5478     5482     5486     5481     5479     5483 
    5483     5482     5482     5482     5483     5483     5482     5481 
    5481     5481     5482     5479     5481     5485     5479     5478 
    5482     5479     5479     5481     5479     5481     5482     5482 
    5482     5478     5476     5482     5483     5482     5483     5489 
    5563     5944     6822     6876     3662     1290     8976    16850 
    6081    -4455     5579     8378    -3169      753    11377     5332 
     835     9927     4515    -4468    12906    14837     -171     7884 
    6400     3458    12796      915     3141    10469    -2614     7653 
    9614    -5124     6257    11462     4405     6272     5651     4622 
    5498     6546     7557     5390     6405     6177     3110     7892 
    8722     1251     2641     8101     6007     2390     2058     5586 
    9348     6714     3827     5443     6268     5470     4279     4544 
    6230     6853     5927     5117     7816     7423     1863     4256 
    8976     3547      912     7614     6897     2405     7591     7538 
    2532     5921     7033     5478     5857     4870     5840     4457 
    4600     9860     5328     1501     8506     6367     1306     5946 
    6635     4000     5058     6929     8121     4445     3289     8607 
    6077     2612     7146     6817     2902     4021     6602     5320 
    3385     5764     6574     3831     4519     8162     7921     5076 
    6111     7172     4558     3019     4707     6099     4174     3862 
    5796     5038     5263     8162     8224     3794     4029     8918 
    5425     3088     7724     5371     3592     6771     4884     3584 
    6366     6643     3157     3280     8452     6859     3172     7716 
    7609     2818     5659     6046     2313     6138     8548     4650 
    4622     5779     4816     5437     5248     6029     7268     4546 
    5417     5539     1574     7408     9509     2355     5860     7090 
    1939     7173     8989     2296     3041     6498     4760     5074 
    7479     5290     3326     8213    10095      950      992    12733 
    6683    -1699     8299     7257      726     9169     8781     1291 
    5294     8280     5039     4261     6648     6218     2681     3257 
    4143     3065     8410    11476     2239     -699     9598     8878 
    -309     3971    12141    11627     6951     1875     -398     2783 
    8814     9748     5458     4467     6674     7105     4303     2080 
    4972     6853     3982     3076     3765     4301     8937    11442 
    5117      851     4768     6543     4220     5414     8715     9958 
    9063     5206     1343     2604     5632     4295     3508     7607 
    7634     4050     6214     7659     4125     2471     2350     3790 
    6913     5691     4615     8947     9374     3811     1572     3813 
    4475     4083     6488     7904     8264    10291     8109     4104 
    2983      540     1426     7442     8333     5182     6588     8985 
    7458     5409     2783     1401     4974     5872     3427     6050 
    8185     5512     5647     6353     3450     5458     9466     5910 
    3206     4693     4595     4773     5108     7271     8777     3801 
    3348     7412     3905     2833     8449     7927     4333     5883 
    6498     3812     4456     6906     5869     4191     4770     5316 
    4449     4074     5023     5242     5046     6906     8183     6388 
    7446     8260     1152      720     8110     4718     2608     8710 
    6693     4780     8683     6278     2785     4255     4290     2647 
    4293     7819     6976     5189     7630     7238     4426     6307 
    7241     3327     2592     7152     7533     3469     5448     7807 
    2986     3942     9082     5286     2980     6943     5819     3985 
    8056     7789     2594     3306     5934     5383     4621     5205 
    7851     6207     1934     5929     8606     2494     2357     7933 
    6430     4742     7661     6554     5351     6535     4455     4236 
    6153     5692     5697     5867     5104     4195     5088     6974 
    3829     2675     8317     7349     3221     5459     5231     3770 
    6459     6605     5663     7088     5988     4827     5763     5251 
    5903     6041     4264     5344     6205     5177     4916     5810 
    7164     5186     2754     5024     6743     4195     3262     7044 
    7341     3754     5586     6912     3659     4822     6435     4831 
    6582     6801     4596     6477     6366     4407     5926     5494 
    4444     6118     6246     5898     5949     5616     5795     4580 
    4747     5898     4946     5347     4114     3007     6814     7514 
    5367     5908     5582     4440     5436     6890     6509     5121 
    5398     6443     5454     4665     5638     5171     3721     5350 
    7250     4359     3921     8147     5255     1848     6781     6475 
    2552     5543     7291     5825     6640     6891     5070     4428 
    6153     6616     5275     5556     5220     4225     5292     5813 
    6043     6554     5543     4627     4727     5047     4774     5173 
    6804     5837     4295     6002     6176     4413     4680     4484 
    4918     7319     6042     4307     6340     6659     6296     7079 
    5360     4390     5979     5317     4742     6420     4770     3635 
    6569     5833     4102     5849     5778     4607     4950     5428 
    5252     5290     6450     5780     4850     6300     5625     5323 
    6374     4590     5279     6967     4936     4850     6178     5836 
    5961     5991     4745     4085     5790     6295     4581     5000 
    5116     4163     5421     5514     4329     5895     7820     6893 
    5019     4689     5761     6342     5741     5860     6072     4719 
    4958     6903     6193     4440     4517     4758     4941     5289 
    5536     6484     6262     4465     4429     5769     6480     5873 
    3823     4419     6786     5386     4812     6239     4963     5416 
    6779     4662     4702     7138     6477     4982     5107     5223 
    5563     5842     5397     5309     5359     5861     6021     4757 
    5393     6600     5317     5274     6264     5059     4145     5273 
    5845     5294     5443     5961     6003     5479     4870     5346 
