Origin Time       2018/04/09 06:38:00
Lat.              35.2
Long.             132.6
Depth. (km)       10
Mag.              3.8
Station Code      SMNH04
Station Lat.      35.0918
Station Long.     132.5308
Station Height(m) 139
Record Time       2018/04/09 06:38:51
Sampling Freq(Hz) 100Hz
Duration Time(s)  120
Dir.              2
Scale Factor      2942(gal)/8224139
Max. Acc. (gal)   6.752
Last Correction   2018/04/09 06:38:36
Memo.             
[...]
   -9734    -9733    -9729    -9729    -9730    -9729    -9728    -9734 
   -9734    -9730    -9734    -9733    -9730    -9734    -9732    -9729 
   -9736    -9733    -9732    -9736    -9733    -9729    -9730    -9734 
   -9737    -9732    -9726    -9732    -9732    -9724    -9730    -9737 
   -9730    -9728    -9734    -9733    -9728    -9730    -9730    -9732 
   -9738    -9733    -9728    -9733    -9733    -9730    -9729    -9730 
   -9732    -9732    -9730    -9729    -9732    -9732    -9730    -9732 
   -9732    -9729    -9726    -9734    -9737    -9732    -9733    -9734 
   -9730    -9728    -9730    -9734    -9736    -9730    -9729    -9732 
   -9732    -9730    -9734    -9734    -9732    -9732    -9734    -9732 
   -9730    -9730    -9733    -9733    -9732    -9732    -9732    -9730 
   -9732    -9733    -9733    -9732    -9729    -9730    -9730    -9730 
   -9733    -9732    -9730    -9732    -9732    -9732    -9732    -9734 
   -9733    -9728    -9729    -9733    -9732    -9730    -9733    -9732 
   -9730    -9732    -9730    -9730    -9730    -9729    -9734    -9734 
   -9726    -9728    -9733    -9732    -9732    -9732    -9732    -9734 
   -9732    -9729    -9732    -9733    -9730    -9729    -9734    -9734 
   -9728    -9726    -9729    -9732    -9733    -9730    -9729    -9733 
   -9733    -9730    -9732    -9730    -9730    -9733    -9732    -9732 
   -9733    -9730    -9733    -9736    -9729    -9729    -9734    -9734 
   -9733    -9730    -9730    -9732    -9729    -9728    -9732    -9730 
   -9730    -9733    -9733    -9733    -9733    -9730    -9733    -9734 
   -9732    -9730    -9729    -9730    -9734    -9733    -9732    -9732 
   -9730    -9732    -9732    -9730    -9732    -9733    -9732    -9730 
   -9732    -9733    -9732    -9730    -9732    -9732    -9730    -9729 
   -9730    -9730    -9729    -9729    -9733    -9732    -9729    -9733 
   -9734    -9732    -9732    -9730    -9730    -9733    -9734    -9734 
   -9732    -9733    -9736    -9732    -9730    -9733    -9734    -9730 
   -9730    -9733    -9734    -9733    -9732    -9732    -9732    -9734 
   -9736    -9732    -9729    -9732    -9734    -9733    -9732    -9734 
   -9733    -9733    -9736    -9734    -9732    -9733    -9732    -9728 
   -9729    -9732    -9732    -9732    -9733    -9734    -9734    -9733 
   -9730    -9730    -9734    -9734    -9729    -9729    -9733    -9736 
   -9736    -9733    -9733    -9730    -9730    -9733    -9733    -9732 
   -9734    -9733    -9730    -9730    -9732    -9732    -9732    -9733 
   -9734    -9734    -9732    -9732    -9734    -9733    -9733    -9736 
   -9729    -9725    -9733    -9736    -9730    -9730    -9733    -9732 
   -9729    -9732    -9732    -9730    -9734    -9733    -9728    -9729 
   -9730    -9732    -9732    -9730    -9733    -9736    -9732    -9729 
   -9732    -9733    -9734    -9733    -9732    -9732    -9733    -9732 
   -9730    -9732    -9733    -9733    -9733    -9733    -9732    -9732 
   -9733    -9732    -9732    -9730    -9728    -9732    -9734    -9733 
   -9733    -9730    -9730    -9730    -9730    -9733    -9732    -9730 
   -9733    -9733    -9733    -9734    -9732    -9729    -9729    -9732 
   -9736    -9734    -9730    -9730    -9732    -9730    -9730    -9730 
   -9730    -9733    -9734    -9730    -9730    -9730    -9729    -9732 
   -9732    -9732    -9732    -9730    -9730    -9730    -9732    -9733 
   -9730    -9732    -9733    -9732    -9729    -9729    -9730    -9732 
   -9732    -9730    -9730    -9732    -9729    -9732    -9734    -9729 
   -9728    -9730    -9732    -9732    -9729    -9728    -9730    -9732 
   -9732    -9729    -9729    -9733    -9733    -9732    -9730    -9730 
   -9732    -9730    -9729    -9732    -9732    -9732    -9732    -9730 
   -9729    -9730    -9730    -9732    -9732    -9733    -9734    -9734 
   -9732    -9732    -9732    -9730    -9730    -9733    -9733    -9730 
   -9729    -9730    -9730    -9732    -9734    -9734    -9734    -9733 
   -9732    -9730    -9730    -9734    -9733    -9732    -9733    -9733 
   -9730    -9734    -9733    -9733    -9736    -9734    -9732    -9730 
   -9732    -9736    -9734    -9733    -9733    -9734    -9733    -9732 
   -9729    -9730    -9733    -9733    -9732    -9732    -9732    -9736 
   -9733    -9730    -9730    -9733    -9736    -9733    -9730    -9733 
   -9733    -9729    -9730    -9733    -9730    -9732    -9733    -9732 
   -9730    -9732    -9733    -9734    -9733    -9730    -9730    -9734 
   -9732    -9732    -9733    -9730    -9732    -9733    -9726    -9728 
   -9734    -9729    -9729    -9733    -9732    -9729    -9729    -9730 
   -9732    -9733    -9733    -9732    -9729    -9730    -9733    -9732 
   -9732    -9734    -9732    -9733    -9733    -9730    -9730    -9733 
   -9732    -9733    -9732    -9729    -9730    -9734    -9736    -9732 
   -9729    -9730    -9733    -9730    -9732    -9733    -9730    -9729 
   -9732    -9734    -9736    -9734    -9732    -9733    -9734    -9733 
   -9733    -9733    -9730    -9729    -9732    -9730    -9729    -9730 
   -9733    -9733    -9732    -9733    -9734    -9730    -9729    -9733 
   -9736    -9732    -9732    -9733    -9733    -9733    -9733    -9733 
   -9733    -9733    -9733    -9732    -9730    -9732    -9732    -9730 
   -9730    -9733    -9734    -9733    -9733    -9734    -9733    -9730 
   -9732    -9732    -9732    -9734    -9736    -9732    -9733    -9737 
   -9736    -9732    -9730    -9733    -9734    -9736    -9734    -9733 
   -9733    -9732    -9733    -9733    -9732    -9730    -9729    -9732 
   -9736    -9734    -9732    -9734    -9733    -9733    -9736    -9734 
   -9732    -9732    -9732    -9733    -9734    -9734    -9734    -9733 
   -9733    -9733    -9732    -9732    -9734    -9734    -9732    -9733 
   -9734    -9733    -9734    -9736    -9733    -9732    -9732    -9732 
   -9730    -9732    -9732    -9730    -9732    -9733    -9732    -9730 
   -9730    -9732    -9730    -9730    -9732    -9733    -9732    -9730 
   -9730    -9730    -9730    -9730    -9730    -9730    -9729    -9730 
   -9730    -9732    -9732    -9732    -9730    -9733    -9733    -9730 
   -9729    -9730    -9730    -9730    -9732    -9730    -9730    -9730 
   -9730    -9729    -9729    -9730    -9732    -9733    -9730    -9730 
   -9734    -9736    -9732    -9730    -9732    -9730    -9728    -9730 
   -9732    -9730    -9730    -9729    -9730    -9734    -9733    -9729 
   -9728    -9730    -9730    -9730    -9730    -9732    -9730    -9730 
   -9730    -9734    -9734    -9732    -9730    -9728    -9728    -9732 
   -9733    -9733    -9732    -9732    -9734    -9734    -9729    -9729 
   -9732    -9733    -9732    -9730    -9730    -9733    -9732    -9730 
   -9732    -9733    -9732    -9729    -9730    -9733    -9733    -9730 
   -9732    -9736    -9732    -9728    -9730    -9734    -9733    -9729 
   -9728    -9732    -9733    -9728    -9729    -9736    -9733    -9729 
   -9733    -9734    -9733    -9734    -9732    -9729    -9730    -9730 
   -9730    -9729    -9733    -9736    -9733    -9733    -9733    -9732 
   -9730    -9728    -9730    -9730    -9733    -9736    -9732    -9732 
   -9732    -9730    -9733    -9733    -9730    -9732    -9734    -9734 
   -9732    -9730    -9734    -9737    -9732    -9729    -9733    -9734 
   -9732    -9733    -9733    -9730    -9733    -9733    -9729    -9730 
   -9734    -9734    -9732    -9732    -9733    -9733    -9732    -9733 
   -9734    -9732    -9730    -9732    -9733    -9734    -9733    -9729 
   -9729    -9730    -9733    -9734    -9730    -9732    -9733    -9732 
   -9733    -9733    -9732    -9732    -9732    -9732    -9732    -9729 
   -9730    -9734    -9733    -9732    -9732    -9733    -9732    -9732 
   -9734    -9733    -9732    -9733    -9733    -9734    -9734    -9732 
   -9732    -9734    -9734    -9733    -9730    -9730    -9732    -9732 
   -9732    -9733    -9734    -9734    -9733    -9732    -9734    -9733 
   -9732    -9733    -9733    -9732    -9733    -9734    -9734    -9734 
   -9734    -9732    -9734    -9734    -9729    -9730    -9737    -9733 
   -9729    -9730    -9730    -9732    -9732    -9730    -9732    -9734 
   -9732    -9729    -9732    -9733    -9729    -9728    -9730    -9730 
   -9732    -9732    -9732    -9730    -9730    -9732    -9733    -9729 
   -9730    -9732    -9732    -9733    -9733    -9734    -9736    -9733 
   -9729    -9728    -9729    -9732    -9730    -9730    -9730    -9732 
   -9730    -9729    -9729    -9730    -9730    -9732    -9733    -9730 
   -9730    -9732    -9730    -9729    -9730    -9732    -9732    -9730 
   -9729    -9730    -9729    -9729    -9733    -9733    -9732    -9730 
   -9730    -9729    -9733    -9734    -9732    -9730    -9730    -9732 
   -9734    -9732    -9729    -9732    -9730    -9728    -9730    -9733 
   -9732    -9730    -9733    -9734    -9730    -9730    -9733    -9733 
   -9733    -9733    -9734    -9733    -9730    -9730    -9733    -9732 
   -9730    -9732    -9732    -9733    -9734    -9732    -9730    -9733 
   -9732    -9732    -9733    -9730    -9733    -9733    -9730    -9733 
   -9733    -9730    -9730    -9733    -9734    -9730    -9729    -9733 
   -9734    -9734    -9732    -9730    -9733    -9732    -9732    -9736 
   -9734    -9732    -9732    -9733    -9733    -9732    -9732    -9734 
   -9733    -9733    -9732    -9732    -9730    -9730    -9732    -9730 
   -9732    -9734    -9729    -9729    -9734    -9732    -9730    -9734 
   -9733    -9733    -9734    -9730    -9726    -9729    -9729    -9732 
   -9736    -9729    -9724    -9733    -9734    -9729    -9734    -9733 
   -9726    -9730    -9733    -9733    -9736    -9730    -9728    -9730 
   -9732    -9732    -9728    -9730    -9733    -9729    -9732    -9733 
   -9730    -9730    -9730    -9729    -9733    -9733    -9729    -9732 
   -9734    -9732    -9732    -9733    -9733    -9732    -9729    -9730 
   -9733    -9732    -9732    -9732    -9730    -9732    -9730    -9728 
   -9732    -9728    -9725    -9734    -9740    -9736    -9732    -9730 
   -9736    -9730    -9728    -9737    -9732    -9728    -9737    -9730 
   -9729    -9733    -9732    -9737    -9734    -9728    -9736    -9736 
   -9730    -9734    -9733    -9730    -9732    -9734    -9734    -9734 
   -9729    -9726    -9736    -9737    -9729    -9729    -9738    -9738 
   -9730    -9728    -9732    -9734    -9732    -9730    -9734    -9738 
   -9736    -9729    -9730    -9733    -9730    -9729    -9734    -9734 
   -9728    -9730    -9737    -9736    -9732    -9730    -9733    -9732 
   -9725    -9729    -9736    -9733    -9730    -9730    -9729    -9730 
   -9732    -9732    -9733    -9734    -9730    -9730    -9733    -9730 
   -9729    -9734    -9732    -9729    -9732    -9732    -9733    -9732 
   -9732    -9734    -9733    -9729    -9729    -9732    -9733    -9729 
   -9729    -9733    -9732    -9729    -9729    -9730    -9730    -9732 
   -9733    -9732    -9732    -9732    -9732    -9733    -9732    -9729 
   -9732    -9733    -9730    -9729    -9732    -9733    -9732    -9732 
   -9733    -9732    -9730    -9729    -9730    -9732    -9730    -9728 
   -9730    -9730    -9729    -9728    -9726    -9729    -9733    -9734 
   -9733    -9732    -9732    -9730    -9732    -9732    -9729    -9729 
   -9730    -9730    -9732    -9729    -9729    -9732    -9733    -9732 
   -9730    -9732    -9730    -9730    -9733    -9733    -9732    -9733 
   -9733    -9732    -9730    -9729    -9729    -9730    -9730    -9732 
   -9730    -9730    -9732    -9730    -9733    -9734    -9732    -9732 
   -9734    -9734    -9733    -9732    -9732    -9730    -9732    -9732 
   -9732    -9734    -9736    -9733    -9733    -9748    -9818    -9983 
  -10029    -9518    -8930    -9767   -11541   -11522    -9297    -7366 
   -7920   -10235   -10971   -10017    -9809   -10054    -9714    -8603 
   -8436    -9529   -10408   -12150   -10636    -6543    -9072   -12017 
  -10208    -9451    -8239    -8521   -10662   -10609   -10354    -9339 
   -9213   -10389    -9794    -8662    -7931    -9837   -11502   -10644 
  -11234    -9841    -7153    -8257   -10422   -11445   -10149    -8008 
   -9035   -10682   -10474    -9814    -8968    -9553   -10883    -9606 
   -8117    -8775    -9919   -11453   -11661   -10210    -9744    -8811 
   -7816    -8945   -10239   -10324    -9934   -10092   -10403   -10107 
   -8934    -7684    -8722   -10598   -11016   -10299    -9204    -9686 
  -10432    -9630    -9572   -10299   -10111    -9895   -10350   -10168 
   -9320    -8839    -8986   -10058   -10378    -9197    -9011    -9659 
   -9717    -9877   -10131    -9984    -9520    -9451    -9599    -9186 
   -9636   -10233    -9715    -9873    -9987    -9787   -10226    -9968 
   -9649    -9902    -9742    -9613    -9340    -9070    -9953   -10561 
   -9837    -9254    -9325    -9294    -8857    -9154    -9783    -9506 
  -10019   -10400    -9462   -10093   -10825   -10158   -10338    -9828 
   -8822    -9375    -9753    -9428    -9379   -10065   -10706   -10130 
   -9355    -9263    -9837   -10253    -9756    -9406    -9985   -10552 
   -9614    -8503    -9078    -9945    -9891    -9356    -9548   -10208 
   -9855    -9300    -9482    -9607    -9637   -10098    -9776    -8950 
   -9544   -10517   -10716    -9720    -8460    -9292   -10470   -10106 
   -9923   -10370    -9784    -9186    -9969   -10092    -9748    -9610 
   -9448    -9944   -10378   -11819   -11932    -7645    -6883   -14558 
  -20548   -14476      499     9143    -3400   -23793   -19863    -3667 
   -8209   -16600    -9832    -3071    -1649    -5892   -15125   -16260 
  -10386    -6548    -4646    -8421   -14862   -10995    -5401   -11820 
  -13687    -5668    -5112    -9493   -13360   -15059    -9255    -6196 
  -10184   -10341    -7623    -8321   -10488   -12970   -13537    -8946 
   -6065    -8473   -10289    -9810    -9490   -10033    -9753    -8699 
   -7453    -8349   -12043   -11696    -9520   -11319   -10991    -8324 
   -9639   -12128   -11654    -9751    -7831    -9130   -12907   -10863 
   -7635   -10066   -10814    -9170    -9404   -10497    -9880    -6795 
   -7022   -11151   -11626    -9022    -8598    -9197    -9882   -10909 
  -10187   -10029   -10351    -8835    -9475   -10493    -8756    -8595 
   -9641    -9315    -8851    -8735    -9706   -11169   -10368    -9369 
  -10706   -10331    -8499    -9632   -10883   -10189    -9672    -9694 
  -10466   -10444    -8941    -9715   -11827    -9844    -7420    -9327 
  -10381    -9196    -8735    -8800    -9995   -10667    -8977    -7940 
   -9533   -10623    -9913   -10309   -10327    -9072    -8637    -8692 
  -10092   -10737    -9663    -9979    -9697    -8568    -9398   -10623 
  -10415   -10203   -10631   -10044    -9234    -9693   -10434   -10569 
  -10419   -10579   -10012    -9328    -9907    -9575    -9309   -10174 
   -9470    -8984    -9475    -9234    -9821    -9834    -9067   -10315 
  -10449    -8702    -9256   -10574   -10085    -9759    -9806    -8716 
   -8633    -9994   -10134   -10272   -10584    -9715    -9146    -8737 
   -8538    -9221   -10554   -11853   -10300    -8480   -10667   -11844 
   -9548    -8368    -8920    -9478    -9362    -8091    -7809    -9745 
  -11340   -10534    -8594    -8465    -9113    -9225   -10515   -10461 
   -9018   -10435   -11753    -9676    -8059    -9360   -10624   -10153 
  -10299   -11053   -10227    -9084    -9304   -10250   -10863   -10393 
   -9726    -9383    -8856    -9443   -10524   -10195    -9859   -10111 
  -10127   -10019    -9838    -9819    -9690    -9535    -9990   -10011 
   -9177    -8592    -8646    -9282    -9521    -9267    -9680    -9736 
   -9174    -9074    -9686   -10612   -10099    -9238    -9909   -10216 
   -9753    -9297    -9165   -10251   -10737    -9798    -9906   -10520 
  -10297   -10042    -9150    -8391    -9526   -10323    -9971    -9896 
   -9080    -8784   -10071   -10056    -9521    -9960    -9212    -8514 
   -9823   -10678    -9872    -9378    -9610    -9445    -9702   -10462 
  -10195    -9325    -8945    -9520   -10216   -10038    -9883    -9798 
   -9637   -10098   -10494    -9979    -9227    -9647   -10442   -10069 
   -9683    -9505    -9182    -9718   -10235   -10334   -10590   -10260 
   -9413    -8625    -8513    -9146    -9634   -10231   -10875   -10319 
   -9028    -9050    -9859    -9794    -9571    -9325    -9292   -10390 
  -10759    -9536    -9061    -9871   -10303    -9834    -9121    -8965 
   -9358    -9445    -9533    -9990   -10187   -10085    -9788    -9790 
  -10160    -9641    -8803    -9138    -9580    -9290    -9424    -9922 
  -10349   -10419    -9617    -9748   -10612    -9805    -8895    -9489 
  -10072    -9963   -10045   -10243   -10150   -10204    -9823    -9000 
   -8953    -9204    -9505   -10395   -10234    -9035    -9192    -9867 
   -9933    -9618    -9066    -9707   -10681   -10362    -9791    -9617 
   -9729   -10003    -9837    -9213    -9583   -10551   -10384   -10334 
  -10588    -9539    -8586    -9377   -10658   -10443    -9090    -8795 
   -9772    -9823    -8623    -8976   -10702   -10281    -8829    -8981 
   -9602    -9999    -9765    -9047    -9617   -10525   -10025    -9356 
   -9539    -9768    -9805    -9865    -9752    -9655    -9796    -9698 
   -9258    -9389    -9694    -9651   -10174   -10069    -9205    -9688 
  -10166    -9603    -9598   -10034   -10108    -9880    -9809   -10054 
  -10204   -10227    -9741    -9254    -9837   -10054    -9846   -10366 
   -9828    -8873    -9807   -10449    -9502    -9374   -10218   -10015 
   -8988    -8856    -9639    -9888    -9531    -9639    -9925    -9792 
   -9603    -9556    -9485    -9462    -9423    -9003    -9543   -11002 
  -10216    -8349    -8958   -10436    -9806    -8775    -9775   -10625 
   -9788    -9629   -10648   -10107    -8908    -9713   -10115    -9668 
  -10099   -10065    -9863    -9661    -9321   -10241   -10712    -9455 
   -9047    -9907    -9877    -9234    -9467   -10068    -9744    -9387 
  -10058    -9987    -9236    -9790   -10066    -9269    -9671   -10273 
   -9216    -8781    -9967   -10328    -9567    -9652   -10338    -9857 
   -9082    -9715   -10536   -10181    -9609    -9768    -9850    -9443 
   -9706   -10133    -9856    -9796    -9724    -9678   -10134   -10096 
   -9787    -9910    -9969    -9553    -8783    -8814    -9902   -10146 
   -9614    -9752    -9740    -9448    -9273    -8829    -9624   -10879 
   -9931    -9089    -9671    -9339    -9359   -10382   -10110    -9379 
   -9378    -9740   -10305    -9883    -9132    -9729   -10041    -9386 
   -9517    -9776    -9613   -10143   -10334    -9748    -9580    -9803 
  -10174    -9859    -8862    -9132   -10362   -10462    -9788    -9759 
   -9921    -9968    -9994    -9188    -8638    -9756   -10786   -10270 
   -9598    -9736    -9757    -9529    -9571    -9651    -9879   -10133 
   -9864    -9562    -9479    -9324    -9296    -9256    -9574   -10045 
   -9455    -9119    -9691    -9675    -9474    -9659    -9868    -9783 
   -9641    -9737    -9532    -9513    -9844    -9860    -9625    -9435 
  -10162   -10598    -9724    -9868   -10156    -9285    -9771   -10704 
  -10258    -9992    -9944    -9734   -10111   -10301    -9720    -9366 
   -9667    -9742    -9674   -10026    -9892    -9460    -9583    -9603 
   -9477    -9441    -9436    -9775   -10041    -9802    -9328    -9061 
