Origin Time       2018/04/09 06:38:00
Lat.              35.2
Long.             132.6
Depth. (km)       10
Mag.              3.8
Station Code      SMNH04
Station Lat.      35.0918
Station Long.     132.5308
Station Height(m) 139
Record Time       2018/04/09 06:38:51
Sampling Freq(Hz) 100Hz
Duration Time(s)  120
Dir.              3
Scale Factor      2942(gal)/8224139
Max. Acc. (gal)   2.512
Last Correction   2018/04/09 06:38:36
Memo.             
[...]
   54226    54224    54220    54224    54226    54224    54222    54224 
   54225    54224    54220    54222    54224    54220    54221    54226 
   54224    54220    54225    54228    54225    54222    54224    54224 
   54222    54228    54228    54222    54224    54224    54222    54222 
   54222    54222    54220    54220    54224    54221    54221    54226 
   54221    54220    54225    54226    54225    54225    54222    54222 
   54224    54220    54222    54229    54222    54218    54226    54226 
   54222    54225    54224    54221    54224    54225    54224    54226 
   54226    54222    54221    54225    54225    54225    54226    54225 
   54222    54224    54226    54228    54222    54222    54228    54229 
   54225    54225    54224    54224    54226    54228    54224    54225 
   54226    54226    54224    54225    54226    54224    54222    54225 
   54225    54224    54225    54224    54226    54230    54226    54222 
   54228    54229    54226    54222    54222    54226    54226    54221 
   54221    54228    54229    54224    54224    54228    54226    54224 
   54224    54224    54224    54225    54224    54226    54224    54218 
   54226    54230    54222    54222    54226    54225    54225    54228 
   54226    54225    54224    54225    54226    54225    54226    54229 
   54225    54222    54225    54224    54224    54225    54224    54222 
   54224    54222    54224    54226    54228    54228    54222    54221 
   54224    54226    54226    54224    54225    54225    54225    54228 
   54230    54229    54224    54222    54226    54224    54222    54229 
   54228    54222    54224    54226    54225    54226    54229    54229 
   54228    54226    54225    54224    54224    54224    54226    54226 
   54222    54224    54225    54222    54221    54225    54225    54224 
   54225    54228    54228    54224    54224    54224    54224    54226 
   54226    54224    54222    54225    54226    54226    54225    54226 
   54226    54224    54225    54225    54224    54224    54224    54224 
   54226    54228    54226    54224    54225    54226    54228    54225 
   54225    54228    54228    54225    54226    54225    54221    54225 
   54226    54224    54228    54229    54222    54221    54225    54225 
   54225    54225    54224    54225    54225    54225    54228    54225 
   54221    54224    54226    54224    54224    54221    54222    54226 
   54225    54222    54224    54226    54226    54225    54225    54225 
   54228    54228    54225    54226    54228    54225    54224    54225 
   54225    54226    54225    54224    54224    54225    54226    54224 
   54224    54225    54225    54225    54226    54226    54225    54224 
   54224    54225    54225    54224    54224    54225    54224    54225 
   54226    54224    54222    54226    54225    54225    54229    54226 
   54221    54225    54224    54221    54226    54229    54221    54221 
   54228    54226    54225    54225    54224    54225    54225    54221 
   54224    54225    54221    54222    54224    54222    54226    54225 
   54220    54222    54226    54225    54224    54225    54226    54228 
   54225    54222    54224    54226    54225    54224    54225    54229 
   54224    54220    54226    54228    54221    54222    54226    54222 
   54221    54225    54224    54222    54225    54225    54222    54222 
   54222    54224    54225    54224    54224    54224    54224    54222 
   54224    54226    54224    54220    54220    54225    54228    54225 
   54220    54221    54224    54225    54224    54225    54228    54226 
   54226    54228    54225    54224    54226    54225    54222    54226 
   54225    54225    54226    54222    54221    54225    54224    54224 
   54226    54229    54226    54225    54225    54224    54225    54226 
   54225    54224    54225    54224    54224    54224    54224    54221 
   54221    54226    54230    54226    54224    54225    54228    54229 
   54225    54221    54226    54229    54226    54225    54224    54224 
   54222    54221    54224    54225    54224    54226    54226    54222 
   54225    54228    54226    54226    54224    54225    54228    54224 
   54224    54225    54225    54225    54224    54221    54224    54226 
   54225    54226    54228    54226    54224    54225    54225    54226 
   54228    54224    54222    54228    54225    54222    54225    54225 
   54224    54224    54222    54226    54226    54224    54224    54225 
   54226    54225    54224    54225    54225    54226    54222    54222 
   54226    54228    54224    54221    54222    54225    54226    54222 
   54224    54228    54225    54222    54224    54222    54221    54222 
   54228    54229    54226    54226    54226    54222    54222    54221 
   54220    54224    54225    54222    54222    54224    54224    54224 
   54224    54225    54225    54222    54225    54228    54225    54225 
   54228    54226    54226    54226    54221    54221    54226    54225 
   54221    54225    54228    54224    54224    54225    54224    54224 
   54224    54226    54226    54225    54224    54224    54226    54225 
   54221    54224    54228    54224    54222    54225    54226    54228 
   54226    54225    54229    54226    54224    54225    54224    54224 
   54225    54222    54222    54225    54224    54225    54226    54224 
   54224    54224    54226    54228    54225    54224    54226    54228 
   54225    54221    54220    54222    54226    54229    54226    54225 
   54228    54228    54226    54226    54225    54222    54224    54225 
   54224    54222    54226    54225    54222    54228    54230    54224 
   54222    54226    54226    54222    54221    54222    54224    54222 
   54225    54226    54222    54221    54222    54222    54224    54228 
   54224    54224    54226    54221    54222    54226    54225    54224 
   54224    54222    54224    54226    54225    54222    54224    54225 
   54224    54224    54228    54224    54220    54224    54225    54225 
   54226    54224    54224    54224    54224    54226    54226    54224 
   54226    54228    54224    54222    54224    54224    54222    54221 
   54225    54226    54224    54224    54226    54225    54224    54225 
   54225    54226    54225    54224    54228    54228    54225    54225 
   54222    54222    54225    54225    54226    54224    54222    54225 
   54226    54225    54226    54226    54221    54222    54226    54228 
   54224    54222    54225    54229    54226    54222    54221    54220 
   54222    54226    54225    54224    54224    54224    54224    54224 
   54222    54221    54225    54228    54224    54225    54228    54225 
   54226    54228    54225    54225    54228    54225    54224    54226 
   54226    54224    54224    54226    54225    54224    54225    54226 
   54226    54224    54225    54226    54225    54225    54225    54225 
   54225    54224    54225    54224    54222    54225    54225    54224 
   54224    54225    54228    54228    54224    54222    54225    54226 
   54225    54225    54225    54222    54222    54226    54226    54224 
   54226    54224    54221    54222    54225    54225    54225    54226 
   54222    54222    54226    54225    54225    54226    54224    54222 
   54225    54225    54225    54225    54224    54222    54222    54224 
   54225    54225    54224    54224    54225    54224    54221    54221 
   54221    54224    54229    54225    54221    54221    54221    54221 
   54224    54224    54224    54224    54225    54224    54221    54220 
   54224    54226    54222    54221    54228    54226    54224    54225 
   54224    54222    54225    54224    54222    54225    54226    54224 
   54222    54224    54225    54224    54221    54224    54224    54221 
   54224    54226    54221    54221    54225    54224    54222    54224 
   54224    54224    54225    54225    54222    54224    54225    54224 
   54222    54225    54226    54226    54225    54225    54225    54224 
   54221    54220    54222    54229    54225    54218    54225    54226 
   54218    54225    54229    54220    54224    54232    54226    54221 
   54222    54224    54220    54222    54225    54224    54225    54226 
   54222    54221    54224    54221    54221    54224    54224    54225 
   54226    54226    54225    54225    54222    54221    54222    54224 
   54224    54224    54225    54224    54222    54224    54224    54222 
   54222    54225    54226    54224    54222    54224    54221    54220 
   54222    54222    54225    54228    54225    54224    54224    54224 
   54225    54225    54225    54225    54224    54222    54221    54222 
   54225    54224    54222    54228    54228    54224    54224    54225 
   54225    54228    54225    54224    54225    54222    54220    54220 
   54224    54224    54224    54228    54226    54222    54228    54230 
   54224    54222    54229    54229    54226    54228    54225    54221 
   54225    54225    54224    54225    54224    54226    54230    54226 
   54224    54226    54228    54222    54224    54229    54228    54224 
   54225    54226    54225    54226    54226    54225    54228    54229 
   54226    54226    54226    54228    54229    54225    54224    54228 
   54226    54224    54224    54225    54225    54224    54226    54226 
   54226    54226    54224    54228    54232    54228    54224    54224 
   54224    54224    54226    54226    54225    54226    54228    54225 
   54225    54224    54217    54221    54228    54222    54222    54228 
   54225    54228    54228    54224    54225    54225    54222    54225 
   54226    54222    54221    54225    54228    54225    54221    54225 
   54226    54224    54225    54228    54226    54221    54221    54226 
   54225    54220    54224    54225    54225    54226    54224    54224 
   54228    54225    54221    54222    54225    54225    54224    54225 
   54224    54224    54225    54222    54224    54225    54222    54224 
   54226    54224    54222    54225    54224    54224    54224    54225 
   54226    54225    54228    54228    54222    54221    54224    54222 
   54222    54224    54224    54225    54224    54222    54222    54224 
   54230    54226    54221    54228    54225    54220    54225    54226 
   54225    54226    54226    54224    54224    54221    54221    54226 
   54225    54218    54221    54226    54221    54224    54229    54224 
   54221    54224    54225    54225    54225    54224    54222    54222 
   54224    54225    54222    54220    54225    54229    54226    54222 
   54224    54225    54222    54221    54226    54226    54222    54224 
   54228    54226    54225    54225    54225    54225    54222    54220 
   54224    54229    54228    54224    54224    54226    54226    54224 
   54222    54225    54225    54222    54221    54224    54225    54226 
   54224    54224    54225    54224    54226    54225    54218    54220 
   54224    54225    54225    54225    54224    54225    54226    54228 
   54224    54224    54226    54226    54222    54224    54226    54226 
   54226    54226    54225    54225    54228    54225    54225    54226 
   54222    54220    54225    54226    54222    54221    54222    54228 
   54228    54224    54224    54226    54222    54221    54225    54226 
   54222    54224    54225    54224    54228    54229    54226    54224 
   54224    54226    54225    54222    54224    54228    54225    54222 
   54222    54224    54225    54225    54225    54228    54229    54225 
   54221    54224    54228    54225    54222    54226    54228    54228 
   54225    54221    54224    54226    54225    54222    54224    54225 
   54225    54226    54225    54224    54225    54226    54226    54225 
   54225    54226    54226    54225    54226    54229    54229    54225 
   54225    54224    54222    54224    54230    54286    54564    55181 
   55363    53770    52362    55761    60740    58503    52312    51517 
   53912    54402    54388    53632    50461    49805    52907    51175 
   48524    53412    56906    56111    55031    52893    55339    58569 
   56577    55219    53206    52663    56332    55833    52446    51831 
   53130    54688    54367    53608    53774    53728    54841    56157 
   55728    55198    55028    55088    55819    55314    53271    52261 
   52922    54394    54756    52986    52544    54606    55290    53677 
   52771    54016    55304    54716    53757    54584    55768    54341 
   52562    53900    55231    54156    54137    55323    54214    53200 
   54290    53873    52986    53982    54594    54348    54071    53914 
   54247    54583    54916    54734    53431    53734    55564    54970 
   53592    54062    54268    54360    55258    55113    53958    53330 
   54167    55532    54697    53118    53563    54349    54645    54946 
   54072    52637    53028    54533    54481    53586    53963    54525 
   53773    53379    54492    54947    54143    54020    54338    54101 
   54130    54733    54945    54637    54527    54441    53982    53671 
   54054    54371    53829    53815    54630    54680    54409    54363 
   54062    54076    54344    54109    54014    54588    54267    53211 
   54230    55732    54541    53461    54137    54225    54718    55601 
   54108    52573    53794    55370    54891    53177    52984    54672 
   54980    53698    53769    54291    54324    54915    54024    52982 
   54799    55507    54087    53696    53158    53032    55073    55841 
   54162    53484    53811    53793    54546    54992    53310    52448 
   54854    55814    53172    53253    56042    55255    52628    51825 
   52965    55655    55444    51402    51759    58351    61246    55021 
   49006    52870    59184    57793    53487    52054    51675    52759 
   54814    53562    51565    53520    55239    53944    53627    54850 
   56068    56474    53829    51325    53331    54658    52651    53202 
   56296    57411    56953    55602    52795    51193    53164    56181 
   56617    54646    53505    54099    54179    54556    55524    54098 
   52702    54344    55818    55489    54078    52011    52039    54387 
   55248    54459    54044    54224    54792    54819    54153    53265 
   52353    53249    55308    55092    53410    53401    54757    54982 
   53685    52899    53312    53669    53766    54091    54159    53954 
   53851    53989    54743    55435    55206    54899    54861    54384 
   54162    54255    54013    54583    55170    54396    53689    53501 
   54078    55291    54718    53406    54008    54456    53875    54275 
   54805    54511    54441    54348    54135    54464    54238    53555 
   53870    54217    54217    54556    54051    53052    53573    54623 
   54507    54282    54329    54101    54290    54448    54465    55266 
   55540    54838    54530    54265    53469    53172    53940    54400 
   53719    53069    53130    53711    54760    55109    53239    51629 
   53816    55966    54496    53816    54464    53369    53577    55721 
   55485    53779    53627    53889    54033    54981    55336    54571 
   54271    54310    54000    54126    54859    54831    54205    54938 
   55911    54571    53084    53958    54595    53952    54268    54638 
   53835    54054    54799    53545    53320    55528    55490    53543 
   53065    53566    54619    55281    54162    52961    53090    53682 
   54028    53846    53693    54172    54117    53604    54139    54376 
   53869    54583    55277    54446    53804    54548    55348    54893 
   54553    54893    54658    54615    54753    53990    54029    54854 
   54260    53384    53424    53530    54067    54337    53269    53050 
   53987    54137    54118    54332    54492    54777    54604    54315 
   54553    54819    54672    54251    54432    54945    54336    53554 
   54002    54299    53557    53284    54179    54615    53898    53563 
   53630    53555    54159    54513    54128    54110    53966    53836 
   54247    54207    54159    54773    54911    54415    54378    54985 
   55219    54832    54787    54641    54135    54351    54893    54957 
   54446    53725    53735    54018    53808    53941    54226    53692 
   53368    53921    54386    54249    53774    53833    54480    54706 
   54317    53855    54076    54649    54595    54135    53550    53684 
   54554    54279    53801    54329    54267    53838    54148    54727 
   54868    54403    53944    53889    54193    54595    54546    54216 
   53968    53941    54291    54448    54369    54621    54615    54132 
   54113    54606    54650    54089    53829    54039    54075    54082 
   53973    53667    53971    54240    53933    54133    54318    54126 
   54472    54438    54041    54742    55247    54313    53685    54302 
   54858    54819    54476    53941    53800    54001    54120    54213 
   53962    53758    54139    54399    54265    54049    54148    54465 
   54282    54183    54245    53850    54020    54477    54162    53890 
   54081    54338    54342    54103    54051    54187    54299    54129 
   54082    54479    54441    54224    54267    53954    53897    54498 
   54677    54274    54086    54207    54394    54297    53863    54090 
   54766    54700    54436    54399    54282    54483    54639    54305 
   54290    54498    54207    54010    54076    53847    53887    54283 
   54129    53711    53890    54554    54575    53885    53817    53865 
   53528    53973    54449    54126    53894    53812    53829    54136 
   54422    54645    54526    54105    54294    54835    54892    54796 
   54646    54414    54503    54594    54637    54873    54618    53919 
   53840    54415    54652    54176    53707    53843    54234    54286 
   54037    53908    53990    54132    54243    54190    54153    54405 
   54232    53566    53846    54579    54110    53608    54203    54284 
   53617    53738    54153    53987    54021    54364    54313    53968 
   53966    54522    54787    54294    53913    54018    54325    54739 
   54793    54248    54000    54345    54456    54392    54386    54093 
   54128    54556    54267    53851    54213    54365    54005    54000 
   54280    54290    54143    54059    54066    54376    54591    54282 
   54101    54148    54206    54626    54754    54072    53802    54365 
   54616    54328    54008    54000    54345    54383    54295    54504 
   54344    53994    53986    54037    54251    54510    54238    53898 
   53974    53956    53959    54213    54211    54072    54139    54310 
   54279    54005    54220    54553    54305    54365    54371    53947 
   54353    54633    53924    53900    54556    54522    54135    54294 
   54564    54297    54022    54226    54472    54333    54018    54126 
   54467    54440    54452    54403    54010    54314    54823    54342 
   53928    54064    54240    54514    54294    53703    53821    54247 
   54238    54056    54021    54076    54010    54006    54241    54282 
   54087    53982    53928    54139    54383    54105    53990    54166 
   54004    54135    54535    54315    54099    54564    54730    54113 
   53897    54492    54649    54207    54257    54499    54426    54500 
   54382    54095    54228    54356    54364    54306    54171    54333 
   54351    54147    54259    54199    54095    54355    54195    53977 
   54319    54172    53612    53793    54292    54217    53886    53931 
   54184    54245    54103    54022    54213    54390    54284    54095 
   54070    54260    54392    54210    53928    53944    54253    54487 
