Origin Time       2018/04/09 06:38:00
Lat.              35.2
Long.             132.6
Depth. (km)       10
Mag.              3.8
Station Code      SMNH04
Station Lat.      35.0918
Station Long.     132.5308
Station Height(m) 240
Record Time       2018/04/09 06:38:51
Sampling Freq(Hz) 100Hz
Duration Time(s)  120
Dir.              4
Scale Factor      7845(gal)/8223790
Max. Acc. (gal)   13.326
Last Correction   2018/04/09 06:38:36
Memo.             
[...]
   -4722    -4720    -4723    -4730    -4729    -4722    -4722    -4722 
   -4719    -4726    -4731    -4723    -4719    -4725    -4726    -4725 
   -4725    -4723    -4719    -4718    -4723    -4722    -4720    -4723 
   -4722    -4719    -4720    -4725    -4727    -4725    -4722    -4722 
   -4725    -4727    -4729    -4726    -4722    -4723    -4726    -4723 
   -4720    -4720    -4720    -4719    -4719    -4720    -4722    -4725 
   -4729    -4730    -4725    -4722    -4723    -4720    -4719    -4725 
   -4726    -4725    -4726    -4726    -4722    -4720    -4722    -4725 
   -4723    -4722    -4726    -4726    -4723    -4726    -4726    -4726 
   -4723    -4718    -4718    -4725    -4726    -4726    -4729    -4726 
   -4722    -4722    -4720    -4725    -4729    -4726    -4723    -4727 
   -4725    -4719    -4723    -4727    -4725    -4722    -4723    -4725 
   -4723    -4722    -4727    -4726    -4722    -4725    -4725    -4722 
   -4726    -4726    -4723    -4722    -4723    -4723    -4720    -4722 
   -4725    -4722    -4722    -4723    -4722    -4723    -4725    -4723 
   -4720    -4720    -4723    -4722    -4720    -4723    -4722    -4723 
   -4727    -4727    -4726    -4726    -4725    -4720    -4720    -4723 
   -4720    -4720    -4726    -4727    -4725    -4723    -4723    -4725 
   -4723    -4720    -4722    -4726    -4726    -4725    -4726    -4726 
   -4722    -4720    -4722    -4722    -4725    -4725    -4722    -4723 
   -4725    -4722    -4725    -4726    -4722    -4720    -4720    -4720 
   -4723    -4725    -4723    -4722    -4720    -4723    -4725    -4722 
   -4723    -4725    -4723    -4726    -4726    -4722    -4719    -4722 
   -4723    -4722    -4720    -4722    -4720    -4720    -4725    -4725 
   -4725    -4727    -4723    -4722    -4727    -4726    -4722    -4725 
   -4723    -4725    -4726    -4720    -4722    -4726    -4725    -4725 
   -4725    -4725    -4723    -4722    -4723    -4723    -4723    -4723 
   -4722    -4722    -4723    -4722    -4720    -4722    -4722    -4720 
   -4723    -4725    -4720    -4722    -4725    -4725    -4722    -4723 
   -4722    -4719    -4722    -4725    -4723    -4722    -4723    -4720 
   -4720    -4725    -4725    -4723    -4722    -4722    -4725    -4725 
   -4725    -4725    -4720    -4718    -4722    -4723    -4719    -4722 
   -4727    -4725    -4722    -4723    -4725    -4723    -4723    -4723 
   -4725    -4725    -4725    -4726    -4723    -4720    -4723    -4723 
   -4722    -4723    -4723    -4723    -4727    -4725    -4720    -4726 
   -4726    -4719    -4723    -4727    -4723    -4723    -4726    -4726 
   -4723    -4723    -4725    -4723    -4723    -4725    -4723    -4722 
   -4720    -4720    -4723    -4723    -4725    -4723    -4722    -4723 
   -4722    -4722    -4725    -4722    -4723    -4725    -4722    -4722 
   -4723    -4723    -4720    -4720    -4722    -4723    -4725    -4723 
   -4722    -4723    -4725    -4722    -4719    -4722    -4725    -4723 
   -4723    -4725    -4725    -4722    -4719    -4725    -4727    -4723 
   -4722    -4722    -4723    -4725    -4722    -4722    -4723    -4722 
   -4722    -4723    -4722    -4723    -4725    -4720    -4719    -4723 
   -4722    -4720    -4725    -4722    -4720    -4720    -4719    -4723 
   -4726    -4720    -4719    -4725    -4723    -4722    -4725    -4725 
   -4723    -4725    -4723    -4725    -4725    -4722    -4722    -4723 
   -4722    -4723    -4725    -4722    -4725    -4726    -4723    -4723 
   -4723    -4722    -4723    -4725    -4725    -4725    -4725    -4723 
   -4720    -4722    -4723    -4723    -4726    -4725    -4722    -4723 
   -4723    -4723    -4720    -4722    -4727    -4723    -4720    -4726 
   -4725    -4720    -4722    -4726    -4726    -4726    -4723    -4723 
   -4725    -4723    -4723    -4723    -4720    -4722    -4723    -4723 
   -4723    -4726    -4726    -4726    -4725    -4720    -4720    -4725 
   -4725    -4722    -4725    -4725    -4722    -4723    -4723    -4723 
   -4723    -4720    -4719    -4722    -4722    -4722    -4723    -4723 
   -4722    -4722    -4722    -4723    -4723    -4723    -4725    -4723 
   -4723    -4723    -4723    -4723    -4722    -4720    -4722    -4725 
   -4723    -4722    -4726    -4723    -4722    -4726    -4722    -4723 
   -4726    -4720    -4723    -4726    -4723    -4723    -4725    -4722 
   -4720    -4723    -4723    -4722    -4722    -4722    -4720    -4720 
   -4722    -4722    -4723    -4722    -4722    -4725    -4723    -4723 
   -4726    -4723    -4723    -4726    -4722    -4720    -4726    -4723 
   -4725    -4726    -4722    -4722    -4725    -4725    -4723    -4725 
   -4725    -4723    -4723    -4720    -4722    -4723    -4725    -4725 
   -4725    -4723    -4723    -4725    -4723    -4720    -4723    -4725 
   -4722    -4722    -4727    -4726    -4722    -4722    -4725    -4723 
   -4722    -4725    -4725    -4722    -4725    -4722    -4720    -4725 
   -4722    -4722    -4726    -4726    -4723    -4725    -4727    -4725 
   -4723    -4725    -4723    -4722    -4723    -4726    -4725    -4722 
   -4725    -4726    -4723    -4722    -4722    -4722    -4722    -4725 
   -4723    -4720    -4723    -4725    -4722    -4725    -4726    -4723 
   -4725    -4723    -4719    -4722    -4726    -4725    -4723    -4723 
   -4723    -4722    -4722    -4722    -4723    -4722    -4723    -4725 
   -4727    -4725    -4722    -4723    -4723    -4723    -4725    -4723 
   -4725    -4723    -4723    -4726    -4722    -4719    -4725    -4725 
   -4723    -4726    -4725    -4722    -4723    -4725    -4722    -4720 
   -4723    -4723    -4723    -4722    -4720    -4720    -4723    -4725 
   -4723    -4720    -4722    -4725    -4725    -4725    -4725    -4723 
   -4720    -4722    -4723    -4723    -4726    -4726    -4723    -4722 
   -4723    -4723    -4722    -4723    -4725    -4723    -4723    -4725 
   -4723    -4722    -4723    -4723    -4722    -4723    -4726    -4725 
   -4723    -4726    -4725    -4720    -4723    -4725    -4722    -4722 
   -4723    -4725    -4725    -4725    -4726    -4722    -4722    -4725 
   -4722    -4720    -4722    -4723    -4723    -4725    -4725    -4723 
   -4722    -4723    -4725    -4725    -4723    -4725    -4723    -4722 
   -4722    -4720    -4722    -4725    -4723    -4722    -4720    -4723 
   -4723    -4723    -4725    -4722    -4722    -4727    -4725    -4722 
   -4725    -4725    -4722    -4723    -4725    -4725    -4722    -4720 
   -4723    -4725    -4722    -4725    -4726    -4722    -4720    -4726 
   -4723    -4720    -4723    -4722    -4722    -4723    -4723    -4726 
   -4723    -4720    -4722    -4723    -4720    -4722    -4723    -4723 
   -4725    -4723    -4722    -4726    -4726    -4723    -4723    -4720 
   -4726    -4729    -4723    -4722    -4723    -4720    -4720    -4723 
   -4720    -4722    -4722    -4720    -4723    -4723    -4722    -4725 
   -4725    -4722    -4725    -4726    -4723    -4722    -4723    -4726 
   -4727    -4723    -4720    -4723    -4726    -4723    -4719    -4720 
   -4722    -4723    -4726    -4725    -4722    -4723    -4726    -4726 
   -4722    -4720    -4723    -4725    -4723    -4725    -4726    -4726 
   -4723    -4720    -4719    -4722    -4725    -4723    -4722    -4722 
   -4722    -4725    -4726    -4720    -4722    -4726    -4723    -4722 
   -4725    -4723    -4723    -4723    -4723    -4725    -4723    -4722 
   -4725    -4725    -4723    -4725    -4723    -4722    -4725    -4722 
   -4720    -4722    -4719    -4720    -4725    -4723    -4723    -4725 
   -4722    -4722    -4725    -4725    -4723    -4722    -4723    -4725 
   -4726    -4725    -4723    -4723    -4726    -4725    -4723    -4723 
   -4723    -4723    -4725    -4723    -4723    -4726    -4723    -4722 
   -4725    -4723    -4725    -4722    -4718    -4723    -4726    -4723 
   -4725    -4725    -4723    -4725    -4726    -4722    -4719    -4723 
   -4726    -4723    -4719    -4723    -4726    -4720    -4722    -4727 
   -4719    -4718    -4727    -4727    -4722    -4722    -4723    -4725 
   -4720    -4718    -4723    -4726    -4722    -4723    -4727    -4725 
   -4722    -4725    -4729    -4720    -4719    -4729    -4726    -4720 
   -4725    -4725    -4723    -4723    -4720    -4725    -4725    -4720 
   -4722    -4725    -4720    -4720    -4722    -4722    -4726    -4727 
   -4723    -4722    -4720    -4720    -4720    -4722    -4723    -4722 
   -4722    -4725    -4726    -4725    -4722    -4722    -4722    -4720 
   -4720    -4722    -4725    -4725    -4722    -4725    -4725    -4722 
   -4722    -4725    -4723    -4720    -4722    -4723    -4722    -4723 
   -4725    -4723    -4720    -4725    -4725    -4722    -4723    -4726 
   -4723    -4722    -4725    -4726    -4725    -4719    -4720    -4725 
   -4723    -4718    -4722    -4726    -4722    -4719    -4726    -4726 
   -4720    -4720    -4726    -4725    -4720    -4722    -4725    -4720 
   -4720    -4726    -4723    -4719    -4725    -4726    -4722    -4723 
   -4725    -4725    -4725    -4723    -4723    -4725    -4723    -4720 
   -4726    -4726    -4719    -4723    -4726    -4722    -4723    -4723 
   -4719    -4720    -4725    -4723    -4723    -4725    -4723    -4722 
   -4723    -4725    -4725    -4723    -4723    -4726    -4723    -4722 
   -4723    -4722    -4719    -4723    -4727    -4722    -4720    -4723 
   -4722    -4723    -4726    -4722    -4723    -4723    -4722    -4723 
   -4722    -4722    -4727    -4726    -4720    -4720    -4722    -4723 
   -4726    -4725    -4722    -4723    -4725    -4723    -4722    -4722 
   -4720    -4725    -4727    -4726    -4727    -4725    -4720    -4722 
   -4723    -4722    -4722    -4722    -4719    -4720    -4729    -4731 
   -4725    -4722    -4726    -4727    -4726    -4727    -4723    -4720 
   -4725    -4726    -4725    -4720    -4718    -4725    -4726    -4723 
   -4725    -4720    -4719    -4729    -4730    -4723    -4725    -4725 
   -4718    -4719    -4725    -4722    -4723    -4727    -4726    -4720 
   -4723    -4725    -4723    -4725    -4725    -4722    -4726    -4725 
   -4719    -4723    -4726    -4726    -4723    -4716    -4719    -4722 
   -4722    -4731    -4731    -4715    -4716    -4729    -4725    -4720 
   -4727    -4725    -4718    -4719    -4727    -4733    -4730    -4723 
   -4718    -4716    -4723    -4726    -4722    -4722    -4726    -4720 
   -4719    -4726    -4729    -4725    -4725    -4723    -4718    -4718 
   -4719    -4722    -4725    -4726    -4722    -4719    -4725    -4729 
   -4725    -4720    -4722    -4719    -4719    -4729    -4726    -4723 
   -4726    -4722    -4722    -4726    -4720    -4715    -4720    -4725 
   -4719    -4719    -4726    -4729    -4726    -4723    -4719    -4716 
   -4720    -4723    -4722    -4722    -4723    -4723    -4725    -4729 
   -4726    -4725    -4726    -4723    -4722    -4722    -4720    -4719 
   -4722    -4725    -4725    -4723    -4725    -4725    -4722    -4722 
   -4722    -4720    -4722    -4722    -4722    -4726    -4726    -4723 
   -4723    -4725    -4723    -4722    -4722    -4722    -4723    -4722 
   -4722    -4725    -4727    -4725    -4722    -4720    -4722    -4725 
   -4722    -4720    -4723    -4723    -4726    -4727    -4723    -4720 
   -4723    -4723    -4725    -4725    -4720    -4722    -4726    -4725 
   -4723    -4725    -4726    -4726    -4725    -4726    -4726    -4725 
   -4722    -4720    -4722    -4727    -4726    -4722    -4722    -4722 
   -4720    -4720    -4723    -4723    -4723    -4723    -4722    -4719 
   -4722    -4725    -4726    -4725    -4723    -4725    -4725    -4723 
   -4725    -4725    -4723    -4725    -4723    -4722    -4725    -4725 
   -4729    -4760    -4811    -4777    -4646    -4780    -5065    -4765 
   -4953    -6278    -5373    -2867    -4328    -7152    -6061    -4992 
   -6048    -3726     -500    -3673    -5597    -1189    -1394    -4450 
   -3271    -3842    -5486    -7269   -11165    -9810    -5310    -4190 
   -3338    -4243    -6809    -3770      341    -1960    -4167    -4044 
   -4734    -4799    -5771    -6494    -4364    -2312    -3051    -5961 
   -7357    -6840    -6339    -4791    -4419    -5034    -3137    -2874 
   -5281    -5379    -3825    -3115    -4063    -6721    -8205    -6305 
   -3902    -3835    -4334    -3947    -3584    -3920    -4997    -5344 
   -4452    -4517    -5512    -4653    -3450    -4992    -4876    -1817 
   -2084    -4094    -4268    -5490    -7168    -7204    -7082    -7060 
   -6570    -5867    -5351    -5483    -4776    -3167    -3252    -3273 
   -1865    -2378    -3775    -3882    -4700    -6197    -6385    -4239 
   -2397    -4121    -5815    -5069    -5570    -7088    -6285    -4611 
   -3924    -2971    -2810    -4109    -4268    -3024    -2913    -5383 
   -8191    -8530    -7524    -7191    -6867    -5304    -4035    -3932 
   -3246    -2752    -3298    -2920    -1598    -1980    -4175    -4930 
   -4490    -4939    -4978    -4556    -4920    -5136    -5202    -6781 
   -8125    -6763    -5389    -5556    -5246    -4962    -5058    -3704 
   -2119    -2663    -2984    -1852    -3167    -6042    -6748    -6907 
   -6555    -4793    -4656    -5567    -4999    -4338    -3788    -3316 
   -3645    -3196    -3443    -4934    -4382    -4364    -6119    -5530 
   -5109    -6856    -6512    -5796    -7126    -6099    -4029    -4580 
   -4040    -2061    -1846    -2115    -1645    -1969    -3387    -3631 
   -4298    -7709    -8429    -5906    -6885    -8548    -6365    -5109 
   -5773    -5576    -6613    -6578    -1965     -666    -9020   -18693 
  -16945    -2948     8318     5177    -4191    -4236     5533     8137 
   -3056   -11946    -8081      689     4395      561    -6853   -10380 
   -6505    -2949    -6413   -10681    -9559    -6609    -6957    -9296 
   -9868    -8534    -5331    -1344    -1857    -6818    -8356    -5274 
   -4417    -5547    -3554     -488     -656    -1679     -465     -726 
   -2246      -66     1212    -3295    -9366   -12417   -10844    -6836 
   -4120    -3418    -3649    -4010    -5412    -8387   -10463   -10000 
   -8598    -8604    -9371    -7246    -2377     1071     1915     1798 
    1069     -835    -2689    -4287    -7307    -9254    -6886    -3032 
   -1938    -3372    -4116    -2378     -291    -2725    -8691   -10868 
   -9308    -7951    -6583    -6081    -4768    -1281    -1097    -4313 
   -5310    -4610    -4077    -3657    -5229    -7203    -5344    -1950 
   -1174    -2062    -3963    -6685    -7499    -6359    -5783    -6605 
   -7317    -5387    -3084    -4279    -5181    -2764    -1675    -3447 
   -5622    -8515   -10412    -8430    -5389    -4598    -4669    -3937 
   -2592     -649      990      823     -562    -2516    -5089    -7716 
   -9563    -8823    -7115    -7831    -7696    -5131    -4172    -3946 
   -2961    -3667    -4106    -1992    -1524    -3311    -3715    -4131 
   -5031    -4456    -4681    -6026    -5302    -4432    -6536    -8214 
   -6693    -5555    -6612    -7033    -6041    -4720    -2292      650 
     608    -1702    -1664    -1144    -3858    -6505    -7619    -9543 
   -9612    -6621    -5545    -5991    -4855    -5170    -7161    -6480 
   -3667    -2841    -5212    -7435    -6142    -4167    -4078    -1956 
     953     -660    -2801    -1798    -1260    -1892    -2916    -5749 
   -9382   -10736    -9398    -7600    -6300    -5152    -3829    -3079 
   -4631    -6835    -6677    -5790    -5737    -4266    -2416    -3530 
   -5128    -4051    -2820    -2621    -1807    -1624    -2612    -3420 
   -3835    -3807    -4529    -6297    -7134    -7292    -7730    -7303 
   -6254    -6115    -6542    -6547    -5931    -5260    -5086    -4797 
   -4515    -4614    -3456    -1363    -1661    -3402    -2709    -1871 
   -3307    -4067    -4515    -5414    -4587    -3993    -4592    -4206 
   -4734    -6254    -5902    -5563    -6457    -6932    -7233    -7396 
   -6675    -5479    -4689    -4441    -4766    -5719    -5699    -3874 
   -2474    -2114    -1317    -1146    -1846    -2076    -2920    -4369 
   -5019    -5175    -5568    -6532    -7177    -6405    -5671    -6274 
   -6840    -7317    -8101    -7353    -6335    -6898    -5549    -2168 
   -1645    -2816    -2513    -2529    -2404    -1213    -2330    -4788 
   -4671    -3751    -4279    -4675    -4629    -5352    -6149    -6574 
   -7063    -6683    -5139    -3874    -3634    -3942    -4594    -4754 
   -3963    -4473    -6403    -6825    -6116    -6091    -6039    -5491 
   -4641    -3069    -2023    -3036    -4087    -3551    -3222    -3399 
   -3446    -4290    -4941    -4575    -4915    -5736    -6150    -6786 
   -6723    -6123    -6789    -6899    -5204    -4668    -5386    -4996 
   -4326    -4214    -3935    -3955    -4398    -3808    -2650    -2677 
   -2853    -2805    -3735    -4275    -4159    -5024    -5667    -5328 
   -5427    -5432    -5185    -5926    -6238    -5123    -4720    -5512 
   -5934    -5717    -5044    -4336    -4577    -4926    -4306    -3816 
   -3511    -3036    -3316    -3777    -3944    -4476    -4986    -5374 
   -5597    -4858    -3973    -4128    -4193    -3898    -4980    -6473 
   -6351    -5584    -5520    -6401    -7437    -6928    -5007    -3604 
   -3844    -4743    -4414    -3685    -4228    -4522    -3900    -3708 
   -3329    -2916    -3539    -3559    -2810    -3375    -4530    -4931 
   -5181    -5586    -6143    -6801    -6758    -5597    -4363    -4438 
   -5040    -4812    -4608    -4978    -5310    -5983    -6739    -5989 
   -4664    -4650    -4645    -3909    -3762    -4093    -3843    -3188 
   -3129    -3477    -3599    -3824    -4302    -4569    -4274    -4490 
   -5991    -6864    -6376    -6099    -5994    -5749    -5941    -5567 
   -4305    -3873    -4388    -4344    -3241    -2578    -3867    -5525 
   -5412    -4276    -3667    -3700    -4186    -5100    -5243    -4487 
   -4430    -4696    -4627    -5231    -6049    -5609    -4843    -4954 
   -4924    -4970    -5350    -4830    -4603    -5159    -4768    -4222 
   -4556    -4861    -5190    -5420    -4402    -2960    -2710    -3530 
   -4421    -4390    -3649    -3618    -4685    -5701    -6156    -6772 
   -6953    -5977    -5184    -5076    -5188    -5479    -4819    -3458 
   -3559    -4320    -4050    -3808    -4168    -4394    -4326    -4008 
   -3748    -3910    -4099    -4382    -5197    -5607    -5305    -5555 
   -5891    -5597    -5803    -5800    -4665    -4283    -4606    -4387 
   -5039    -6519    -6311    -4093    -2516    -2951    -3894    -4610 
   -5169    -4776    -3815    -3478    -4062    -5219    -5601    -4770 
   -4499    -4598    -4276    -5162    -6073    -5329    -5358    -5922 
   -4846    -4027    -4550    -4969    -5212    -5011    -4287    -4299 
   -4417    -4021    -4329    -4764    -4434    -4347    -4591    -4565 
   -4893    -5521    -5213    -4313    -4122    -4619    -5012    -5240 
   -5768    -5692    -4581    -4207    -4707    -4769    -4923    -5482 
   -5019    -3640    -3001    -3069    -3489    -4329    -4730    -4567 
   -4468    -4666    -5215    -5518    -5304    -5260    -5362    -5082 
   -4658    -4590    -5310    -6025    -5265    -4089    -3724    -3832 
   -4826    -5690    -5186    -4684    -4394    -3828    -3987    -4503 
   -4600    -4988    -5404    -5032    -4774    -5143    -5185    -5211 
   -5405    -4656    -4158    -4722    -4271    -3375    -4071    -4942 
