Origin Time       2018/04/09 06:38:00
Lat.              35.2
Long.             132.6
Depth. (km)       10
Mag.              3.8
Station Code      SMNH04
Station Lat.      35.0918
Station Long.     132.5308
Station Height(m) 139
Record Time       2018/04/09 06:38:51
Sampling Freq(Hz) 100Hz
Duration Time(s)  120
Dir.              1
Scale Factor      2942(gal)/8224139
Max. Acc. (gal)   3.932
Last Correction   2018/04/09 06:38:36
Memo.             
[...]
  166251   166247   166247   166251   166247   166245   166248   166248 
  166247   166243   166249   166255   166248   166243   166247   166252 
  166247   166244   166248   166245   166241   166245   166249   166249 
  166247   166247   166245   166248   166251   166247   166245   166248 
  166245   166245   166245   166251   166251   166240   166244   166251 
  166244   166241   166244   166245   166247   166248   166249   166248 
  166244   166245   166248   166247   166244   166244   166247   166247 
  166247   166249   166247   166243   166245   166252   166248   166240 
  166244   166249   166247   166244   166247   166249   166247   166247 
  166249   166248   166247   166244   166245   166251   166247   166244 
  166249   166247   166245   166251   166245   166243   166248   166245 
  166245   166247   166243   166244   166249   166248   166248   166247 
  166247   166245   166244   166248   166248   166241   166241   166248 
  166249   166248   166247   166247   166248   166248   166245   166244 
  166245   166248   166248   166244   166247   166252   166249   166247 
  166248   166245   166245   166248   166251   166251   166247   166245 
  166247   166247   166243   166245   166251   166252   166248   166248 
  166248   166243   166244   166251   166247   166247   166249   166247 
  166248   166251   166249   166248   166247   166248   166251   166249 
  166244   166248   166251   166248   166248   166248   166248   166249 
  166251   166249   166248   166249   166249   166244   166249   166255 
  166248   166247   166248   166245   166249   166249   166241   166245 
  166251   166245   166243   166248   166245   166247   166251   166247 
  166243   166247   166249   166249   166248   166247   166247   166248 
  166251   166249   166247   166251   166252   166248   166249   166251 
  166247   166247   166247   166247   166249   166248   166248   166249 
  166248   166251   166249   166245   166248   166251   166248   166247 
  166249   166249   166248   166251   166253   166248   166244   166247 
  166249   166252   166249   166244   166247   166253   166251   166247 
  166248   166249   166249   166248   166248   166249   166252   166249 
  166247   166251   166249   166245   166249   166251   166251   166248 
  166245   166251   166255   166248   166241   166248   166251   166247 
  166252   166249   166244   166251   166252   166243   166245   166249 
  166248   166245   166245   166249   166248   166245   166244   166245 
  166245   166248   166251   166247   166244   166247   166247   166251 
  166252   166245   166245   166245   166249   166252   166247   166249 
  166251   166244   166241   166244   166248   166249   166247   166248 
  166247   166247   166249   166248   166247   166247   166248   166251 
  166247   166245   166248   166248   166248   166247   166247   166248 
  166247   166244   166244   166245   166249   166248   166244   166245 
  166248   166251   166248   166245   166247   166248   166245   166245 
  166245   166247   166249   166248   166244   166245   166247   166245 
  166247   166249   166251   166248   166245   166247   166248   166247 
  166248   166249   166247   166249   166251   166247   166247   166247 
  166245   166247   166249   166248   166245   166247   166244   166244 
  166249   166245   166244   166248   166245   166244   166248   166247 
  166248   166249   166247   166247   166245   166243   166248   166251 
  166247   166247   166248   166245   166247   166248   166247   166244 
  166247   166251   166245   166243   166249   166249   166245   166248 
  166251   166247   166249   166249   166245   166249   166252   166245 
  166241   166249   166256   166251   166245   166247   166245   166244 
  166244   166247   166249   166248   166247   166248   166249   166248 
  166248   166249   166248   166245   166247   166251   166251   166247 
  166243   166244   166249   166251   166248   166247   166248   166248 
  166245   166248   166252   166251   166247   166248   166249   166251 
  166248   166243   166248   166255   166245   166241   166255   166251 
  166244   166249   166248   166245   166249   166247   166245   166247 
  166249   166247   166245   166247   166247   166247   166248   166248 
  166249   166252   166245   166243   166249   166252   166247   166245 
  166247   166248   166245   166244   166247   166251   166248   166244 
  166248   166249   166244   166248   166252   166248   166243   166244 
  166248   166251   166248   166243   166241   166245   166253   166252 
  166245   166248   166252   166247   166243   166245   166253   166248 
  166241   166244   166245   166248   166255   166245   166241   166251 
  166251   166245   166248   166248   166247   166245   166247   166249 
  166248   166244   166245   166247   166244   166244   166249   166251 
  166245   166244   166247   166247   166248   166251   166248   166249 
  166251   166241   166243   166255   166249   166245   166251   166247 
  166241   166248   166247   166245   166249   166251   166245   166244 
  166249   166249   166245   166248   166248   166243   166248   166252 
  166245   166244   166251   166248   166247   166249   166249   166248 
  166248   166249   166249   166249   166247   166243   166245   166251 
  166249   166247   166245   166247   166252   166248   166240   166244 
  166248   166245   166245   166248   166249   166247   166245   166249 
  166252   166248   166247   166248   166248   166245   166249   166251 
  166247   166248   166248   166244   166247   166247   166244   166245 
  166249   166251   166245   166245   166248   166248   166248   166249 
  166248   166251   166249   166244   166248   166249   166247   166245 
  166244   166244   166245   166247   166248   166248   166249   166248 
  166247   166248   166249   166247   166247   166249   166251   166247 
  166247   166248   166247   166248   166248   166244   166247   166247 
  166249   166252   166247   166244   166251   166248   166245   166251 
  166249   166245   166247   166247   166248   166248   166249   166248 
  166247   166251   166248   166240   166248   166252   166247   166249 
  166249   166245   166245   166247   166249   166248   166244   166248 
  166251   166244   166244   166245   166245   166249   166249   166247 
  166248   166245   166244   166248   166247   166244   166247   166247 
  166247   166248   166245   166247   166249   166243   166243   166252 
  166247   166241   166249   166252   166248   166248   166248   166247 
  166245   166249   166251   166248   166247   166248   166249   166252 
  166251   166243   166240   166245   166252   166251   166244   166243 
  166247   166245   166248   166251   166245   166249   166253   166244 
  166241   166245   166245   166248   166251   166245   166244   166247 
  166247   166245   166248   166249   166245   166245   166251   166251 
  166245   166245   166247   166245   166245   166249   166249   166244 
  166244   166249   166249   166247   166244   166244   166244   166244 
  166247   166252   166251   166243   166241   166248   166249   166249 
  166253   166248   166241   166248   166248   166247   166248   166243 
  166245   166253   166244   166240   166248   166247   166248   166255 
  166249   166240   166245   166252   166245   166243   166249   166253 
  166248   166243   166245   166249   166247   166241   166245   166249 
  166244   166243   166245   166244   166245   166247   166248   166249 
  166248   166243   166243   166248   166247   166245   166245   166241 
  166247   166252   166247   166244   166248   166247   166244   166244 
  166249   166249   166245   166245   166248   166247   166244   166247 
  166249   166245   166244   166247   166247   166248   166245   166243 
  166248   166248   166244   166244   166247   166248   166247   166244 
  166247   166248   166247   166247   166247   166245   166245   166248 
  166248   166248   166247   166244   166247   166249   166247   166245 
  166248   166252   166247   166241   166247   166247   166243   166248 
  166252   166243   166243   166252   166251   166247   166249   166245 
  166244   166248   166247   166245   166249   166251   166244   166245 
  166249   166248   166247   166248   166248   166249   166248   166241 
  166243   166249   166249   166248   166245   166243   166244   166249 
  166249   166245   166245   166249   166248   166247   166248   166248 
  166245   166245   166247   166247   166248   166248   166248   166245 
  166249   166252   166247   166248   166252   166248   166248   166249 
  166245   166247   166249   166248   166247   166248   166252   166248 
  166245   166247   166249   166252   166251   166247   166245   166248 
  166248   166248   166249   166247   166247   166247   166248   166253 
  166252   166247   166247   166248   166249   166248   166245   166247 
  166249   166249   166247   166248   166247   166243   166251   166255 
  166245   166245   166251   166248   166245   166245   166247   166247 
  166248   166249   166247   166247   166245   166248   166248   166245 
  166248   166251   166245   166247   166249   166244   166245   166248 
  166247   166248   166251   166244   166241   166249   166247   166245 
  166251   166245   166245   166248   166245   166247   166248   166243 
  166243   166248   166248   166245   166244   166248   166251   166243 
  166244   166253   166248   166241   166249   166249   166245   166247 
  166244   166243   166249   166249   166244   166247   166248   166248 
  166245   166244   166245   166249   166249   166247   166249   166251 
  166243   166240   166251   166252   166245   166244   166245   166244 
  166244   166245   166251   166253   166245   166239   166243   166249 
  166249   166244   166241   166245   166248   166244   166251   166249 
  166240   166249   166255   166249   166248   166243   166241   166248 
  166247   166247   166245   166244   166249   166248   166244   166247 
  166247   166245   166244   166247   166251   166251   166245   166240 
  166244   166248   166247   166245   166245   166244   166243   166244 
  166243   166243   166248   166251   166252   166251   166240   166241 
  166252   166248   166247   166252   166241   166240   166256   166251 
  166240   166248   166249   166244   166249   166248   166247   166247 
  166247   166247   166244   166245   166249   166248   166249   166247 
  166244   166253   166255   166244   166241   166248   166252   166249 
  166245   166245   166249   166253   166245   166240   166248   166248 
  166248   166252   166248   166245   166252   166251   166244   166247 
  166253   166249   166245   166251   166252   166248   166245   166248 
  166249   166245   166245   166249   166248   166248   166247   166245 
  166249   166252   166248   166248   166249   166251   166249   166249 
  166248   166245   166247   166247   166247   166251   166248   166245 
  166249   166248   166245   166248   166248   166245   166245   166247 
  166245   166247   166249   166249   166248   166249   166247   166244 
  166247   166248   166241   166248   166253   166241   166244   166252 
  166243   166241   166251   166249   166243   166244   166249   166248 
  166245   166249   166251   166247   166245   166251   166249   166244 
  166243   166240   166243   166253   166251   166245   166248   166249 
  166248   166244   166244   166247   166245   166244   166244   166247 
  166248   166244   166247   166251   166248   166247   166247   166247 
  166252   166251   166243   166245   166248   166247   166248   166248 
  166245   166247   166248   166247   166245   166244   166249   166252 
  166249   166249   166249   166244   166247   166252   166249   166248 
  166249   166247   166247   166248   166247   166248   166248   166251 
  166255   166251   166245   166248   166247   166205   166023   165618 
  165522   166675   167726   165483   162139   163355   167147   168775 
  168710   167053   164554   165060   168083   167749   165642   168390 
  168686   163827   164705   165786   163973   167589   169025   166302 
  165078   163804   165528   167675   166764   165942   166382   168291 
  168754   167841   166260   164569   166129   166768   164609   164404 
  165994   167058   167432   167067   165171   163768   165349   167293 
  167395   166649   165747   166074   167267   166376   164415   164932 
  166981   167471   166106   165753   167355   167310   165996   166360 
  166822   166060   165229   165655   166463   166318   166475   166234 
  165478   166741   167420   165763   164947   165100   165604   166946 
  167580   166453   165478   165820   166303   166461   166213   165673 
  165812   166936   166947   165546   165805   166781   166834   167262 
  166561   164798   165240   166919   167672   167302   165538   164871 
  166777   168030   166972   165478   165484   166093   165844   165443 
  165681   166515   166666   166117   166414   166338   165700   166369 
  167162   166671   165848   165928   166486   166422   166171   165800 
  165329   166087   167013   166171   165708   166399   166286   166112 
  166629   167254   166950   166097   166224   166077   165861   166734 
  166579   165720   165917   165998   166313   166865   165944   165354 
  166271   166842   166398   165678   165940   166788   166753   165881 
  165478   166561   166942   165726   165549   166228   166963   167518 
  166571   165214   165199   166329   167382   167053   165870   165748 
  166517   166845   167175   167067   165753   165163   166282   167370 
  166631   165319   165923   166387   165210   164867   165684   166872 
  166757   162465   156595   157887   169479   177240   168917   159403 
  162639   169696   172713   167678   159189   162309   172201   176000 
  173350   166017   161345   164851   168583   167647   166936   166972 
  166927   169165   169717   165711   161543   160567   164490   169230 
  167584   164490   166413   167339   164531   163973   165897   166514 
  167007   168583   168855   166637   164890   165870   165634   162557 
  163090   167371   169214   169122   167425   164668   164781   165352 
  164340   164604   165825   166949   167983   166880   164413   164709 
  166592   167053   166680   165962   165858   166406   166056   165111 
  164304   164882   167084   167536   165261   164501   166703   168246 
  167182   165393   165657   167043   167294   167200   166731   166382 
  167285   167999   167810   166945   166207   166997   167806   166703 
  166078   166094   164516   164498   166395   166460   165744   165732 
  165765   165913   166075   165802   165634   166429   166712   165350 
  165420   167451   167641   166450   166259   165781   164717   164833 
  165846   166583   167053   166942   166101   165861   165821   165217 
  165643   166714   166660   165456   165254   166981   167340   165843 
  165391   165939   166692   167616   167185   165530   165515   167023 
  167101   165634   165354   166137   166243   166588   166619   166137 
  167039   167159   165551   165692   167304   167522   166432   166290 
  167387   167610   167154   166498   165447   165905   166985   166197 
  165348   166225   166764   165666   165260   165700   165187   165600 
  166185   164988   165028   166444   167031   166888   166565   166754 
  166162   164722   165362   166915   167135   166963   166417   165912 
  166305   166868   166584   165549   165229   165684   166268   166638 
  166382   166546   166857   165863   164878   165578   166588   166428 
  166475   167054   166816   166583   166500   166278   166453   165626 
  165087   166631   167432   166888   166432   166031   166079   166128 
  166075   166394   166252   166067   166580   166716   165886   165393 
  165862   165974   165981   166247   165703   165501   166174   166492 
  166590   166226   165704   166081   166488   166311   166139   166245 
  166791   166822   166338   166915   166858   166024   166730   166986 
  166490   166602   165904   165365   165960   166282   166459   166467 
  166031   166105   166425   166268   166000   165923   166110   166614 
  166924   166668   166293   165966   165493   165330   166297   167193 
  166372   165447   165915   166580   166197   165624   165981   166318 
  165964   165650   166264   166869   166054   165620   166453   166529 
  166091   166611   166818   166063   165981   166401   166338   166212 
  166086   166108   166584   166649   166390   166384   166158   166372 
  167193   167096   166086   166110   166959   166384   165539   166328 
  166935   166433   166237   166383   166336   166105   165850   165777 
  165848   166336   166461   166094   166452   166548   166155   166158 
  165688   165295   165971   166278   166023   166446   166594   166044 
  165852   165717   165653   166031   166375   166491   166206   165677 
  165751   166263   166217   165986   166467   166943   166687   166287 
  166153   166175   166298   166364   166297   166496   166785   166450 
  166118   166248   166413   166556   166437   166500   166708   165955 
  165605   166340   166013   165655   166486   166379   165987   166540 
  166510   166113   166457   166816   166514   166117   166155   166469 
  166869   166873   166162   165942   166480   166218   165757   166120 
  165989   165435   165923   166514   166137   165909   165894   165618 
  165626   165846   166152   166282   166187   166599   166973   166549 
  166297   166552   166407   166595   167316   166901   165993   166093 
  166388   166187   166341   166934   166760   166021   165989   166018 
  165619   165870   166214   166045   166186   166302   166032   166125 
  166140   165634   165862   166374   166087   166278   166797   166148 
  165377   165866   166658   166542   165954   165913   166251   166525 
  166797   166569   166141   166484   166671   165939   165902   166592 
  166317   166197   166853   166374   165608   166168   166468   166151 
  166522   166617   165886   165657   166236   166699   166502   166087 
  165786   165792   166390   166746   166342   166241   166302   165824 
  166066   166884   166675   166156   166266   166295   165979   165982 
  166472   166711   166460   166382   166437   166371   166396   166313 
  166186   166207   166040   165717   165843   166229   166156   165971 
  166104   166294   166232   166078   166101   166175   166464   166538 
  166122   166114   166415   166423   166198   166239   166665   166677 
  166402   166170   165655   165788   166861   167053   166072   165894 
  166515   166410   166199   166311   165813   165325   165855   166878 
  167062   166413   166176   166017   165728   165967   166135   166336 
  166556   165948   165728   166290   166191   166021   166372   166334 
  166136   166226   166120   165956   166252   166353   166283   166716 
  166459   165805   166132   166294   166187   166533   166396   166008 
  166203   166359   166268   166183   166044   166145   166252   166037 
  166137   166575   166672   166553   166180   165696   166031   166438 
  166090   166009   166247   166128   166190   166503   166301   166274 
  166650   166333   166132   166612   166699   166506   166460   166332 
  166345   166437   166144   166286   166839   166513   166166   166334 
  166129   166006   166303   166410   166110   165962   166152   166109 
  165993   166117   166298   166298   166010   165913   166105   166430 
  166649   166303   166120   166307   166166   165997   165901   166132 
  166869   166730   165919   166083   166444   166108   165856   165939 
