Origin Time       2018/04/09 06:38:00
Lat.              35.2
Long.             132.6
Depth. (km)       10
Mag.              3.8
Station Code      SMNH04
Station Lat.      35.0918
Station Long.     132.5308
Station Height(m) 240
Record Time       2018/04/09 06:38:51
Sampling Freq(Hz) 100Hz
Duration Time(s)  120
Dir.              5
Scale Factor      7845(gal)/8223790
Max. Acc. (gal)   22.080
Last Correction   2018/04/09 06:38:36
Memo.             
[...]
   -5393    -5390    -5385    -5387    -5393    -5394    -5389    -5389 
   -5393    -5393    -5393    -5394    -5390    -5385    -5385    -5393 
   -5394    -5387    -5389    -5394    -5391    -5394    -5395    -5389 
   -5389    -5390    -5386    -5390    -5394    -5393    -5391    -5387 
   -5389    -5391    -5391    -5397    -5397    -5389    -5389    -5387 
   -5383    -5387    -5389    -5391    -5398    -5394    -5390    -5390 
   -5387    -5389    -5390    -5386    -5387    -5391    -5387    -5385 
   -5391    -5391    -5389    -5393    -5397    -5397    -5390    -5389 
   -5393    -5393    -5387    -5390    -5393    -5389    -5387    -5390 
   -5393    -5391    -5389    -5387    -5389    -5390    -5390    -5390 
   -5391    -5390    -5393    -5394    -5389    -5387    -5390    -5391 
   -5393    -5393    -5390    -5389    -5389    -5390    -5391    -5387 
   -5389    -5395    -5390    -5386    -5390    -5391    -5387    -5389 
   -5391    -5389    -5386    -5390    -5394    -5389    -5387    -5394 
   -5395    -5390    -5390    -5390    -5390    -5393    -5391    -5389 
   -5391    -5391    -5386    -5387    -5390    -5387    -5391    -5395 
   -5389    -5389    -5393    -5393    -5387    -5389    -5393    -5393 
   -5391    -5391    -5390    -5390    -5391    -5391    -5390    -5390 
   -5390    -5390    -5390    -5390    -5390    -5389    -5389    -5393 
   -5393    -5390    -5391    -5393    -5390    -5389    -5389    -5389 
   -5390    -5391    -5387    -5387    -5390    -5389    -5390    -5393 
   -5391    -5390    -5389    -5389    -5390    -5391    -5391    -5391 
   -5390    -5389    -5391    -5393    -5390    -5391    -5391    -5387 
   -5389    -5391    -5391    -5389    -5390    -5390    -5390    -5393 
   -5393    -5391    -5390    -5391    -5393    -5394    -5390    -5387 
   -5391    -5391    -5390    -5393    -5391    -5390    -5391    -5390 
   -5389    -5389    -5389    -5390    -5390    -5387    -5387    -5390 
   -5390    -5391    -5391    -5390    -5394    -5393    -5387    -5391 
   -5390    -5386    -5391    -5393    -5387    -5391    -5395    -5390 
   -5389    -5393    -5390    -5390    -5397    -5393    -5386    -5393 
   -5394    -5386    -5387    -5393    -5393    -5391    -5391    -5389 
   -5393    -5393    -5390    -5394    -5393    -5390    -5391    -5390 
   -5389    -5391    -5391    -5390    -5391    -5391    -5389    -5390 
   -5393    -5390    -5389    -5390    -5389    -5390    -5393    -5390 
   -5391    -5391    -5390    -5391    -5390    -5389    -5390    -5389 
   -5387    -5390    -5387    -5387    -5391    -5391    -5389    -5390 
   -5391    -5391    -5391    -5390    -5390    -5387    -5391    -5395 
   -5389    -5385    -5390    -5390    -5387    -5390    -5389    -5387 
   -5391    -5390    -5386    -5393    -5389    -5383    -5393    -5391 
   -5391    -5395    -5390    -5389    -5391    -5390    -5390    -5389 
   -5387    -5391    -5394    -5390    -5385    -5390    -5394    -5387 
   -5390    -5397    -5390    -5389    -5395    -5390    -5386    -5387 
   -5387    -5391    -5391    -5390    -5389    -5390    -5390    -5391 
   -5393    -5391    -5391    -5390    -5390    -5389    -5389    -5389 
   -5389    -5386    -5390    -5395    -5391    -5390    -5393    -5390 
   -5387    -5390    -5391    -5389    -5391    -5390    -5387    -5391 
   -5391    -5390    -5393    -5391    -5389    -5393    -5393    -5389 
   -5391    -5393    -5389    -5390    -5390    -5387    -5390    -5390 
   -5387    -5391    -5393    -5387    -5389    -5390    -5389    -5391 
   -5393    -5390    -5390    -5391    -5389    -5391    -5393    -5390 
   -5389    -5391    -5393    -5393    -5389    -5389    -5394    -5390 
   -5387    -5391    -5387    -5390    -5393    -5390    -5390    -5391 
   -5391    -5391    -5390    -5391    -5390    -5387    -5389    -5390 
   -5387    -5389    -5393    -5389    -5386    -5390    -5394    -5390 
   -5389    -5393    -5393    -5390    -5391    -5391    -5390    -5389 
   -5391    -5393    -5391    -5390    -5390    -5393    -5393    -5387 
   -5389    -5393    -5393    -5390    -5389    -5391    -5391    -5390 
   -5390    -5387    -5389    -5390    -5389    -5391    -5394    -5391 
   -5391    -5387    -5387    -5394    -5390    -5387    -5390    -5390 
   -5389    -5389    -5389    -5389    -5390    -5391    -5389    -5387 
   -5391    -5395    -5391    -5389    -5390    -5390    -5386    -5387 
   -5393    -5394    -5390    -5390    -5393    -5389    -5387    -5390 
   -5391    -5389    -5390    -5393    -5393    -5390    -5389    -5390 
   -5390    -5386    -5389    -5393    -5390    -5387    -5389    -5389 
   -5391    -5390    -5389    -5391    -5391    -5390    -5387    -5389 
   -5391    -5390    -5387    -5390    -5391    -5390    -5390    -5391 
   -5389    -5389    -5391    -5390    -5391    -5391    -5387    -5387 
   -5391    -5391    -5391    -5389    -5387    -5391    -5391    -5390 
   -5390    -5390    -5391    -5391    -5390    -5391    -5393    -5393 
   -5391    -5390    -5391    -5387    -5386    -5389    -5387    -5390 
   -5393    -5390    -5391    -5391    -5391    -5393    -5390    -5386 
   -5393    -5394    -5387    -5391    -5394    -5387    -5390    -5394 
   -5390    -5391    -5394    -5391    -5393    -5393    -5389    -5391 
   -5394    -5391    -5391    -5391    -5390    -5391    -5389    -5386 
   -5393    -5390    -5387    -5391    -5393    -5390    -5390    -5390 
   -5389    -5389    -5393    -5391    -5389    -5391    -5393    -5391 
   -5393    -5390    -5389    -5391    -5389    -5389    -5391    -5391 
   -5391    -5391    -5390    -5389    -5387    -5387    -5389    -5390 
   -5393    -5390    -5389    -5391    -5393    -5389    -5386    -5389 
   -5393    -5391    -5389    -5389    -5389    -5387    -5391    -5391 
   -5390    -5390    -5390    -5390    -5391    -5390    -5389    -5389 
   -5390    -5389    -5389    -5389    -5389    -5389    -5391    -5390 
   -5389    -5390    -5391    -5390    -5387    -5389    -5391    -5389 
   -5387    -5390    -5391    -5390    -5390    -5393    -5390    -5386 
   -5391    -5393    -5389    -5393    -5391    -5386    -5393    -5393 
   -5386    -5389    -5391    -5390    -5390    -5389    -5390    -5393 
   -5390    -5389    -5391    -5393    -5389    -5389    -5390    -5391 
   -5390    -5389    -5389    -5390    -5390    -5389    -5390    -5389 
   -5387    -5387    -5389    -5391    -5391    -5387    -5387    -5393 
   -5391    -5389    -5391    -5390    -5389    -5391    -5391    -5391 
   -5391    -5389    -5386    -5387    -5390    -5391    -5389    -5389 
   -5390    -5391    -5391    -5389    -5389    -5391    -5391    -5390 
   -5390    -5390    -5390    -5389    -5387    -5389    -5389    -5389 
   -5390    -5390    -5390    -5389    -5389    -5390    -5391    -5393 
   -5391    -5387    -5387    -5389    -5390    -5393    -5390    -5389 
   -5393    -5394    -5387    -5385    -5390    -5393    -5390    -5387 
   -5391    -5393    -5391    -5387    -5389    -5394    -5395    -5390 
   -5387    -5391    -5393    -5390    -5390    -5389    -5390    -5393 
   -5391    -5390    -5391    -5391    -5387    -5387    -5391    -5389 
   -5390    -5390    -5391    -5391    -5389    -5390    -5391    -5390 
   -5391    -5391    -5391    -5391    -5390    -5390    -5391    -5393 
   -5391    -5393    -5394    -5391    -5390    -5390    -5391    -5394 
   -5393    -5390    -5390    -5390    -5390    -5390    -5390    -5393 
   -5391    -5391    -5393    -5390    -5389    -5391    -5390    -5387 
   -5390    -5393    -5391    -5393    -5393    -5389    -5390    -5390 
   -5389    -5391    -5393    -5391    -5391    -5390    -5390    -5389 
   -5389    -5391    -5393    -5391    -5390    -5391    -5393    -5394 
   -5391    -5390    -5391    -5390    -5391    -5390    -5387    -5393 
   -5391    -5387    -5391    -5394    -5393    -5391    -5390    -5393 
   -5393    -5386    -5389    -5394    -5390    -5387    -5389    -5386 
   -5391    -5395    -5387    -5387    -5393    -5390    -5389    -5393 
   -5393    -5391    -5391    -5393    -5390    -5390    -5390    -5387 
   -5389    -5393    -5389    -5393    -5393    -5383    -5390    -5397 
   -5386    -5389    -5393    -5390    -5393    -5391    -5386    -5389 
   -5391    -5389    -5390    -5391    -5391    -5391    -5391    -5390 
   -5390    -5390    -5389    -5391    -5393    -5389    -5390    -5391 
   -5390    -5389    -5389    -5389    -5390    -5391    -5390    -5387 
   -5390    -5391    -5390    -5391    -5393    -5387    -5389    -5391 
   -5387    -5387    -5390    -5390    -5391    -5390    -5387    -5389 
   -5391    -5391    -5389    -5391    -5393    -5389    -5390    -5390 
   -5387    -5391    -5393    -5391    -5391    -5389    -5390    -5395 
   -5394    -5391    -5389    -5386    -5394    -5395    -5389    -5391 
   -5393    -5390    -5393    -5390    -5387    -5393    -5391    -5387 
   -5390    -5390    -5390    -5394    -5391    -5389    -5391    -5394 
   -5391    -5390    -5391    -5393    -5394    -5391    -5389    -5393 
   -5394    -5389    -5387    -5390    -5391    -5393    -5391    -5390 
   -5391    -5390    -5387    -5393    -5391    -5386    -5387    -5393 
   -5395    -5391    -5386    -5390    -5398    -5391    -5385    -5391 
   -5394    -5389    -5389    -5393    -5390    -5389    -5391    -5391 
   -5393    -5393    -5387    -5390    -5391    -5389    -5393    -5391 
   -5389    -5395    -5394    -5389    -5390    -5390    -5390    -5391 
   -5390    -5389    -5389    -5390    -5391    -5389    -5393    -5393 
   -5385    -5386    -5391    -5395    -5397    -5386    -5381    -5391 
   -5394    -5393    -5395    -5386    -5379    -5391    -5400    -5394 
   -5391    -5391    -5389    -5389    -5391    -5393    -5394    -5391 
   -5387    -5394    -5390    -5389    -5400    -5393    -5383    -5391 
   -5393    -5387    -5393    -5393    -5387    -5389    -5389    -5390 
   -5395    -5393    -5387    -5390    -5397    -5391    -5382    -5389 
   -5393    -5391    -5394    -5389    -5385    -5393    -5390    -5389 
   -5395    -5393    -5386    -5387    -5389    -5390    -5389    -5395 
   -5401    -5387    -5383    -5391    -5394    -5391    -5386    -5382 
   -5386    -5391    -5395    -5390    -5389    -5397    -5393    -5385 
   -5389    -5395    -5397    -5390    -5385    -5387    -5390    -5393 
   -5390    -5387    -5390    -5390    -5387    -5387    -5393    -5397 
   -5390    -5387    -5393    -5395    -5395    -5390    -5390    -5390 
   -5387    -5387    -5393    -5394    -5391    -5389    -5393    -5394 
   -5387    -5389    -5394    -5395    -5391    -5389    -5393    -5393 
   -5387    -5390    -5391    -5389    -5393    -5395    -5391    -5391 
   -5390    -5387    -5389    -5390    -5393    -5395    -5390    -5387 
   -5393    -5391    -5386    -5389    -5390    -5391    -5393    -5390 
   -5390    -5393    -5390    -5387    -5389    -5391    -5391    -5390 
   -5389    -5390    -5389    -5389    -5393    -5391    -5389    -5391 
   -5389    -5390    -5394    -5390    -5390    -5393    -5393    -5390 
   -5389    -5390    -5390    -5389    -5391    -5394    -5390    -5387 
   -5390    -5393    -5389    -5389    -5395    -5393    -5389    -5391 
   -5389    -5390    -5393    -5390    -5391    -5395    -5391    -5389 
   -5390    -5389    -5389    -5390    -5390    -5389    -5391    -5391 
   -5389    -5393    -5393    -5389    -5390    -5389    -5385    -5389 
   -5394    -5391    -5389    -5390    -5390    -5390    -5391    -5389 
   -5389    -5393    -5391    -5387    -5390    -5389    -5387    -5393 
   -5391    -5387    -5387    -5389    -5393    -5391    -5390    -5390 
   -5390    -5395    -5414    -5458    -5481    -5308    -5094    -5783 
   -6851    -5471    -3235    -5059    -7743    -6903    -5413    -3762 
   -2674    -5321    -7578    -4121    -1215    -6774    -9753    -4152 
   -4469    -5683    -3727    -9455    -7534     -120    -4440    -6212 
   -6284    -7670    -2685    -4398    -8676    -5682    -5422    -6045 
   -4831    -6839    -7453    -3172     -140    -3438    -7581    -6061 
   -4579    -5717    -4668    -4946    -7049    -5703    -5093    -6912 
   -7111    -7032    -5653    -3487    -5032    -7049    -6219    -4095 
   -2250    -2664    -4725    -5559    -4364    -4545    -7084    -7545 
   -6432    -5867    -5202    -6613    -8777    -6817    -3990    -5611 
   -6080    -3281    -3856    -4656    -3365    -4243    -4347    -3550 
   -4607    -5378    -6340    -7148    -6450    -6596    -7449    -8382 
   -8993    -6886    -5146    -5782    -4145    -1205     -654    -2068 
   -4348    -4891    -4514    -5370    -4900    -5219    -8321    -9243 
   -7396    -6462    -6681    -6014    -5232    -5618    -5417    -5050 
   -5208    -4369    -3215    -3318    -4514    -5348    -5243    -4666 
   -4602    -5513    -6169    -6656    -6951    -6327    -5652    -5435 
   -5580    -5003    -4311    -4804    -4707    -5341    -6828    -5661 
   -4785    -6048    -5815    -4426    -4730    -6816    -7562    -6156 
   -5543    -5532    -5557    -6165    -4540    -2586    -4684    -5485 
   -2554    -2157    -3828    -4633    -5908    -6357    -6512    -8873 
   -9725    -7966    -6905    -5595    -5155    -5487    -3148    -1935 
   -2872    -3172    -4950    -5300    -3207    -5252    -9005    -8013 
   -5952    -6623    -7064    -6650    -6647    -5660    -3811    -4117 
   -6103    -4437    -1966    -4293    -4833    -4156    -8176    -7609 
   -2486    -4437   -10365   -15253   -17847   -10589     6523    17755 
    8606   -10492   -15423    -7387    -3406    -3685    -2367     -919 
   -1503    -6621   -14526   -15367    -7736    -1572       62    -2633 
   -9626   -11419    -6466    -5641    -6156    -2083    -2122    -8202 
  -10971    -8024    -2660      491    -1614    -3632    -3893    -7380 
   -9678    -6713    -3611    -1112     1748      -44    -6015    -7835 
   -6524    -9402   -12113    -8637    -4367    -5476    -9778   -10501 
   -7634    -6681    -5763    -2721    -2181    -4429    -5063    -2995 
   -1543    -4059    -6802    -5026    -3570    -5414    -4671     -853 
     -35    -2824    -5354    -6791    -8074    -8788    -8546    -6687 
   -4480    -5881    -9563   -10598    -9747    -9379    -7839    -4504 
   -1252      695     -643    -4172    -4869    -3299    -3015    -4236 
   -5715    -4569    -1552    -2791    -7292    -7861    -6624    -8796 
  -10017    -8141    -7360    -8297    -8951    -6669    -3217    -3558 
   -4118    -2199    -1996    -2511    -2631    -4078    -4602    -4491 
   -5709    -5491    -3908    -4712    -6986    -7908    -7987    -7284 
   -5447    -4654    -5551    -6821    -7140    -5355    -4318    -5803 
   -5008    -2573    -4287    -6754    -6864    -7875    -7950    -6913 
   -6968    -4920    -3277    -5346    -5721    -3870    -3303    -3149 
   -3110    -3609    -3812    -3048    -3059    -5278    -5896    -5331 
   -7678    -8976    -7886    -8711    -9539    -8316    -7557    -7500 
   -6258    -3919    -2864    -2477     -291     -315    -3612    -4110 
   -3573    -5960    -6681    -4691    -5044    -6399    -6493    -7192 
   -6400    -5179    -7240    -8131    -6237    -5464    -5259    -5286 
   -5798    -4386    -2991    -4580    -5582    -4517    -4359    -4587 
   -4618    -5324    -5923    -6639    -7522    -7851    -7273    -5086 
   -2829    -2663    -4156    -5595    -5780    -6359    -7241    -5400 
   -3956    -5944    -6993    -6042    -6291    -6700    -6180    -6259 
   -5661    -4642    -5024    -4982    -4268    -3626    -3346    -4429 
   -5255    -4791    -4263    -4828    -5918    -5270    -4440    -5441 
   -6062    -5479    -5007    -5540    -5985    -5189    -5611    -7099 
   -6671    -6480    -7063    -5852    -5337    -5589    -4768    -5834 
   -7152    -6050    -5312    -4719    -3748    -3781    -3896    -4311 
   -4710    -4342    -4426    -4251    -4216    -4993    -5578    -6666 
   -7013    -6432    -6682    -6392    -6386    -7531    -6839    -4935 
   -4491    -5031    -5830    -5852    -4317    -3423    -4486    -5435 
   -4839    -3924    -3832    -4444    -5393    -5633    -5655    -6783 
   -6999    -6674    -7543    -6299    -4334    -5460    -5706    -4290 
   -5412    -7258    -6848    -5657    -4575    -3206    -3208    -4911 
   -5166    -4332    -5130    -5803    -5242    -5412    -6010    -5661 
   -5344    -5837    -5929    -5841    -5911    -4835    -4141    -5414 
   -5995    -5165    -5298    -5350    -4456    -4954    -5888    -5981 
   -6347    -5822    -5135    -6755    -7847    -5703    -3711    -3704 
   -3886    -4459    -4803    -4598    -5471    -5603    -4645    -5254 
   -6208    -6025    -5950    -6313    -6050    -5629    -6296    -6411 
   -6043    -6613    -5579    -4086    -4417    -3843    -3846    -5842 
   -5846    -4648    -5069    -5454    -5163    -5553    -6161    -6219 
   -6319    -5755    -4468    -4687    -5471    -5003    -4514    -4618 
   -5265    -6278    -6552    -6624    -7109    -6188    -4361    -4595 
   -6226    -6515    -5296    -4077    -3734    -3493    -2965    -4121 
   -6207    -5775    -4391    -4977    -6234    -6822    -6475    -5545 
   -5805    -6682    -6385    -5946    -5429    -4941    -5809    -5805 
   -4820    -5417    -5584    -4313    -4050    -4612    -4502    -4572 
   -5359    -5687    -5502    -5559    -5783    -6011    -6619    -7157 
   -6474    -5644    -5742    -5625    -5729    -6079    -4945    -4025 
   -4776    -4897    -4415    -4800    -4795    -4492    -5281    -5665 
   -4919    -5204    -6687    -6586    -4417    -3312    -4676    -6065 
   -5730    -5543    -6295    -6043    -5535    -5856    -5505    -5020 
   -5437    -5641    -5792    -6077    -5250    -4486    -5378    -5850 
   -4518    -3886    -5017    -5638    -5310    -5421    -5678    -5451 
   -5377    -6123    -6955    -6712    -5907    -5632    -5536    -5032 
   -5421    -6480    -5594    -4035    -3550    -3388    -4661    -5902 
   -4951    -4546    -5076    -5003    -5725    -6690    -6281    -5842 
   -5800    -5436    -5651    -6056    -5664    -5602    -6214    -5967 
   -4762    -4648    -5340    -5013    -4772    -5219    -5377    -5320 
   -4855    -4722    -5444    -5217    -4858    -5930    -6380    -5590 
   -5263    -6073    -6978    -6184    -5030    -5655    -5946    -4232 
   -2894    -4244    -6083    -5524    -5233    -6126    -5482    -5115 
   -5343    -4174    -4314    -6064    -6021    -4907    -5069    -5557 
   -5246    -5732    -6592    -5852    -5792    -6997    -6353    -4928 
   -4661    -5032    -5679    -5108    -3964    -4545    -5004    -4873 
   -5741    -5552    -4773    -5961    -6632    -5219    -4352    -5055 
   -6293    -6955    -6281    -5420    -5900    -6760    -6124    -4260 
   -3790    -5332    -6033    -5004    -4151    -4286    -4995    -5456 
   -4920    -4772    -6099    -6544    -5420    -4860    -4737    -4205 
   -4329    -5436    -5941    -5836    -6216    -5899    -5005    -5194 
   -5533    -5582    -5910    -5926    -5817    -5566    -5171    -5551 
   -5854    -5663    -5676    -5614    -5903    -5888    -5270    -5703 
   -5659    -4534    -4973    -5857    -5401    -4976    -5085    -5362 
   -5543    -4796    -3932    -4664    -5663    -5283    -5151    -5760 
   -5517    -5059    -5358    -5539    -5494    -5719    -6014    -6273 
