Origin Time       2018/04/09 06:38:00
Lat.              35.2
Long.             132.6
Depth. (km)       10
Mag.              3.8
Station Code      OKY005
Station Lat.      35.0098
Station Long.     133.7317
Station Height(m) 134
Record Time       2018/04/09 06:39:20
Sampling Freq(Hz) 100Hz
Duration Time(s)  60
Dir.              E-W
Scale Factor      7845(gal)/8223790
Max. Acc. (gal)   1.465
Last Correction   2018/04/09 06:39:20
Memo.             
     928      924      922      924      934      934      924      924 
     923      923      935      935      926      923      922      932 
     932      922      927      926      922      939      936      926 
     929      923      919      929      929      923      923      926 
     932      934      929      926      918      919      928      934 
     935      929      922      920      927      931      928      926 
     928      931      929      928      931      926      922      928 
     929      929      934      929      923      926      924      922 
     932      943      934      920      923      926      923      927 
     931      924      924      929      928      926      927      927 
     929      931      929      927      922      919      927      932 
     932      936      929      915      918      928      929      929 
     934      927      919      926      931      931      940      942 
     923      916      929      927      922      926      926      924 
     928      935      935      927      927      931      928      922 
     923      928      926      923      931      931      927      931 
     929      926      931      934      928      924      923      922 
     922      924      935      940      931      919      920      924 
     929      936      934      927      924      923      926      927 
     924      927      924      915      915      915      907      908 
     924      931      924      918      913      926      954      967 
     947      928      947      966      934      873      870      949 
    1008      959      885      911      987      992      922      872 
     893      931      918      868      855      916      959      926 
     936     1038     1100     1053      973      942      949      927 
     859      803      827      901      895      799      774      896 
    1007      949      849      889      982      982      922      920 
     986     1011      987     1024     1081     1000      810      720 
     838      989      980      884      893     1004     1055      908 
     711      784     1012     1081      992      884      916     1070 
    1080      912      787      765      827      882      810      826 
    1021     1100     1039      973      929      965      950      885 
     905      926      972     1026      946      880      924      929 
     808      680      711      837      934     1026     1113     1148 
    1089     1011     1026     1026      903      754      715      841 
     994      994      949      990     1000      870      684      634 
     777      924      957      963     1026     1051      981      958 
    1065     1216     1271     1123      903      805      801      769 
     700      726      803      753      680      774      978     1146 
    1209     1129     1000      981     1011      993     1005     1015 
     982      943      882      877      922      873      804      780 
     783      793      723      645      702      854      987     1081 
    1190     1208     1116     1104     1177     1193     1086      903 
     834      872      849      743      634      631      773      916 
     903      812      834      922      946      997     1116     1181 
    1161     1094     1039     1047     1021      936      897      850 
     758      756      827      850      770      695      749      838 
     872      886      949     1111     1240     1193     1078     1062 
    1120     1063      896      837      882      886      853      832 
     804      787      827      843      807      838      919      972 
    1003     1035     1065     1050     1015     1017     1004      928 
     820      769      824      924      972      903      849      954 
    1050      974      826      751      804      901      947      972 
    1035     1094     1081     1042     1011      967      926      895 
     874      862      835      824      859      886      855      851 
     947     1017      984      915      881      950     1043     1003 
     927      942      957      909      876      890      886      847 
     837      877      935      976      954      911      947     1015 
    1024     1003      993     1026     1077     1026      877      792 
     793      797      761      731      830      994     1035      969 
     947     1028     1081      981      864      866      911      911 
     908      996     1133     1132      972      827      774      781 
     818      824      828      923     1016      999      946      940 
     974      993      985      992      978      947      919      849 
     822      874      877      838      820      838      939     1043 
    1046      987      963     1008     1039     1000      923      850 
     838      884      916      900      868      882      911      870 
     819      877     1008     1078     1051      972      908      892 
     905      965     1030     1009      938      874      835      850 
     903      961      962      888      847      872      924      958 
     934      955     1004      990      977      939      872      911 
    1007      981      855      778      824      938      989      947 
     909      932      987      993      903      827      870      953 
     958      936      965      993      935      864      920     1000 
     966      909      897      907      942      946      888      866 
     920      951      920      877      877      947     1023     1013 
     992     1005      970      888      807      783      853      864 
     803      857      990     1080     1092     1031      973      953 
     927      888      882      899      873      845      880      946 
     972      928      885      897      932      935      893      903 
     993     1073     1073      987      912      908      927      916 
     854      808      830      869      901      899      868      897 
     966      986      958      957     1005      997      916      874 
     905      992     1047      990      907      884      928      976 
     939      905      936      916      864      886      939      936 
     901      866      853      864      857      845      903     1019 
    1101     1058      924      877      961     1004      942      901 
     920      926      909      918      935      885      797      811 
     900      942      976     1047     1089     1065      973      877 
     885      907      846      801      814      837      864      888 
     931     1012     1034      969      932      959      959      918 
     893      920      982     1000      961      942      940      924 
     938      966      936      859      828      850      877      916 
     935      897      847      859      927      967      969     1003 
    1067     1084     1026      932      868      884      920      915 
     896      873      864      893      899      901      927      923 
     893      858      880      950      940      923     1007     1057 
    1015      973      957      984     1007      916      804      820 
     874      847      780      797      920     1013     1044     1053 
    1030     1008      992      946      911      897      893      901 
     908      903      877      874      924      961      934      884 
     846      849      896      907      870      897      966      993 
    1028     1078     1070     1019      972      938      890      812 
     774      826      877      850      826      895      951      936 
     958     1050     1131     1135     1028      882      811      846 
     920      936      896      876      903      942      954      923 
     849      811      877      950      936      900      905      954 
    1021     1032      987      942      896      882      928      973 
     970      946      958      958      900      862      857      861 
     886      923      984     1015      943      886      953     1026 
     987      890      828      845      938     1000      967      897 
     846      866      901      851      820      909     1026     1070 
    1023      974      978      957      908      912      915      854 
     783      781      895     1032     1065     1017      987     1004 
     989      882      803      838      864      837      864      955 
    1019     1009      972      981     1012      981      896      851 
     876      918      962      966      924      912      909      905 
     928      907      849      843      866      903      976     1026 
    1009      949      922      931      927      934      972     1007 
    1031     1008      922      838      796      801      827      816 
     827      900      938      961     1053     1128     1090      980 
     881      837      826      858      927      942      951     1003 
     962      889      926     1013     1034      939      841      834 
     834      810      842      912      926      929     1012     1088 
    1053      969      919      927      931      890      872      895 
     931      969      961      922      924      959      945      872 
     834      850      873      903      950      970      927      890 
     949     1028     1007      916      864      862      881      889 
     895      943     1007     1060     1109     1090     1026      972 
     907      876      862      799      720      697      787      912 
     940      927      940      985     1053     1058      997      966 
     978      967      936      939      959      945      888      830 
     823      854      882      866      838      903      993     1004 
     981      985     1036     1080     1035      928      846      828 
     882      950      943      876      820      830      889      899 
     864      859      893      980     1036     1011     1000     1019 
    1030     1020      985      959      945      903      858      842 
     846      842      816      778      789      872      972     1047 
    1053     1020     1023     1005      976      966      909      864 
     907      973     1019     1000      929      849      756      743 
     819      831      807      868      977     1043     1051     1039 
    1021     1011     1038     1034      953      888      895      929 
     913      874      884      885      849      849      877      868 
     843      901     1020     1039      980      978     1021     1051 
    1036      938      823      793      847      892      870      832 
     862      939      984      989     1004     1009      990      986 
     947      858      812      847      919      967      953      912 
     890      899      945      984      939      874      913      987 
     982      939      918      923      932      934      924      922 
     942      951      926      896      893      919      926      870 
     812      845      932      999     1060     1104     1089     1017 
     908      858      888      885      822      797      830      866 
     888      886      882      922     1016     1085     1021      908 
     896      978     1065     1036      932      899      926      950 
     911      807      801      908      950      905      850      845 
     884      884      868      907      965     1000     1026     1028 
    1000      996     1008     1000      994      957      854      784 
     823      893      918      909      882      857      881      907 
     881      908     1023     1112     1115     1053      969      901 
     868      858      845      815      823      907      973      972 
     940      903      896      903      903      931      950      966 
    1023     1062     1024      954      919      929      919      838 
     766      769      824      915      958      923      923      982 
    1017      994      967      982      985      977      958      912 
     927      987      976      907      834      812      851      851 
     814      845      916      929      893      913     1026     1102 
    1050      981     1000     1048     1017      895      822      835 
     838      835      849      882      923      920      909      957 
    1015     1026      993      940      900      903      938      957 
     945      926      923      913      857      847      924      978 
     970      916      855      841      862      907      994     1053 
    1015      942      915      946      959      915      876      873 
     903      961      980      927      893      950      992      947 
     896      869      854      881      939      976      976      940 
     908      929      949      947      957      912      855      882 
     926      915      911      957     1003      987      928      900 
     912      927      939      927      912      940      954      940 
     916      874      847      857      895      922      946     1009 
    1062     1067     1046      984      909      901      922      870 
     816      827      846      820      767      799      870      853 
     788      770      907     1173     1394     1517     1525     1431 
    1296     1113      869      529      171       83      236      278 
     282      542      916     1170     1375     1564     1578     1441 
    1436     1615     1651     1398     1024      611      186      -81 
      -5      341      669      934     1254     1422     1200      828 
     726      874      868      569      379      677     1391     2128 
    2463     2163     1327      437      -64     -225     -197       85 
     599     1107     1390     1451     1399     1188      895      823 
     918      882      838     1123     1594     1741     1385      873 
     616      545      330       85      163      542      897     1003 
     940      939     1089     1228     1201     1224     1451     1563 
    1339     1093     1086     1146     1124     1026      697      147 
    -280     -279      174      796     1227     1332     1192      973 
     920     1152     1514     1813     1912     1649     1089      723 
     702      530      245      234      344      415      448      525 
     866     1317     1626     1699     1467     1193     1092      920 
     515      252      608     1293     1582     1359      931      560 
     461      566      604      506      506      855     1329     1452 
    1387     1526     1588     1302      951      745      595      423 
     365      569      762      745      783      934      915      772 
     884     1260     1495     1459     1366     1250     1032      812 
     691      715      837      830      660      531      581      757 
     881      924      927      823      834     1183     1501     1444 
    1233     1135     1097     1038     1000      969      778      410 
     187      325      504      531      718     1133     1516     1703 
    1548     1107      723      540      558      819     1204     1456 
    1452     1232      943      750      589      352      265      508 
     827     1020     1162     1282     1344     1337     1171      869 
     741      853      890      853      989     1177     1124      864 
     700      734      808      828      760      621      619      826 
     980      940      918     1065     1270     1364     1273     1026 
     808      780      808      765      770      893     1046     1166 
    1200     1046      773      616      612      648      762     1009 
    1215     1212     1162     1204     1143      841      533      576 
     934     1189     1161     1019      847      679      664      835 
    1024     1092     1062     1044     1086     1035      877      841 
     846      695      526      519      665      927     1170     1192 
    1128     1171     1080      834      815      978      958      831 
     909     1107     1155     1067      959      842      785      872 
     966      884      746      797      957      924      781      832 
     957      923      877      959     1026     1057     1193     1266 
    1055      834      873     1003      976      792      650      684 
     830      959     1003      900      702      685      980     1291 
    1382     1263     1016      811      730      714      792      870 
     758      668      832     1043     1179     1251     1190     1089 
     989      814      662      603      572      610      780      984 
    1084     1093     1098     1116     1144     1170     1194     1177 
    1039      854      730      724      889     1107     1209     1102 
     708      261      182      438      753      986     1088     1125 
    1219     1279     1212     1139     1088      950      767      670 
     685      718      746      915     1188     1258     1080      966 
    1011     1009      882      741      673      687      810     1031 
    1142     1043      953     1003     1065     1055     1078     1148 
    1105      949      882      911      796      626      669      760 
     672      629      780      926      958      972      976      924 
     831      797      927     1156     1358     1480     1509     1428 
    1194      913      758      677      596      523      433      413 
     479      552      704      949     1175     1344     1395     1269 
    1031      859      897     1055     1148     1159     1113     1005 
     938      972     1026      909      568      364      515      681 
     658      638      723      903     1190     1448     1512     1421 
    1262     1034      814      760      841      851      778      795 
     908      957      897      854      873      893      873      747 
     630      760     1031     1173     1170     1117     1034      931 
     850      801      769      795      900     1058     1227     1263 
    1142     1036      974      893      801      720      737      814 
     769      631      587      731      982     1109     1039      970 
    1030     1193     1374     1359     1088      797      685      773 
     928      947      814      726      751      781      816      942 
    1151     1246     1026      708      606      661      814     1089 
    1318     1298     1088      901      810      719      649      734 
     943     1105     1155     1143     1065      929      868      947 
    1038      984      793      643      653      708      741      890 
    1155     1316     1271     1075      830      673      683      810 
     896      845      772      787      932     1220     1410     1278 
    1026      965     1015      897      646      584      757      870 
     810      704      654      774     1051     1224     1200     1111 
    1073     1060     1003      942      926      931      965      994 
     984      951      936      920      811      710      810      942 
     854      697      733      923     1038      984      895      929 
    1059     1084      972      919     1005     1084     1023      846 
     695      680      796      934      984      936      926     1065 
    1202     1140      984      868      770      712      753      861 
     929      924      974     1125     1230     1213     1104      947 
     854      855      831      778      796      804      719      618 
     584      692      946     1198     1320     1264     1119     1017 
     954      901      901      869      747      707      830      972 
