Origin Time       2018/04/09 06:38:00
Lat.              35.2
Long.             132.6
Depth. (km)       10
Mag.              3.8
Station Code      OKY005
Station Lat.      35.0098
Station Long.     133.7317
Station Height(m) 134
Record Time       2018/04/09 06:39:20
Sampling Freq(Hz) 100Hz
Duration Time(s)  60
Dir.              U-D
Scale Factor      7845(gal)/8223790
Max. Acc. (gal)   0.705
Last Correction   2018/04/09 06:39:20
Memo.             
[...]
   28804    28810    28804    28810    28809    28795    28800    28810 
   28806    28807    28813    28810    28803    28800    28804    28803 
   28800    28804    28810    28811    28810    28806    28800    28795 
   28800    28813    28815    28811    28810    28799    28791    28806 
   28813    28806    28811    28813    28800    28795    28802    28799 
   28804    28818    28807    28795    28809    28811    28803    28807 
   28809    28803    28800    28803    28809    28807    28799    28804 
   28809    28799    28802    28813    28809    28799    28802    28806 
   28806    28810    28809    28800    28802    28811    28813    28807 
   28803    28798    28795    28809    28818    28818    28806    28792 
   28794    28799    28804    28817    28814    28795    28792    28791 
   28788    28798    28806    28809    28807    28795    28786    28795 
   28823    28856    28867    28826    28780    28791    28802    28748 
   28717    28810    28942    28956    28818    28694    28738    28841 
   28817    28756    28814    28858    28772    28717    28798    28887 
   28848    28742    28734    28850    28942    28907    28842    28864 
   28875    28768    28696    28786    28841    28703    28541    28576 
   28749    28875    28927    28939    28856    28715    28732    28931 
   29059    28983    28757    28561    28597    28790    28950    29046 
   28979    28665    28414    28528    28809    28975    28995    28953 
   28887    28744    28663    28818    28965    28877    28675    28539 
   28648    28993    29170    28961    28663    28567    28706    28871 
   28838    28772    28800    28803    28807    28788    28761    28860 
   28879    28674    28630    28880    29029    28939    28864    28821 
   28668    28563    28737    29030    29049    28765    28560    28671 
   28903    28946    28823    28769    28848    28912    28829    28642 
   28566    28678    28784    28795    28868    28958    28903    28838 
   28867    28818    28721    28760    28827    28795    28795    28875 
   28910    28842    28755    28757    28772    28728    28723    28761 
   28804    28906    28964    28846    28661    28597    28714    28890 
   28938    28898    28917    28898    28790    28714    28679    28737 
   28931    29004    28837    28656    28620    28736    28869    28829 
   28729    28765    28783    28719    28807    28966    28938    28858 
   28821    28717    28688    28834    28938    28890    28848    28923 
   28925    28694    28522    28657    28806    28782    28836    28903 
   28726    28572    28723    28918    28908    28854    28925    28993 
   28899    28759    28740    28764    28755    28782    28842    28867 
   28811    28680    28595    28652    28798    28921    28925    28840 
   28772    28782    28872    28957    28944    28846    28752    28741 
   28760    28752    28818    28895    28759    28602    28756    28944 
   28868    28792    28836    28788    28705    28763    28880    28857 
   28706    28672    28831    28969    28934    28795    28701    28729 
   28854    28923    28846    28768    28772    28749    28709    28761 
   28817    28784    28784    28827    28799    28795    28849    28811 
   28768    28838    28892    28883    28914    28929    28837    28729 
   28701    28738    28776    28733    28698    28780    28879    28881 
   28809    28733    28729    28798    28861    28863    28817    28791 
   28825    28887    28880    28775    28728    28817    28844    28752 
   28749    28826    28827    28784    28777    28802    28807    28779 
   28787    28850    28872    28827    28790    28784    28794    28827 
   28880    28873    28779    28723    28757    28752    28703    28721 
   28795    28861    28927    29000    28956    28792    28715    28752 
   28752    28703    28686    28764    28894    28892    28771    28764 
   28852    28848    28794    28795    28848    28873    28818    28775 
   28786    28783    28804    28830    28786    28769    28807    28810 
   28803    28795    28748    28750    28827    28844    28791    28769 
   28777    28826    28898    28895    28845    28817    28779    28759 
   28779    28783    28787    28807    28775    28737    28792    28846 
   28837    28827    28818    28822    28854    28853    28815    28779 
   28757    28775    28830    28850    28795    28741    28733    28756 
   28810    28815    28771    28826    28899    28846    28794    28845 
   28910    28884    28794    28719    28695    28736    28818    28844 
   28792    28749    28791    28891    28891    28746    28715    28863 
   28903    28794    28733    28745    28767    28782    28815    28883 
   28904    28802    28698    28723    28798    28854    28884    28838 
   28788    28818    28825    28775    28787    28811    28807    28846 
   28841    28733    28690    28749    28795    28826    28872    28884 
   28849    28777    28740    28795    28849    28833    28815    28818 
   28814    28799    28813    28848    28844    28818    28821    28803 
   28740    28695    28706    28759    28837    28867    28831    28794 
   28792    28838    28865    28815    28782    28792    28786    28809 
   28873    28841    28721    28706    28780    28799    28783    28777 
   28826    28902    28902    28852    28830    28810    28769    28759 
   28776    28798    28814    28782    28719    28745    28845    28869 
   28795    28752    28794    28894    28934    28845    28764    28780 
   28795    28780    28799    28830    28806    28721    28686    28792 
   28929    28921    28821    28804    28872    28833    28688    28690 
   28817    28815    28717    28748    28883    28912    28817    28742 
   28767    28806    28792    28825    28896    28864    28787    28795 
   28817    28799    28792    28787    28782    28802    28807    28799 
   28806    28818    28813    28784    28772    28779    28767    28763 
   28827    28898    28884    28837    28795    28768    28799    28850 
   28815    28749    28746    28752    28764    28825    28863    28856 
   28863    28846    28792    28784    28809    28782    28722    28703 
   28775    28900    28975    28927    28767    28634    28678    28803 
   28826    28790    28813    28830    28791    28787    28858    28918 
   28898    28825    28752    28698    28703    28764    28842    28902 
   28840    28728    28767    28853    28836    28806    28791    28746 
   28733    28763    28829    28939    28987    28918    28826    28757 
   28719    28703    28709    28752    28787    28798    28823    28831 
   28814    28818    28838    28841    28849    28869    28849    28782 
   28768    28810    28787    28748    28809    28856    28795    28733 
   28737    28769    28791    28813    28856    28858    28795    28767 
   28780    28794    28848    28907    28868    28780    28749    28760 
   28782    28817    28852    28871    28831    28718    28656    28740 
   28849    28887    28875    28823    28800    28838    28830    28780 
   28792    28813    28782    28777    28787    28740    28686    28709 
   28840    28988    28973    28823    28752    28779    28788    28795 
   28842    28857    28795    28722    28734    28818    28848    28807 
   28810    28842    28807    28723    28696    28784    28917    28935 
   28846    28802    28795    28736    28706    28806    28880    28802 
   28736    28811    28887    28826    28729    28752    28844    28856 
   28817    28809    28807    28811    28825    28829    28822    28771 
   28718    28745    28814    28868    28894    28842    28752    28742 
   28794    28840    28836    28803    28829    28840    28760    28745 
   28831    28837    28757    28749    28845    28917    28842    28698 
   28649    28745    28876    28892    28817    28799    28837    28827 
   28803    28831    28831    28775    28771    28795    28776    28765 
   28795    28825    28817    28764    28742    28794    28842    28848 
   28850    28853    28852    28869    28876    28834    28795    28794 
   28776    28760    28784    28784    28749    28737    28732    28752 
   28806    28827    28813    28794    28798    28848    28884    28888 
   28877    28795    28722    28800    28883    28822    28772    28821 
   28863    28813    28718    28717    28783    28804    28787    28772 
   28755    28757    28842    28923    28903    28849    28810    28760 
   28732    28779    28848    28830    28765    28802    28895    28845 
   28729    28759    28829    28809    28798    28838    28842    28795 
   28750    28759    28810    28823    28803    28822    28849    28810 
   28729    28714    28807    28892    28872    28822    28803    28802 
   28814    28807    28791    28800    28794    28791    28854    28910 
   28876    28804    28755    28717    28711    28756    28760    28723 
   28784    28880    28858    28811    28844    28877    28842    28794 
   28799    28844    28840    28768    28738    28776    28794    28794 
   28810    28844    28872    28858    28814    28780    28761    28740 
   28744    28807    28872    28892    28868    28806    28752    28733 
   28737    28765    28795    28809    28848    28867    28779    28750 
   28872    28933    28856    28784    28777    28776    28752    28777 
   28842    28836    28767    28750    28795    28829    28831    28815 
   28813    28838    28784    28711    28788    28856    28771    28721 
   28809    28902    28902    28848    28815    28794    28775    28818 
   28884    28869    28761    28686    28722    28780    28788    28772 
   28752    28759    28821    28895    28884    28829    28857    28912 
   28861    28809    28868    28875    28742    28661    28701    28748 
   28767    28769    28765    28783    28784    28777    28829    28868 
   28854    28848    28826    28795    28818    28829    28807    28833 
   28853    28818    28814    28836    28799    28736    28732    28799 
   28857    28822    28764    28800    28818    28742    28736    28825 
   28871    28865    28860    28852    28811    28737    28717    28792 
   28825    28765    28755    28800    28804    28818    28845    28803 
   28769    28830    28898    28884    28817    28768    28787    28799 
   28744    28721    28761    28788    28818    28861    28838    28782 
   28783    28811    28831    28849    28818    28792    28833    28833 
   28783    28786    28818    28826    28809    28771    28752    28786 
   28799    28780    28795    28822    28822    28822    28818    28814 
   28818    28817    28786    28811    28907    28898    28790    28761 
   28768    28732    28756    28827    28809    28725    28699    28777 
   28877    28872    28802    28788    28799    28818    28877    28873 
   28807    28802    28841    28857    28810    28728    28723    28792 
   28790    28750    28787    28823    28838    28896    28879    28757 
   28732    28813    28838    28821    28826    28827    28804    28761 
   28748    28806    28838    28787    28777    28826    28804    28748 
   28784    28868    28845    28763    28783    28861    28871    28829 
   28792    28786    28783    28760    28779    28848    28833    28771 
   28807    28848    28806    28772    28779    28798    28795    28777 
   28799    28853    28881    28853    28784    28734    28763    28838 
   28846    28821    28837    28795    28694    28706    28804    28837 
   28829    28864    28894    28853    28776    28755    28802    28834 
   28826    28818    28810    28800    28788    28795    28827    28811 
   28734    28694    28736    28780    28807    28871    28888    28814 
   28786    28840    28872    28867    28830    28795    28830    28834 
   28745    28729    28799    28806    28787    28799    28783    28786 
   28825    28803    28745    28761    28822    28830    28818    28860 
   28891    28833    28775    28779    28752    28732    28818    28899 
   28845    28768    28771    28772    28761    28803    28869    28883 
   28823    28761    28744    28748    28794    28867    28873    28841 
   28854    28818    28729    28713    28741    28790    28841    28811 
   28772    28817    28860    28869    28898    28891    28818    28768 
   28772    28803    28806    28759    28729    28775    28803    28763 
   28757    28836    28887    28858    28791    28765    28803    28821 
   28815    28852    28873    28822    28757    28732    28729    28765 
   28825    28857    28817    28733    28757    28865    28845    28760 
   28814    28931    28906    28772    28722    28786    28875    28904 
   28879    28841    28767    28690    28750    28842    28741    28602 
   28637    28728    28798    28848    28802    28779    28927    29053 
   28947    28799    28861    29016    29047    29000    28904    28652 
   28341    28275    28509    28725    28767    28845    28983    28957 
   28830    28868    29042    29070    28867    28679    28672    28746 
   28856    28973    28941    28791    28709    28667    28586    28568 
   28680    28763    28665    28539    28682    29072    29359    29307 
   29043    28869    28861    28860    28772    28630    28514    28547 
   28755    28965    28989    28794    28511    28359    28435    28660 
   28922    29083    29035    28949    28993    29039    29068    29133 
   29049    28799    28603    28594    28717    28684    28372    28169 
   28333    28591    28703    28776    28968    29268    29524    29525 
   29222    28903    28829    28849    28761    28618    28522    28514 
   28588    28668    28614    28486    28524    28645    28597    28537 
   28776    29251    29544    29470    29324    29236    28980    28557 
   28270    28297    28540    28741    28733    28591    28525    28714 
   29061    29228    29162    29058    28957    28822    28669    28543 
   28544    28668    28777    28846    28929    28935    28764    28530 
   28431    28570    28912    29174    29079    28788    28676    28846 
   29081    29097    28849    28594    28491    28448    28482    28718 
   29118    29411    29277    28771    28406    28505    28790    28900 
   28872    28858    28857    28857    28883    28857    28706    28574 
   28640    28826    28933    28941    28949    28926    28798    28663 
   28633    28669    28768    28868    28804    28678    28694    28784 
   28846    28868    28853    28914    28988    28867    28690    28706 
   28827    28898    28879    28800    28803    28912    28941    28838 
   28709    28605    28591    28638    28663    28768    28996    29139 
   29100    28922    28671    28498    28537    28777    29058    29118 
   28903    28655    28571    28688    28881    28904    28763    28703 
   28733    28746    28833    28960    28965    28877    28764    28676 
   28759    28950    29029    28944    28746    28579    28599    28698 
   28694    28653    28701    28869    29031    28979    28837    28831 
   28817    28737    28757    28857    28956    28996    28880    28694 
   28632    28684    28706    28671    28692    28840    28988    28988 
   28912    28865    28822    28791    28784    28769    28763    28806 
   28896    28919    28725    28447    28445    28686    28814    28904 
   29130    29191    28984    28806    28779    28840    28900    28877 
   28772    28632    28540    28574    28618    28580    28629    28799 
   28912    28942    28946    28947    29019    29139    29158    28993 
   28771    28657    28613    28524    28476    28617    28806    28848 
   28809    28761    28706    28767    28961    29038    28884    28765 
   28884    29045    28979    28742    28634    28746    28879    28876 
   28722    28499    28418    28593    28858    29038    29088    29002 
   28846    28733    28702    28775    28850    28818    28795    28836 
   28852    28877    28899    28818    28706    28706    28779    28795 
   28729    28695    28822    29027    29072    28973    28900    28833 
   28765    28714    28634    28634    28761    28780    28640    28557 
   28605    28695    28790    28900    28977    28956    28917    28926 
   28917    28883    28884    28917    28958    28983    28904    28706 
   28479    28356    28433    28657    28861    28980    29008    28917 
   28813    28836    28930    28987    28957    28848    28759    28728 
   28695    28649    28618    28624    28703    28853    28962    28960 
   28923    28894    28815    28719    28748    28867    28900    28833 
   28749    28678    28659    28711    28788    28838    28821    28784 
   28871    29016    28999    28861    28806    28818    28867    28958 
   28960    28803    28626    28553    28564    28563    28545    28602 
   28734    28852    28900    28890    28892    28983    29083    29030 
   28869    28813    28876    28899    28822    28694    28618    28684 
   28777    28740    28663    28686    28818    28954    28952    28823 
   28709    28688    28767    28918    29023    28956    28776    28692 
   28798    28923    28908    28809    28711    28676    28718    28740 
   28679    28645    28737    28848    28860    28815    28803    28842 
   28912    28983    28993    28899    28800    28787    28769    28752 
   28830    28873    28759    28651    28669    28703    28674    28688 
   28844    29025    29076    28998    28868    28756    28686    28682 
   28746    28772    28723    28777    28958    29015    28833    28570 
   28483    28651    28845    28912    28919    28906    28877    28852 
   28798    28744    28795    28880    28840    28759    28750    28775 
   28784    28772    28831    28983    29008    28860    28742    28721 
   28732    28741    28701    28663    28757    28881    28850    28748 
   28763    28864    28895    28852    28827    28844    28887    28939 
   28947    28858    28696    28591    28613    28686    28788    28925 
   28970    28868    28714    28653    28752    28838    28772    28768 
   28939    29035    28887    28668    28620    28742    28858    28883 
   28879    28883    28857    28767    28678    28705    28798    28831 
   28783    28696    28679    28809    28973    29002    28894    28791 
   28759    28757    28777    28825    28863    28831    28749    28709 
   28749    28818    28841    28803    28763    28782    28850    28873 
   28806    28733    28741    28825    28910    28907    28809    28726 
   28737    28823    28908    28900    28821    28798    28836    28826 
   28775    28780    28792    28729    28678    28721    28807    28829 
   28772    28729    28765    28848    28927    28949    28892    28811 
   28749    28744    28809    28845    28795    28738    28732    28769 
   28809    28795    28728    28691    28769    28902    28969    28929 
   28815    28741    28804    28923    28917    28772    28645    28628 
   28701    28830    28950    28962    28860    28746    28728    28787 
   28822    28813    28818    28844    28871    28861    28777    28694 
   28711    28783    28811    28817    28825    28799    28788    28834 
   28867    28876    28883    28830    28749    28745    28784    28786 
   28741    28696    28767    28910    28908    28807    28810    28833 
   28741    28663    28725    28842    28906    28891    28854    28829 
   28809    28827    28872    28818    28686    28638    28674    28736 
   28844    28894    28818    28737    28733    28818    28946    28981 
   28925    28890    28849    28765    28711    28688    28690    28752 
   28817    28817    28769    28714    28728    28822    28890    28900 
