Origin Time       2018/04/09 06:38:00
Lat.              35.2
Long.             132.6
Depth. (km)       10
Mag.              3.8
Station Code      OKY005
Station Lat.      35.0098
Station Long.     133.7317
Station Height(m) 134
Record Time       2018/04/09 06:39:20
Sampling Freq(Hz) 100Hz
Duration Time(s)  60
Dir.              N-S
Scale Factor      7845(gal)/8223790
Max. Acc. (gal)   1.646
Last Correction   2018/04/09 06:39:20
Memo.             
[...]
   -2096    -2101    -2104    -2106    -2107    -2106    -2098    -2097 
   -2101    -2102    -2102    -2106    -2096    -2092    -2101    -2107 
   -2107    -2107    -2098    -2089    -2096    -2106    -2107    -2107 
   -2102    -2093    -2097    -2107    -2111    -2107    -2098    -2095 
   -2106    -2106    -2098    -2107    -2106    -2087    -2095    -2107 
   -2096    -2101    -2118    -2104    -2092    -2100    -2107    -2107 
   -2101    -2096    -2098    -2110    -2114    -2107    -2096    -2088 
   -2093    -2104    -2111    -2116    -2107    -2088    -2087    -2101 
   -2110    -2111    -2111    -2106    -2097    -2096    -2097    -2101 
   -2102    -2098    -2095    -2097    -2107    -2107    -2096    -2098 
   -2104    -2102    -2102    -2100    -2098    -2097    -2096    -2107 
   -2110    -2104    -2110    -2100    -2093    -2102    -2102    -2097 
   -2097    -2095    -2098    -2101    -2097    -2096    -2102    -2107 
   -2101    -2104    -2111    -2098    -2096    -2107    -2101    -2091 
   -2095    -2100    -2111    -2128    -2111    -2077    -2095    -2149 
   -2141    -2066    -2033    -2079    -2124    -2107    -2070    -2076 
   -2120    -2147    -2123    -2091    -2123    -2149    -2089    -2053 
   -2102    -2107    -2061    -2085    -2161    -2172    -2120    -2101 
   -2141    -2161    -2095    -1993    -1987    -2066    -2072    -2006 
   -2014    -2095    -2142    -2150    -2185    -2238    -2203    -2088 
   -2064    -2157    -2209    -2176    -2126    -2061    -1973    -1939 
   -2000    -2091    -2133    -2073    -2016    -2107    -2236    -2212 
   -2098    -2064    -2121    -2150    -2087    -2031    -2066    -2115 
   -2118    -2093    -2091    -2160    -2234    -2180    -2001    -1842 
   -1871    -2061    -2185    -2200    -2208    -2173    -2119    -2153 
   -2246    -2340    -2357    -2169    -1894    -1810    -1926    -2079 
   -2160    -2066    -1817    -1674    -1848    -2138    -2241    -2207 
   -2267    -2442    -2542    -2431    -2214    -2124    -2172    -2147 
   -2025    -1915    -1810    -1733    -1798    -1977    -2133    -2126 
   -1962    -1900    -2100    -2317    -2332    -2274    -2309    -2344 
   -2242    -2089    -2077    -2160    -2161    -2087    -2001    -1948 
   -1987    -2025    -1972    -1964    -2019    -2007    -2003    -2087 
   -2134    -2120    -2116    -2166    -2303    -2427    -2417    -2263 
   -2033    -1896    -1991    -2130    -2072    -1949    -1972    -2074 
   -2182    -2241    -2139    -1965    -1896    -1904    -1958    -2072 
   -2170    -2185    -2166    -2212    -2308    -2338    -2259    -2180 
   -2168    -2128    -2045    -2010    -1985    -1949    -1941    -1914 
   -1900    -1971    -2053    -2115    -2176    -2166    -2083    -2093 
   -2266    -2423    -2412    -2331    -2285    -2236    -2154    -2016 
   -1840    -1750    -1811    -1898    -1888    -1844    -1925    -2126 
   -2266    -2295    -2301    -2319    -2312    -2239    -2177    -2195 
   -2188    -2096    -2027    -1991    -1938    -1939    -1969    -1969 
   -2087    -2266    -2250    -2169    -2200    -2176    -2058    -2008 
   -2031    -2057    -2037    -1964    -1984    -2160    -2269    -2195 
   -2126    -2157    -2172    -2143    -2107    -2061    -2023    -2003 
   -1998    -2077    -2227    -2241    -2106    -2069    -2104    -2046 
   -2019    -2060    -2012    -1980    -2101    -2232    -2267    -2234 
   -2142    -2106    -2207    -2265    -2157    -2006    -1915    -1900 
   -1956    -2037    -2097    -2121    -2098    -2045    -2020    -2061 
   -2146    -2238    -2249    -2169    -2180    -2277    -2261    -2188 
   -2170    -2104    -2001    -1979    -1962    -1895    -1850    -1840 
   -1873    -2014    -2193    -2309    -2376    -2392    -2346    -2319 
   -2315    -2182    -1912    -1729    -1742    -1857    -2003    -2111 
   -2161    -2241    -2334    -2340    -2292    -2231    -2118    -1996 
   -1948    -1918    -1859    -1869    -1971    -2077    -2184    -2266 
   -2245    -2192    -2209    -2234    -2199    -2134    -2091    -2091 
   -2093    -2079    -2060    -2011    -1979    -2030    -2066    -2023 
   -2001    -2025    -2066    -2165    -2214    -2160    -2149    -2187 
   -2168    -2126    -2130    -2161    -2172    -2120    -2023    -2001 
   -2065    -2084    -2042    -1993    -1984    -2079    -2220    -2258 
   -2193    -2126    -2079    -2057    -2091    -2160    -2208    -2191 
   -2124    -2074    -2053    -2042    -2039    -2011    -1949    -1930 
   -1991    -2053    -2088    -2149    -2239    -2315    -2331    -2245 
   -2085    -1981    -2015    -2100    -2155    -2153    -2084    -2079 
   -2193    -2205    -2052    -1965    -2015    -2064    -2047    -1992 
   -1982    -2084    -2191    -2188    -2157    -2174    -2166    -2126 
   -2093    -2057    -2050    -2076    -2064    -2030    -2015    -2012 
   -2077    -2180    -2209    -2231    -2261    -2196    -2133    -2150 
   -2130    -2118    -2161    -2120    -2000    -1949    -1952    -1944 
   -1949    -1965    -2018    -2130    -2189    -2146    -2157    -2249 
   -2265    -2201    -2149    -2118    -2138    -2181    -2126    -2031 
   -2033    -2061    -2031    -1991    -1968    -1996    -2088    -2119 
   -2088    -2135    -2239    -2274    -2236    -2168    -2061    -1980 
   -1980    -1999    -2029    -2053    -2027    -2076    -2236    -2299 
   -2204    -2104    -2098    -2162    -2160    -2053    -2014    -2089 
   -2135    -2111    -2079    -2057    -2060    -2104    -2128    -2116 
   -2133    -2111    -2025    -2039    -2166    -2196    -2107    -2052 
   -2058    -2091    -2104    -2069    -2060    -2110    -2119    -2073 
   -2068    -2115    -2158    -2187    -2169    -2093    -2034    -2029 
   -2050    -2076    -2081    -2074    -2114    -2188    -2191    -2120 
   -2121    -2184    -2160    -2043    -1946    -1949    -2058    -2141 
   -2110    -2093    -2162    -2205    -2212    -2214    -2168    -2110 
   -2076    -2008    -1952    -2008    -2110    -2137    -2104    -2087 
   -2095    -2102    -2106    -2100    -2098    -2135    -2189    -2182 
   -2107    -2064    -2096    -2143    -2146    -2107    -2050    -1969 
   -1902    -1934    -2034    -2102    -2146    -2196    -2227    -2257 
   -2281    -2251    -2201    -2141    -2030    -1925    -1877    -1890 
   -1973    -2073    -2104    -2150    -2267    -2304    -2211    -2134 
   -2091    -2034    -2047    -2121    -2115    -2052    -2052    -2130 
   -2223    -2230    -2074    -1907    -1929    -2052    -2081    -2076 
   -2137    -2192    -2212    -2223    -2204    -2155    -2106    -2077 
   -2073    -2079    -2073    -2038    -2008    -2001    -1992    -1973 
   -1998    -2102    -2203    -2220    -2204    -2212    -2239    -2253 
   -2220    -2149    -2046    -1949    -1914    -1917    -1945    -2003 
   -2085    -2201    -2269    -2201    -2134    -2158    -2169    -2121 
   -2047    -1977    -1989    -2081    -2184    -2274    -2288    -2196 
   -2121    -2097    -2026    -1922    -1888    -1929    -1982    -2034 
   -2091    -2149    -2230    -2290    -2262    -2188    -2128    -2115 
   -2139    -2124    -2052    -1982    -1987    -2072    -2133    -2111 
   -2070    -2046    -2064    -2116    -2123    -2096    -2133    -2196 
   -2180    -2114    -2102    -2130    -2130    -2089    -2039    -2015 
   -2006    -2008    -2065    -2141    -2157    -2134    -2107    -2091 
   -2121    -2172    -2182    -2172    -2142    -2077    -2042    -2043 
   -2007    -1975    -2043    -2153    -2166    -2068    -1984    -2079 
   -2290    -2351    -2231    -2138    -2149    -2176    -2123    -2004 
   -1933    -1930    -1930    -1944    -2026    -2139    -2199    -2178 
   -2158    -2180    -2165    -2123    -2098    -2057    -2037    -2098 
   -2172    -2192    -2158    -2098    -2074    -2081    -2047    -1985 
   -1980    -2015    -2033    -2056    -2107    -2158    -2177    -2170 
   -2172    -2205    -2258    -2319    -2344    -2267    -2130    -2029 
   -1949    -1864    -1803    -1799    -1849    -1933    -2026    -2121 
   -2208    -2262    -2288    -2276    -2231    -2205    -2214    -2185 
   -2087    -1995    -2006    -2124    -2235    -2218    -2118    -2052 
   -2039    -2033    -1975    -1877    -1845    -1907    -1991    -2087 
   -2196    -2259    -2304    -2369    -2363    -2281    -2203    -2107 
   -2007    -1975    -1975    -1966    -1975    -1981    -2008    -2091 
   -2172    -2188    -2162    -2151    -2173    -2177    -2126    -2034 
   -1961    -1988    -2101    -2173    -2138    -2079    -2079    -2121 
   -2147    -2120    -2100    -2154    -2220    -2223    -2182    -2142 
   -2097    -2050    -2027    -2011    -1956    -1915    -1971    -2077 
   -2149    -2180    -2182    -2165    -2137    -2107    -2095    -2110 
   -2130    -2143    -2133    -2096    -2092    -2144    -2163    -2107 
   -2062    -2066    -2039    -1995    -2027    -2101    -2120    -2079 
   -2052    -2079    -2135    -2165    -2153    -2128    -2144    -2182 
   -2180    -2130    -2065    -2030    -2058    -2111    -2126    -2097 
   -2062    -2053    -2068    -2079    -2066    -2074    -2134    -2174 
   -2150    -2115    -2130    -2170    -2165    -2133    -2107    -2083 
   -2092    -2100    -2018    -1927    -1937    -1988    -2023    -2072 
   -2118    -2168    -2257    -2327    -2322    -2261    -2172    -2079 
   -2026    -2014    -2000    -1998    -2018    -2060    -2123    -2157 
   -2168    -2170    -2092    -1996    -1984    -2004    -2011    -2001 
   -1998    -2046    -2134    -2231    -2309    -2338    -2315    -2267 
   -2205    -2119    -2043    -2015    -1989    -1930    -1923    -1996 
   -2043    -2041    -2064    -2114    -2120    -2096    -2101    -2130 
   -2161    -2189    -2177    -2155    -2189    -2196    -2138    -2126 
   -2130    -2053    -2007    -2030    -2039    -2047    -2053    -2047 
   -2116    -2188    -2120    -2033    -2031    -2038    -2070    -2157 
   -2189    -2170    -2180    -2191    -2193    -2199    -2165    -2095 
   -2022    -1966    -1960    -1995    -2016    -2031    -2066    -2091 
   -2111    -2182    -2257    -2251    -2201    -2157    -2119    -2088 
   -2030    -1956    -1923    -1930    -2004    -2124    -2180    -2163 
   -2176    -2215    -2224    -2223    -2211    -2160    -2116    -2111 
   -2079    -2015    -1956    -1908    -1923    -2006    -2104    -2185 
   -2203    -2166    -2161    -2170    -2137    -2097    -2077    -2073 
   -2098    -2137    -2133    -2102    -2102    -2106    -2076    -2049 
   -2046    -2053    -2052    -2043    -2076    -2149    -2181    -2155 
   -2174    -2207    -2144    -2083    -2101    -2123    -2142    -2135 
   -2043    -1981    -2031    -2088    -2087    -2073    -2062    -2083 
   -2153    -2166    -2081    -2027    -2068    -2137    -2163    -2137 
   -2120    -2147    -2138    -2095    -2085    -2088    -2085    -2089 
   -2070    -2043    -2050    -2062    -2068    -2128    -2220    -2219 
   -2128    -2077    -2107    -2150    -2110    -2010    -1993    -2081 
   -2161    -2196    -2192    -2130    -2073    -2085    -2097    -2043 
   -1977    -1984    -2053    -2130    -2160    -2130    -2091    -2076 
   -2092    -2151    -2191    -2155    -2123    -2130    -2114    -2089 
   -2111    -2151    -2130    -2041    -1956    -1972    -2101    -2200 
   -2138    -2038    -2083    -2200    -2207    -2115    -2089    -2142 
   -2138    -2047    -1981    -2018    -2096    -2098    -2038    -2031 
   -2104    -2172    -2204    -2215    -2201    -2174    -2165    -2151 
   -2070    -1958    -1944    -2019    -2073    -2095    -2146    -2188 
   -2154    -2101    -2079    -2058    -2052    -2043    -1991    -1979 
   -2062    -2128    -2124    -2130    -2177    -2234    -2261    -2230 
   -2203    -2218    -2182    -2106    -2072    -2003    -1877    -1841 
   -1919    -2020    -2106    -2151    -2161    -2184    -2188    -2139 
   -2111    -2115    -2114    -2126    -2146    -2146    -2146    -2161 
   -2143    -2083    -2023    -1998    -2014    -2043    -2053    -2058 
   -2095    -2158    -2207    -2211    -2176    -2124    -2107    -2163 
   -2174    -2062    -1969    -1958    -1977    -2019    -2053    -2053 
   -2069    -2104    -2163    -2242    -2277    -2263    -2243    -2187 
   -2121    -2115    -2077    -1946    -1852    -1859    -1912    -2012 
   -2126    -2160    -2161    -2189    -2192    -2214    -2258    -2199 
   -2106    -2104    -2121    -2097    -2092    -2115    -2114    -2077 
   -2025    -1987    -1973    -1962    -1993    -2093    -2189    -2193 
   -2077    -1925    -1902    -2020    -2126    -2181    -2241    -2290 
   -2330    -2313    -2176    -2056    -2118    -2278    -2381    -2376 
   -2289    -2169    -2000    -1729    -1399    -1175    -1213    -1501 
   -1907    -2401    -2967    -3393    -3397    -2941    -2397    -2118 
   -1949    -1629    -1305    -1264    -1437    -1521    -1512    -1679 
   -2006    -2259    -2404    -2515    -2658    -2895    -3125    -3092 
   -2721    -2315    -2200    -2170    -1809    -1205     -743     -633 
    -953    -1578    -2101    -2326    -2489    -2798    -3087    -3096 
   -2862    -2516    -1980    -1414    -1336    -1664    -1888    -2052 
   -2334    -2504    -2427    -2211    -1965    -1840    -1719    -1366 
   -1167    -1516    -2091    -2673    -3172    -3227    -3001    -3024 
   -3067    -2636    -1992    -1563    -1337    -1161    -1016    -1078 
   -1404    -1677    -1680    -1599    -1719    -2089    -2484    -2674 
   -2818    -3248    -3767    -3827    -3325    -2532    -1706    -1055 
    -649     -463     -614    -1131    -1692    -2134    -2528    -2731 
   -2818    -2990    -2994    -2762    -2538    -2259    -1930    -1718 
   -1485    -1196    -1165    -1482    -1915    -2192    -2218    -2344 
   -2789    -3071    -2920    -2609    -2203    -1722    -1471    -1552 
   -1799    -2033    -2084    -1952    -1865    -1969    -2212    -2431 
   -2502    -2469    -2400    -2262    -2079    -1992    -1935    -1760 
   -1606    -1674    -1859    -2066    -2289    -2419    -2386    -2270 
   -2214    -2277    -2299    -2124    -1930    -1922    -1998    -2050 
   -2079    -2083    -2111    -2142    -2139    -2085    -1929    -1845 
   -1960    -2087    -2199    -2338    -2366    -2309    -2259    -2134 
   -2000    -2081    -2269    -2226    -1989    -1945    -2178    -2385 
   -2281    -1912    -1656    -1691    -1794    -1902    -2092    -2231 
   -2261    -2214    -2084    -2049    -2195    -2295    -2299    -2242 
   -2057    -1915    -1949    -1987    -2029    -2137    -2168    -2187 
   -2336    -2446    -2335    -2081    -1859    -1802    -1864    -1854 
   -1759    -1810    -2102    -2439    -2546    -2419    -2315    -2343 
   -2319    -2120    -1865    -1753    -1881    -2069    -2081    -2114 
   -2326    -2354    -2070    -1910    -2053    -2239    -2203    -1918 
   -1702    -1844    -2047    -1992    -1923    -2065    -2328    -2532 
   -2465    -2246    -2199    -2284    -2295    -2126    -1734    -1395 
   -1491    -1911    -2219    -2196    -2045    -2092    -2304    -2432 
   -2431    -2405    -2392    -2344    -2305    -2331    -2224    -1910 
   -1657    -1630    -1752    -1844    -1773    -1621    -1622    -1938 
   -2405    -2727    -2826    -2713    -2531    -2554    -2617    -2347 
   -1833    -1418    -1312    -1476    -1597    -1525    -1543    -1887 
   -2396    -2716    -2708    -2584    -2527    -2459    -2370    -2365 
   -2428    -2404    -2151    -1788    -1574    -1559    -1576    -1491 
   -1402    -1513    -1833    -2219    -2535    -2698    -2772    -2837 
   -2799    -2565    -2269    -2066    -1888    -1664    -1498    -1453 
   -1506    -1694    -1984    -2215    -2385    -2556    -2600    -2493 
   -2378    -2212    -1992    -1918    -2010    -2062    -2007    -1993 
   -2072    -2160    -2200    -2077    -1818    -1707    -1831    -1980 
   -2030    -2072    -2189    -2335    -2411    -2431    -2455    -2415 
   -2284    -2163    -2084    -2019    -1979    -1949    -1895    -1826 
   -1818    -1814    -1753    -1794    -1969    -2135    -2293    -2461 
   -2590    -2651    -2593    -2435    -2315    -2222    -2050    -1883 
   -1765    -1571    -1431    -1549    -1767    -1972    -2192    -2330 
   -2419    -2571    -2663    -2565    -2359    -2139    -1923    -1753 
   -1663    -1632    -1696    -1861    -1982    -2039    -2170    -2378 
   -2600    -2743    -2659    -2427    -2236    -2087    -1971    -1887 
   -1777    -1680    -1622    -1572    -1576    -1726    -1944    -2111 
   -2311    -2569    -2779    -2863    -2728    -2438    -2243    -2176 
   -2011    -1725    -1605    -1757    -1921    -1930    -1888    -1944 
   -2096    -2181    -2184    -2169    -2111    -2097    -2196    -2281 
   -2272    -2205    -2144    -2111    -2119    -2193    -2258    -2163 
   -1930    -1742    -1702    -1798    -1969    -2106    -2134    -2143 
   -2259    -2404    -2385    -2228    -2128    -2089    -2030    -1980 
   -1975    -2091    -2354    -2505    -2393    -2220    -2120    -2001 
   -1818    -1684    -1677    -1738    -1818    -1969    -2212    -2386 
   -2358    -2289    -2331    -2378    -2338    -2227    -2065    -1930 
   -1929    -1954    -1892    -1887    -2029    -2150    -2153    -2077 
   -1972    -1958    -2100    -2236    -2254    -2211    -2166    -2227 
   -2405    -2479    -2411    -2330    -2143    -1858    -1733    -1726 
   -1634    -1540    -1587    -1852    -2269    -2563    -2593    -2481 
   -2371    -2300    -2142    -1884    -1764    -1829    -1873    -1878 
   -1972    -2151    -2415    -2693    -2712    -2452    -2223    -2133 
   -2077    -1962    -1811    -1807    -1977    -2060    -1965    -1888 
   -1908    -1911    -1867    -1869    -1938    -2039    -2119    -2141 
   -2254    -2556    -2758    -2597    -2226    -1956    -1935    -1956 
   -1830    -1749    -1896    -2128    -2241    -2214    -2205    -2289 
   -2334    -2243    -2110    -2066    -2087    -2038    -1949    -1949 
   -1966    -1904    -1885    -1988    -2120    -2272    -2421    -2475 
   -2439    -2347    -2201    -2060    -1922    -1755    -1676    -1795 
   -1956    -1965    -1946    -2114    -2369    -2448    -2300    -2139 
   -2187    -2347    -2323    -2074    -1845    -1825    -1980    -2104 
   -2069    -1969    -1949    -2039    -2153    -2196    -2176    -2138 
   -2092    -2047    -2033    -2064    -2107    -2153    -2232    -2319 
   -2349    -2313    -2250    -2189    -2058    -1836    -1686    -1706 
   -1813    -1952    -2104    -2195    -2258    -2413    -2563    -2501 
   -2238    -2007    -1935    -1930    -1856    -1717    -1684    -1884 
   -2150    -2259    -2276    -2374    -2494    -2444    -2281    -2214 
   -2230    -2155    -1952    -1757    -1759    -1908    -1968    -1917 
   -1925    -2037    -2165    -2200    -2155    -2196    -2332    -2359 
   -2282    -2231    -2141    -1996    -1954    -2004    -2037    -2019 
   -1929    -1878    -2042    -2296    -2366    -2262    -2174    -2161 
   -2146    -2069    -1956    -1915    -1980    -2046    -2020    -1989 
   -2084    -2228    -2266    -2176    -2068    -2070    -2166    -2205 
   -2178    -2182    -2203    -2178    -2088    -2020    -2096    -2158 
   -2008    -1821    -1833    -2000    -2138    -2126    -2038    -2042 
   -2166    -2274    -2247    -2092    -1954    -1977    -2130    -2257 
