Origin Time       2018/04/09 06:38:00
Lat.              35.2
Long.             132.6
Depth. (km)       10
Mag.              3.8
Station Code      SMNH11
Station Lat.      35.4259
Station Long.     132.8008
Station Height(m) 30
Record Time       2018/04/09 06:38:54
Sampling Freq(Hz) 100Hz
Duration Time(s)  120
Dir.              5
Scale Factor      3920(gal)/6170801
Max. Acc. (gal)   1.421
Last Correction   2018/04/09 06:38:39
Memo.             
[...]
  -34376   -34379   -34380   -34379   -34379   -34377   -34377   -34381 
  -34380   -34378   -34378   -34379   -34377   -34379   -34380   -34380 
  -34378   -34378   -34380   -34380   -34380   -34380   -34379   -34378 
  -34377   -34377   -34378   -34378   -34378   -34379   -34380   -34379 
  -34377   -34378   -34380   -34379   -34376   -34376   -34377   -34379 
  -34380   -34378   -34378   -34381   -34380   -34378   -34378   -34378 
  -34378   -34378   -34378   -34380   -34380   -34377   -34377   -34379 
  -34378   -34377   -34378   -34378   -34377   -34377   -34376   -34379 
  -34380   -34377   -34376   -34379   -34380   -34380   -34377   -34378 
  -34380   -34379   -34376   -34377   -34378   -34379   -34379   -34376 
  -34375   -34378   -34378   -34378   -34379   -34380   -34379   -34377 
  -34376   -34377   -34377   -34377   -34378   -34380   -34380   -34378 
  -34377   -34378   -34379   -34378   -34376   -34378   -34380   -34378 
  -34377   -34377   -34376   -34377   -34379   -34379   -34379   -34379 
  -34378   -34380   -34383   -34381   -34378   -34377   -34379   -34379 
  -34379   -34380   -34380   -34378   -34378   -34381   -34380   -34378 
  -34377   -34379   -34380   -34379   -34378   -34380   -34380   -34380 
  -34379   -34379   -34381   -34381   -34378   -34377   -34380   -34380 
  -34376   -34375   -34377   -34379   -34379   -34378   -34378   -34378 
  -34378   -34379   -34378   -34376   -34377   -34378   -34379   -34379 
  -34378   -34377   -34379   -34380   -34380   -34380   -34379   -34376 
  -34376   -34378   -34379   -34380   -34381   -34380   -34379   -34381 
  -34380   -34376   -34376   -34379   -34378   -34377   -34377   -34377 
  -34379   -34380   -34379   -34380   -34379   -34376   -34376   -34378 
  -34378   -34380   -34378   -34377   -34379   -34380   -34378   -34377 
  -34378   -34377   -34377   -34377   -34378   -34379   -34380   -34380 
  -34378   -34378   -34379   -34380   -34379   -34378   -34379   -34379 
  -34379   -34378   -34378   -34378   -34378   -34379   -34381   -34380 
  -34376   -34376   -34380   -34380   -34377   -34378   -34378   -34377 
  -34378   -34378   -34377   -34378   -34378   -34378   -34378   -34377 
  -34377   -34378   -34378   -34378   -34379   -34377   -34377   -34378 
  -34378   -34378   -34378   -34378   -34377   -34376   -34377   -34378 
  -34378   -34378   -34378   -34378   -34377   -34377   -34378   -34378 
  -34378   -34380   -34380   -34378   -34376   -34377   -34379   -34379 
  -34379   -34379   -34377   -34377   -34379   -34381   -34380   -34378 
  -34379   -34381   -34379   -34378   -34378   -34378   -34376   -34377 
  -34379   -34378   -34378   -34379   -34379   -34379   -34380   -34378 
  -34378   -34380   -34381   -34379   -34377   -34380   -34383   -34382 
  -34380   -34380   -34379   -34379   -34379   -34379   -34379   -34378 
  -34378   -34378   -34379   -34379   -34377   -34378   -34380   -34380 
  -34378   -34376   -34378   -34379   -34378   -34377   -34376   -34377 
  -34379   -34378   -34379   -34379   -34377   -34377   -34379   -34379 
  -34379   -34379   -34378   -34379   -34378   -34375   -34378   -34380 
  -34377   -34377   -34379   -34378   -34378   -34378   -34377   -34380 
  -34381   -34380   -34382   -34381   -34377   -34377   -34377   -34377 
  -34379   -34378   -34377   -34380   -34379   -34375   -34377   -34379 
  -34377   -34378   -34380   -34378   -34376   -34377   -34379   -34380 
  -34381   -34379   -34376   -34379   -34382   -34381   -34380   -34380 
  -34380   -34378   -34378   -34379   -34377   -34376   -34379   -34379 
  -34379   -34380   -34380   -34378   -34377   -34379   -34380   -34380 
  -34380   -34379   -34377   -34377   -34379   -34379   -34379   -34379 
  -34380   -34380   -34379   -34378   -34377   -34379   -34380   -34379 
  -34377   -34375   -34377   -34380   -34378   -34379   -34380   -34379 
  -34379   -34381   -34379   -34376   -34376   -34379   -34381   -34380 
  -34380   -34382   -34380   -34379   -34380   -34380   -34379   -34380 
  -34380   -34379   -34379   -34380   -34381   -34381   -34381   -34380 
  -34377   -34378   -34379   -34377   -34377   -34380   -34378   -34376 
  -34380   -34381   -34379   -34379   -34379   -34378   -34379   -34380 
  -34380   -34380   -34379   -34378   -34379   -34380   -34382   -34381 
  -34378   -34378   -34378   -34378   -34380   -34381   -34380   -34378 
  -34378   -34380   -34380   -34378   -34378   -34379   -34379   -34378 
  -34379   -34381   -34380   -34379   -34379   -34377   -34379   -34382 
  -34378   -34376   -34380   -34381   -34380   -34378   -34378   -34379 
  -34379   -34380   -34379   -34377   -34377   -34379   -34379   -34378 
  -34379   -34379   -34379   -34380   -34380   -34379   -34377   -34376 
  -34378   -34380   -34378   -34377   -34378   -34377   -34378   -34380 
  -34379   -34378   -34378   -34378   -34377   -34379   -34379   -34378 
  -34377   -34376   -34376   -34376   -34377   -34379   -34379   -34378 
  -34378   -34376   -34376   -34378   -34378   -34377   -34376   -34377 
  -34377   -34377   -34377   -34377   -34377   -34378   -34378   -34377 
  -34378   -34379   -34378   -34377   -34378   -34380   -34380   -34377 
  -34377   -34378   -34378   -34378   -34378   -34379   -34379   -34379 
  -34378   -34377   -34376   -34378   -34378   -34377   -34377   -34377 
  -34377   -34378   -34378   -34376   -34376   -34377   -34377   -34377 
  -34379   -34379   -34376   -34375   -34380   -34381   -34377   -34377 
  -34379   -34379   -34379   -34377   -34377   -34379   -34380   -34379 
  -34379   -34379   -34379   -34377   -34377   -34379   -34380   -34378 
  -34378   -34379   -34380   -34377   -34376   -34377   -34377   -34377 
  -34378   -34380   -34379   -34377   -34378   -34378   -34378   -34375 
  -34374   -34377   -34380   -34378   -34377   -34377   -34377   -34379 
  -34379   -34377   -34377   -34378   -34378   -34379   -34380   -34379 
  -34378   -34378   -34378   -34379   -34379   -34377   -34378   -34378 
  -34378   -34379   -34378   -34376   -34377   -34377   -34377   -34379 
  -34380   -34378   -34377   -34376   -34379   -34382   -34380   -34378 
  -34377   -34378   -34379   -34377   -34377   -34378   -34380   -34381 
  -34378   -34376   -34377   -34378   -34380   -34381   -34381   -34380 
  -34378   -34377   -34379   -34380   -34378   -34378   -34377   -34378 
  -34381   -34380   -34377   -34378   -34378   -34377   -34378   -34381 
  -34381   -34379   -34381   -34382   -34379   -34380   -34379   -34376 
  -34377   -34380   -34380   -34381   -34382   -34379   -34377   -34379 
  -34379   -34379   -34380   -34377   -34377   -34381   -34382   -34378 
  -34378   -34381   -34381   -34378   -34377   -34378   -34379   -34378 
  -34378   -34378   -34379   -34381   -34379   -34377   -34377   -34380 
  -34381   -34381   -34379   -34378   -34379   -34380   -34381   -34381 
  -34380   -34379   -34381   -34382   -34382   -34382   -34379   -34379 
  -34381   -34380   -34380   -34380   -34379   -34380   -34380   -34379 
  -34379   -34378   -34379   -34381   -34381   -34380   -34379   -34380 
  -34382   -34380   -34378   -34378   -34379   -34380   -34380   -34380 
  -34379   -34378   -34380   -34381   -34379   -34379   -34379   -34376 
  -34379   -34381   -34379   -34379   -34379   -34380   -34381   -34380 
  -34379   -34379   -34379   -34381   -34382   -34381   -34380   -34378 
  -34377   -34378   -34378   -34378   -34379   -34379   -34378   -34378 
  -34378   -34377   -34379   -34381   -34378   -34377   -34378   -34378 
  -34378   -34379   -34377   -34376   -34378   -34379   -34379   -34378 
  -34379   -34380   -34378   -34375   -34376   -34377   -34377   -34378 
  -34380   -34379   -34378   -34378   -34375   -34374   -34379   -34381 
  -34377   -34374   -34376   -34376   -34378   -34380   -34377   -34377 
  -34380   -34380   -34377   -34374   -34374   -34375   -34378   -34380 
  -34379   -34376   -34375   -34375   -34378   -34378   -34378   -34377 
  -34376   -34378   -34378   -34377   -34380   -34379   -34375   -34376 
  -34378   -34378   -34378   -34379   -34378   -34377   -34378   -34377 
  -34376   -34378   -34377   -34374   -34377   -34379   -34377   -34376 
  -34377   -34378   -34378   -34379   -34379   -34379   -34378   -34379 
  -34378   -34374   -34375   -34377   -34379   -34378   -34379   -34378 
  -34379   -34379   -34377   -34377   -34379   -34377   -34376   -34379 
  -34379   -34377   -34377   -34375   -34374   -34377   -34379   -34378 
  -34378   -34379   -34377   -34375   -34377   -34379   -34377   -34377 
  -34379   -34378   -34378   -34379   -34378   -34376   -34378   -34381 
  -34381   -34378   -34378   -34378   -34377   -34376   -34377   -34378 
  -34378   -34379   -34380   -34379   -34379   -34379   -34378   -34378 
  -34378   -34378   -34379   -34380   -34379   -34378   -34377   -34376 
  -34379   -34378   -34377   -34378   -34380   -34378   -34376   -34379 
  -34381   -34380   -34380   -34378   -34377   -34379   -34378   -34377 
  -34379   -34379   -34377   -34378   -34378   -34377   -34378   -34380 
  -34379   -34379   -34381   -34380   -34380   -34381   -34379   -34377 
  -34378   -34381   -34380   -34378   -34379   -34379   -34379   -34380 
  -34379   -34379   -34379   -34379   -34379   -34381   -34379   -34377 
  -34379   -34380   -34379   -34381   -34380   -34378   -34380   -34380 
  -34378   -34380   -34380   -34379   -34379   -34380   -34380   -34379 
  -34378   -34379   -34380   -34380   -34378   -34378   -34378   -34377 
  -34378   -34380   -34378   -34370   -34354   -34332   -34323   -34343 
  -34370   -34346   -34262   -34188   -34150   -34112   -34144   -34336 
  -34562   -34623   -34564   -34573   -34642   -34655   -34674   -34770 
  -34805   -34616   -34255   -33961   -33955   -34130   -34243   -34353 
  -34448   -34358   -34368   -34594   -34451   -33998   -33995   -34231 
  -34182   -34424   -35188   -35494   -34984   -34474   -34397   -34361 
  -34104   -33817   -33651   -33661   -34029   -34578   -34595   -34151 
  -34297   -34808   -34471   -33881   -34168   -34456   -34040   -33975 
  -34534   -34785   -34763   -34891   -34873   -34715   -34649   -34329 
  -33734   -33520   -33913   -34429   -34498   -34178   -34174   -34623 
  -34944   -35011   -34901   -34489   -34102   -34117   -34293   -34362 
  -34265   -33991   -33932   -34427   -34963   -34910   -34446   -34069 
  -33949   -34092   -34393   -34566   -34478   -34326   -34413   -34788 
  -35152   -35156   -34718   -34099   -33678   -33582   -33698   -33858 
  -33858   -33787   -33990   -34466   -34964   -35211   -34935   -34492 
  -34602   -35049   -35022   -34476   -34095   -34187   -34305   -34130 
  -33991   -34160   -34439   -34556   -34491   -34452   -34538   -34535 
  -34323   -34129   -34086   -34065   -34014   -34029   -34154   -34339 
  -34494   -34588   -34769   -35098   -35229   -34847   -34153   -33636 
  -33594   -33857   -34077   -34189   -34302   -34434   -34620   -34832 
  -34828   -34578   -34395   -34419   -34499   -34446   -34155   -33856 
  -33933   -34213   -34327   -34459   -34748   -34962   -35067   -35041 
  -34774   -34463   -34260   -34062   -33938   -33966   -34054   -34149 
  -34219   -34326   -34565   -34707   -34521   -34239   -34191   -34289 
  -34218   -34053   -34106   -34282   -34371   -34479   -34646   -34710 
  -34675   -34652   -34543   -34252   -34029   -34149   -34412   -34425 
  -34209   -34139   -34275   -34258   -34164   -34397   -34676   -34570 
  -34388   -34455   -34581   -34614   -34600   -34488   -34301   -34287 
  -34461   -34467   -34255   -34211   -34345   -34313   -34246   -34372 
  -34426   -34296   -34229   -34234   -34274   -34445   -34517   -34340 
  -34298   -34478   -34547   -34540   -34577   -34456   -34233   -34286 
  -34501   -34432   -34154   -34053   -34182   -34380   -34587   -34699 
  -34551   -34324   -34315   -34348   -34251   -34205   -34160   -34061 
  -34241   -34558   -34496   -34314   -34433   -34547   -34419   -34297 
  -34363   -34592   -34839   -34882   -34649   -34319   -34189   -34327 
  -34438   -34396   -34371   -34270   -34015   -34000   -34262   -34283 
  -34216   -34550   -34866   -34706   -34444   -34289   -34117   -34055 
  -34120   -34155   -34225   -34337   -34343   -34357   -34504   -34523 
  -34326   -34260   -34427   -34661   -34900   -34885   -34433   -34092 
  -34245   -34395   -34266   -34189   -34206   -34186   -34287   -34478 
  -34484   -34401   -34449   -34472   -34439   -34590   -34757   -34611 
  -34350   -34256   -34170   -34024   -34074   -34351   -34591   -34615 
  -34417   -34205   -34253   -34461   -34525   -34416   -34329   -34369 
  -34372   -34227   -34176   -34265   -34224   -34195   -34445   -34675 
  -34609   -34437   -34324   -34300   -34410   -34508   -34391   -34160 
  -34077   -34240   -34516   -34672   -34626   -34555   -34590   -34586 
  -34440   -34330   -34301   -34200   -34161   -34316   -34358   -34180 
  -34186   -34411   -34364   -34131   -34252   -34556   -34590   -34559 
  -34616   -34477   -34303   -34353   -34287   -34111   -34293   -34563 
  -34460   -34373   -34490   -34363   -34225   -34486   -34571   -34326 
  -34420   -34601   -34332   -34197   -34485   -34437   -33942   -33824 
  -34167   -34262   -34163   -34532   -35115   -35098   -34591   -34260 
  -34125   -33932   -33906   -34216   -34461   -34354   -34261   -34478 
  -34669   -34538   -34393   -34540   -34743   -34721   -34510   -34151 
  -33750   -33709   -34137   -34551   -34673   -34639   -34431   -34174 
  -34318   -34819   -35190   -35386   -35657   -35920   -35811   -34954 
  -33538   -32445   -32142   -32335   -32754   -33408   -34397   -35537 
  -36109   -35729   -35007   -34492   -34221   -34359   -34603   -34273 
  -33729   -33683   -33867   -33840   -33619   -33394   -33659   -34549 
  -35325   -35546   -35241   -34392   -33645   -33842   -34558   -34848 
  -34705   -34490   -34104   -33498   -33165   -33611   -34580   -35374 
  -35858   -36280   -36330   -35418   -33854   -32724   -32651   -33455 
  -34495   -34907   -34415   -33792   -33764   -34209   -34638   -34585 
  -34139   -34137   -34755   -35117   -34910   -34543   -34284   -34287 
  -34281   -33829   -33505   -33968   -34592   -34788   -34843   -34704 
  -34197   -33902   -34143   -34466   -34684   -34925   -34951   -34649 
  -34345   -34104   -33791   -33703   -34043   -34446   -34745   -35041 
  -34998   -34594   -34616   -35039   -34838   -34030   -33578   -33585 
  -33519   -33547   -34105   -34762   -34867   -34644   -34546   -34528 
  -34463   -34368   -34312   -34410   -34531   -34363   -34073   -34067 
  -34211   -34211   -34215   -34479   -34831   -34863   -34685   -34694 
  -34643   -34322   -34314   -34724   -34865   -34655   -34438   -34144 
  -33819   -33757   -33904   -34068   -34190   -34243   -34325   -34401 
  -34289   -34233   -34516   -34820   -34848   -34696   -34405   -34113 
  -34125   -34296   -34322   -34396   -34630   -34678   -34495   -34459 
  -34522   -34302   -33887   -33774   -34121   -34545   -34649   -34415 
  -34138   -34096   -34240   -34435   -34670   -34795   -34722   -34625 
  -34438   -34054   -33909   -34175   -34311   -34264   -34442   -34617 
  -34551   -34637   -34867   -34768   -34477   -34337   -34161   -33925 
  -34014   -34479   -34838   -34667   -34199   -34085   -34394   -34603 
  -34624   -34693   -34649   -34453   -34492   -34542   -33940   -33224 
  -33449   -34191   -34495   -34488   -34537   -34477   -34256   -34208 
  -34542   -34917   -34789   -34248   -33968   -34196   -34413   -34240 
  -34081   -34309   -34517   -34342   -34023   -33825   -33945   -34389 
  -34732   -34899   -35194   -35290   -34806   -34266   -34292   -34609 
  -34534   -34193   -34274   -34557   -34342   -33914   -33887   -34201 
  -34614   -34940   -34963   -34845   -34805   -34615   -34331   -34327 
  -34300   -34016   -33973   -34194   -34251   -34222   -34173   -34027 
  -34062   -34360   -34568   -34447   -34024   -33676   -33841   -34224 
  -34266   -34171   -34400   -34827   -35063   -35032   -34840   -34442 
  -34005   -34082   -34609   -34774   -34472   -34348   -34431   -34263 
  -33894   -33782   -34123   -34593   -34738   -34437   -34035   -34081 
  -34484   -34592   -34395   -34178   -33851   -33783   -34291   -34710 
  -34693   -34668   -34771   -34912   -34846   -34177   -33438   -33565 
  -34165   -34464   -34657   -34730   -34339   -33997   -34128   -34333 
  -34507   -34733   -34774   -34710   -34716   -34625   -34461   -34373 
  -34362   -34458   -34500   -34220   -33835   -33794   -34136   -34495 
  -34579   -34584   -34794   -34906   -34581   -34208   -34213   -34471 
  -34734   -34816   -34717   -34684   -34606   -34277   -34117   -34366 
  -34551   -34384   -34037   -33801   -33920   -34174   -34166   -34027 
  -34020   -34069   -34159   -34403   -34724   -34899   -34767   -34429 
  -34241   -34241   -34089   -33953   -34302   -34764   -34649   -34171 
  -33912   -33982   -34235   -34460   -34446   -34295   -34300   -34573 
  -34898   -34874   -34599   -34589   -34680   -34456   -34317   -34585 
  -34805   -34705   -34524   -34398   -34281   -34211   -34240   -34338 
  -34463   -34531   -34419   -34237   -34237   -34282   -34084   -33894 
  -34060   -34276   -34136   -34008   -34426   -34979   -34959   -34635 
  -34649   -34753   -34338   -33791   -33847   -34125   -34052   -34025 
  -34285   -34418   -34394   -34478   -34555   -34473   -34384   -34487 
  -34687   -34688   -34576   -34683   -34831   -34675   -34381   -34220 
  -34209   -34321   -34459   -34528   -34557   -34467   -34216   -34014 
  -33928   -33857   -33896   -34118   -34355   -34516   -34674   -34813 
  -34818   -34560   -34111   -33877   -34069   -34339   -34404   -34387 
  -34437   -34530   -34459   -34139   -33957   -34146   -34271   -34066 
  -33917   -34151   -34633   -35028   -35096   -34945   -34823   -34643 
  -34297   -34026   -33935   -33882   -33968   -34308   -34625   -34604 
  -34258   -33929   -34061   -34624   -34971   -34756   -34400   -34347 
  -34581   -34813   -34708   -34295   -34044   -34188   -34414   -34384 
  -34200   -34204   -34477   -34788   -34857   -34593   -34230   -34071 
  -34161   -34300   -34261   -34136   -34206   -34399   -34405   -34145 
  -33888   -33999   -34355   -34506   -34424   -34338   -34317   -34445 
  -34655   -34705   -34664   -34676   -34632   -34546   -34493   -34335 
  -34086   -34013   -34154   -34241   -34160   -34176   -34468   -34749 
  -34726   -34530   -34392   -34386   -34507   -34656   -34694   -34613 
  -34491   -34397   -34331   -34218   -34071   -33995   -33946   -33892 
  -34043   -34429   -34672   -34549   -34289   -34218   -34406   -34633 
  -34660   -34520   -34354   -34252   -34323   -34468   -34441   -34346 
  -34353   -34338   -34313   -34382   -34393   -34392   -34609   -34837 
  -34816   -34706   -34645   -34551   -34365   -34107   -33910   -33993 
  -34307   -34547   -34643   -34669   -34525   -34337   -34416   -34598 
  -34564   -34406   -34285   -34258   -34379   -34451   -34270   -34059 
  -34065   -34222   -34426   -34552   -34428   -34193   -34183   -34399 
  -34525   -34375   -34089   -33968   -34130   -34310   -34229   -34054 
  -34092   -34283   -34424   -34527   -34648   -34718   -34651   -34467 
  -34281   -34200   -34177   -34122   -34118   -34272   -34509   -34662 
  -34652   -34585   -34572   -34525   -34434   -34465   -34574   -34519 
  -34276   -34082   -34120   -34273   -34370   -34448   -34524   -34514 
