Origin Time       2018/04/09 06:38:00
Lat.              35.2
Long.             132.6
Depth. (km)       10
Mag.              3.8
Station Code      SMNH11
Station Lat.      35.4259
Station Long.     132.8008
Station Height(m) -170
Record Time       2018/04/09 06:38:54
Sampling Freq(Hz) 100Hz
Duration Time(s)  120
Dir.              1
Scale Factor      2940(gal)/6170270
Max. Acc. (gal)   0.275
Last Correction   2018/04/09 06:38:39
Memo.             
[...]
  213097   213098   213099   213098   213099   213096   213099   213101 
  213095   213098   213104   213099   213098   213102   213100   213096 
  213098   213100   213097   213096   213098   213100   213100   213096 
  213099   213100   213097   213098   213099   213096   213101   213104 
  213101   213098   213102   213104   213101   213097   213097   213097 
  213096   213100   213101   213098   213100   213101   213099   213101 
  213101   213098   213098   213099   213099   213100   213100   213098 
  213100   213100   213098   213098   213101   213102   213101   213101 
  213101   213101   213097   213096   213099   213098   213099   213100 
  213096   213097   213100   213099   213099   213102   213099   213096 
  213096   213098   213101   213101   213098   213099   213100   213097 
  213095   213099   213103   213099   213097   213100   213097   213098 
  213104   213100   213098   213103   213102   213095   213095   213100 
  213099   213097   213098   213099   213102   213100   213099   213104 
  213103   213098   213096   213097   213100   213101   213097   213095 
  213100   213104   213098   213096   213101   213101   213099   213098 
  213100   213100   213098   213098   213100   213099   213099   213097 
  213098   213100   213097   213096   213099   213097   213099   213103 
  213100   213100   213101   213099   213096   213098   213101   213099 
  213101   213104   213096   213094   213102   213101   213097   213098 
  213097   213100   213103   213099   213096   213099   213099   213097 
  213097   213100   213099   213096   213096   213097   213098   213098 
  213097   213096   213098   213101   213100   213096   213095   213099 
  213098   213094   213096   213099   213098   213096   213097   213097 
  213095   213096   213097   213097   213096   213095   213096   213097 
  213098   213098   213097   213094   213096   213099   213099   213098 
  213093   213091   213098   213101   213098   213099   213099   213095 
  213098   213099   213096   213095   213100   213101   213095   213096 
  213099   213095   213092   213096   213100   213097   213096   213098 
  213096   213094   213097   213097   213093   213094   213098   213099 
  213101   213098   213095   213100   213101   213094   213096   213102 
  213099   213097   213099   213098   213096   213098   213098   213095 
  213096   213100   213099   213096   213097   213099   213097   213093 
  213095   213098   213096   213100   213100   213095   213098   213099 
  213096   213099   213101   213098   213095   213096   213095   213094 
  213097   213099   213097   213098   213099   213095   213094   213096 
  213093   213095   213101   213101   213097   213097   213101   213099 
  213094   213097   213099   213097   213101   213100   213094   213096 
  213101   213100   213097   213096   213099   213100   213098   213096 
  213095   213095   213101   213104   213099   213094   213096   213099 
  213096   213094   213098   213102   213099   213097   213101   213100 
  213099   213098   213098   213100   213100   213097   213097   213093 
  213091   213098   213100   213097   213100   213097   213095   213103 
  213102   213097   213101   213097   213091   213095   213101   213101 
  213095   213095   213102   213099   213095   213099   213098   213098 
  213101   213098   213096   213100   213099   213095   213097   213098 
  213095   213098   213099   213096   213095   213097   213096   213097 
  213098   213097   213097   213096   213097   213099   213099   213098 
  213097   213095   213096   213098   213097   213098   213098   213096 
  213096   213098   213097   213095   213097   213099   213097   213095 
  213094   213096   213098   213100   213100   213096   213094   213097 
  213096   213094   213099   213100   213095   213095   213097   213097 
  213098   213098   213100   213102   213098   213093   213097   213101 
  213098   213096   213096   213096   213097   213098   213096   213092 
  213094   213101   213101   213095   213094   213098   213103   213100 
  213093   213095   213098   213098   213101   213101   213097   213098 
  213098   213097   213098   213098   213096   213096   213099   213099 
  213097   213097   213098   213098   213098   213097   213098   213099 
  213096   213094   213098   213101   213100   213098   213098   213097 
  213096   213097   213098   213099   213099   213098   213099   213100 
  213100   213096   213094   213099   213101   213097   213097   213097 
  213096   213096   213094   213094   213100   213103   213098   213095 
  213099   213096   213096   213101   213096   213092   213098   213099 
  213097   213096   213097   213097   213097   213099   213101   213098 
  213096   213097   213096   213099   213101   213097   213097   213098 
  213096   213098   213100   213095   213094   213099   213102   213099 
  213097   213098   213098   213098   213098   213095   213097   213103 
  213101   213093   213093   213099   213100   213101   213102   213097 
  213096   213099   213098   213097   213101   213098   213096   213099 
  213099   213095   213094   213099   213099   213094   213095   213099 
  213099   213098   213099   213098   213097   213098   213096   213093 
  213097   213103   213099   213096   213099   213099   213099   213098 
  213097   213095   213094   213095   213096   213096   213098   213099 
  213098   213099   213097   213093   213096   213098   213096   213099 
  213100   213095   213095   213098   213096   213096   213099   213097 
  213093   213096   213101   213098   213098   213098   213094   213096 
  213099   213099   213099   213096   213095   213096   213096   213099 
  213099   213095   213098   213099   213096   213098   213101   213098 
  213095   213097   213097   213095   213098   213097   213095   213100 
  213102   213097   213096   213099   213099   213098   213099   213098 
  213098   213100   213098   213096   213099   213097   213096   213101 
  213101   213099   213101   213098   213094   213097   213099   213098 
  213097   213099   213099   213098   213099   213097   213096   213098 
  213099   213101   213098   213092   213097   213101   213096   213097 
  213098   213099   213101   213097   213096   213100   213099   213097 
  213098   213097   213098   213100   213099   213097   213100   213104 
  213101   213096   213097   213101   213100   213099   213100   213097 
  213095   213100   213105   213100   213095   213095   213098   213100 
  213099   213098   213097   213096   213100   213100   213098   213100 
  213100   213098   213097   213098   213102   213100   213095   213099 
  213101   213095   213097   213102   213099   213098   213101   213100 
  213099   213098   213094   213097   213100   213101   213101   213097 
  213096   213100   213100   213097   213098   213099   213098   213097 
  213098   213098   213099   213099   213096   213094   213099   213105 
  213103   213101   213106   213102   213097   213100   213100   213097 
  213096   213099   213096   213093   213097   213099   213100   213102 
  213100   213100   213099   213091   213090   213095   213102   213103 
  213094   213092   213097   213097   213098   213098   213097   213094 
  213093   213100   213101   213093   213093   213097   213099   213099 
  213096   213095   213096   213096   213095   213095   213095   213097 
  213096   213095   213095   213094   213096   213099   213094   213091 
  213094   213096   213097   213096   213094   213097   213098   213095 
  213098   213100   213093   213091   213095   213096   213094   213094 
  213097   213096   213092   213092   213095   213096   213096   213095 
  213093   213091   213092   213095   213096   213095   213096   213097 
  213093   213092   213094   213095   213093   213089   213091   213096 
  213092   213092   213097   213094   213093   213096   213098   213094 
  213089   213093   213099   213097   213094   213094   213097   213094 
  213092   213096   213095   213091   213095   213095   213090   213093 
  213096   213094   213095   213095   213093   213094   213096   213097 
  213096   213093   213095   213095   213094   213097   213095   213092 
  213094   213096   213098   213096   213092   213094   213096   213094 
  213094   213095   213095   213095   213094   213098   213097   213093 
  213097   213097   213092   213095   213099   213098   213095   213097 
  213099   213095   213094   213100   213100   213095   213095   213097 
  213098   213098   213099   213098   213095   213097   213099   213099 
  213097   213096   213097   213098   213100   213100   213095   213095 
  213102   213102   213098   213096   213095   213095   213099   213101 
  213098   213096   213098   213101   213099   213099   213100   213097 
  213098   213101   213101   213098   213097   213097   213098   213100 
  213098   213097   213100   213098   213097   213101   213102   213100 
  213098   213096   213099   213103   213099   213097   213101   213100 
  213097   213098   213099   213099   213100   213103   213101   213098 
  213099   213097   213098   213099   213097   213099   213099   213100 
  213103   213100   213098   213102   213105   213099   213094   213099 
  213102   213098   213098   213100   213100   213100   213098   213093 
  213096   213104   213102   213099   213098   213097   213099   213101 
  213098   213095   213097   213100   213099   213099   213100   213100 
  213098   213099   213099   213100   213101   213100   213099   213099 
  213097   213094   213097   213102   213101   213100   213105   213103 
  213100   213103   213108   213116   213120   213116   213119   213120 
  213104   213089   213080   213072   213063   213041   213028   213059 
  213097   213117   213155   213204   213216   213213   213221   213213 
  213189   213118   212974   212882   212923   213028   213131   213190 
  213205   213177   213094   213021   213016   213007   212961   212946 
  212985   213039   213088   213156   213208   213164   213088   213075 
  213099   213159   213198   213134   213087   213130   213128   213067 
  213082   213160   213147   213070   213081   213172   213247   213220 
  213074   212938   212899   212916   212960   212999   213031   213106 
  213200   213275   213338   213300   213142   213076   213118   213084 
  213023   213008   213015   213054   213049   212989   213015   213087 
  213073   213049   213085   213103   213089   213113   213178   213199 
  213129   213057   213080   213131   213133   213115   213106   213122 
  213127   213094   213108   213142   213101   213063   213072   213075 
  213047   213025   213052   213077   213100   213159   213187   213163 
  213137   213112   213065   213035   213071   213089   213025   213006 
  213084   213131   213094   213044   213043   213068   213057   213035 
  213063   213116   213162   213186   213170   213160   213161   213124 
  213112   213130   213088   213066   213107   213097   213057   213093 
  213184   213218   213125   213026   213066   213130   213084   213040 
  213078   213121   213165   213218   213241   213242   213218   213157 
  213091   213028   212957   212891   212857   212877   212931   213006 
  213092   213137   213138   213105   213076   213107   213131   213116 
  213128   213116   213071   213091   213143   213137   213121   213123 
  213085   213064   213107   213124   213118   213153   213193   213228 
  213244   213160   213040   213029   213053   213017   213017   213050 
  213051   213071   213100   213084   213046   213024   213045   213059 
  213025   213045   213122   213149   213179   213233   213191   213134 
  213192   213234   213165   213086   213059   213056   213073   213088 
  213061   213017   213004   213028   213061   213065   213054   213085 
  213127   213092   213033   213086   213193   213200   213133   213135 
  213209   213224   213145   213089   213099   213080   213012   213010 
  213079   213106   213064   213013   213025   213098   213127   213082 
  213053   213093   213134   213092   213052   213134   213220   213183 
  213118   213112   213139   213137   213072   213016   213008   213010 
  213067   213144   213147   213119   213094   213082   213119   213115 
  213058   213073   213159   213209   213165   213065   213008   213049 
  213104   213094   213108   213177   213183   213130   213098   213109 
  213141   213124   213089   213125   213165   213141   213081   213022 
  213028   213069   213058   213020   213031   213079   213078   213036 
  213030   213055   213105   213156   213155   213155   213177   213176 
  213155   213131   213149   213162   213078   213028   213107   213150 
  213093   213073   213114   213109   213054   213027   213060   213098 
  213067   213024   213093   213170   213104   213049   213088   213070 
  213024   213056   213100   213123   213160   213171   213134   213110 
  213109   213097   213091   213100   213106   213121   213131   213093 
  213036   213047   213108   213099   213068   213126   213173   213127 
  213074   213063   213064   213073   213109   213111   213053   213062 
  213134   213108   213070   213096   213070   213074   213175   213184 
  213106   213105   213151   213142   213083   213039   213044   213064 
  213044   213000   213011   213060   213103   213173   213193   213103 
  213041   213051   213057   213064   213056   213023   213049   213122 
  213139   213116   213127   213156   213168   213193   213263   213282 
  213169   213078   213112   213164   213208   213254   213317   213453 
  213591   213584   213359   213026   212809   212715   212632   212648 
  212840   213082   213268   213342   213261   213087   212914   212793 
  212706   212589   212521   212597   212757   212930   213187   213484 
  213512   213280   213195   213326   213424   213442   213409   213233 
  213019   213023   213144   213129   213084   213135   213130   213082 
  213140   213186   213127   213062   212987   212945   213043   213118 
  213005   212898   212891   212880   212895   212918   212953   213101 
  213225   213200   213139   213130   213103   212984   212894   212919 
  212946   212970   213055   213150   213193   213202   213241   213284 
  213311   213423   213546   213499   213368   213274   213114   212915 
  212837   212815   212806   212922   213106   213193   213152   213101 
  213087   213025   212929   212918   213045   213183   213161   213080 
  213083   213069   213036   213089   213092   212972   212971   213141 
  213243   213230   213210   213201   213145   213072   213113   213199 
  213175   213058   212933   212901   212935   212960   213083   213198 
  213156   213169   213244   213203   213060   212873   212794   212873 
  213003   213199   213340   213325   213340   213425   213392   213233 
  213129   213114   213117   213133   213087   212940   212851   212875 
  212907   212904   212921   213029   213156   213182   213142   213083 
  213046   213068   213085   213129   213212   213237   213250   213269 
  213191   213049   213034   213153   213159   213052   213033   213060 
  213087   213137   213113   213079   213179   213305   213285   213116 
  212959   212924   212938   212892   212838   212962   213160   213156 
  213110   213167   213095   212904   212839   212960   213147   213199 
  213117   213123   213244   213319   213308   213280   213249   213192 
  213138   213106   213073   213067   213082   213002   212872   212871 
  212957   212997   213043   213152   213212   213124   213031   213092 
  213172   213143   213126   213145   213072   212995   213036   213039 
  212941   212941   213091   213221   213266   213308   213321   213287 
  213314   213347   213315   213302   213235   213109   213103   213104 
  212983   212948   213058   213104   213040   213026   213085   213090 
  213053   213071   213123   213120   213038   212964   212976   213045 
  213096   213046   212935   212896   212960   213060   213072   213036 
  213140   213261   213208   213096   213038   213010   212992   213001 
  213048   213099   213134   213134   213103   213116   213173   213199 
  213199   213203   213180   213131   213110   213144   213173   213109 
  212997   212976   213069   213169   213135   213000   212954   213023 
  213093   213096   213018   212949   212964   213026   213094   213123 
  213076   212990   212996   213131   213214   213184   213178   213165 
  213100   213095   213200   213313   213314   213274   213289   213261 
  213205   213179   213118   213076   213076   213016   212935   212884 
  212823   212827   212966   213079   213061   213054   213106   213103 
  213114   213238   213340   213349   213325   213226   213131   213145 
  213115   212992   212935   212950   212999   213067   213054   213023 
  213096   213164   213134   213099   213097   213078   213020   212961 
  212950   212986   213050   213085   213067   213086   213131   213121 
  213088   213119   213217   213242   213191   213243   213321   213271 
  213214   213195   213132   213061   213053   213092   213121   213105 
  213094   213130   213150   213125   213115   213122   213075   213011 
  213018   213054   213042   212983   212909   212872   212911   212981 
  213022   213079   213147   213108   213040   213055   213025   212934 
  212961   213153   213279   213165   213096   213292   213430   213334 
  213213   213142   213113   213122   213095   213076   213105   213094 
  213063   213081   213072   212983   212889   212885   212969   213027 
  213023   213003   212959   212931   212975   213053   213104   213117 
  213146   213183   213200   213237   213248   213218   213219   213195 
  213139   213132   213150   213161   213179   213207   213213   213173 
  213129   213104   213099   213085   213010   212921   212898   212956 
  213044   213063   213040   213076   213105   213065   212992   212925 
  212929   213003   213077   213110   213079   213065   213150   213239 
  213239   213200   213206   213292   213375   213334   213227   213211 
  213240   213190   213126   213117   213126   213131   213090   213009 
  212972   213008   213056   213029   212965   212965   212989   212980 
  212990   213042   213102   213119   213050   212986   213054   213163 
  213181   213149   213122   213120   213160   213161   213075   213040 
  213123   213184   213192   213203   213173   213136   213146   213126 
  213085   213106   213155   213170   213155   213132   213123   213124 
  213112   213123   213156   213140   213108   213139   213175   213146 
  213096   213049   212995   212949   212903   212908   212992   213028 
  212996   213016   213070   213052   212970   212963   213056   213106 
  213107   213143   213162   213119   213097   213151   213199   213180 
  213162   213193   213231   213236   213218   213193   213135   213041 
  212995   213024   213040   213008   212993   213025   213058   213049 
  213046   213090   213114   213064   213005   213000   213040   213076 
  213078   213091   213134   213145   213110   213081   213079   213107 
  213156   213185   213194   213191   213154   213106   213087   213077 
  213050   213028   213047   213093   213129   213122   213063   213037 
  213116   213172   213111   213052   213080   213139   213153   213126 
  213135   213185   213172   213097   213082   213135   213157   213138 
  213123   213099   213057   213039   213059   213062   213035   213037 
  213062   213087   213120   213138   213129   213122   213101   213055 
  213033   213056   213085   213100   213105   213116   213155   213178 
  213133   213063   213023   213011   213032   213084   213130   213151 
