Origin Time       2018/04/09 06:38:00
Lat.              35.2
Long.             132.6
Depth. (km)       10
Mag.              3.8
Station Code      SMNH11
Station Lat.      35.4259
Station Long.     132.8008
Station Height(m) -170
Record Time       2018/04/09 06:38:54
Sampling Freq(Hz) 100Hz
Duration Time(s)  120
Dir.              2
Scale Factor      2940(gal)/6170270
Max. Acc. (gal)   0.277
Last Correction   2018/04/09 06:38:39
Memo.             
[...]
  -15860   -15856   -15858   -15861   -15861   -15860   -15858   -15858 
  -15862   -15861   -15855   -15857   -15860   -15857   -15858   -15857 
  -15855   -15860   -15862   -15859   -15857   -15857   -15859   -15860 
  -15856   -15857   -15863   -15859   -15857   -15864   -15861   -15857 
  -15859   -15857   -15857   -15861   -15860   -15858   -15858   -15858 
  -15859   -15858   -15858   -15856   -15857   -15861   -15858   -15856 
  -15861   -15860   -15858   -15859   -15859   -15860   -15859   -15859 
  -15861   -15858   -15855   -15861   -15861   -15855   -15857   -15863 
  -15860   -15855   -15859   -15861   -15855   -15855   -15859   -15858 
  -15858   -15858   -15857   -15857   -15861   -15860   -15856   -15855 
  -15859   -15859   -15856   -15857   -15860   -15858   -15857   -15858 
  -15857   -15859   -15859   -15854   -15854   -15858   -15861   -15859 
  -15854   -15855   -15860   -15861   -15860   -15859   -15857   -15857 
  -15856   -15857   -15857   -15857   -15858   -15858   -15858   -15859 
  -15855   -15858   -15861   -15857   -15854   -15857   -15859   -15857 
  -15854   -15857   -15859   -15857   -15859   -15859   -15854   -15858 
  -15862   -15856   -15856   -15860   -15857   -15858   -15858   -15855 
  -15858   -15860   -15857   -15858   -15860   -15860   -15858   -15857 
  -15858   -15857   -15856   -15860   -15862   -15855   -15855   -15862 
  -15861   -15856   -15857   -15860   -15861   -15861   -15859   -15856 
  -15856   -15859   -15860   -15857   -15858   -15862   -15858   -15856 
  -15859   -15857   -15856   -15859   -15862   -15861   -15858   -15858 
  -15858   -15858   -15861   -15859   -15857   -15860   -15859   -15855 
  -15856   -15859   -15858   -15859   -15858   -15857   -15857   -15857 
  -15856   -15856   -15860   -15864   -15861   -15857   -15855   -15857 
  -15861   -15859   -15853   -15859   -15863   -15857   -15857   -15858 
  -15856   -15857   -15860   -15861   -15859   -15857   -15858   -15861 
  -15861   -15858   -15857   -15857   -15859   -15861   -15861   -15861 
  -15860   -15857   -15859   -15859   -15857   -15858   -15857   -15858 
  -15861   -15859   -15857   -15858   -15858   -15858   -15857   -15859 
  -15861   -15857   -15855   -15856   -15857   -15860   -15859   -15858 
  -15857   -15855   -15859   -15862   -15858   -15857   -15858   -15858 
  -15857   -15855   -15858   -15862   -15859   -15855   -15855   -15858 
  -15860   -15859   -15859   -15859   -15861   -15859   -15854   -15857 
  -15862   -15858   -15859   -15859   -15856   -15859   -15856   -15853 
  -15860   -15860   -15855   -15858   -15860   -15859   -15857   -15860 
  -15863   -15860   -15856   -15860   -15859   -15856   -15858   -15862 
  -15861   -15860   -15860   -15859   -15856   -15853   -15857   -15863 
  -15860   -15858   -15863   -15861   -15856   -15857   -15862   -15861 
  -15855   -15856   -15861   -15860   -15859   -15859   -15859   -15860 
  -15860   -15858   -15857   -15858   -15858   -15859   -15858   -15858 
  -15858   -15857   -15859   -15861   -15860   -15857   -15855   -15855 
  -15858   -15861   -15860   -15856   -15854   -15856   -15858   -15857 
  -15857   -15859   -15861   -15861   -15859   -15855   -15857   -15861 
  -15859   -15856   -15860   -15862   -15859   -15857   -15861   -15861 
  -15858   -15857   -15862   -15865   -15858   -15853   -15861   -15862 
  -15855   -15861   -15863   -15858   -15862   -15861   -15856   -15859 
  -15859   -15856   -15857   -15854   -15854   -15862   -15859   -15855 
  -15858   -15860   -15860   -15856   -15854   -15860   -15861   -15857 
  -15856   -15858   -15861   -15860   -15857   -15857   -15858   -15860 
  -15858   -15857   -15862   -15861   -15857   -15858   -15860   -15861 
  -15861   -15858   -15857   -15859   -15861   -15859   -15858   -15859 
  -15857   -15856   -15856   -15858   -15861   -15859   -15858   -15861 
  -15859   -15860   -15861   -15857   -15860   -15863   -15858   -15853 
  -15858   -15863   -15858   -15856   -15861   -15858   -15855   -15861 
  -15861   -15860   -15862   -15859   -15857   -15860   -15861   -15858 
  -15857   -15861   -15862   -15858   -15857   -15860   -15860   -15860 
  -15861   -15859   -15858   -15859   -15858   -15860   -15861   -15860 
  -15859   -15858   -15861   -15865   -15861   -15856   -15857   -15859 
  -15860   -15861   -15860   -15859   -15859   -15861   -15861   -15860 
  -15858   -15858   -15861   -15861   -15857   -15858   -15861   -15857 
  -15859   -15863   -15859   -15859   -15861   -15856   -15858   -15862 
  -15857   -15856   -15862   -15859   -15854   -15860   -15864   -15858 
  -15858   -15861   -15857   -15858   -15862   -15859   -15856   -15858 
  -15860   -15859   -15859   -15861   -15863   -15859   -15853   -15858 
  -15862   -15858   -15858   -15860   -15860   -15860   -15858   -15858 
  -15859   -15859   -15860   -15859   -15857   -15860   -15860   -15859 
  -15861   -15859   -15854   -15857   -15863   -15860   -15855   -15857 
  -15858   -15857   -15859   -15858   -15854   -15858   -15858   -15855 
  -15857   -15857   -15856   -15858   -15860   -15858   -15853   -15857 
  -15862   -15859   -15858   -15861   -15856   -15853   -15858   -15863 
  -15862   -15857   -15854   -15857   -15856   -15855   -15857   -15856 
  -15855   -15856   -15858   -15858   -15858   -15858   -15858   -15855 
  -15856   -15862   -15860   -15855   -15856   -15857   -15858   -15858 
  -15856   -15856   -15859   -15856   -15854   -15858   -15862   -15857 
  -15853   -15857   -15860   -15858   -15855   -15857   -15859   -15854 
  -15854   -15861   -15860   -15857   -15857   -15855   -15858   -15860 
  -15854   -15855   -15859   -15856   -15858   -15861   -15854   -15853 
  -15860   -15860   -15855   -15859   -15862   -15856   -15855   -15859 
  -15858   -15856   -15857   -15857   -15857   -15857   -15857   -15857 
  -15858   -15859   -15857   -15857   -15858   -15857   -15859   -15858 
  -15856   -15859   -15859   -15855   -15857   -15858   -15858   -15859 
  -15860   -15859   -15858   -15858   -15857   -15856   -15857   -15860 
  -15860   -15858   -15857   -15858   -15859   -15859   -15856   -15856 
  -15857   -15857   -15860   -15859   -15854   -15858   -15859   -15856 
  -15858   -15856   -15856   -15861   -15858   -15856   -15859   -15857 
  -15857   -15861   -15858   -15857   -15861   -15858   -15856   -15858 
  -15859   -15859   -15858   -15862   -15861   -15854   -15855   -15861 
  -15862   -15860   -15856   -15858   -15861   -15857   -15857   -15862 
  -15863   -15859   -15855   -15853   -15859   -15863   -15859   -15857 
  -15860   -15859   -15857   -15859   -15862   -15860   -15858   -15860 
  -15860   -15859   -15860   -15859   -15859   -15862   -15862   -15858 
  -15858   -15861   -15859   -15855   -15857   -15860   -15861   -15861 
  -15858   -15857   -15860   -15860   -15860   -15860   -15858   -15858 
  -15861   -15861   -15860   -15861   -15862   -15858   -15860   -15864 
  -15859   -15857   -15859   -15859   -15861   -15860   -15859   -15863 
  -15862   -15857   -15859   -15863   -15859   -15859   -15862   -15860 
  -15857   -15859   -15863   -15861   -15859   -15861   -15860   -15859 
  -15864   -15862   -15858   -15861   -15863   -15863   -15859   -15854 
  -15859   -15865   -15858   -15856   -15861   -15864   -15861   -15856 
  -15861   -15864   -15858   -15853   -15857   -15861   -15860   -15857 
  -15857   -15856   -15861   -15863   -15858   -15858   -15864   -15863 
  -15860   -15858   -15857   -15861   -15860   -15856   -15858   -15859 
  -15860   -15861   -15860   -15861   -15861   -15857   -15856   -15860 
  -15861   -15855   -15855   -15861   -15858   -15854   -15860   -15861 
  -15857   -15861   -15861   -15857   -15858   -15860   -15859   -15858 
  -15856   -15860   -15863   -15857   -15857   -15863   -15858   -15853 
  -15856   -15860   -15859   -15855   -15855   -15859   -15860   -15857 
  -15857   -15860   -15859   -15859   -15857   -15856   -15859   -15859 
  -15857   -15859   -15858   -15858   -15859   -15855   -15855   -15859 
  -15860   -15856   -15856   -15861   -15857   -15851   -15858   -15860 
  -15855   -15858   -15860   -15855   -15855   -15860   -15857   -15851 
  -15856   -15858   -15856   -15860   -15858   -15853   -15855   -15857 
  -15857   -15859   -15858   -15854   -15856   -15859   -15854   -15851 
  -15856   -15860   -15860   -15857   -15854   -15857   -15861   -15857 
  -15852   -15856   -15859   -15857   -15854   -15857   -15863   -15860 
  -15854   -15855   -15857   -15858   -15858   -15854   -15854   -15856 
  -15855   -15858   -15855   -15852   -15859   -15860   -15853   -15856 
  -15859   -15857   -15856   -15857   -15860   -15858   -15853   -15857 
  -15858   -15857   -15861   -15862   -15857   -15857   -15856   -15855 
  -15857   -15857   -15857   -15860   -15859   -15855   -15855   -15858 
  -15858   -15860   -15857   -15856   -15859   -15857   -15856   -15858 
  -15857   -15857   -15860   -15858   -15856   -15859   -15861   -15858 
  -15856   -15859   -15859   -15855   -15856   -15857   -15858   -15858 
  -15855   -15855   -15857   -15857   -15857   -15856   -15858   -15860 
  -15857   -15855   -15858   -15859   -15856   -15855   -15861   -15863 
  -15856   -15857   -15861   -15857   -15856   -15860   -15858   -15858 
  -15860   -15856   -15855   -15860   -15860   -15856   -15856   -15859 
  -15861   -15861   -15858   -15854   -15856   -15861   -15864   -15862 
  -15857   -15857   -15863   -15860   -15855   -15860   -15862   -15855 
  -15854   -15859   -15863   -15861   -15860   -15858   -15854   -15858 
  -15862   -15859   -15860   -15862   -15861   -15859   -15857   -15860 
  -15859   -15858   -15861   -15858   -15846   -15836   -15822   -15814 
  -15834   -15850   -15813   -15754   -15720   -15675   -15625   -15693 
  -15887   -16047   -16113   -16142   -16166   -16172   -16102   -15997 
  -16006   -16004   -15740   -15463   -15478   -15562   -15564   -15623 
  -15699   -15750   -15915   -16174   -16338   -16364   -16306   -16148 
  -15878   -15607   -15543   -15646   -15629   -15555   -15694   -15941 
  -16052   -16050   -16028   -15928   -15829   -15838   -15774   -15668 
  -15768   -15920   -15864   -15742   -15776   -15892   -15917   -15879 
  -15905   -15926   -15853   -15830   -15863   -15797   -15761   -15833 
  -15806   -15733   -15823   -15953   -15962   -15944   -15982   -16003 
  -15940   -15828   -15770   -15801   -15774   -15670   -15713   -15840 
  -15830   -15799   -15880   -15998   -16040   -15987   -15980   -15977 
  -15859   -15820   -15867   -15795   -15703   -15702   -15784   -15904 
  -15888   -15815   -15913   -16054   -16031   -15886   -15779   -15767 
  -15786   -15771   -15714   -15749   -15899   -15936   -15869   -15911 
  -15997   -15981   -15919   -15861   -15801   -15793   -15851   -15890 
  -15859   -15811   -15800   -15802   -15799   -15809   -15823   -15856 
  -15956   -16074   -16083   -16010   -15964   -15932   -15872   -15799 
  -15752   -15752   -15747   -15721   -15736   -15775   -15801   -15832 
  -15851   -15851   -15848   -15828   -15783   -15763   -15813   -15895 
  -15981   -16038   -15993   -15940   -16010   -16048   -15926   -15800 
  -15777   -15770   -15752   -15744   -15720   -15729   -15789   -15832 
  -15882   -15936   -15917   -15882   -15918   -15924   -15857   -15867 
  -15928   -15910   -15881   -15900   -15888   -15858   -15876   -15909 
  -15924   -15903   -15842   -15824   -15869   -15875   -15841   -15818 
  -15779   -15737   -15698   -15648   -15657   -15738   -15842   -15931 
  -15927   -15916   -16016   -16067   -16005   -15978   -15962   -15884 
  -15806   -15785   -15806   -15826   -15847   -15867   -15824   -15753 
  -15758   -15790   -15793   -15832   -15880   -15846   -15810   -15853 
  -15893   -15914   -15954   -15939   -15872   -15836   -15810   -15797 
  -15823   -15868   -15921   -15936   -15923   -15948   -15961   -15933 
  -15894   -15822   -15787   -15807   -15764   -15735   -15783   -15784 
  -15774   -15836   -15862   -15820   -15811   -15854   -15887   -15878 
  -15866   -15905   -15955   -15945   -15893   -15875   -15925   -15965 
  -15947   -15897   -15805   -15754   -15813   -15820   -15784   -15798 
  -15782   -15819   -15934   -15949   -15896   -15904   -15939   -15876 
  -15765   -15806   -15917   -15877   -15763   -15785   -15882   -15861 
  -15791   -15808   -15893   -15976   -15949   -15867   -15872   -15884 
  -15852   -15850   -15849   -15825   -15817   -15801   -15763   -15765 
  -15816   -15837   -15836   -15878   -15894   -15841   -15825   -15882 
  -15938   -15933   -15857   -15818   -15875   -15920   -15938   -15950 
  -15893   -15834   -15853   -15895   -15910   -15886   -15871   -15843 
  -15772   -15771   -15829   -15862   -15908   -15910   -15830   -15806 
  -15867   -15905   -15899   -15877   -15840   -15814   -15802   -15786 
  -15801   -15855   -15864   -15838   -15864   -15884   -15850   -15878 
  -15918   -15831   -15743   -15795   -15893   -15946   -15918   -15851 
  -15840   -15867   -15884   -15873   -15845   -15915   -15990   -15886 
  -15807   -15873   -15874   -15818   -15829   -15796   -15743   -15811 
  -15868   -15842   -15896   -16000   -15996   -15935   -15929   -15917 
  -15864   -15874   -15896   -15822   -15724   -15694   -15722   -15741 
  -15738   -15752   -15787   -15880   -15999   -16037   -15959   -15867 
  -15907   -15953   -15837   -15785   -15871   -15813   -15691   -15733 
  -15797   -15784   -15798   -15849   -15870   -15871   -15938   -16046 
  -16071   -16002   -15901   -15824   -15803   -15793   -15738   -15684 
  -15739   -15884   -16047   -16239   -16397   -16439   -16365   -16193 
  -15952   -15668   -15435   -15360   -15382   -15464   -15688   -15978 
  -16141   -16144   -16034   -15853   -15705   -15628   -15554   -15467 
  -15495   -15676   -15834   -15914   -15960   -15986   -16060   -16106 
  -15983   -15812   -15795   -15909   -16024   -16035   -15938   -15901 
  -15858   -15675   -15644   -15840   -15900   -15911   -16113   -16151 
  -15861   -15689   -15661   -15510   -15448   -15632   -15858   -16008 
  -16041   -15906   -15787   -15870   -15995   -15939   -15783   -15756 
  -15836   -15845   -15778   -15648   -15572   -15758   -15972   -15951 
  -15897   -15991   -16163   -16231   -16133   -16029   -15913   -15688 
  -15483   -15495   -15783   -16054   -16002   -15837   -15846   -15950 
  -15887   -15675   -15671   -15810   -15748   -15676   -15839   -16007 
  -16041   -16023   -15960   -15855   -15726   -15689   -15884   -16024 
  -15909   -15928   -16135   -16114   -15883   -15749   -15731   -15698 
  -15706   -15839   -15935   -15866   -15783   -15812   -15878   -15879 
  -15856   -15898   -15896   -15774   -15698   -15737   -15838   -15937 
  -15872   -15777   -15998   -16232   -16046   -15864   -15987   -15999 
  -15830   -15775   -15839   -15917   -15915   -15816   -15768   -15794 
  -15735   -15623   -15610   -15645   -15699   -15835   -15948   -16014 
  -16022   -15860   -15735   -15833   -15944   -15950   -15892   -15840 
  -15891   -15926   -15873   -15889   -15944   -15903   -15861   -15892 
  -15882   -15877   -15926   -15837   -15721   -15801   -15808   -15689 
  -15737   -15866   -15918   -15898   -15843   -15860   -15936   -15987 
  -15980   -15896   -15826   -15809   -15809   -15842   -15870   -15856 
  -15828   -15873   -15937   -15828   -15680   -15706   -15803   -15868 
  -15937   -16005   -15995   -15929   -15968   -16046   -15981   -15914 
  -15958   -15975   -15913   -15820   -15774   -15804   -15742   -15618 
  -15705   -15842   -15794   -15780   -15851   -15844   -15789   -15750 
  -15804   -15935   -15906   -15700   -15622   -15758   -15890   -15877 
  -15802   -15864   -16009   -16022   -15961   -15898   -15863   -15979 
  -16076   -16019   -16015   -16006   -15863   -15797   -15828   -15781 
  -15740   -15801   -15840   -15838   -15875   -15882   -15865   -15877 
  -15834   -15827   -15898   -15901   -15923   -15939   -15844   -15827 
  -15858   -15855   -15929   -15914   -15780   -15757   -15762   -15671 
  -15708   -15916   -15961   -15865   -15898   -15900   -15809   -15807 
  -15815   -15851   -15935   -15879   -15831   -15943   -15983   -15933 
  -15924   -15901   -15882   -15849   -15721   -15652   -15711   -15755 
  -15763   -15766   -15766   -15776   -15789   -15790   -15791   -15815 
  -15823   -15779   -15804   -15889   -15854   -15790   -15818   -15799 
  -15731   -15747   -15808   -15873   -15945   -15925   -15850   -15888 
  -15984   -15987   -15930   -15910   -15913   -15884   -15895   -15996 
  -16011   -15874   -15819   -15854   -15761   -15694   -15807   -15817 
  -15673   -15685   -15810   -15835   -15862   -15906   -15871   -15903 
  -16003   -16003   -15992   -16031   -16020   -15996   -15984   -15960 
  -15973   -15924   -15764   -15734   -15841   -15847   -15767   -15750 
  -15805   -15877   -15938   -15915   -15816   -15813   -15885   -15839 
  -15774   -15818   -15822   -15791   -15897   -15979   -15860   -15769 
  -15842   -15871   -15818   -15849   -15884   -15821   -15819   -15897 
  -15877   -15824   -15879   -15891   -15806   -15825   -15914   -15931 
  -15922   -15906   -15851   -15825   -15876   -15906   -15867   -15885 
  -15931   -15863   -15828   -15911   -15874   -15709   -15641   -15684 
  -15743   -15781   -15820   -15915   -15995   -15994   -15961   -15898 
  -15875   -15930   -15930   -15879   -15888   -15939   -16011   -16061 
  -16039   -15997   -15955   -15924   -15941   -15902   -15812   -15816 
  -15805   -15707   -15716   -15823   -15858   -15819   -15766   -15737 
  -15758   -15802   -15829   -15876   -15932   -15879   -15786   -15799 
  -15830   -15825   -15801   -15767   -15849   -15980   -15992   -15994 
  -16021   -15973   -15913   -15876   -15839   -15808   -15786   -15815 
  -15850   -15821   -15778   -15755   -15767   -15795   -15752   -15722 
  -15774   -15791   -15788   -15820   -15839   -15840   -15792   -15752 
  -15823   -15892   -15869   -15858   -15907   -15914   -15871   -15893 
  -15921   -15864   -15860   -15946   -15977   -15929   -15859   -15822 
  -15841   -15848   -15804   -15810   -15878   -15874   -15814   -15791 
  -15796   -15847   -15899   -15880   -15831   -15803   -15852   -15928 
  -15882   -15790   -15820   -15875   -15860   -15881   -15936   -15932 
  -15912   -15897   -15856   -15846   -15884   -15915   -15920   -15900 
  -15856   -15825   -15829   -15862   -15883   -15837   -15779   -15789 
  -15816   -15795   -15774   -15785   -15791   -15829   -15883   -15856 
  -15813   -15832   -15847   -15905   -16012   -16008   -15943   -15941 
  -15919   -15852   -15804   -15785   -15821   -15874   -15878   -15850 
  -15799   -15762   -15788   -15809   -15789   -15788   -15797   -15792 
  -15796   -15825   -15883   -15944   -15946   -15918   -15939   -15968 
  -15960   -15971   -15985   -15948   -15918   -15936   -15938   -15891 
  -15872   -15923   -15965   -15961   -15935   -15855   -15768   -15813 
  -15920   -15894   -15776   -15732   -15776   -15854   -15921   -15944 
  -15966   -15988   -15953   -15895   -15856   -15858   -15894   -15861 
  -15813   -15898   -15981   -15930   -15867   -15852   -15849   -15839 
  -15806   -15782   -15791   -15814   -15852   -15858   -15825   -15812 
  -15808   -15799   -15826   -15882   -15914   -15879   -15815   -15780 
  -15753   -15741   -15779   -15809   -15809   -15853   -15896   -15853 
  -15797   -15807   -15839   -15829   -15792   -15791   -15836   -15843 
