Origin Time       2018/04/09 06:38:00
Lat.              35.2
Long.             132.6
Depth. (km)       10
Mag.              3.8
Station Code      SMNH11
Station Lat.      35.4259
Station Long.     132.8008
Station Height(m) -170
Record Time       2018/04/09 06:38:54
Sampling Freq(Hz) 100Hz
Duration Time(s)  120
Dir.              3
Scale Factor      2940(gal)/6170270
Max. Acc. (gal)   0.308
Last Correction   2018/04/09 06:38:39
Memo.             
[...]
   88184    88185    88187    88187    88186    88184    88184    88187 
   88188    88186    88185    88184    88184    88184    88184    88185 
   88185    88185    88186    88186    88185    88185    88186    88186 
   88186    88185    88184    88185    88185    88184    88184    88185 
   88186    88187    88187    88187    88188    88186    88185    88185 
   88185    88186    88186    88184    88185    88185    88184    88186 
   88187    88185    88185    88187    88186    88184    88184    88187 
   88186    88185    88185    88186    88185    88185    88186    88186 
   88186    88186    88186    88186    88186    88186    88187    88188 
   88187    88186    88186    88186    88185    88186    88187    88186 
   88186    88186    88187    88187    88187    88186    88185    88186 
   88187    88187    88186    88185    88186    88187    88187    88187 
   88187    88186    88186    88187    88185    88185    88185    88185 
   88186    88187    88186    88186    88187    88186    88184    88184 
   88185    88186    88187    88186    88185    88186    88187    88185 
   88185    88188    88188    88188    88186    88184    88185    88185 
   88184    88186    88187    88186    88185    88186    88186    88184 
   88183    88184    88185    88184    88184    88183    88182    88184 
   88186    88185    88184    88184    88183    88185    88185    88184 
   88184    88185    88183    88183    88186    88186    88183    88184 
   88184    88183    88183    88183    88185    88186    88185    88185 
   88184    88182    88182    88184    88184    88183    88184    88184 
   88182    88182    88184    88184    88184    88184    88183    88183 
   88184    88183    88181    88183    88184    88183    88183    88184 
   88183    88183    88182    88182    88184    88185    88184    88183 
   88185    88185    88184    88182    88182    88183    88183    88183 
   88183    88182    88183    88184    88184    88184    88183    88182 
   88183    88184    88184    88184    88182    88182    88183    88182 
   88183    88184    88184    88185    88187    88185    88184    88186 
   88185    88182    88183    88184    88183    88184    88186    88184 
   88183    88183    88182    88181    88182    88183    88184    88183 
   88183    88184    88183    88183    88185    88185    88184    88185 
   88186    88184    88185    88186    88185    88185    88184    88183 
   88185    88186    88185    88185    88184    88183    88184    88187 
   88185    88184    88186    88187    88185    88184    88183    88184 
   88185    88187    88188    88186    88186    88188    88185    88185 
   88187    88187    88185    88185    88184    88184    88186    88188 
   88186    88185    88186    88186    88185    88184    88186    88188 
   88186    88185    88185    88185    88186    88185    88184    88186 
   88185    88184    88184    88183    88184    88186    88183    88182 
   88185    88186    88185    88186    88187    88185    88185    88186 
   88187    88185    88185    88188    88187    88185    88188    88188 
   88185    88185    88186    88187    88187    88184    88184    88186 
   88185    88185    88187    88185    88184    88184    88184    88186 
   88187    88186    88185    88184    88184    88185    88184    88183 
   88184    88185    88186    88184    88181    88182    88183    88184 
   88185    88183    88183    88184    88182    88183    88187    88185 
   88183    88185    88187    88184    88182    88184    88184    88184 
   88186    88186    88184    88183    88183    88181    88182    88184 
   88183    88182    88182    88182    88183    88182    88183    88186 
   88184    88182    88184    88184    88183    88185    88185    88182 
   88182    88183    88184    88184    88183    88184    88185    88183 
   88182    88183    88183    88184    88183    88181    88183    88185 
   88184    88183    88185    88185    88183    88181    88183    88184 
   88184    88184    88185    88185    88184    88184    88184    88184 
   88186    88186    88185    88183    88183    88184    88185    88185 
   88184    88184    88184    88184    88184    88183    88184    88184 
   88183    88184    88185    88184    88185    88185    88183    88184 
   88186    88185    88185    88185    88185    88185    88186    88185 
   88182    88184    88185    88184    88185    88187    88187    88185 
   88183    88184    88185    88185    88185    88185    88183    88183 
   88186    88187    88185    88184    88185    88187    88187    88185 
   88184    88183    88185    88187    88185    88184    88186    88186 
   88183    88185    88186    88185    88186    88188    88186    88185 
   88186    88187    88186    88184    88184    88184    88185    88185 
   88183    88183    88185    88186    88186    88185    88186    88186 
   88184    88185    88187    88185    88183    88185    88186    88186 
   88183    88183    88184    88184    88185    88186    88184    88183 
   88183    88183    88183    88183    88185    88185    88184    88184 
   88184    88185    88184    88182    88183    88183    88183    88183 
   88183    88182    88181    88183    88185    88183    88179    88181 
   88184    88182    88180    88181    88182    88182    88181    88182 
   88183    88183    88183    88182    88183    88183    88183    88183 
   88183    88183    88182    88182    88184    88183    88180    88182 
   88183    88182    88183    88185    88184    88182    88183    88184 
   88182    88183    88184    88181    88181    88182    88183    88183 
   88183    88182    88183    88184    88185    88186    88184    88182 
   88184    88184    88181    88181    88183    88184    88183    88184 
   88184    88185    88185    88183    88183    88185    88184    88181 
   88183    88185    88184    88182    88182    88184    88185    88182 
   88181    88182    88184    88184    88183    88183    88184    88182 
   88180    88180    88182    88185    88185    88183    88183    88185 
   88186    88186    88183    88184    88186    88183    88180    88182 
   88184    88183    88183    88183    88184    88185    88181    88180 
   88185    88185    88183    88184    88185    88184    88183    88183 
   88184    88184    88183    88184    88183    88182    88184    88186 
   88184    88184    88184    88183    88184    88186    88186    88184 
   88185    88187    88186    88184    88184    88185    88186    88186 
   88184    88184    88187    88187    88185    88184    88184    88185 
   88184    88182    88185    88186    88183    88185    88187    88185 
   88184    88185    88184    88184    88185    88186    88187    88186 
   88184    88184    88185    88185    88185    88185    88186    88187 
   88186    88186    88185    88186    88187    88186    88186    88186 
   88185    88186    88187    88186    88184    88185    88188    88188 
   88186    88186    88186    88186    88187    88188    88186    88184 
   88186    88187    88187    88188    88187    88186    88187    88188 
   88188    88187    88186    88187    88187    88184    88186    88188 
   88188    88188    88188    88186    88186    88184    88183    88186 
   88188    88188    88188    88188    88186    88185    88186    88186 
   88187    88186    88186    88187    88188    88185    88183    88186 
   88187    88185    88185    88185    88185    88186    88185    88184 
   88186    88185    88185    88186    88187    88185    88183    88184 
   88185    88185    88185    88184    88182    88183    88186    88185 
   88183    88185    88184    88183    88185    88185    88185    88185 
   88184    88183    88186    88186    88184    88183    88185    88185 
   88185    88185    88184    88184    88186    88186    88185    88184 
   88183    88184    88184    88184    88185    88188    88186    88182 
   88183    88185    88184    88184    88185    88186    88186    88187 
   88186    88185    88185    88185    88184    88184    88184    88183 
   88184    88185    88186    88184    88184    88185    88184    88184 
   88186    88187    88186    88186    88185    88186    88186    88185 
   88184    88184    88184    88184    88186    88186    88184    88186 
   88187    88186    88186    88185    88183    88184    88187    88187 
   88185    88185    88186    88185    88185    88187    88185    88183 
   88186    88186    88183    88185    88185    88184    88186    88187 
   88186    88186    88185    88185    88185    88184    88183    88185 
   88186    88185    88183    88185    88188    88184    88183    88186 
   88186    88184    88183    88183    88183    88185    88185    88183 
   88185    88186    88185    88185    88185    88186    88186    88185 
   88184    88185    88185    88186    88184    88184    88185    88185 
   88185    88184    88184    88184    88184    88185    88184    88184 
   88184    88183    88185    88186    88184    88182    88183    88184 
   88184    88185    88185    88183    88184    88185    88185    88185 
   88183    88182    88183    88183    88184    88186    88185    88185 
   88186    88186    88186    88186    88184    88183    88185    88185 
   88184    88187    88187    88186    88187    88185    88185    88186 
   88186    88185    88184    88185    88188    88188    88185    88185 
   88186    88186    88186    88185    88185    88186    88188    88187 
   88185    88186    88187    88184    88184    88185    88184    88185 
   88186    88186    88186    88186    88185    88184    88185    88185 
   88186    88184    88183    88184    88184    88182    88183    88186 
   88185    88182    88183    88187    88187    88185    88187    88188 
   88186    88186    88186    88183    88184    88187    88187    88185 
   88183    88183    88184    88185    88185    88185    88186    88186 
   88185    88184    88185    88185    88184    88184    88185    88184 
   88183    88186    88186    88185    88186    88185    88184    88184 
   88184    88185    88185    88183    88183    88185    88184    88184 
   88186    88184    88183    88184    88183    88184    88185    88187 
   88186    88185    88184    88184    88184    88185    88186    88185 
   88184    88185    88186    88186    88185    88184    88184    88185 
   88183    88184    88186    88186    88185    88185    88185    88184 
   88184    88185    88185    88186    88185    88183    88184    88186 
   88185    88185    88186    88184    88183    88183    88183    88184 
   88184    88184    88185    88184    88182    88182    88184    88184 
   88184    88185    88185    88185    88185    88185    88185    88185 
   88184    88184    88186    88187    88185    88183    88185    88186 
   88184    88183    88185    88185    88185    88185    88184    88184 
   88184    88184    88184    88185    88185    88184    88185    88184 
   88182    88183    88185    88184    88183    88186    88187    88185 
   88184    88186    88185    88184    88185    88183    88182    88185 
   88186    88184    88184    88185    88183    88184    88184    88184 
   88185    88186    88186    88186    88185    88183    88183    88184 
   88184    88185    88184    88183    88184    88185    88184    88183 
   88183    88183    88183    88182    88183    88184    88184    88184 
   88184    88185    88185    88183    88182    88183    88183    88183 
   88182    88182    88185    88184    88183    88185    88185    88185 
   88185    88182    88180    88184    88185    88183    88184    88184 
   88183    88183    88182    88184    88185    88183    88182    88183 
   88184    88183    88181    88182    88185    88185    88183    88184 
   88185    88184    88183    88183    88185    88185    88184    88183 
   88184    88185    88183    88182    88182    88183    88184    88184 
   88183    88183    88183    88185    88185    88185    88184    88183 
   88184    88185    88184    88184    88184    88184    88184    88185 
   88184    88185    88186    88184    88183    88185    88186    88184 
   88184    88185    88184    88185    88186    88185    88184    88184 
   88184    88184    88185    88185    88184    88184    88186    88185 
   88184    88186    88188    88186    88185    88186    88187    88187 
   88184    88183    88184    88185    88185    88186    88185    88185 
   88185    88184    88185    88186    88184    88184    88186    88185 
   88185    88185    88184    88183    88184    88184    88185    88185 
   88185    88186    88187    88185    88183    88186    88187    88185 
   88185    88186    88187    88188    88186    88185    88187    88188 
   88186    88186    88185    88185    88187    88186    88185    88185 
   88184    88184    88185    88185    88184    88184    88185    88186 
   88185    88184    88186    88186    88184    88184    88185    88183 
   88183    88186    88186    88185    88187    88185    88185    88187 
   88186    88186    88187    88186    88186    88185    88184    88187 
   88188    88188    88187    88185    88185    88187    88185    88184 
   88186    88187    88187    88185    88183    88184    88185    88185 
   88185    88185    88184    88184    88185    88185    88184    88184 
   88183    88184    88186    88186    88185    88186    88186    88183 
   88184    88185    88183    88183    88183    88183    88184    88186 
   88186    88183    88183    88185    88185    88185    88184    88184 
   88185    88183    88184    88191    88201    88224    88249    88243 
   88204    88197    88264    88349    88396    88464    88527    88403 
   88115    87897    87832    87818    87809    87906    88201    88474 
   88427    88321    88458    88413    87931    87537    87552    87755 
   87983    88211    88340    88335    88312    88369    88437    88403 
   88321    88231    88006    87826    88032    88302    88206    88029 
   88109    88234    88293    88433    88423    88165    88064    88152 
   88150    88110    88214    88368    88322    88133    88092    88231 
   88289    88218    88207    88159    88030    88105    88276    88264 
   88222    88220    88162    88128    88150    88186    88208    88191 
   88194    88234    88249    88249    88230    88149    88076    88054 
   88073    88159    88252    88273    88255    88200    88123    88147 
   88279    88295    88120    88016    88133    88291    88293    88191 
   88146    88141    88146    88216    88302    88340    88279    88086 
   87965    88092    88218    88132    88042    88126    88275    88334 
   88245    88124    88140    88244    88260    88186    88167    88211 
   88187    88101    88059    88081    88109    88063    88030    88122 
   88203    88189    88190    88223    88235    88219    88195    88227 
   88277    88234    88159    88146    88150    88161    88222    88310 
   88371    88410    88443    88450    88384    88249    88148    88127 
   88107    88069    88071    88099    88120    88165    88223    88225 
   88184    88138    88105    88101    88050    87986    88032    88116 
   88166    88212    88226    88211    88203    88228    88242    88176 
   88116    88136    88160    88219    88332    88360    88262    88135 
   88065    88052    88049    88033    88025    88082    88171    88226 
   88326    88453    88440    88300    88190    88129    88057    88005 
   88044    88142    88166    88121    88148    88231    88286    88325 
   88301    88198    88149    88190    88197    88166    88194    88215 
   88137    88050    88064    88196    88328    88318    88240    88245 
   88269    88204    88174    88238    88239    88193    88197    88204 
   88177    88113    88069    88100    88110    88092    88146    88221 
   88246    88273    88274    88207    88190    88209    88170    88165 
   88195    88171    88154    88215    88266    88204    88124    88155 
   88199    88150    88102    88125    88173    88218    88252    88236 
   88201    88231    88261    88167    88077    88130    88171    88138 
   88168    88214    88170    88094    88088    88143    88179    88208 
   88249    88244    88198    88184    88246    88305    88261    88202 
   88237    88272    88200    88129    88148    88162    88158    88171 
   88181    88201    88203    88155    88120    88157    88211    88165 
   88077    88101    88176    88207    88235    88234    88177    88160 
   88177    88163    88162    88188    88198    88191    88142    88084 
   88135    88213    88173    88129    88188    88228    88201    88192 
   88223    88285    88296    88175    88084    88183    88312    88271 
   88175    88190    88204    88162    88158    88155    88121    88101 
   88113    88174    88230    88208    88172    88208    88256    88205 
   88131    88167    88209    88140    88077    88107    88140    88164 
   88227    88253    88196    88186    88240    88213    88161    88162 
   88119    88096    88205    88299    88275    88250    88245    88213 
   88237    88244    88134    88119    88196    88119    88046    88170 
   88252    88177    88187    88307    88321    88204    88135    88187 
   88145    88000    88051    88207    88188    88074    88122    88331 
   88371    88230    88253    88315    88150    88029    88147    88254 
   88191    88135    88174    88175    88193    88313    88336    88170 
   88047    88136    88252    88217    88150    88064    87988    88149 
   88348    88317    88293    88378    88437    88454    88371    88188 
   88073    88067    88037    87974    87977    88025    88073    88191 
   88355    88354    88198    88161    88300    88390    88285    88119 
   88083    88125    88122    88092    88080    88097    88141    88179 
   88208    88249    88264    88258    88262    88242    88205    88116 
   88001    88032    88128    88121    88092    88039    87984    88069 
   88166    88160    88203    88289    88291    88297    88381    88446 
   88405    88260    88154    88211    88243    88105    87995    88011 
   88005    87956    88016    88185    88262    88197    88222    88356 
   88359    88300    88314    88260    88214    88305    88312    88150 
   88086    88178    88181    88075    88087    88200    88171    88030 
   88075    88263    88266    88125    88063    88076    88174    88375 
   88479    88337    88154    88178    88269    88154    87951    87892 
   87930    88006    88127    88225    88295    88311    88237    88224 
   88197    87986    87936    88140    88190    88138    88216    88293 
   88265    88250    88334    88361    88252    88151    88087    88059 
   88116    88212    88258    88182    88103    88197    88355    88443 
   88450    88365    88282    88249    88185    88117    88079    88060 
   88078    88070    88034    88103    88248    88266    88145    88099 
   88179    88183    88092    88128    88245    88243    88211    88189 
   88110    88115    88213    88202    88129    88160    88248    88290 
   88288    88251    88192    88189    88202    88091    87990    88075 
   88150    88084    88043    88127    88274    88312    88199    88155 
   88240    88270    88197    88153    88191    88250    88305    88360 
   88338    88225    88133    88077    88090    88214    88244    88142 
   88129    88150    88087    88103    88212    88197    88081    88057 
   88160    88293    88333    88263    88213    88213    88168    88114 
   88100    88111    88168    88184    88104    88070    88135    88221 
   88257    88232    88243    88284    88243    88145    88104    88131 
   88147    88158    88247    88308    88239    88204    88233    88167 
