Origin Time       2018/04/09 06:38:00
Lat.              35.2
Long.             132.6
Depth. (km)       10
Mag.              3.8
Station Code      SMNH11
Station Lat.      35.4259
Station Long.     132.8008
Station Height(m) 30
Record Time       2018/04/09 06:38:54
Sampling Freq(Hz) 100Hz
Duration Time(s)  120
Dir.              6
Scale Factor      3920(gal)/6170801
Max. Acc. (gal)   1.190
Last Correction   2018/04/09 06:38:39
Memo.             
[...]
   17970    17968    17964    17966    17969    17968    17967    17967 
   17966    17969    17971    17967    17967    17971    17968    17963 
   17967    17972    17968    17964    17967    17969    17967    17969 
   17970    17968    17967    17969    17969    17967    17965    17967 
   17970    17968    17966    17967    17968    17968    17968    17968 
   17970    17969    17965    17965    17970    17970    17964    17967 
   17972    17968    17965    17968    17968    17967    17968    17970 
   17966    17966    17972    17971    17965    17966    17969    17968 
   17966    17967    17969    17967    17966    17968    17969    17968 
   17967    17968    17969    17964    17963    17970    17969    17963 
   17966    17970    17968    17965    17967    17971    17967    17964 
   17970    17970    17965    17966    17968    17968    17967    17967 
   17966    17966    17967    17968    17969    17967    17965    17966 
   17969    17970    17967    17965    17966    17966    17967    17967 
   17966    17966    17967    17969    17971    17969    17965    17966 
   17967    17968    17970    17967    17966    17969    17968    17967 
   17967    17966    17966    17967    17967    17967    17967    17968 
   17968    17968    17966    17967    17969    17968    17967    17965 
   17964    17966    17967    17966    17966    17966    17968    17968 
   17965    17966    17966    17965    17969    17969    17964    17964 
   17967    17968    17966    17966    17967    17966    17965    17966 
   17963    17962    17965    17967    17967    17966    17967    17969 
   17966    17964    17966    17969    17967    17963    17966    17969 
   17965    17964    17967    17966    17965    17966    17965    17966 
   17968    17965    17963    17966    17967    17965    17965    17967 
   17966    17965    17966    17968    17967    17965    17965    17966 
   17967    17966    17964    17963    17965    17967    17967    17966 
   17966    17965    17965    17967    17966    17965    17966    17966 
   17967    17968    17966    17966    17968    17965    17962    17964 
   17966    17966    17966    17966    17965    17964    17965    17968 
   17969    17966    17965    17967    17966    17965    17969    17968 
   17964    17967    17967    17964    17966    17967    17965    17966 
   17967    17965    17965    17968    17968    17966    17966    17967 
   17966    17965    17967    17965    17961    17965    17970    17968 
   17966    17968    17967    17966    17968    17966    17965    17967 
   17967    17965    17967    17967    17967    17970    17970    17968 
   17967    17966    17967    17968    17967    17966    17969    17971 
   17967    17967    17968    17967    17968    17969    17967    17966 
   17968    17970    17970    17968    17968    17970    17966    17965 
   17970    17970    17966    17967    17968    17966    17966    17970 
   17969    17967    17967    17968    17969    17968    17967    17968 
   17967    17966    17967    17968    17967    17968    17968    17967 
   17966    17967    17968    17968    17967    17964    17964    17968 
   17969    17967    17967    17966    17967    17969    17967    17963 
   17964    17968    17968    17967    17967    17964    17966    17971 
   17969    17964    17966    17968    17967    17968    17969    17967 
   17966    17968    17969    17965    17965    17968    17968    17964 
   17963    17969    17970    17966    17964    17966    17966    17964 
   17964    17968    17970    17966    17963    17966    17968    17967 
   17966    17967    17967    17966    17967    17969    17967    17965 
   17967    17966    17966    17969    17968    17964    17965    17967 
   17967    17968    17968    17966    17964    17965    17968    17967 
   17964    17966    17968    17969    17968    17965    17967    17970 
   17968    17964    17967    17969    17967    17964    17964    17968 
   17970    17968    17967    17966    17967    17969    17970    17968 
   17964    17966    17971    17970    17965    17967    17968    17967 
   17965    17968    17972    17969    17963    17965    17970    17968 
   17967    17968    17967    17967    17968    17966    17966    17968 
   17967    17965    17967    17969    17966    17964    17968    17969 
   17967    17965    17966    17968    17968    17966    17965    17967 
   17969    17967    17965    17967    17969    17968    17968    17969 
   17966    17966    17970    17971    17967    17964    17965    17969 
   17970    17967    17967    17970    17970    17968    17968    17969 
   17970    17967    17964    17965    17966    17968    17969    17968 
   17966    17966    17966    17967    17968    17967    17966    17968 
   17968    17965    17966    17969    17969    17967    17967    17967 
   17969    17968    17966    17966    17967    17966    17969    17969 
   17967    17966    17966    17966    17967    17968    17967    17964 
   17967    17970    17967    17965    17968    17967    17965    17966 
   17966    17967    17966    17965    17966    17968    17966    17964 
   17966    17969    17965    17965    17968    17966    17964    17968 
   17968    17964    17965    17970    17968    17963    17964    17968 
   17969    17968    17967    17964    17964    17965    17968    17967 
   17964    17962    17964    17968    17967    17964    17965    17967 
   17966    17965    17964    17965    17967    17966    17965    17966 
   17965    17963    17965    17968    17967    17965    17967    17970 
   17967    17964    17965    17969    17969    17966    17967    17969 
   17966    17965    17967    17967    17964    17966    17967    17967 
   17967    17968    17968    17967    17967    17966    17966    17968 
   17965    17964    17967    17967    17966    17967    17964    17963 
   17967    17968    17965    17966    17968    17967    17965    17966 
   17968    17966    17964    17966    17968    17966    17966    17968 
   17968    17964    17964    17968    17967    17966    17967    17966 
   17965    17968    17968    17966    17966    17965    17964    17966 
   17969    17969    17967    17967    17967    17966    17967    17968 
   17965    17966    17969    17966    17967    17968    17966    17966 
   17966    17966    17968    17969    17967    17967    17966    17966 
   17970    17969    17965    17964    17967    17969    17968    17965 
   17965    17968    17969    17966    17965    17969    17970    17967 
   17968    17968    17964    17964    17971    17971    17966    17965 
   17968    17967    17966    17968    17969    17968    17967    17969 
   17970    17968    17968    17968    17967    17967    17969    17969 
   17967    17965    17968    17968    17966    17968    17971    17970 
   17968    17966    17968    17969    17966    17967    17970    17968 
   17966    17969    17969    17967    17967    17970    17970    17967 
   17966    17967    17969    17969    17965    17964    17968    17968 
   17967    17966    17966    17967    17966    17966    17967    17967 
   17967    17968    17966    17966    17967    17968    17968    17967 
   17968    17968    17966    17967    17967    17967    17967    17965 
   17966    17969    17966    17966    17969    17968    17966    17966 
   17967    17966    17966    17968    17967    17965    17965    17966 
   17967    17966    17964    17968    17969    17965    17965    17968 
   17966    17965    17966    17965    17964    17965    17967    17966 
   17964    17964    17965    17965    17964    17966    17968    17965 
   17964    17967    17968    17967    17966    17967    17966    17963 
   17966    17967    17966    17967    17966    17966    17967    17966 
   17965    17964    17964    17967    17970    17967    17965    17966 
   17967    17966    17967    17969    17968    17965    17964    17966 
   17965    17965    17967    17966    17966    17968    17965    17964 
   17967    17967    17964    17964    17967    17969    17967    17964 
   17968    17970    17967    17964    17963    17965    17967    17966 
   17967    17970    17968    17966    17967    17967    17965    17966 
   17968    17970    17966    17962    17966    17970    17969    17967 
   17965    17966    17969    17968    17966    17969    17969    17964 
   17966    17971    17969    17964    17969    17969    17963    17964 
   17969    17966    17963    17966    17967    17966    17965    17966 
   17967    17967    17965    17965    17967    17966    17966    17968 
   17966    17965    17968    17969    17966    17964    17965    17967 
   17966    17965    17965    17965    17965    17963    17964    17967 
   17967    17965    17966    17968    17969    17968    17967    17966 
   17966    17967    17968    17970    17967    17964    17965    17967 
   17968    17966    17963    17964    17966    17966    17967    17965 
   17963    17965    17966    17966    17969    17967    17965    17966 
   17966    17965    17965    17966    17965    17966    17968    17966 
   17965    17966    17966    17965    17965    17966    17969    17968 
   17966    17966    17967    17966    17968    17969    17966    17966 
   17967    17965    17964    17966    17968    17967    17966    17967 
   17967    17965    17963    17965    17968    17967    17965    17965 
   17968    17969    17966    17965    17969    17968    17964    17966 
   17970    17967    17963    17966    17968    17966    17965    17966 
   17968    17968    17966    17965    17968    17968    17965    17967 
   17969    17967    17965    17966    17967    17967    17967    17967 
   17967    17967    17967    17965    17964    17965    17968    17968 
   17965    17967    17970    17967    17963    17965    17968    17968 
   17966    17967    17968    17967    17966    17967    17967    17967 
   17965    17966    17968    17967    17967    17969    17967    17965 
   17965    17966    17967    17965    17965    17968    17970    17967 
   17961    17964    17970    17967    17966    17969    17969    17966 
   17966    17969    17971    17965    17962    17967    17968    17964 
   17963    17967    17969    17966    17965    17968    17968    17965 
   17966    17970    17968    17965    17965    17965    17965    17967 
   17967    17965    17965    17964    17963    17965    17968    17967 
   17965    17965    17964    17964    17966    17965    17965    17967 
   17967    17967    17967    17966    17968    17971    17967    17962 
   17967    17969    17965    17966    17968    17965    17963    17967 
   17969    17965    17964    17966    17967    17967    17967    17969 
   17968    17966    17965    17965    17967    17966    17966    17967 
   17965    17963    17966    17968    17966    17965    17969    17969 
   17965    17966    17968    17967    17965    17967    17968    17968 
   17966    17965    17966    17968    17967    17967    17969    17968 
   17968    17970    17969    17966    17966    17966    17966    17967 
   17968    17966    17967    17970    17968    17965    17966    17966 
   17967    17969    17965    17963    17966    17967    17968    17967 
   17966    17967    17968    17968    17970    17967    17965    17968 
   17966    17964    17966    17968    17968    17967    17967    17966 
   17966    17967    17969    17970    17966    17965    17967    17965 
   17966    17969    17966    17962    17966    17970    17968    17963 
   17962    17966    17968    17966    17967    17968    17967    17968 
   17966    17964    17967    17967    17963    17963    17966    17967 
   17965    17964    17964    17968    17969    17966    17964    17965 
   17966    17967    17967    17966    17966    17965    17966    17970 
   17967    17963    17965    17969    17966    17966    17971    17968 
   17962    17965    17969    17965    17966    17968    17965    17965 
   17968    17967    17966    17967    17966    17966    17965    17964 
   17966    17967    17965    17965    17967    17969    17968    17965 
   17965    17967    17965    17967    17969    17965    17965    17969 
   17967    17964    17965    17968    17966    17965    17965    17965 
   17966    17968    17968    17969    17968    17965    17965    17967 
   17966    17966    17967    17968    17966    17963    17963    17966 
   17967    17966    17967    17966    17966    17968    17968    17967 
   17966    17967    17967    17967    17966    17965    17966    17968 
   17966    17965    17967    17967    17962    17964    17968    17966 
   17964    17966    17965    17965    17967    17967    17967    17967 
   17964    17967    17971    17967    17966    17969    17967    17964 
   17969    17971    17966    17964    17968    17968    17967    17968 
   17969    17968    17966    17967    17968    17969    17969    17969 
   17967    17968    17970    17966    17965    17968    17969    17968 
   17967    17967    17966    17967    17969    17969    17965    17964 
   17967    17967    17968    17969    17967    17964    17964    17967 
   17966    17965    17966    17968    17968    17966    17967    17966 
   17966    17967    17967    17969    17968    17964    17967    17969 
   17967    17968    17968    17968    17968    17966    17966    17967 
   17967    17967    17966    17965    17966    17968    17968    17966 
   17966    17975    17992    18036    18111    18145    18032    17838 
   17889    18329    18647    18466    18380    18567    17998    16718 
   16320    17185    17869    17447    17161    18369    19344    18049 
   16940    18592    19840    17925    16124    17269    19114    18782 
   17314    17297    17920    17606    17834    18974    18861    17779 
   17988    18387    17137    17006    19119    19172    16856    16769 
   18613    18616    17407    17513    18246    18024    17549    18238 
   18857    17878    17390    18179    17792    17028    18104    19041 
   18150    17823    18748    18269    17079    17718    18680    18311 
   17480    17044    17628    18362    18128    18012    18042    17689 
   18023    18484    18172    17904    17679    17440    17692    17959 
   18055    18287    18216    17863    17882    18048    18109    18399 
   18429    17745    17248    17620    18386    18462    17436    17025 
   18245    18865    17993    17669    18172    18308    18015    17618 
   17721    18173    17775    17199    17701    18443    18441    17816 
   17447    18086    18819    18565    17845    17423    17545    17983 
   18072    17736    17636    18017    18169    17807    17728    17943 
   17929    17947    18162    18352    18155    17822    18275    18732 
   17934    17177    17710    18490    18433    17823    17669    18157 
   18382    18199    18130    18105    17917    17616    17498    17699 
   17806    17734    17782    17876    18003    18165    18058    17834 
   17918    18160    18209    17881    17476    17697    18223    18295 
   18117    17920    17765    17815    18077    18363    18029    17438 
   17736    18276    18222    18121    18254    18373    17910    17165 
   17484    18178    17898    17513    17821    18252    17971    17515 
   18198    18736    17974    17738    18263    18104    17609    17690 
   18297    18345    17536    17537    18336    18201    17808    18261 
   18457    17837    17555    18105    18344    17814    17637    17934 
   17850    17576    17834    18410    18208    17521    17766    18337 
   18084    17746    18052    18466    18212    17712    18055    18575 
   17903    17071    17729    18632    18020    17155    17548    18222 
   18146    17727    17704    18142    18269    18062    18172    18165 
   17918    17996    18102    18100    18094    17851    17923    18375 
   18005    17261    17624    18313    18094    17647    17760    18013 
   17850    17694    17900    17946    17944    18206    18269    18120 
   17949    17812    17902    17999    17992    17904    17825    18237 
   18545    17894    17420    18181    18910    18155    17115    17763 
   18803    18100    17123    17569    18179    18017    17734    17929 
   18299    17822    17178    17905    18758    18264    17490    17502 
   18060    18351    18049    17806    17984    18132    17928    17759 
   18034    18277    18037    17790    17961    18116    17802    17718 
   18222    18167    17688    17976    18214    17771    17659    17990 
   18293    18265    17610    17376    18282    18845    18204    17432 
   17541    18238    18346    17695    17534    18142    18298    17703 
   17599    18151    18057    17566    17957    18606    18218    17323 
   17430    18434    18527    17489    17311    18310    18573    17910 
   17718    17889    17972    18203    18148    17812    17914    18155 
   17896    17574    18017    18650    18226    17515    17896    18545 
   18154    17328    17521    18426    18254    17267    17362    18277 
   18469    17833    17470    18248    18845    17742    17198    18458 
   18566    17373    17457    18215    17957    17364    17890    18676 
   18141    17782    18489    18191    17269    17932    19056    18453 
   17299    17644    18272    17626    17256    18143    18315    17275 
   17526    19023    18716    16971    16859    18250    18756    18172 
   18041    18223    17684    17639    18728    18571    17089    17360 
   19027    18909    17314    17022    18109    18519    17889    17786 
   18401    17981    17146    18042    19189    18261    16835    17378 
   18798    18418    16734    16657    18672    19693    18363    17532 
   18103    17773    16885    17351    18372    18029    16755    16985 
   18845    19310    17881    17616    18781    18662    17557    17772 
   18604    18034    16952    17415    18445    18038    17461    18056 
   18047    17248    17821    19129    18833    17469    17444    18697 
   18665    17355    17393    18279    17808    17233    18025    18454 
   17787    17601    18079    18360    18404    18148    17664    17591 
   18083    18643    18608    17718    17184    17872    18190    17578 
   17653    18098    17873    17846    18136    17970    17896    18460 
   18755    17863    16932    17482    18264    17857    17466    18061 
   18704    18277    17363    17695    18703    18377    17505    17578 
   17922    17862    17596    17767    18360    17965    17261    17921 
   18474    18348    18751    18788    18090    17774    18008    18263 
   17722    16992    17478    17919    17419    17720    18831    18828 
   17756    17607    18501    18431    17735    17898    18107    17834 
   17675    17842    18210    18033    17494    17544    17692    17892 
   18500    18331    17423    17406    18247    18579    18001    17513 
   17933    18423    18102    17909    18256    18043    17557    17788 
   18322    18450    17933    17276    17400    18064    18280    17949 
   17671    17674    17880    18222    18307    17995    17940    18299 
   18415    18186    17984    17847    17728    17691    18016    18469 
   18050    17217    17379    18194    18371    17669    17414    18250 
   18497    17668    17468    18177    18507    17863    17310    18008 
   18840    18383    17545    17760    18585    18434    17559    17390 
   17593    17801    18275    18212    17583    17452    18173    18881 
   18220    17370    18163    18614    17623    17387    18050    18195 
   17709    17375    18072    18625    17811    17456    18087    18110 
