Origin Time       2018/04/09 06:38:00
Lat.              35.2
Long.             132.6
Depth. (km)       10
Mag.              3.8
Station Code      SMNH11
Station Lat.      35.4259
Station Long.     132.8008
Station Height(m) 30
Record Time       2018/04/09 06:38:54
Sampling Freq(Hz) 100Hz
Duration Time(s)  120
Dir.              4
Scale Factor      3920(gal)/6170801
Max. Acc. (gal)   1.621
Last Correction   2018/04/09 06:38:39
Memo.             
[...]
     616      616      617      616      615      617      617      616 
     616      615      617      618      615      614      617      619 
     617      616      617      616      614      615      616      617 
     619      618      616      617      618      617      616      617 
     616      616      617      616      616      617      619      619 
     616      615      615      615      615      618      619      616 
     617      617      616      617      617      616      616      616 
     615      615      616      617      617      615      613      614 
     616      618      617      615      615      616      617      616 
     616      616      615      615      618      618      617      617 
     616      615      616      618      617      616      617      618 
     618      619      619      616      615      618      618      616 
     618      618      617      617      616      616      619      619 
     616      615      616      617      617      618      619      616 
     617      618      618      618      618      617      617      618 
     617      617      619      619      619      618      617      619 
     619      618      617      617      618      620      618      618 
     619      618      616      616      616      619      620      617 
     617      618      617      617      617      617      616      617 
     618      616      616      616      615      616      620      619 
     614      614      618      617      614      615      615      615 
     616      618      617      616      617      618      619      616 
     615      615      615      615      616      616      616      614 
     615      618      617      614      614      616      616      616 
     617      616      615      617      617      615      617      619 
     617      616      616      615      613      614      616      615 
     615      616      616      615      615      615      614      615 
     616      616      616      617      616      614      614      615 
     614      614      615      615      615      615      615      613 
     614      616      616      615      615      615      614      615 
     618      616      614      615      614      614      617      616 
     615      616      616      614      614      616      616      615 
     616      617      617      616      615      615      614      614 
     618      619      616      615      616      615      613      614 
     617      616      615      615      617      617      617      617 
     615      615      617      617      615      615      616      617 
     617      616      617      618      616      615      617      617 
     617      617      614      614      616      617      615      616 
     617      616      615      615      616      615      612      614 
     617      616      616      618      618      618      618      617 
     615      615      617      618      617      616      616      617 
     616      616      617      617      615      616      617      617 
     617      617      616      616      617      618      617      616 
     616      616      616      616      617      617      618      617 
     615      616      615      615      616      616      616      618 
     619      619      617      616      617      616      615      617 
     617      616      617      617      614      615      617      614 
     613      615      616      616      616      617      618      617 
     615      615      616      616      617      618      615      614 
     616      616      614      614      615      615      617      618 
     615      615      616      613      615      617      614      616 
     617      613      613      617      618      617      616      615 
     615      617      619      617      613      615      617      616 
     617      619      617      617      617      615      615      616 
     616      617      617      616      615      615      616      615 
     614      616      617      617      615      616      618      619 
     617      617      617      615      616      618      618      618 
     616      616      618      616      615      618      617      615 
     618      618      615      614      616      616      617      619 
     618      618      616      617      620      619      615      615 
     616      617      617      618      619      615      613      616 
     617      617      616      617      617      616      616      616 
     615      617      618      615      616      619      616      615 
     618      617      615      617      617      614      614      615 
     616      617      616      617      616      614      616      618 
     618      616      614      614      615      617      617      617 
     614      613      615      617      616      615      615      616 
     616      616      617      615      615      617      617      615 
     615      616      616      617      618      617      614      613 
     614      616      616      617      618      618      616      616 
     618      618      615      614      617      619      615      616 
     618      616      614      614      616      618      617      615 
     614      615      616      616      618      618      616      614 
     614      617      617      617      617      617      617      618 
     617      616      615      616      616      616      616      617 
     616      614      614      616      618      618      616      615 
     615      615      616      614      613      615      615      615 
     616      616      615      616      615      616      616      615 
     616      616      616      617      618      615      615      618 
     618      615      615      615      616      618      617      615 
     615      616      616      616      615      615      619      619 
     615      615      619      618      615      616      617      615 
     615      615      617      618      618      617      616      616 
     617      616      616      617      618      617      617      618 
     619      617      615      616      617      618      618      618 
     617      617      618      617      616      617      616      614 
     616      617      617      617      614      615      618      617 
     616      618      618      616      615      617      617      616 
     617      617      615      617      618      616      616      618 
     618      616      617      619      621      620      618      616 
     617      617      615      615      617      619      618      617 
     618      619      618      617      616      618      620      620 
     618      616      616      616      617      618      617      617 
     618      616      615      618      620      617      616      617 
     618      618      618      617      617      618      618      617 
     616      617      618      618      617      618      617      615 
     615      616      617      618      618      617      616      615 
     615      615      618      618      616      614      616      617 
     617      618      617      615      616      616      615      616 
     617      617      618      616      616      616      614      615 
     616      614      613      616      618      619      616      613 
     616      617      615      613      614      616      615      613 
     613      615      616      617      616      616      618      617 
     614      614      616      617      616      614      612      615 
     617      614      614      615      613      613      615      614 
     613      615      616      615      615      616      615      615 
     614      614      614      613      613      614      614      614 
     614      614      614      614      613      612      614      616 
     615      614      613      613      617      618      615      615 
     617      616      613      614      615      614      615      616 
     615      616      616      615      614      617      617      615 
     615      614      612      615      617      617      616      617 
     618      617      615      615      617      618      617      615 
     615      616      617      618      618      617      614      614 
     616      615      618      619      616      616      618      615 
     614      616      617      619      618      618      620      619 
     616      618      619      616      615      617      617      616 
     616      617      617      617      618      618      616      618 
     620      618      615      618      621      619      617      619 
     619      617      616      618      620      617      615      616 
     617      620      619      616      616      616      615      615 
     617      618      617      617      618      618      617      616 
     617      618      618      617      617      618      617      617 
     618      616      616      618      618      617      616      617 
     618      617      616      618      618      618      620      618 
     618      620      618      618      619      618      618      618 
     617      617      619      619      616      615      617      617 
     616      616      617      615      616      618      618      618 
     617      616      617      616      616      618      616      614 
     617      617      614      617      620      622      631      636 
     620      593      596      646      706      722      669      604 
     603      585      514      581      763      782      618      490 
     529      614      468      240      399      651      420      231 
     628     1055     1006      649      510      907     1321     1237 
     913      566      148      -59      158      428      625     1042 
    1296      974      668      709      565      125     -146      -70 
     246      498      544      697      795      570      538      711 
     643      797     1342     1315      645      492      881      940 
     789      652      369      155       14       25      419      549 
     275      314      529      808     1301     1331      879      744 
     748      521      355      344      410      468      330      302 
     781     1342     1437     1037      393       92      374      590 
     454      304      267      544     1027     1070      825      820 
     813      679      623      615      618      433       89      183 
     603      705      625      618      558      510      526      520 
     563      686      726      582      444      542      778      839 
     575      283      343      675     1002     1115      980      845 
     810      703      465      244      257      482      587      519 
     544      724      909      916      782      769      815      666 
     473      449      453      356      284      346      486      648 
     841      964      882      720      669      665      537      329 
     332      585      675      505      430      621      867      825 
     590      517      574      701      868      825      633      487 
     341      257      274      397      598      613      493      542 
     686      702      612      723      973      857      623      795 
    1023      969      773      579      557      633      645      696 
     629      332      194      345      548      701      751      656 
     488      403      470      542      481      444      642      826 
     710      612      690      656      606      673      655      626 
     782      949      897      633      367      412      692      705 
     470      496      700      595      270      197      459      592 
     390      407      777      959      987     1046      875      650 
     683      753      685      536      426      533      700      610 
     420      409      548      662      609      498      510      586 
     653      687      629      488      439      631      820      798 
     831      941      832      564      405      450      617      694 
     544      385      571      924      889      590      547      559 
     388      333      417      529      654      592      539      720 
     714      500      567      820      892      784      649      623 
     744      852      808      687      603      573      540      480 
     470      464      371      416      570      493      418      561 
     626      670      815      845      757      646      611      812 
     902      532      208      404      825      996      760      397 
     371      623      617      375      426      692      794      836 
     813      561      387      560      811      845      697      564 
     578      588      383      189      270      437      581      775 
     934      966      836      655      605      579      491      507 
     617      688      761      813      682      506      557      592 
     424      413      535      438      357      490      590      709 
     831      798      869      908      684      708      979      879 
     466      281      493      600      398      481      796      701 
     440      517      651      503      333      431      655      706 
     505      320      424      692      824      719      601      697 
     828      819      746      652      636      666      570      551 
     621      462      407      736      813      414      296      828 
    1489     1726     1707     2050     2472     1987      731     -530 
   -1562    -1935    -1188      163     1166     1472     1356     1195 
     903      123     -704     -868     -643     -268      468     1004 
     758      373      555      923      783      314      494     1419 
    1842     1418     1103      999      470     -143       53      964 
    1492     1047      299      -68     -180     -212      -83      340 
    1069     1767     2095     1960     1432      830      288     -319 
    -605     -214      242      493     1247     2116     1882      987 
     506      258      -79     -378     -686     -827     -512      114 
     918     1578     1466      941      986     1467     1571     1096 
     538      427      645      766      731      675      609      239 
    -454     -633        4      602      844     1117     1363     1245 
     713      242      274      398      361      561      833      827 
     627      341      342      619      633      606      866     1120 
    1205     1019      752      831      897      596      286        6 
    -202      172      915     1134      769      561      660      817 
    1019      902      381      220      720     1370     1420      587 
    -160      -12      441      664      741      603      314      260 
     490      569      286       17      111      388      660      966 
    1007      678      550      740      857      844      695      524 
     670      949      948      878      999     1030      851      715 
     604      412      240       86      110      449      675      644 
     664      564      299      287      501      609      612      820 
    1195     1200      777      400      326      546      738      588 
     370      429      575      442      114      112      617     1177 
    1304     1080      979      966      734      512      349      136 
     112      120       37      208      533      851     1205     1345 
    1243     1071      901      878      752      349      104       57 
     109      437      638      460      451      747     1070     1375 
    1391      997      650      521      490      622      718      680 
     770      753      485      394      396      244      244      440 
     581      657      604      420      445      715      892      941 
     928      674      221       24      297      610      578      452 
     541      652      543      422      499      621      690      666 
     512      483      644      693      543      331      345      724 
    1035      952      805      977     1291     1319     1062      707 
     231      -42      192      361      170      211      562      747 
     742      677      601      692      841      788      706      744 
     694      549      500      563      676      722      591      567 
     779      742      487      511      635      554      383      299 
     416      559      634      831      901      649      514      640 
     746      718      565      445      532      694      684      494 
     432      701     1005     1054      989     1043     1161     1025 
     594      269      295      461      404      132      109      435 
     649      604      516      503      606      738      760      704 
     657      636      605      537      406      129      -57      216 
     662      891     1053     1232     1273     1134      877      667 
     646      708      672      458      152      158      613      880 
     690      628      907     1086      890      546      411      499 
     570      400       36      -60      296      594      480      227 
     178      363      625      784      784      703      641      673 
     773      796      688      614      735      949      968      702 
     529      720      847      646      569      795      881      656 
     516      718      904      687      388      463      608      379 
      -1      -62      269      608      651      580      663      831 
     930      989     1018      970      861      647      450      499 
     549      396      421      680      666      339      192      406 
     687      754      687      748      946     1023      884      703 
     587      532      522      486      441      505      632      628 
     462      385      510      614      612      561      411      276 
     317      480      691      854      881      868      942     1074 
    1127     1023      844      689      637      744      798      614 
     433      379      345      391      510      596      606      494 
     450      637      736      577      408      410      607      727 
     529      288      223      296      489      594      525      496 
     530      552      657      836      917      907      978     1090 
    1124     1156     1171     1081      947      799      610      414 
     270      196      175      255      436      565      598      636 
     666      634      624      661      573      256      -61      -22 
     359      673      666      465      361      519      814     1027 
    1107     1114      999      705      425      341      344      349 
     406      559      748      789      757      835      836      702 
     713      813      669      351      211      271      338      421 
     564      667      706      765      856      870      705      482 
     486      765     1046     1076      867      614      461      407 
     389      405      494      628      747      827      808      630 
     454      517      709      704      488      313      305      448 
     614      603      499      557      719      806      849      877 
     837      709      533      457      568      677      586      355 
     239      446      817     1020      989      814      592      465 
     438      431      458      511      535      568      737      993 
    1063      903      797      795      657      395      304      435 
