Origin Time       2018/04/09 06:38:00
Lat.              35.2
Long.             132.6
Depth. (km)       10
Mag.              3.8
Station Code      SMN006
Station Lat.      35.1942
Station Long.     132.4978
Station Height(m) 36
Record Time       2018/04/09 06:38:51
Sampling Freq(Hz) 100Hz
Duration Time(s)  60
Dir.              N-S
Scale Factor      7845(gal)/8223790
Max. Acc. (gal)   63.292
Last Correction   2018/04/09 06:38:51
Memo.             
[...]
    3584     3573     3574     3584     3580     3576     3580     3581 
    3581     3584     3581     3581     3582     3580     3577     3577 
    3577     3580     3580     3577     3578     3582     3581     3586 
    3585     3569     3570     3588     3584     3574     3582     3588 
    3578     3578     3585     3581     3574     3574     3577     3578 
    3581     3581     3581     3580     3574     3578     3588     3585 
    3580     3582     3582     3578     3576     3577     3581     3581 
    3578     3581     3584     3581     3577     3573     3576     3584 
    3580     3573     3576     3578     3576     3577     3581     3582 
    3584     3584     3580     3578     3581     3580     3574     3577 
    3581     3581     3577     3576     3577     3576     3574     3576 
    3578     3578     3581     3581     3576     3577     3582     3582 
    3578     3574     3577     3581     3577     3572     3578     3582 
    3578     3580     3584     3581     3578     3580     3577     3576 
    3577     3574     3573     3578     3580     3576     3578     3585 
    3584     3578     3580     3582     3581     3582     3582     3578 
    3580     3580     3577     3578     3578     3573     3574     3580 
    3580     3577     3580     3582     3581     3578     3578     3580 
    3580     3574     3569     3572     3576     3574     3574     3577 
    3576     3577     3581     3580     3580     3584     3584     3580 
    3576     3578     3581     3577     3576     3577     3580     3578 
    3576     3576     3581     3581     3577     3574     3577     3578 
    3577     3580     3580     3578     3582     3582     3576     3577 
    3578     3576     3577     3576     3574     3580     3580     3577 
    3578     3581     3584     3582     3580     3581     3580     3577 
    3578     3581     3581     3580     3582     3581     3577     3578 
    3581     3578     3578     3577     3576     3578     3580     3578 
    3580     3581     3578     3576     3578     3577     3576     3577 
    3577     3578     3582     3584     3581     3577     3577     3580 
    3580     3576     3574     3576     3576     3574     3578     3581 
    3581     3581     3580     3580     3581     3578     3577     3580 
    3581     3578     3576     3578     3578     3574     3574     3581 
    3585     3580     3577     3581     3584     3578     3576     3577 
    3576     3574     3577     3581     3578     3574     3576     3576 
    3574     3576     3580     3580     3578     3577     3577     3578 
    3578     3574     3574     3578     3578     3578     3577     3574 
    3576     3577     3576     3578     3577     3574     3577     3578 
    3578     3580     3580     3578     3580     3578     3578     3581 
    3578     3574     3576     3581     3581     3580     3581     3581 
    3578     3577     3577     3582     3584     3577     3576     3580 
    3576     3576     3580     3572     3570     3581     3581     3576 
    3582     3582     3576     3580     3582     3578     3580     3581 
    3574     3573     3577     3578     3578     3578     3578     3580 
    3578     3578     3576     3574     3576     3580     3581     3576 
    3576     3578     3580     3578     3577     3578     3578     3577 
    3577     3577     3576     3577     3577     3578     3578     3581 
    3581     3577     3577     3580     3580     3580     3580     3578 
    3576     3577     3580     3580     3581     3582     3578     3576 
    3576     3577     3578     3578     3581     3582     3581     3581 
    3580     3576     3577     3580     3578     3580     3581     3578 
    3578     3580     3577     3574     3577     3578     3580     3581 
    3580     3578     3578     3578     3578     3578     3577     3577 
    3578     3576     3576     3580     3580     3580     3578     3577 
    3577     3578     3577     3577     3580     3581     3580     3577 
    3577     3578     3577     3577     3580     3580     3578     3578 
    3581     3582     3580     3580     3580     3574     3576     3581 
    3580     3581     3581     3578     3578     3577     3577     3578 
    3577     3577     3578     3578     3578     3582     3582     3578 
    3576     3577     3580     3580     3580     3580     3580     3580 
    3581     3576     3576     3581     3584     3580     3578     3578 
    3577     3574     3576     3578     3582     3582     3578     3577 
    3578     3577     3577     3576     3578     3582     3581     3578 
    3580     3582     3582     3580     3578     3577     3577     3580 
    3581     3581     3582     3580     3576     3578     3582     3581 
    3580     3580     3578     3577     3577     3580     3580     3581 
    3580     3578     3580     3581     3578     3578     3577     3578 
    3581     3582     3582     3581     3581     3582     3581     3578 
    3577     3580     3581     3578     3574     3576     3580     3581 
    3578     3581     3581     3577     3578     3581     3578     3578 
    3581     3581     3577     3578     3578     3576     3577     3581 
    3582     3581     3581     3578     3577     3578     3577     3576 
    3577     3578     3578     3577     3577     3576     3577     3578 
    3578     3578     3578     3576     3577     3580     3581     3582 
    3582     3581     3580     3577     3577     3577     3578     3582 
    3581     3577     3580     3580     3576     3576     3578     3577 
    3576     3578     3581     3581     3582     3581     3580     3580 
    3577     3574     3577     3580     3580     3580     3580     3577 
    3577     3578     3576     3577     3580     3580     3581     3580 
    3577     3581     3581     3577     3576     3577     3577     3580 
    3581     3580     3580     3584     3584     3581     3581     3581 
    3577     3576     3577     3581     3582     3578     3578     3580 
    3578     3577     3580     3581     3581     3581     3580     3578 
    3578     3581     3581     3576     3572     3574     3577     3581 
    3581     3580     3582     3584     3580     3577     3580     3578 
    3577     3576     3576     3581     3585     3578     3574     3578 
    3580     3574     3574     3578     3577     3577     3578     3578 
    3578     3578     3577     3576     3576     3580     3580     3578 
    3580     3578     3577     3577     3577     3577     3580     3578 
    3577     3580     3580     3581     3582     3580     3581     3580 
    3578     3577     3577     3578     3581     3580     3578     3578 
    3578     3577     3576     3576     3574     3577     3578     3574 
    3576     3580     3578     3576     3578     3582     3580     3577 
    3577     3577     3578     3580     3577     3577     3584     3584 
    3580     3576     3577     3581     3580     3577     3578     3578 
    3580     3580     3582     3585     3581     3580     3581     3580 
    3578     3578     3577     3577     3581     3584     3584     3578 
    3580     3582     3578     3577     3581     3580     3580     3581 
    3578     3577     3581     3582     3581     3581     3578     3576 
    3581     3582     3580     3582     3582     3580     3580     3580 
    3578     3578     3580     3581     3578     3580     3582     3580 
    3580     3582     3581     3577     3578     3581     3580     3580 
    3578     3580     3581     3581     3580     3578     3577     3581 
    3581     3581     3581     3578     3581     3582     3581     3581 
    3578     3577     3580     3578     3576     3580     3582     3581 
    3580     3580     3577     3578     3582     3584     3582     3581 
    3581     3581     3581     3578     3577     3578     3578     3578 
    3580     3580     3580     3582     3581     3578     3581     3580 
    3578     3580     3580     3577     3580     3582     3576     3573 
    3578     3580     3578     3581     3581     3580     3580     3578 
    3577     3577     3577     3576     3578     3577     3576     3580 
    3581     3581     3581     3580     3581     3584     3582     3577 
    3577     3580     3578     3576     3576     3578     3578     3578 
    3578     3581     3582     3577     3577     3580     3578     3580 
    3578     3576     3578     3581     3577     3577     3578     3577 
    3576     3578     3581     3581     3581     3581     3581     3581 
    3577     3576     3581     3580     3576     3578     3578     3574 
    3577     3580     3576     3574     3577     3580     3581     3581 
    3580     3584     3584     3574     3574     3580     3578     3577 
    3577     3573     3577     3580     3576     3577     3582     3581 
    3582     3584     3578     3577     3585     3584     3577     3574 
    3577     3580     3580     3580     3578     3580     3581     3578 
    3577     3577     3576     3580     3581     3581     3581     3578 
    3576     3578     3580     3580     3581     3577     3574     3574 
    3574     3578     3581     3577     3577     3584     3585     3582 
    3581     3582     3580     3577     3581     3581     3577     3576 
    3577     3581     3582     3580     3581     3581     3578     3580 
    3582     3582     3581     3582     3581     3576     3576     3582 
    3578     3572     3580     3585     3577     3577     3584     3578 
    3576     3582     3580     3576     3582     3585     3578     3578 
    3581     3577     3577     3584     3582     3580     3584     3581 
    3574     3578     3584     3577     3572     3577     3584     3585 
    3581     3578     3581     3578     3578     3581     3574     3576 
    3586     3585     3581     3586     3585     3577     3577     3582 
    3585     3582     3577     3570     3570     3578     3584     3584 
    3581     3577     3578     3585     3586     3584     3577     3576 
    3577     3577     3578     3581     3580     3573     3572     3580 
    3578     3574     3574     3574     3582     3591     3586     3581 
    3576     3573     3577     3582     3584     3581     3573     3576 
    3584     3582     3580     3577     3574     3577     3580     3578 
    3578     3578     3577     3577     3580     3580     3577     3576 
    3576     3580     3582     3580     3578     3580     3580     3577 
    3577     3577     3574     3573     3573     3578     3582     3581 
    3580     3577     3577     3577     3578     3580     3580     3576 
    3577     3586     3595     3589     3576     3573     3578     3578 
    3574     3574     3582     3585     3573     3566     3578     3589 
    3585     3582     3586     3585     3574     3565     3566     3577 
    3589     3592     3586     3584     3588     3582     3568     3572 
    3589     3588     3569     3570     3593     3586     3562     3563 
    3577     3576     3576     3595     3618     3609     3563     3534 
    3557     3581     3582     3596     3611     3595     3570     3566 
    3565     3566     3580     3595     3611     3609     3574     3538 
    3537     3562     3591     3603     3599     3585     3568     3569 
    3584     3580     3573     3581     3588     3589     3593     3589 
    3573     3563     3569     3578     3585     3584     3577     3580 
    3584     3574     3573     3584     3581     3578     3582     3581 
    3585     3588     3576     3568     3577     3586     3585     3580 
    3580     3580     3576     3574     3577     3580     3585     3589 
    3585     3581     3580     3572     3572     3584     3581     3572 
    3577     3578     3572     3574     3585     3588     3584     3581 
    3582     3585     3580     3574     3577     3580     3578     3577 
    3573     3573     3581     3584     3578     3577     3576     3574 
    3572     3577     3586     3586     3577     3576     3578     3578 
    3578     3578     3580     3584     3582     3580     3576     3570 
    3568     3573     3582     3588     3586     3580     3572     3574 
    3585     3586     3580     3574     3569     3569     3572     3568 
    3576     3596     3589     3511     3319     3042     3048     3838 
    5016     5273     4237     2938     2077     2085     3634     5300 
    4542     2743     2740     3659     4271     4376     2721      916 
    2018     4406     5701     6034     4764     2181      897     2166 
    4959     7141     6948     4483     1405      276     2027     4079 
    4052     3140     3092     3323     3825     5012     4927     2728 
     927     1368     2721     3530     4530     5660     5116     3244 
    2717     3678     3663     2947     4214     6196     5147     2934 
    2758     2100     1048     2949     4834     4199     4017     4282 
    3470     3314     4263     4109     3057     3388     4456     4583 
    4247     3588     2378     2026     2847     2740     2168     3507 
    5227     5107     3964     2872     2970     4000     3603     3102 
    4947     5679     3279     1867     2474     2718     2965     3631 
    3978     4390     4392     2436      548     2729     6208     5262 
    3530     5678     5359      762     1263     5802     4847     1641 
    2956     4712     3350     2428     3986     5371     4125     2376 
    3411     4683     2542     1206     4054     5215     2182      719 
    3550     6323     4133      923     3219     5397     2074     1256 
    6185     7986     4661     4207     6405     3757      -82     2640 
    7487     6716     2199     2026     4180    -2631   -16727   -27938 
  -33156   -32216   -24046    -4129    25097    45756    49450    49260 
   59073    69927    55381    21095     4237     2627   -17544   -47920 
  -55651   -47614   -45578   -43549   -30599    -8646    16557    39401 
   54682    57339    45292    25318    11550     4656    -8908   -21701 
  -18602   -12152   -13046   -12614    -9865    -7744    -1152     8623 
   14771    17841    17066     8500      298     2687     8652     6673 
   -1053    -4905    -2209     2060     5622     9884    12623    10716 
    5256     -718    -3496     -621     5071     7804     6465     5585 
    6760     7252     7530     9882    12414    11421     7152     3811 
    3111     2072     -351    -2455    -4916    -7184    -7022    -6524 
   -6781    -5077    -2527     -573     4567    12834    16761    13775 
    9606     6251     1734    -1165    -1158    -1699    -1179     3079 
    6119     5331     5796     9005    11062    11047    10346     8356 
    4725     1287     -710    -1506    -1524     -982      762     3707 
    5510     4716     4174     6586     8661     7288     5547     5231 
    4088     2144     1028      606       -9    -1463    -2836    -1923 
    1109     3738     4526     4220     4646     5971     6274     5464 
    5238     4785     2332      -22      724     2713     3200     3825 
    5692     6301     4972     4341     5474     6855     7668     8523 
    9880    10567     8737     5746     4757     4733     3021     1215 
     985      367    -1354    -2624    -3042    -2709    -1906    -1610 
   -1206      850     3364     4326     4650     5285     4816     3423 
    3384     4232     4023     3817     4441     4117     3524     4812 
    6421     7003     7628     7476     6066     5169     4327     2511 
    1583     2223     2420     1773     1356      781     -136     -162 
     681     1505     3084     5590     6940     7055     8071     9350 
    9194     8617     8167     6926     5742     5360     4028     1300 
    -724    -1486    -1854    -1409       89     1275     1445     1595 
    2196     2629     2902     3292     3478     3524     3875     4253 
    3963     3442     3743     4469     4839     5171     5552     5711 
    5636     5259     4950     4955     4592     3875     3655     3620 
    2679     1067      380      951     1444     1729     2506     3159 
    3254     3709     4776     5525     5803     5973     5516     4603 
    4689     5526     5096     3547     2944     3252     3257     3481 
    3879     2941     1324      876     1364     2115     3064     3601 
    3530     3040     1938     1293     2501     4383     5144     5169 
    5163     4819     4297     3942     3792     4060     4228     3667 
    2948     2513     2539     3231     3612     3165     3433     4692 
    5020     4166     3544     3478     3724     3732     3025     3052 
    4093     3541     2029     2690     4342     4688     4803     5412 
    5664     5613     5552     5159     4484     3684     2474     1329 
    1302     1965     2250     2496     3094     3314     3163     3477 
    3670     2844     2200     2826     3518     3084     2428     2671 
    3019     2949     3457     4174     4241     4444     4843     4849 
    5080     5325     4513     3597     3738     3825     3105     2457 
    2307     2382     2604     2836     3071     3369     3399     3381 
    3987     4765     4672     3936     3694     4081     4237     3867 
    3465     3300     3075     2766     2964     3861     4734     4892 
    4641     4756     5039     4961     5066     5552     5341     4360 
    3802     3459     2490     1620     1431     1316     1069      970 
    1044     1340     1926     2386     2505     2860     3446     3514 
    3485     4183     4665     4190     3932     4197     4028     3766 
    4055     4337     4153     3842     4117     5042     5489     5319 
    5757     6477     6160     5175     4665     4446     3559     2074 
     897      480      679     1144     1833     2625     2925     3180 
    4094     4608     4248     4236     4468     4017     3607     3727 
    3561     3323     3435     3514     3958     4473     3844     2880 
    2899     3288     3302     3348     3794     4083     3877     3955 
    4452     4189     3217     3063     3562     3336     2863     3055 
    3326     3180     3022     3319     3704     3326     2481     2111 
    2227     2582     3414     4483     4860     4727     4972     4936 
    4348     4561     5062     4125     2894     3064     3302     2577 
    2409     3249     3682     3462     3543     3908     3751     3314 
    3605     4484     4761     4293     4274     4672     4113     3051 
    2983     3439     3383     3235     3730     4633     5019     4414 
    3434     2884     2714     2374     1877     1911     2548     2783 
    2474     2748     3574     3796     3334     3167     3681     3943 
    3198     2529     3019     3653     3535     3586     4243     4513 
    4263     4380     4423     3599     3021     3585     4105     3762 
    3677     4633     5405     5120     4742     4683     4148     3144 
    2589     2704     2756     2543     2694     3179     3380     3310 
    3180     2959     2998     3601     4268     4658     4797     4434 
    4000     4120     4190     3838     3483     3069     2737     2967 
    3184     2737     2484     2940     2999     2575     2975     3856 
    3882     3377     3346     3581     3369     2994     3235     3766 
    3913     4205     4930     5128     4541     4104     4243     4591 
    4676     4230     3646     3412     3187     2785     2658     2749 
    2839     3136     3469     3559     3655     3916     4059     3866 
    3565     3503     3523     3299     3040     3001     3071     3159 
    3196     3350     3842     4147     3825     3597     3932     4137 
    3936     3827     3742     3581     3674     3534     2882     2847 
    3360     3053     2558     3137     3836     3711     3711     4178 
