Origin Time       2018/04/09 06:38:00
Lat.              35.2
Long.             132.6
Depth. (km)       10
Mag.              3.8
Station Code      SMN006
Station Lat.      35.1942
Station Long.     132.4978
Station Height(m) 36
Record Time       2018/04/09 06:38:51
Sampling Freq(Hz) 100Hz
Duration Time(s)  60
Dir.              E-W
Scale Factor      7845(gal)/8223790
Max. Acc. (gal)   25.785
Last Correction   2018/04/09 06:38:51
Memo.             
[...]
     456      459      457      453      457      464      464      454 
     446      450      459      460      456      456      463      461 
     456      456      453      451      459      464      464      461 
     459      453      453      457      460      459      451      451 
     459      459      451      451      456      457      459      457 
     454      456      459      459      460      461      460      457 
     457      457      460      461      456      450      449      450 
     456      459      457      457      457      456      456      457 
     457      459      457      456      459      459      456      457 
     457      454      456      460      460      456      454      453 
     451      454      460      461      456      454      457      456 
     456      457      457      456      456      457      457      457 
     460      456      453      459      460      459      459      457 
     456      453      453      456      453      451      456      459 
     457      457      454      453      456      460      460      457 
     457      456      453      451      453      457      460      457 
     457      459      457      459      460      459      459      457 
     456      456      457      459      459      454      454      456 
     451      451      456      457      457      461      460      456 
     457      459      457      459      459      454      456      459 
     457      454      454      456      457      456      454      459 
     460      459      459      454      453      457      459      454 
     454      457      457      456      459      459      460      459 
     454      454      454      451      454      459      459      457 
     459      457      454      454      453      453      457      457 
     454      459      463      461      460      459      457      457 
     459      457      453      453      457      459      457      457 
     457      459      459      456      454      460      456      450 
     456      461      460      457      457      457      457      460 
     457      456      461      459      454      454      456      461 
     464      460      456      454      451      450      451      456 
     457      457      457      460      460      460      461      460 
     456      451      453      454      457      457      457      459 
     457      453      456      459      457      456      454      456 
     457      454      454      457      459      457      456      457 
     457      453      450      453      456      457      459      461 
     459      454      454      453      451      454      454      450 
     450      456      457      456      460      459      456      461 
     464      460      457      454      453      454      454      453 
     454      454      451      453      457      459      459      459 
     456      453      456      457      457      457      454      454 
     456      453      453      456      453      451      456      457 
     454      453      456      457      460      459      456      456 
     457      459      459      454      454      457      456      456 
     456      456      457      457      454      456      456      454 
     456      456      456      460      459      456      456      457 
     456      453      454      456      456      457      459      459 
     459      456      457      460      459      457      456      456 
     457      459      457      456      457      457      454      454 
     456      454      456      460      459      457      457      459 
     460      459      454      456      457      454      456      459 
     457      454      454      454      454      456      457      457 
     460      460      457      456      456      456      456      459 
     460      457      457      457      456      457      459      454 
     454      456      459      460      460      460      456      456 
     457      457      456      454      456      457      456      456 
     457      457      459      460      459      454      453      454 
     459      457      454      456      459      457      456      457 
     456      453      456      460      459      457      457      456 
     456      456      456      456      459      460      457      453 
     456      457      457      459      459      457      456      456 
     457      457      456      453      454      460      460      457 
     457      456      456      459      456      453      456      459 
     457      456      456      456      457      460      457      456 
     456      453      456      457      454      454      457      456 
     456      456      457      457      457      457      459      460 
     459      456      456      454      454      456      454      454 
     457      457      457      457      459      459      454      453 
     454      456      457      457      454      456      456      456 
     456      454      454      459      460      459      456      456 
     459      457      456      457      457      454      454      456 
     454      456      456      456      456      456      451      454 
     459      457      456      456      454      457      459      457 
     456      459      459      453      453      454      456      456 
     456      456      456      454      454      457      457      456 
     454      454      457      456      454      456      459      457 
     456      456      456      454      456      457      457      459 
     457      454      456      451      451      457      456      456 
     459      457      456      459      459      453      454      459 
     453      451      459      456      454      459      457      456 
     459      459      454      454      459      457      454      454 
     454      454      456      454      456      457      459      460 
     460      459      456      453      451      451      453      459 
     461      460      456      454      457      456      456      457 
     454      454      456      456      456      461      460      454 
     454      456      456      459      460      459      454      453 
     450      453      457      454      454      459      459      457 
     456      454      454      457      459      454      456      459 
     457      456      460      459      456      457      461      460 
     459      457      454      453      457      457      453      454 
     456      456      457      457      456      456      459      457 
     456      457      457      457      454      453      456      457 
     456      457      456      454      457      456      454      457 
     459      459      460      459      457      456      457      457 
     456      453      451      453      454      454      457      459 
     457      457      460      461      457      454      454      457 
     457      457      457      456      453      451      454      459 
     459      457      459      460      459      457      459      454 
     453      459      460      454      454      454      453      456 
     459      456      456      456      456      456      457      459 
     456      454      457      456      454      457      451      453 
     457      459      459      456      453      456      456      454 
     457      457      457      456      451      451      454      454 
     451      451      456      457      460      461      460      459 
     459      456      451      450      450      451      453      454 
     454      456      457      456      456      459      460      457 
     456      457      456      457      459      454      454      461 
     459      457      457      454      456      459      457      457 
     459      454      454      457      456      456      457      457 
     459      459      456      459      460      454      454      459 
     457      457      459      457      459      461      459      456 
     457      456      456      457      456      456      460      459 
     456      454      453      454      459      460      457      457 
     457      453      454      457      453      453      457      459 
     460      456      453      459      461      460      457      451 
     451      459      460      456      453      456      457      456 
     457      457      456      460      459      457      456      453 
     456      463      463      457      454      454      457      461 
     460      454      453      453      451      454      457      459 
     461      459      453      449      451      456      456      454 
     456      459      459      457      457      459      460      461 
     459      456      456      457      456      454      451      453 
     453      454      454      456      457      456      456      460 
     459      454      456      459      459      457      456      456 
     454      454      457      454      451      453      459      460 
     456      456      457      456      449      453      464      461 
     451      451      451      451      456      454      453      460 
     461      456      453      454      451      449      457      463 
     454      454      459      456      451      454      457      451 
     450      457      460      457      454      456      456      451 
     449      454      459      456      451      451      453      456 
     457      460      464      461      456      454      454      450 
     450      459      463      457      453      454      457      459 
     457      457      459      457      459      459      457      456 
     453      450      456      461      459      454      451      454 
     459      459      457      459      459      457      459      457 
     453      450      451      456      460      457      454      456 
     457      457      456      456      456      456      457      460 
     461      460      456      450      450      454      456      453 
     456      461      459      456      459      454      450      456 
     460      460      461      460      456      454      453      454 
     456      457      459      460      457      450      453      454 
     450      454      464      461      456      457      454      446 
     448      456      460      461      461      459      457      454 
     450      451      463      463      451      451      453      449 
     454      460      457      460      464      454      445      453 
     464      460      454      454      451      445      449      461 
     468      461      449      448      454      450      448      467 
     483      473      445      430      442      456      457      467 
     475      464      446      442      449      448      451      476 
     491      471      441      432      445      463      467      461 
     453      451      454      456      459      456      446      454 
     472      468      453      448      454      463      464      454 
     446      449      456      461      461      457      459      459 
     457      460      457      449      448      449      456      464 
     461      451      448      456      459      461      464      464 
     459      459      457      453      450      450      450      456 
     464      463      453      450      457      467      464      454 
     454      457      454      453      450      451      463      468 
     460      449      444      450      456      459      461      456 
     446      451      456      451      454      461      463      464 
     467      460      445      438      449      460      461      456 
     449      441      444      464      476      464      456      480 
     502      472      405      369      473      877     1528     1661 
     319    -1910    -2656     -665     2389     3970     2870     -263 
   -2843    -2374      446     2824     3225     1719     -306     -661 
     546      886     -306    -1498    -1393      842     3970     3715 
    -838    -4618    -3984     -156     3889     5003     1975    -1549 
   -1429     1121     2540     1179    -1490    -2046      -74     1806 
    2496     2098      532    -1382    -2111     -890     1062     1992 
    2208     2141      820    -1143    -1682     -584      967     2316 
    2365      677     -680     -791     -827     -135     1560     2079 
     963     -198     -451       82      783      772     -186      -52 
    1658     1525     -579     -546     1788     2531      648    -1098 
    -868      255     1035     1787     1698     -299    -1863     -934 
    1060     2224     1753      270     -727     -500      211       -9 
    -544      511     2524     2712      519     -993     -566     -202 
     205     1671     2239      625     -903     -963     -812        9 
    2315     3258     1017    -1047      -13     1150     -657    -2053 
     503     3464     2042    -1062     -610     1117     -396    -1722 
    1595     4291      772    -2890     -171     2532    -1314    -3577 
    2144     5744     -282    -6041    -1988     4260     3572      804 
    2251     4025      206    -3384      359     4787     6126     8029 
    9100     8135     5926     2752    -2619   -11854   -17861   -16409 
  -17064   -21177   -17014    -1890    12571    17535    16740    13281 
    6309     2644     7901    14457    14069     9562     3234   -10118 
  -25967   -26574   -10126     2265     1528      159     4122     7389 
    6250     1487    -2743    -2598      -89     4112    11327    14712 
    9771     4464     3366      880    -4746    -7349    -5240    -4024 
   -4311    -1278     2656      919    -3757    -4564    -2571     -919 
    1579     3632      942    -5219    -7661    -2255     5814     7838 
    3551      936     3149     4882     3078      990      261    -1436 
   -3962    -4144    -1776     -386    -1356    -1291     1512     3451 
    3993     7241    11610    11986     8680     3638    -2224    -5791 
   -5445    -3846    -3083    -3180    -3713    -3159     -845     1674 
    2863     1961     -558    -3048    -4499    -4895    -4072    -2212 
    -950    -1143     -566     2563     5320     4866     4405     6183 
    6122     2488     -824    -2214    -3329    -3650    -1918      237 
     994     1198     1767     2435     3757     5566     5961     4870 
    3666     1632    -1925    -4649    -4951    -4837    -5536    -5366 
   -3483    -1192      532     1838     3067     4082     4261     3866 
    4186     4985     4297     1930       -2     -772    -1784    -3360 
   -4286    -4930    -6142    -5987    -3238     -473      333      518 
    1877     3917     4955     5314     6619     8230     7827     5136 
    2602     1803     1007    -1215    -3002    -3191    -3133    -3194 
   -2708    -1657      144     2004     2085     1030     1000     1003 
    -425    -1051      334     1151      341     -483     -781     -997 
   -1383    -2135    -2253     -677      959      958      608     1131 
    1752     2100     2479     2669     2535     1948      396    -1626 
   -2671    -2501    -2501    -3188    -3017    -1610     -677     -110 
    1264     2700     3640     4544     5077     5051     4887     4218 
    2882     2031     2327     2875     2276      464     -737     -623 
    -734    -1459    -1885    -2338    -3245    -3932    -3885    -2990 
   -1553     -649     -739     -724      128      595     -234     -715 
     500     1982     2660     3307     3604     2538     1154     1053 
    1696     1790     1421     1078      386     -795    -1424     -720 
     577     1408     1933     2671     2970     2165      993      600 
    1133     1443      864      356      206     -608    -1993    -2623 
   -1836     -514      212      581      901      750      383      361 
     531      425     -184    -1023    -1571    -1718    -1534     -738 
     373      785      572      571      992     1732     2126     1688 
    1513     2056     2025      985      -54     -310     -199     -415 
    -506      238     1297     1613     1273     1102      954      380 
     -99       22      307      218       32      122      368      746 
    1058      970     1060     1771     2193     1867     1487     1089 
     251     -279      287      722     -139    -1080    -1237    -1237 
    -955     -110      569      649      571      531      351      237 
     233     -228    -1205    -1910    -2150    -2459    -2342     -760 
    1792     3854     4766     4814     4691     4621     3965     2602 
    1177     -151    -1339    -1899    -1757    -1525    -1605    -1530 
    -506     1236     2555     2836     2351     1582      660     -395 
   -1150    -1343    -1518    -1941    -2052    -1676    -1230     -803 
     -60     1163     2455     3051     2639     1927     1865     2270 
    2135     1368      680       72     -692    -1030     -550       40 
      79      -21      183      244      -65      -32      685     1210 
     739     -164     -498     -259       99      460      502       21 
    -468     -495       89     1065     1668     1833     2193     2470 
    2188     1672     1067      399      209      429      369      129 
     -17     -221     -394     -457     -353      -81       71      303 
     733      670      224       87     -157     -818    -1042     -380 
     592     1293     1595     1503     1107      680      468      407 
     309      423      903     1185      903      425       -8     -449 
    -557       29      810      961      637      702     1205     1360 
     919      456      355      212     -286     -531     -129      263 
     360      648     1074     1196     1152     1270     1386     1278 
    1229     1455     1444      949      595      638      544      -52 
    -847    -1217    -1242    -1584    -1888    -1305     -263      289 
     357      545     1044     1337      987      459      398      530 
     413      406      757     1124     1343     1587     1987     2184 
    1748     1104      946     1100      760      -47     -341     -170 
    -313     -396      -75       60      -71      -83      -28      -81 
    -164     -153      -11      263      557      508      112       -9 
     326      650      815      922      955      993     1003      855 
     715      689      579      396      307      199      -99     -469 
    -573     -166      552      928      712      558      868     1192 
    1112      575       78      283      870     1297     1591     1621 
    1308      963      793      723      504       16     -614    -1009 
    -818     -299      144      480      569      479      475      329 
      76      190      402      421      758     1258     1115      665 
     762     1115      990      707      981     1402     1275      977 
     854      475     -166     -484     -425     -498     -769     -818 
    -687     -656     -460       86      492      338       95      376 
     687      383       21      183      363      166       76      405 
     679      504      368      767     1282     1467     1495     1440 
    1170      942      978      903      618      639      980     1046 
     761      780     1328     1702     1574     1372     1078      442 
     -76      -91       43      -20      -55      224      499      337 
