Origin Time       2018/04/09 06:38:00
Lat.              35.2
Long.             132.6
Depth. (km)       10
Mag.              3.8
Station Code      SMN006
Station Lat.      35.1942
Station Long.     132.4978
Station Height(m) 36
Record Time       2018/04/09 06:38:51
Sampling Freq(Hz) 100Hz
Duration Time(s)  60
Dir.              U-D
Scale Factor      7845(gal)/8223790
Max. Acc. (gal)   13.299
Last Correction   2018/04/09 06:38:51
Memo.             
[...]
    3076     3080     3082     3076     3079     3086     3082     3080 
    3087     3084     3079     3079     3079     3078     3082     3083 
    3083     3080     3075     3078     3084     3082     3080     3083 
    3082     3080     3082     3079     3080     3080     3082     3083 
    3082     3082     3083     3082     3080     3083     3084     3079 
    3078     3083     3080     3078     3083     3083     3076     3079 
    3082     3078     3080     3084     3080     3079     3082     3082 
    3080     3080     3080     3084     3087     3084     3083     3083 
    3083     3079     3079     3083     3083     3080     3082     3080 
    3078     3082     3084     3080     3080     3084     3083     3080 
    3082     3082     3082     3082     3082     3080     3079     3080 
    3082     3082     3084     3083     3080     3082     3083     3082 
    3083     3082     3078     3078     3083     3084     3082     3080 
    3083     3083     3082     3082     3080     3082     3083     3082 
    3082     3079     3080     3083     3079     3078     3080     3083 
    3082     3080     3080     3080     3080     3082     3082     3080 
    3082     3086     3080     3076     3080     3083     3080     3079 
    3080     3080     3080     3080     3080     3080     3083     3082 
    3078     3082     3086     3079     3076     3080     3079     3079 
    3080     3079     3082     3082     3078     3079     3082     3080 
    3082     3080     3079     3082     3084     3082     3079     3082 
    3080     3079     3080     3080     3080     3083     3083     3080 
    3080     3083     3082     3080     3083     3084     3082     3079 
    3080     3082     3080     3083     3083     3082     3082     3082 
    3083     3080     3079     3084     3084     3078     3078     3082 
    3080     3080     3082     3082     3084     3088     3083     3079 
    3082     3083     3083     3082     3080     3079     3080     3080 
    3082     3083     3079     3076     3082     3083     3080     3082 
    3084     3082     3080     3080     3080     3082     3083     3083 
    3079     3076     3079     3082     3078     3079     3080     3080 
    3082     3084     3080     3078     3079     3079     3079     3082 
    3082     3080     3080     3080     3078     3080     3083     3082 
    3079     3080     3080     3080     3079     3078     3080     3083 
    3079     3078     3079     3082     3083     3082     3079     3079 
    3082     3079     3080     3083     3080     3080     3082     3080 
    3078     3079     3082     3078     3078     3080     3079     3079 
    3080     3080     3082     3080     3079     3082     3083     3082 
    3080     3079     3079     3080     3082     3082     3082     3083 
    3082     3079     3080     3080     3079     3082     3082     3078 
    3078     3082     3080     3078     3078     3079     3080     3080 
    3080     3082     3084     3083     3080     3082     3082     3080 
    3080     3078     3075     3078     3080     3080     3083     3084 
    3082     3082     3082     3080     3080     3082     3080     3079 
    3080     3083     3083     3083     3082     3082     3082     3082 
    3080     3079     3079     3082     3084     3082     3080     3082 
    3082     3079     3080     3080     3079     3082     3083     3083 
    3080     3080     3083     3080     3080     3082     3083     3084 
    3084     3082     3080     3080     3084     3083     3079     3079 
    3082     3080     3079     3079     3080     3080     3082     3082 
    3082     3080     3080     3079     3080     3083     3084     3083 
    3082     3079     3080     3082     3079     3079     3084     3086 
    3083     3080     3082     3082     3080     3080     3082     3082 
    3082     3083     3083     3082     3079     3079     3082     3083 
    3080     3080     3083     3080     3079     3080     3080     3082 
    3084     3083     3079     3082     3087     3083     3079     3082 
    3082     3080     3079     3080     3082     3083     3083     3082 
    3079     3080     3083     3083     3084     3084     3082     3083 
    3086     3084     3083     3083     3080     3079     3082     3086 
    3083     3079     3079     3080     3082     3080     3080     3080 
    3082     3080     3080     3083     3083     3080     3080     3083 
    3080     3079     3080     3080     3082     3082     3083     3083 
    3079     3079     3083     3082     3079     3079     3083     3082 
    3078     3079     3082     3082     3084     3083     3079     3082 
    3083     3080     3079     3080     3082     3080     3079     3083 
    3084     3082     3082     3080     3079     3082     3080     3079 
    3080     3084     3082     3079     3080     3080     3082     3083 
    3080     3080     3083     3080     3080     3083     3083     3082 
    3080     3082     3083     3086     3084     3082     3080     3080 
    3082     3084     3084     3082     3079     3078     3082     3084 
    3083     3080     3082     3084     3083     3082     3080     3080 
    3082     3083     3080     3079     3080     3082     3083     3084 
    3083     3083     3083     3079     3079     3082     3080     3080 
    3083     3083     3082     3082     3082     3082     3083     3080 
    3080     3080     3082     3083     3082     3079     3082     3084 
    3084     3083     3082     3082     3084     3083     3079     3080 
    3082     3082     3080     3079     3082     3082     3079     3082 
    3083     3083     3083     3080     3080     3082     3082     3083 
    3084     3083     3082     3080     3080     3082     3083     3082 
    3082     3083     3080     3080     3080     3080     3080     3082 
    3084     3083     3080     3079     3082     3084     3083     3079 
    3080     3082     3079     3082     3084     3082     3080     3080 
    3080     3080     3083     3082     3080     3080     3082     3082 
    3080     3080     3082     3083     3082     3080     3080     3083 
    3084     3082     3082     3083     3082     3080     3080     3079 
    3080     3083     3083     3082     3082     3082     3082     3080 
    3078     3079     3083     3084     3080     3079     3082     3083 
    3082     3080     3082     3082     3082     3079     3082     3084 
    3082     3079     3076     3079     3083     3082     3079     3080 
    3080     3080     3080     3079     3080     3083     3082     3080 
    3082     3083     3082     3082     3083     3084     3083     3080 
    3080     3079     3079     3079     3080     3082     3080     3080 
    3080     3079     3082     3084     3084     3084     3084     3082 
    3080     3082     3082     3080     3080     3080     3080     3083 
    3083     3083     3079     3078     3080     3083     3082     3080 
    3079     3079     3082     3082     3078     3078     3082     3080 
    3080     3080     3080     3083     3082     3079     3084     3084 
    3080     3082     3082     3083     3083     3080     3079     3082 
    3082     3079     3080     3080     3080     3083     3084     3080 
    3082     3083     3082     3080     3079     3079     3082     3082 
    3082     3083     3083     3080     3080     3083     3082     3080 
    3083     3082     3079     3083     3084     3079     3078     3083 
    3083     3080     3080     3080     3080     3082     3082     3079 
    3079     3083     3083     3079     3080     3084     3084     3082 
    3082     3083     3080     3082     3084     3082     3080     3083 
    3082     3079     3080     3082     3082     3082     3083     3084 
    3082     3082     3084     3083     3082     3086     3084     3079 
    3079     3082     3082     3083     3084     3086     3083     3080 
    3083     3083     3079     3079     3079     3079     3082     3080 
    3079     3079     3080     3084     3086     3083     3082     3082 
    3080     3080     3080     3080     3082     3080     3082     3083 
    3082     3082     3084     3082     3079     3080     3083     3082 
    3083     3082     3078     3079     3083     3086     3087     3086 
    3080     3078     3080     3083     3082     3082     3084     3083 
    3079     3080     3084     3083     3080     3079     3079     3080 
    3080     3078     3082     3082     3078     3078     3082     3083 
    3086     3084     3080     3079     3082     3082     3078     3076 
    3079     3079     3083     3086     3086     3084     3079     3076 
    3078     3082     3086     3082     3079     3082     3080     3080 
    3082     3084     3086     3084     3083     3083     3080     3079 
    3079     3080     3080     3080     3083     3083     3082     3082 
    3082     3079     3080     3083     3080     3080     3082     3080 
    3079     3078     3078     3083     3080     3076     3079     3079 
    3079     3083     3082     3082     3084     3080     3079     3080 
    3078     3079     3090     3090     3078     3069     3080     3086 
    3082     3084     3084     3078     3080     3082     3079     3079 
    3082     3082     3084     3087     3076     3071     3082     3086 
    3079     3080     3084     3082     3082     3083     3082     3079 
    3080     3083     3083     3080     3079     3082     3082     3079 
    3079     3080     3083     3086     3082     3078     3082     3086 
    3082     3076     3079     3083     3084     3086     3080     3076 
    3080     3084     3082     3082     3083     3084     3080     3080 
    3086     3084     3082     3082     3083     3080     3082     3084 
    3079     3078     3083     3083     3082     3079     3076     3082 
    3086     3084     3083     3080     3082     3084     3080     3079 
    3082     3080     3079     3083     3086     3083     3080     3080 
    3080     3082     3083     3083     3082     3082     3082     3078 
    3079     3082     3080     3082     3082     3084     3088     3083 
    3078     3079     3079     3082     3083     3082     3083     3080 
    3078     3082     3083     3079     3082     3084     3082     3080 
    3082     3084     3084     3080     3078     3080     3083     3078 
    3076     3080     3086     3087     3083     3079     3079     3076 
    3080     3088     3084     3076     3080     3086     3088     3086 
    3078     3073     3080     3086     3086     3076     3068     3075 
    3084     3080     3082     3090     3090     3079     3068     3069 
    3082     3083     3076     3083     3098     3095     3078     3068 
    3075     3078     3071     3078     3096     3096     3079     3067 
    3067     3075     3079     3076     3086     3100     3094     3071 
    3064     3079     3087     3080     3079     3086     3088     3086 
    3079     3071     3071     3082     3084     3078     3078     3079 
    3079     3086     3088     3082     3071     3069     3078     3087 
    3092     3090     3083     3076     3075     3080     3083     3083 
    3083     3086     3084     3075     3071     3079     3080     3079 
    3082     3082     3082     3084     3083     3078     3071     3076 
    3087     3086     3079     3078     3079     3079     3079     3076 
    3080     3090     3088     3082     3078     3075     3078     3083 
    3088     3088     3083     3076     3079     3084     3083     3080 
    3080     3086     3086     3079     3076     3080     3083     3082 
    3082     3083     3083     3078     3080     3088     3087     3078 
    3078     3084     3084     3080     3080     3086     3087     3083 
    3080     3084     3084     3080     3076     3080     3088     3087 
    3082     3080     3079     3078     3079     3084     3090     3083 
    3076     3076     3079     3078     3061     3007     2949     2986 
    3126     3179     2926     2123      635     -434     1165     5487 
    8603     7280     3289      476     1377     5841     8783     5845 
     939    -1073     -490     1926     3604     1980      946     2677 
    4047     4642     4820     3912     2701     2389     3429     3723 
    2698     2725     2720     2062     3352     5201     4025     1128 
     261     2381     5491     6264     4055     1737      966     1833 
    3904     5251     4040     1393      908     3223     4456     3508 
    2874     2282     2155     4398     4715     1115      885     4391 
    4679     2957     2735     2967     3260     3507     3024     2490 
    3167     4258     3403     1791     2484     3558     3053     3426 
    4010     2740     1686     1707     2434     3986     4077     2393 
    1985     2593     2867     4387     5634     4603     4163     3565 
    1190      985     2882     3380     2683     2558     3514     3416 
    2033     2538     3871     3630     4097     4523     1798      403 
    3325     4765     2982     2393     3932     4511     2667     1237 
    2327     3262     1587      333     3462     6970     5437     3056 
    4036     5325     4926     3861     3981     4399      502    -2759 
    1740     5196     1794     -441     3762     8143     4063    -1903 
     757     8621     9925     -454    -7852    -2809     4356     8866 
   10311     8166     4945     3496     7056     7520      847      108 
    5255     5051    -2747   -10338    -5537     3075     -337    -1939 
    7542     8464     -739     -595     4784     3620     3522     5805 
    3798     6072    15847    16283     5391     1833     5616     3061 
   -1941    -3597    -5271    -4303    -1490    -1263     -576     -672 
    -819     6743    16394    17021    10686     5717     6003     7504 
    5485      918    -4352    -6845    -2938     2134     2265      966 
    1586     2624     3595     3782     4025     5917     6307     4576 
    3076     1159      189      691      148     -256     1345     3962 
    5741     4831     2891     3402     4950     5709     6706     6016 
    3848     4464     5275     2479       27       81      121      -58 
    1332     3188     3240     4675     8191     7138     2920     1618 
    1138      946     2706     2763     1246     1914     3766     5198 
    6000     6107     5745     4731     3885     2691      603      202 
     691     -535     -525     2493     4223     3534     3899     4808 
    4280     3902     4313     4218     3767     3294     2466     1845 
    1981     2430     2227     1664     2506     3666     2772     2274 
    4553     6123     4568     2955     3180     3523     3159     2902 
    3261     3674     2783     1258     1294     2249     2650     2718 
    2636     3029     3504     3114     3622     4698     3842     3387 
    4892     4793     3102     2569     2270     1638     1431     1417 
    1863     2335     2146     1891     1998     2688     3569     4094 
    4920     5262     3846     3052     4199     4460     3805     4105 
    3573     2245     3025     4245     3355     2592     3060     3098 
    3275     4002     3639     2787     2828     2284      746      677 
    2004     2266     2092     2560     2388     2425     3734     3738 
    2020     1709     2792     3061     3415     4639     4693     3603 
    3194     3213     3117     3416     4021     3997     3622     4190 
    4908     4530     4050     3925     3383     2870     2986     3130 
    2754     1768     1334     2575     3611     3427     3392     2940 
    2104     2226     2315     1906     1588     1065     1088     1998 
    2821     3315     3369     3744     4870     4945     4110     3912 
    3727     3319     2921     2570     3267     4106     3447     2381 
    2123     2539     2820     2555     2636     2664     1891     1984 
    3149     3442     3530     4577     5082     4630     4260     3762 
    3476     3701     3100     2309     2843     3358     3052     2752 
    2447     2219     2428     2909     2955     2609     2903     3273 
    3090     3021     2856     2975     3569     3057     1952     1863 
    2332     3059     3880     3950     3748     4060     3847     2783 
    2388     2609     2763     3213     2995     2096     2308     2940 
    2782     2802     3203     3310     3481     3871     3947     3544 
    3018     2808     2907     3280     3618     3065     2332     2706 
    3311     3276     3484     4094     4140     4016     4395     4172 
    2785     1848     2519     3086     2214     1714     2274     2647 
    2943     3121     2617     2403     3105     3516     3061     2712 
    2903     3051     2953     3009     3365     3707     3572     3022 
    2755     3017     3254     3005     2648     2751     3118     3407 
    3504     3357     3312     3667     4033     3786     3098     2794 
    2982     3126     2979     2644     2749     3523     3923     3464 
    2971     2739     2455     2461     2718     2533     2369     2679 
    2740     2597     2849     3257     3388     3343     3549     3731 
    3403     3422     3931     3786     3427     3295     2687     2212 
    2388     2690     3134     3358     3130     3207     3235     2808 
    2698     2542     2083     2365     2971     3024     2971     3067 
    3213     3267     3126     2997     3071     3532     3805     3308 
    3037     3440     3753     4016     4122     3699     3640     3978 
    3450     2527     1971     1431     1560     2533     3052     3213 
    3487     3252     3184     3663     3361     2647     2385     2390 
    2984     3295     2747     2928     3563     3500     3597     3732 
    3169     2720     2790     3122     3519     3519     3279     3232 
    3122     3042     3231     3172     2920     2884     2835     2767 
    2650     2596     2847     2623     2266     2829     3122     2792 
    3287     4079     3899     3256     3084     3353     3395     2909 
    2596     3175     3743     3253     2664     2766     2928     2952 
    2862     2663     2694     2863     3111     3477     3604     3416 
    3123     2907     2833     2789     2816     2984     3265     3353 
    3038     3005     3319     3308     3191     3079     3090     3554 
    3663     3257     3330     3642     3520     3333     3269     2918 
    2628     2918     3059     2690     2720     3240     3451     3310 
    3192     3067     2847     2725     2910     3064     2731     2374 
    2520     2824     3024     3002     2759     2759     2905     2934 
    3165     3231     2984     3207     3534     3458     3570     3582 
    3086     2857     3052     3079     2894     2713     2721     3046 
    3183     2748     2552     2924     3022     3021     3476     3744 
    3558     3503     3618     3609     3511     3392     3226     3059 
    2849     2739     2911     2764     2400     2787     3206     2872 
    2721     3017     3198     3273     3353     3327     3137     3022 
    3113     2965     2621     2836     3414     3518     3261     3232 
    3454     3418     2995     2872     3272     3439     3210     3265 
    3427     3068     2674     2763     2882     2740     2570     2538 
    2805     3153     3042     2863     3232     3554     3231     2926 
    3098     3144     3013     3065     2882     2625     2863     3107 
    2955     2880     3079     3180     3132     3192     3335     3393 
    3345     3312     3194     2860     2898     3492     3618     3132 
    2921     2863     2847     3210     3277     2776     2641     3064 
    3231     2844     2597     2898     3406     3757     3504     2926 
