Origin Time       2018/04/09 06:38:00
Lat.              35.2
Long.             132.6
Depth. (km)       10
Mag.              3.8
Station Code      SMNH03
Station Lat.      35.2243
Station Long.     132.7223
Station Height(m) 110
Record Time       2018/04/09 06:38:52
Sampling Freq(Hz) 100Hz
Duration Time(s)  120
Dir.              5
Scale Factor      7845(gal)/8223790
Max. Acc. (gal)   7.801
Last Correction   2018/04/09 06:38:37
Memo.             
[...]
  -10821   -10818   -10817   -10820   -10820   -10817   -10816   -10820 
  -10821   -10818   -10818   -10821   -10820   -10821   -10822   -10821 
  -10817   -10814   -10817   -10821   -10820   -10817   -10818   -10820 
  -10818   -10817   -10818   -10817   -10817   -10817   -10818   -10820 
  -10820   -10818   -10818   -10820   -10821   -10822   -10821   -10817 
  -10818   -10821   -10817   -10816   -10821   -10821   -10820   -10820 
  -10818   -10820   -10822   -10822   -10821   -10818   -10818   -10822 
  -10820   -10814   -10817   -10820   -10818   -10820   -10818   -10816 
  -10816   -10817   -10820   -10818   -10817   -10818   -10821   -10822 
  -10821   -10818   -10820   -10821   -10817   -10817   -10820   -10818 
  -10817   -10820   -10822   -10821   -10821   -10820   -10818   -10820 
  -10820   -10820   -10818   -10820   -10821   -10818   -10817   -10821 
  -10822   -10821   -10820   -10818   -10820   -10821   -10821   -10818 
  -10816   -10817   -10821   -10822   -10820   -10818   -10820   -10818 
  -10817   -10821   -10820   -10816   -10818   -10820   -10818   -10820 
  -10821   -10822   -10822   -10818   -10817   -10818   -10820   -10820 
  -10818   -10818   -10820   -10818   -10817   -10821   -10821   -10817 
  -10818   -10820   -10817   -10820   -10822   -10820   -10820   -10818 
  -10818   -10820   -10818   -10814   -10817   -10818   -10818   -10818 
  -10817   -10818   -10821   -10821   -10820   -10820   -10821   -10818 
  -10817   -10818   -10817   -10817   -10818   -10817   -10817   -10818 
  -10821   -10822   -10821   -10820   -10820   -10821   -10821   -10820 
  -10818   -10818   -10818   -10820   -10820   -10817   -10816   -10817 
  -10820   -10818   -10816   -10820   -10821   -10817   -10820   -10820 
  -10817   -10818   -10818   -10820   -10818   -10814   -10817   -10821 
  -10820   -10817   -10821   -10820   -10818   -10821   -10822   -10820 
  -10818   -10818   -10818   -10817   -10817   -10817   -10818   -10817 
  -10817   -10821   -10821   -10821   -10821   -10818   -10820   -10820 
  -10817   -10816   -10821   -10820   -10817   -10818   -10817   -10817 
  -10818   -10821   -10820   -10820   -10817   -10817   -10818   -10816 
  -10817   -10820   -10816   -10816   -10818   -10818   -10818   -10818 
  -10818   -10820   -10820   -10820   -10820   -10821   -10820   -10818 
  -10821   -10820   -10818   -10818   -10820   -10821   -10822   -10818 
  -10817   -10817   -10817   -10818   -10818   -10818   -10817   -10818 
  -10821   -10821   -10820   -10820   -10821   -10821   -10820   -10820 
  -10818   -10818   -10820   -10820   -10818   -10818   -10821   -10820 
  -10817   -10818   -10821   -10821   -10818   -10820   -10822   -10821 
  -10820   -10818   -10818   -10818   -10818   -10818   -10818   -10818 
  -10820   -10820   -10818   -10821   -10821   -10820   -10820   -10820 
  -10820   -10820   -10820   -10821   -10821   -10821   -10820   -10818 
  -10818   -10818   -10821   -10821   -10820   -10820   -10818   -10818 
  -10820   -10818   -10818   -10818   -10816   -10817   -10821   -10821 
  -10820   -10820   -10818   -10820   -10821   -10820   -10818   -10821 
  -10821   -10817   -10816   -10820   -10820   -10820   -10822   -10821 
  -10818   -10820   -10818   -10817   -10820   -10820   -10818   -10820 
  -10820   -10818   -10820   -10820   -10821   -10820   -10818   -10818 
  -10820   -10820   -10821   -10821   -10820   -10818   -10818   -10818 
  -10818   -10818   -10820   -10818   -10817   -10818   -10821   -10821 
  -10820   -10818   -10820   -10818   -10817   -10817   -10818   -10820 
  -10821   -10818   -10817   -10818   -10818   -10818   -10820   -10821 
  -10818   -10820   -10818   -10816   -10817   -10818   -10817   -10816 
  -10816   -10818   -10820   -10818   -10818   -10824   -10825   -10820 
  -10817   -10820   -10818   -10817   -10816   -10817   -10817   -10816 
  -10816   -10818   -10820   -10817   -10817   -10820   -10818   -10820 
  -10820   -10817   -10818   -10818   -10814   -10816   -10821   -10820 
  -10816   -10817   -10818   -10821   -10821   -10821   -10821   -10818 
  -10817   -10817   -10820   -10818   -10816   -10817   -10820   -10818 
  -10818   -10821   -10822   -10822   -10821   -10818   -10817   -10817 
  -10817   -10816   -10817   -10818   -10814   -10814   -10820   -10820 
  -10818   -10821   -10820   -10820   -10821   -10817   -10818   -10821 
  -10818   -10817   -10817   -10817   -10818   -10818   -10818   -10818 
  -10818   -10820   -10821   -10820   -10820   -10820   -10818   -10818 
  -10818   -10817   -10818   -10820   -10821   -10820   -10816   -10818 
  -10822   -10818   -10817   -10820   -10818   -10817   -10818   -10818 
  -10817   -10818   -10820   -10818   -10817   -10817   -10817   -10820 
  -10820   -10817   -10818   -10820   -10818   -10818   -10818   -10818 
  -10820   -10818   -10816   -10817   -10820   -10820   -10818   -10820 
  -10820   -10820   -10817   -10818   -10818   -10817   -10818   -10820 
  -10820   -10818   -10818   -10818   -10818   -10818   -10818   -10817 
  -10817   -10820   -10822   -10821   -10820   -10817   -10817   -10818 
  -10820   -10818   -10820   -10822   -10821   -10820   -10821   -10821 
  -10818   -10820   -10818   -10817   -10817   -10820   -10821   -10821 
  -10820   -10820   -10820   -10820   -10818   -10817   -10820   -10820 
  -10818   -10822   -10820   -10816   -10821   -10821   -10817   -10817 
  -10818   -10821   -10821   -10820   -10822   -10822   -10820   -10818 
  -10820   -10820   -10818   -10818   -10821   -10820   -10820   -10821 
  -10821   -10821   -10822   -10820   -10818   -10820   -10820   -10821 
  -10822   -10818   -10814   -10821   -10822   -10818   -10818   -10824 
  -10820   -10817   -10821   -10820   -10816   -10818   -10821   -10818 
  -10820   -10820   -10816   -10817   -10818   -10818   -10817   -10818 
  -10820   -10817   -10817   -10816   -10816   -10821   -10820   -10818 
  -10820   -10818   -10817   -10820   -10818   -10818   -10820   -10821 
  -10820   -10820   -10821   -10820   -10817   -10817   -10817   -10818 
  -10820   -10818   -10820   -10820   -10820   -10817   -10818   -10820 
  -10820   -10818   -10820   -10820   -10817   -10816   -10817   -10818 
  -10820   -10820   -10818   -10818   -10820   -10818   -10816   -10818 
  -10820   -10821   -10822   -10820   -10818   -10818   -10817   -10818 
  -10818   -10820   -10821   -10821   -10818   -10816   -10820   -10821 
  -10818   -10821   -10821   -10817   -10817   -10820   -10820   -10820 
  -10821   -10822   -10820   -10821   -10821   -10818   -10820   -10821 
  -10820   -10818   -10820   -10820   -10820   -10820   -10817   -10816 
  -10820   -10824   -10821   -10820   -10821   -10818   -10817   -10820 
  -10820   -10818   -10818   -10818   -10818   -10817   -10816   -10817 
  -10820   -10818   -10820   -10818   -10816   -10817   -10818   -10820 
  -10820   -10818   -10817   -10816   -10816   -10816   -10817   -10818 
  -10820   -10820   -10820   -10817   -10818   -10820   -10821   -10820 
  -10817   -10817   -10818   -10820   -10820   -10820   -10822   -10820 
  -10818   -10821   -10820   -10820   -10820   -10820   -10820   -10818 
  -10817   -10818   -10818   -10820   -10820   -10820   -10817   -10818 
  -10820   -10818   -10818   -10820   -10820   -10818   -10817   -10818 
  -10818   -10818   -10820   -10821   -10818   -10818   -10821   -10820 
  -10817   -10816   -10817   -10818   -10817   -10817   -10820   -10821 
  -10820   -10817   -10818   -10820   -10820   -10818   -10818   -10817 
  -10817   -10818   -10820   -10821   -10820   -10820   -10824   -10821 
  -10817   -10818   -10818   -10818   -10820   -10818   -10818   -10818 
  -10817   -10816   -10818   -10820   -10818   -10820   -10820   -10820 
  -10821   -10821   -10817   -10817   -10820   -10820   -10820   -10820 
  -10816   -10817   -10821   -10820   -10818   -10818   -10817   -10818 
  -10820   -10821   -10820   -10817   -10817   -10820   -10820   -10816 
  -10816   -10818   -10818   -10816   -10818   -10821   -10820   -10818 
  -10820   -10821   -10820   -10820   -10818   -10818   -10818   -10817 
  -10818   -10820   -10816   -10817   -10822   -10824   -10821   -10818 
  -10820   -10820   -10820   -10820   -10820   -10820   -10816   -10814 
  -10817   -10821   -10822   -10822   -10822   -10821   -10820   -10821 
  -10821   -10818   -10817   -10821   -10821   -10820   -10820   -10821 
  -10818   -10818   -10820   -10820   -10818   -10818   -10818   -10818 
  -10817   -10820   -10820   -10817   -10817   -10821   -10820   -10817 
  -10820   -10821   -10820   -10820   -10821   -10820   -10818   -10820 
  -10818   -10817   -10820   -10818   -10817   -10818   -10817   -10814 
  -10817   -10820   -10820   -10818   -10820   -10821   -10818   -10818 
  -10821   -10821   -10818   -10818   -10817   -10820   -10820   -10817 
  -10818   -10820   -10820   -10818   -10818   -10820   -10820   -10820 
  -10817   -10817   -10820   -10818   -10817   -10818   -10821   -10822 
  -10820   -10817   -10818   -10821   -10821   -10821   -10820   -10818 
  -10820   -10821   -10820   -10818   -10817   -10818   -10820   -10821 
  -10820   -10820   -10821   -10820   -10817   -10818   -10820   -10818 
  -10818   -10821   -10821   -10818   -10820   -10822   -10821   -10820 
  -10818   -10820   -10821   -10820   -10821   -10821   -10818   -10818 
  -10820   -10820   -10818   -10818   -10820   -10821   -10821   -10820 
  -10821   -10822   -10820   -10817   -10820   -10820   -10817   -10820 
  -10820   -10816   -10816   -10820   -10820   -10820   -10818   -10818 
  -10820   -10820   -10820   -10822   -10818   -10816   -10817   -10818 
  -10820   -10818   -10816   -10820   -10821   -10816   -10818   -10822 
  -10820   -10817   -10818   -10818   -10818   -10820   -10820   -10818 
  -10817   -10817   -10817   -10818   -10820   -10818   -10817   -10818 
  -10820   -10820   -10820   -10818   -10820   -10821   -10820   -10820 
  -10821   -10822   -10821   -10820   -10820   -10818   -10816   -10820 
  -10822   -10818   -10817   -10820   -10818   -10820   -10824   -10821 
  -10817   -10818   -10817   -10816   -10821   -10822   -10818   -10820 
  -10820   -10818   -10821   -10822   -10820   -10818   -10820   -10821 
  -10818   -10818   -10821   -10818   -10820   -10821   -10817   -10817 
  -10820   -10818   -10817   -10821   -10821   -10818   -10820   -10821 
  -10821   -10822   -10820   -10817   -10820   -10822   -10820   -10817 
  -10818   -10818   -10816   -10818   -10820   -10818   -10817   -10814 
  -10817   -10820   -10818   -10817   -10817   -10818   -10818   -10820 
  -10820   -10822   -10824   -10822   -10821   -10818   -10818   -10821 
  -10821   -10820   -10820   -10821   -10820   -10818   -10820   -10818 
  -10817   -10820   -10820   -10820   -10818   -10820   -10820   -10818 
  -10818   -10820   -10817   -10817   -10820   -10818   -10818   -10821 
  -10821   -10818   -10820   -10820   -10818   -10818   -10818   -10816 
  -10817   -10818   -10816   -10817   -10822   -10821   -10817   -10817 
  -10820   -10821   -10821   -10821   -10818   -10818   -10818   -10820 
  -10822   -10820   -10816   -10817   -10817   -10817   -10818   -10820 
  -10820   -10818   -10818   -10821   -10821   -10821   -10821   -10818 
  -10816   -10817   -10818   -10824   -10839   -10864   -10890   -10879 
  -10794   -10728   -10876   -11192   -11261   -10901   -10534   -10520 
  -10747   -11049   -11277   -11124   -10600   -10116    -9865    -9998 
  -10673   -11389   -11461   -10751    -9767    -9671   -10763   -11515 
  -11489   -11900   -11870   -10368    -9782   -11049   -11686   -11503 
  -11661   -10987    -9738    -9956   -10913   -11153   -11060   -10670 
  -10203   -10345   -10496   -10517   -11203   -11723   -10872    -9987 
  -10609   -11587   -11722   -11388   -10712    -9903    -9859   -10363 
  -10701   -11013   -11141   -10922   -10548   -10196   -10366   -10921 
  -11195   -11252   -11317   -11107   -10527   -10372   -10771   -10926 
  -11090   -11254   -11211   -11341   -10964   -10234   -10239   -10631 
  -10956   -11199   -11105   -10752   -10720   -10905   -10847   -11146 
  -11443   -10898   -10577   -10660   -10581   -10633   -10272    -9707 
  -10103   -10887   -11011   -11083   -11569   -11302   -10639   -10689 
  -10735   -11183   -11749   -10970   -10471   -10856   -10638   -10482 
  -10593   -10211   -10110   -10654   -10804   -10585   -10922   -11307 
  -11276   -11086   -10674   -10756   -11172   -10970   -10876   -11087 
  -11179   -11279   -10696   -10222   -10933   -11001   -10405   -10698 
  -10890   -10497   -10299   -10577   -11056   -10837   -10590   -10983 
  -10882   -11065   -11789   -11600   -11484   -11389   -10035    -9211 
   -9946   -10428   -10413   -10837   -10820   -10490   -11152   -11657 
  -11119   -10933   -11283   -11354   -11458   -11434   -10953   -10552 
  -10046    -9414    -9591   -10245   -10621   -11311   -11836   -11092 
  -10273   -10434   -10874   -11503   -12370   -12310   -10781    -9134 
   -8918    -9948   -10945   -11438   -11415   -10717    -9842    -9390 
  -10273   -12734   -13888   -12305   -10817   -10416    -9722    -9999 
  -11869   -12086   -10559    -9911    -9478    -9238   -10031   -10554 
  -10732   -11506   -12044   -11911   -12067   -12212   -12448   -14087 
  -15217   -14281   -13969   -13946   -11404    -8235    -6466    -4741 
   -3159    -3233    -4129    -4052    -4577    -7743   -11824   -15022 
  -16530   -16106   -14897   -13589   -13385   -15105   -16760   -15573 
  -11269    -7353    -5784    -5772    -8094   -11121   -10660    -7690 
   -7060    -9660   -13146   -16903   -18997   -16406   -11254    -8160 
   -8488   -10116   -10243    -8545    -6440    -5154    -6318   -10021 
  -12989   -13335   -12572   -12009   -12501   -14477   -16513   -16459 
  -13838   -10412    -8243    -8016    -8313    -7361    -5644    -4279 
   -4114    -6574   -11221   -15245   -16661   -15584   -13722   -12872 
  -13359   -14588   -15091   -13200   -10214    -8900    -8991    -9379 
   -9907    -9140    -7530    -8472   -12167   -15070   -14781   -12024 
   -9555    -8309    -7213    -6932    -7728    -8514    -9526   -10093 
   -9408    -8946    -8862    -8877   -10800   -14176   -16497   -17861 
  -18665   -16845   -13150   -11524   -11377    -9668    -6971    -4843 
   -4178    -5281    -6673    -7738    -9452   -10802   -10674   -11431 
  -14061   -15730   -15651   -14971   -13690   -12484   -11672   -10080 
   -7958    -6704    -6581    -7211    -8002    -8353    -8893   -10731 
  -12901   -14200   -15525   -16569   -16411   -15766   -14408   -12691 
  -11738   -10170    -8405    -8496    -8401    -6675    -5314    -5246 
   -6396    -8298   -10215   -12064   -13119   -13246   -13154   -12700 
  -12613   -12598   -11307   -10520   -11063   -10870   -10110    -9706 
   -8603    -7480    -8280    -9356    -9408   -10660   -12375   -12677 
  -13674   -15624   -15768   -14189   -12982   -12255   -11353   -10455 
   -9003    -7118    -6135    -5926    -6087    -6679    -7356    -8757 
  -11292   -13582   -15124   -16511   -16563   -14685   -13352   -13535 
  -12996   -10766    -8230    -6335    -4928    -4851    -6978    -9030 
   -9251    -9756   -11483   -13097   -14424   -15121   -14615   -13724 
  -12669   -11794   -11778   -10855    -8993    -8615    -8764    -8438 
   -9015    -9772    -9853   -10748   -12378   -13161   -13429   -13140 
  -11670   -10968   -11577   -11281   -10238    -9702    -9015    -8029 
   -7951    -8669    -9427   -10258   -10617   -10743   -11361   -11923 
  -12676   -13524   -13541   -13061   -12615   -12236   -11492   -11038 
  -11371   -10415    -8675    -8074    -7457    -7493    -9018    -9705 
   -9319    -9602   -10708   -11469   -11614   -12324   -13289   -13325 
  -12927   -12653   -12190   -11277   -10270    -9725    -9343    -9383 
  -10268   -10620   -10752   -11921   -12337   -11456   -10906   -10728 
  -10530   -10237    -9872    -9850   -10100   -10436   -11157   -11842 
  -11576   -11136   -11325   -11215   -10795   -10484   -10118   -10100 
  -10160   -10247   -10512   -10134    -9883   -10405   -10801   -11086 
  -11260   -11110   -10895   -11110   -11894   -11997   -11246   -10867 
  -10550   -10274   -10635   -10719   -10567   -10933   -10902   -10423 
  -10135    -9780    -9875   -10777   -11537   -11619   -11813   -12387 
  -12442   -12179   -12024   -11468   -10866   -10606   -10346   -10222 
   -9833    -8668    -8491    -9883   -10432   -10166   -10532   -10820 
  -10905   -11272   -11396   -11156   -10839   -10516   -10615   -11099 
  -11284   -11557   -12344   -12465   -11782   -11634   -11664   -11354 
  -11041   -10327    -9964   -10185    -9513    -8928    -9679   -10277 
  -10039    -9961   -10257   -10438   -10891   -11785   -12046   -11719 
  -11765   -11869   -11537   -11152   -10930   -10588   -10231   -10021 
   -9790    -9871   -10307   -10575   -10748   -10959   -11043   -11219 
  -11426   -11091   -10701   -10848   -10623   -10058   -10354   -11132 
  -11422   -11361   -11504   -11628   -11070   -10638   -11206   -11645 
  -11286   -10759   -10515   -10818   -10881    -9891    -9483   -10264 
   -9969    -9163    -9818   -10280   -10250   -11172   -11616   -11352 
  -11919   -12348   -11788   -11488   -11519   -10901   -10413   -10679 
  -10593   -10183   -10335   -10651   -10667   -10729   -11087   -11426 
  -11589   -11657   -11253   -10778   -10798   -10336    -9678   -10257 
  -10953   -10432    -9825    -9981   -10399   -10666   -10577   -10417 
  -10824   -11368   -11269   -11205   -11646   -11472   -10631   -10415 
  -10945   -11227   -10964   -11009   -11294   -11080   -11222   -11988 
  -12001   -11399   -10976   -10484   -10131   -10092   -10091   -10170 
  -10303   -10501   -10646   -10644   -10894   -11306   -11422   -11303 
  -11122   -10922   -10790   -10704   -10463   -10150   -10145   -10189 
  -10073   -10262   -10482   -10353   -10471   -10886   -10948   -10835 
  -11005   -11105   -10998   -11283   -11878   -11965   -11557   -11303 
  -11213   -11047   -10903   -10619   -10115    -9863    -9911    -9990 
  -10080   -10212   -10407   -10561   -10662   -10832   -11097   -11275 
  -11294   -11518   -11596   -11141   -10922   -10908   -10762   -11119 
  -11608   -11276   -10621   -10450   -10482   -10534   -10940   -11303 
  -11269   -11118   -10913   -11045   -11215   -10453    -9969   -10466 
  -10328   -10099   -10778   -11040   -10805   -11006   -11298   -11190 
  -10737   -10354   -10457   -10813   -10902   -10785   -10783   -10563 
  -10102   -10420   -11191   -11063   -10669   -10852   -10833   -10619 
  -11113   -11785   -11453   -10613   -10438   -10584   -10523   -10665 
  -10974   -11142   -11003   -10601   -10740   -11317   -11217   -10828 
  -10804   -10621   -10463   -10550   -10328   -10235   -10736   -11038 
  -10935   -11195   -11493   -11026   -10579   -10967   -11418   -11269 
  -10984   -10875   -10746   -10771   -11169   -11325   -10625    -9994 
  -10432   -10841   -10415   -10127   -10130   -10112   -10609   -11273 
  -11159   -10677   -10737   -10955   -10783   -10886   -11246   -11032 
  -10741   -11056   -11512   -11593   -11307   -10901   -10446   -10284 
  -10701   -10914   -10617   -10667   -11016   -10814   -10453   -10590 
  -10535   -10116   -10235   -10704   -10831   -10829   -10798   -10643 
  -10764   -11018   -10940   -10978   -11367   -11422   -11087   -10837 
  -10627   -10509   -10594   -10782   -10986   -10789   -10408   -10766 
