Origin Time       2018/04/09 06:38:00
Lat.              35.2
Long.             132.6
Depth. (km)       10
Mag.              3.8
Station Code      SMNH03
Station Lat.      35.2243
Station Long.     132.7223
Station Height(m) 110
Record Time       2018/04/09 06:38:52
Sampling Freq(Hz) 100Hz
Duration Time(s)  120
Dir.              4
Scale Factor      7845(gal)/8223790
Max. Acc. (gal)   11.711
Last Correction   2018/04/09 06:38:37
Memo.             
[...]
   11477    11479    11483    11485    11488    11488    11487    11488 
   11489    11491    11491    11487    11485    11484    11481    11484 
   11483    11481    11483    11483    11484    11487    11489    11491 
   11488    11485    11488    11485    11480    11481    11484    11481 
   11480    11484    11485    11483    11485    11488    11487    11485 
   11485    11483    11485    11487    11485    11485    11485    11483 
   11485    11488    11487    11485    11484    11487    11489    11488 
   11485    11484    11484    11484    11481    11480    11485    11488 
   11484    11481    11488    11491    11488    11485    11488    11488 
   11484    11483    11484    11485    11483    11480    11481    11484 
   11484    11483    11484    11487    11491    11493    11491    11488 
   11488    11487    11485    11484    11480    11479    11481    11481 
   11479    11480    11485    11487    11489    11489    11485    11484 
   11488    11488    11484    11484    11484    11484    11484    11481 
   11481    11485    11485    11481    11484    11485    11485    11487 
   11487    11483    11483    11484    11481    11483    11487    11485 
   11483    11485    11485    11483    11484    11487    11487    11488 
   11488    11484    11483    11484    11483    11484    11485    11485 
   11485    11487    11491    11492    11487    11485    11487    11483 
   11483    11485    11485    11484    11483    11483    11485    11485 
   11484    11485    11489    11488    11484    11487    11489    11487 
   11484    11483    11483    11484    11485    11484    11485    11485 
   11485    11488    11489    11488    11487    11487    11489    11488 
   11484    11483    11483    11483    11484    11484    11483    11484 
   11487    11487    11485    11485    11485    11487    11487    11484 
   11485    11488    11485    11484    11487    11485    11485    11487 
   11484    11484    11485    11487    11485    11483    11484    11485 
   11483    11484    11485    11483    11484    11488    11487    11484 
   11483    11484    11485    11484    11483    11483    11481    11481 
   11483    11483    11484    11488    11485    11481    11484    11487 
   11487    11485    11485    11485    11485    11484    11485    11485 
   11483    11483    11484    11487    11485    11484    11484    11484 
   11484    11487    11484    11481    11484    11484    11483    11484 
   11484    11484    11487    11485    11484    11487    11487    11485 
   11488    11485    11481    11483    11487    11485    11484    11485 
   11485    11485    11488    11488    11485    11484    11484    11484 
   11487    11489    11485    11481    11483    11484    11487    11489 
   11487    11484    11487    11487    11487    11485    11484    11484 
   11483    11484    11485    11483    11483    11485    11487    11485 
   11485    11484    11483    11484    11485    11484    11484    11484 
   11484    11485    11487    11487    11485    11485    11485    11487 
   11487    11485    11483    11483    11484    11484    11484    11480 
   11480    11484    11484    11485    11488    11487    11485    11488 
   11487    11485    11484    11483    11484    11485    11484    11484 
   11485    11484    11484    11487    11487    11485    11485    11484 
   11484    11485    11484    11481    11481    11479    11480    11485 
   11487    11485    11488    11489    11487    11487    11485    11484 
   11484    11485    11483    11481    11483    11484    11484    11481 
   11483    11485    11484    11485    11488    11485    11484    11484 
   11484    11487    11484    11481    11481    11483    11483    11484 
   11487    11488    11487    11485    11485    11487    11488    11485 
   11483    11481    11480    11481    11485    11487    11485    11485 
   11485    11485    11487    11487    11488    11488    11484    11481 
   11481    11481    11484    11485    11484    11484    11485    11487 
   11488    11485    11484    11488    11487    11483    11481    11484 
   11484    11484    11487    11487    11485    11485    11485    11488 
   11489    11487    11484    11483    11483    11484    11483    11483 
   11485    11487    11483    11483    11485    11485    11484    11485 
   11487    11485    11484    11485    11485    11484    11483    11483 
   11483    11483    11485    11488    11487    11485    11487    11488 
   11487    11485    11484    11485    11487    11483    11479    11483 
   11484    11481    11483    11487    11488    11485    11483    11484 
   11485    11485    11485    11483    11483    11487    11485    11481 
   11481    11487    11489    11487    11485    11489    11489    11485 
   11484    11485    11485    11484    11481    11483    11485    11484 
   11484    11485    11488    11487    11487    11487    11485    11484 
   11487    11485    11481    11483    11487    11485    11483    11485 
   11487    11485    11488    11487    11484    11484    11484    11484 
   11484    11485    11487    11484    11483    11484    11487    11489 
   11489    11485    11485    11488    11489    11488    11484    11484 
   11485    11485    11485    11484    11484    11488    11487    11485 
   11487    11487    11487    11485    11484    11484    11484    11483 
   11483    11483    11484    11487    11487    11485    11487    11487 
   11487    11485    11487    11489    11487    11485    11485    11484 
   11484    11484    11481    11485    11489    11488    11489    11491 
   11487    11485    11487    11485    11483    11483    11483    11484 
   11485    11484    11484    11484    11485    11485    11487    11485 
   11485    11484    11483    11481    11481    11484    11485    11483 
   11483    11487    11487    11485    11487    11488    11487    11485 
   11485    11484    11481    11483    11485    11485    11484    11485 
   11488    11487    11485    11488    11488    11487    11485    11484 
   11485    11487    11485    11484    11484    11484    11487    11488 
   11487    11483    11483    11487    11487    11485    11487    11487 
   11487    11485    11484    11489    11488    11484    11484    11487 
   11487    11489    11491    11485    11481    11481    11485    11485 
   11481    11481    11485    11487    11485    11487    11487    11489 
   11488    11485    11483    11484    11487    11488    11485    11483 
   11483    11484    11485    11485    11485    11485    11487    11489 
   11488    11485    11487    11488    11485    11484    11485    11484 
   11484    11487    11487    11484    11484    11485    11487    11487 
   11485    11487    11485    11483    11484    11487    11487    11483 
   11483    11485    11485    11484    11485    11487    11488    11489 
   11485    11483    11484    11485    11484    11484    11484    11484 
   11481    11481    11487    11488    11485    11485    11485    11485 
   11484    11484    11485    11484    11483    11484    11485    11488 
   11488    11487    11488    11487    11485    11485    11484    11485 
   11485    11483    11483    11484    11484    11485    11487    11488 
   11487    11485    11485    11485    11485    11485    11485    11487 
   11487    11484    11484    11483    11483    11484    11485    11488 
   11489    11485    11485    11488    11488    11488    11485    11481 
   11483    11487    11485    11484    11484    11485    11487    11488 
   11487    11484    11485    11487    11488    11487    11485    11485 
   11484    11485    11485    11485    11487    11485    11484    11487 
   11488    11485    11484    11485    11484    11481    11484    11485 
   11484    11483    11484    11485    11485    11485    11485    11485 
   11485    11488    11487    11485    11484    11484    11484    11483 
   11484    11487    11487    11487    11488    11487    11487    11485 
   11485    11488    11487    11485    11484    11484    11485    11487 
   11485    11487    11487    11487    11488    11487    11485    11485 
   11484    11484    11487    11485    11483    11481    11483    11487 
   11487    11485    11487    11489    11489    11488    11484    11484 
   11484    11484    11484    11483    11483    11484    11485    11488 
   11488    11484    11485    11488    11488    11485    11481    11481 
   11484    11484    11485    11488    11485    11481    11484    11485 
   11487    11488    11488    11487    11485    11485    11485    11484 
   11483    11483    11484    11487    11489    11488    11485    11485 
   11487    11488    11487    11485    11487    11487    11484    11484 
   11485    11484    11483    11485    11487    11487    11487    11487 
   11487    11487    11487    11483    11483    11484    11484    11484 
   11485    11483    11481    11484    11487    11488    11487    11487 
   11485    11484    11484    11483    11483    11485    11484    11483 
   11487    11487    11487    11491    11489    11487    11485    11487 
   11487    11484    11484    11485    11483    11480    11484    11485 
   11484    11487    11489    11487    11488    11489    11485    11484 
   11487    11488    11485    11483    11483    11484    11484    11484 
   11487    11485    11487    11489    11488    11488    11489    11488 
   11485    11487    11485    11484    11485    11485    11485    11485 
   11487    11489    11489    11487    11485    11485    11487    11487 
   11485    11485    11484    11484    11485    11488    11489    11487 
   11485    11488    11488    11488    11487    11484    11483    11484 
   11484    11483    11484    11485    11485    11487    11488    11489 
   11488    11487    11484    11483    11484    11485    11483    11483 
   11481    11481    11485    11485    11485    11488    11489    11488 
   11488    11487    11485    11485    11485    11481    11481    11485 
   11487    11487    11484    11485    11487    11487    11487    11489 
   11487    11485    11485    11484    11484    11485    11484    11483 
   11484    11484    11484    11484    11485    11488    11487    11484 
   11485    11485    11485    11484    11481    11484    11485    11484 
   11484    11485    11485    11485    11484    11485    11485    11485 
   11485    11484    11483    11484    11483    11481    11485    11485 
   11485    11489    11488    11484    11485    11485    11484    11484 
   11484    11484    11484    11481    11481    11487    11487    11484 
   11483    11485    11488    11488    11487    11483    11481    11485 
   11485    11483    11484    11488    11487    11484    11487    11488 
   11487    11488    11488    11485    11484    11485    11485    11484 
   11484    11485    11485    11485    11485    11485    11485    11488 
   11487    11485    11485    11487    11487    11487    11485    11487 
   11489    11488    11484    11484    11487    11487    11488    11491 
   11489    11488    11485    11484    11485    11484    11483    11485 
   11485    11484    11485    11487    11485    11488    11489    11489 
   11487    11485    11487    11487    11485    11484    11485    11485 
   11485    11484    11484    11487    11487    11485    11488    11488 
   11481    11481    11485    11485    11485    11488    11488    11485 
   11485    11485    11487    11485    11483    11484    11487    11485 
   11484    11484    11484    11487    11487    11483    11464    11438 
   11442    11502    11585    11574    11379    11156    11229    11626 
   11936    11780    11294    10993    11225    11723    11896    11676 
   11487    11489    11564    11562    11426    11350    11448    11537 
   11587    11693    11608    11167    10806    10935    11523    12028 
   11630    10814    10993    11929    12210    11654    11299    11481 
   11599    11623    11761    11627    11299    11269    11377    11411 
   11593    11719    11489    11288    11311    11483    11943    12128 
   11593    11194    11160    10997    11097    11593    11772    11425 
   11117    11295    11653    11645    11407    11340    11369    11614 
   11938    11535    10974    11254    11743    11904    11934    11796 
   11353    10955    11264    11796    11650    11276    11500    11963 
   11523    10624    10709    11337    11566    11657    11811    11831 
   11789    11858    11956    12051    11969    11551    11315    11304 
   11021    10674    10546    10656    10908    11253    11854    12081 
   11820    12183    12687    12109    11195    11159    11476    11152 
   10789    10828    10724    10878    11404    11718    12145    12618 
   12475    11936    11541    11558    11812    11780    11240    10478 
   10342    10939    11246    11225    11337    11383    11443    11715 
   12433    13165    12646    11603    11400    11327    10922    10633 
   10532    10569    10669    10933    11353    11740    12164    12251 
   11873    12091    12795    12606    11948    11477    10530     9819 
   10251    11094    11815    11901    11041    10515    11410    12618 
   12405    11473    11884    12691    11627     9976     9990    10894 
   11361    11826    12360    11778    10519    10832    12787    13741 
   12636    11313    11186    11765    11839    10879     9976    10469 
   11946    12667    11699    10031     9551    10913    12708    13198 
   12209    10936    10357    10681    11823    12480    11819    11963 
   13724    14385    13144    12283    12359    11885    11087    11427 
   13081    15049    15727    14285    11718     9254     8249     9455 
   10594     9186     5752     2525     1414     1823     2214     3204 
    6112    10891    16155    19990    20765    19317    19332    21820 
   23762    22962    19390    13628     6488     1097      922     3620 
    5038     5540     6007     6353     8220    11627    13722    14508 
   16776    20374    22613    22396    20331    16487    11435     7736 
    7020     8093     8977     8950     8532     7923     6378     4152 
    3611     6053     9418    11595    12752    12988    12507    13672 
   17018    18898    17348    14125    10763     8245     8379    10951 
   12102    10071     8186     8463     9067     9562    11441    14247 
   15763    14985    13451    13342    14882    16276    15650    13500 
   11873    11075    10228     9364     8947     8885     8037     6207 
    5775     7638     9551    10494    11253    12124    13251    14655 
   15954    16675    16164    14489    13072    12812    12937    12515 
   10793     7684     5328     5448     7233     9283    10158     9441 
    9223    11268    14399    16421    16480    14999    13055    12070 
   12644    13670    13559    12155    10619     9545     8816     8594 
    8476     7935     7704     8391     9757    11450    13261    15093 
   16024    15450    14256    12515    10462     9965    10682    10658 
   10191     9809     9263     9170    10188    12094    13548    13552 
   12930    12455    12186    12085    11612    10681     9798     9115 
    8766     9244    10750    12579    13992    14704    14619    14223 
   14111    14399    14449    13510    12078    10740     9979    10423 
   10899    10064     8507     7279     7175     8297     9597    10108 
   10184    10891    12309    13666    14752    15552    15442    14324 
   13410    13420    13659    13405    12243    10115     8079     7079 
    6843     7179     8190     9423    10339    11070    12240    13690 
   14515    14933    15330    15056    14334    14119    14199    13585 
   12178    10578     8780     7414     7501     8166     8432     8681 
    9045     9219     9385     9958    10702    11354    12213    13324 
   14357    14787    14492    13860    13101    12352    11777    11735 
   11966    11487    10534     9769     9381     9448     9479     9736 
   10770    11975    12785    13047    13115    13012    12056    11188 
   11404    11306    10269     9838    10632    11543    11974    12432 
   12896    12961    12826    12455    11817    11234    10374     9327 
    9148     9828    10158    10031    10719    12290    13520    14139 
   14496    14577    14239    13548    12868    12221    11240     9639 
    8055     7784     8514     9109     9531     9830    10091    10621 
   11616    13020    13977    14202    14235    13882    13338    13074 
   12727    12424    12410    12047    11092    10285    10146    10126 
    9751     9684    10330    10886    10936    11098    11546    11661 
   11384    11361    11535    11385    11281    11610    11924    12056 
   12051    11678    11273    11250    11196    10733    10160    10133 
   10619    10868    11009    11439    11769    12033    12594    13113 
   13080    12542    12070    11975    12046    11697    10758    10463 
   11233    11612    11545    12143    12775    12329    11680    12015 
   12471    12287    12008    11406    10435     9838     9471     9212 
    9373     9649     9803    10017    10480    11299    12226    12858 
   13282    13668    13694    13323    12941    12478    12005    12158 
   12584    12156    11014    10012     9536     9794    10311    10363 
   10377    10800    11129    11230    11680    12340    12286    11780 
   11915    12256    11819    11145    11199    11651    11765    11647 
   11464    11180    11052    11067    11064    11190    11543    11959 
   12194    12305    12501    12742    12648    11929    11186    10952 
   10744    10411    10308    10257    10239    10687    11315    11637 
   12029    12490    12397    12058    12128    12337    12198    11894 
   11653    11151    10423    10137    10405    10760    10995    11076 
   11047    11179    11681    12283    12275    11666    11508    12056 
   12399    12166    11886    11811    11589    11321    11344    11221 
   10943    11115    11267    11087    11350    11912    11896    11515 
   11603    12005    12139    12237    12380    12360    12394    12194 
   11418    10687    10507    10543    10316    10017    10071    10322 
   10569    10878    11206    11456    11677    11979    12312    12604 
   12631    12081    11534    11740    11947    11290    10646    10920 
   11360    11392    11561    11751    11487    11380    11662    11604 
   11496    12032    12379    11793    11124    10949    10957    10962 
   10864    10874    11209    11638    11956    11794    11149    10878 
   11176    11443    11646    12059    12386    12297    11958    11619 
   11600    11909    11862    11439    11529    12060    12046    11421 
   11106    11273    11113    10535    10254    10320    10530    11149 
   11925    12055    11735    11948    12530    12509    12056    11661 
   11171    11029    11518    11627    11047    10883    11379    11538 
   11364    11493    11340    10813    11156    12128    12247    11527 
   11084    11322    11796    12027    12071    12236    12285    11705 
   10989    11155    11645    11157    10315    10363    10995    11481 
   11712    11635    11157    10910    11543    12147    11842    11431 
   11523    11727    11944    12101    11716    11175    11252    11385 
   10967    10794    11367    11786    11568    11410    11450    11302 
   11402    11842    11772    11313    11373    11568    11248    11169 
   11530    11506    11514    11969    12044    11855    12182    12530 
   12225    11769    11566    11249    10999    11182    11141    10432 
    9890    10253    10999    11319    11252    11279    11627    12002 
   11983    11782    11686    11496    11259    11322    11668    11936 
   11951    11811    11668    11732    11893    11740    11458    11496 
