Origin Time       2018/04/09 06:38:00
Lat.              35.2
Long.             132.6
Depth. (km)       10
Mag.              3.8
Station Code      SMNH03
Station Lat.      35.2243
Station Long.     132.7223
Station Height(m) 9
Record Time       2018/04/09 06:38:52
Sampling Freq(Hz) 100Hz
Duration Time(s)  120
Dir.              2
Scale Factor      2942(gal)/8224139
Max. Acc. (gal)   2.937
Last Correction   2018/04/09 06:38:37
Memo.             
[...]
  141824   141836   141828   141824   141841   141847   141829   141818 
  141824   141831   141833   141836   141831   141825   141833   141837 
  141831   141835   141832   141822   141821   141831   141841   141835 
  141825   141836   141837   141826   141835   141843   141832   141835 
  141848   141840   141831   141836   141825   141817   141837   141836 
  141820   141832   141840   141837   141847   141841   141825   141832 
  141841   141833   141820   141825   141839   141832   141822   141829 
  141828   141824   141828   141828   141833   141833   141822   141829 
  141835   141832   141835   141831   141822   141821   141822   141829 
  141833   141826   141828   141840   141835   141821   141828   141835 
  141821   141820   141840   141841   141826   141821   141825   141828 
  141826   141826   141832   141836   141832   141824   141824   141826 
  141829   141832   141831   141832   141835   141829   141826   141831 
  141831   141829   141825   141822   141824   141826   141837   141832 
  141822   141824   141814   141825   141841   141824   141818   141829 
  141821   141825   141835   141826   141824   141824   141825   141833 
  141826   141826   141839   141826   141824   141831   141818   141820 
  141829   141825   141829   141835   141828   141822   141816   141817 
  141821   141826   141828   141820   141821   141824   141831   141841 
  141832   141817   141825   141840   141839   141831   141831   141829 
  141824   141824   141826   141833   141840   141831   141822   141828 
  141837   141833   141821   141822   141833   141835   141825   141820 
  141835   141837   141820   141821   141828   141821   141826   141833 
  141831   141828   141829   141826   141822   141824   141826   141826 
  141831   141837   141835   141828   141828   141824   141824   141829 
  141829   141828   141829   141831   141825   141822   141831   141836 
  141831   141825   141826   141825   141826   141826   141824   141824 
  141822   141821   141825   141833   141835   141828   141825   141825 
  141826   141833   141831   141824   141829   141831   141822   141824 
  141826   141826   141828   141826   141828   141831   141832   141835 
  141825   141821   141833   141832   141825   141825   141824   141821 
  141821   141822   141822   141831   141832   141820   141829   141843 
  141832   141826   141826   141822   141831   141836   141828   141825 
  141833   141835   141828   141826   141832   141826   141821   141822 
  141828   141832   141826   141822   141835   141841   141829   141824 
  141828   141829   141829   141828   141829   141829   141826   141837 
  141836   141822   141826   141833   141828   141822   141829   141833 
  141825   141820   141826   141832   141832   141824   141821   141833 
  141836   141828   141833   141836   141825   141831   141837   141825 
  141836   141839   141821   141825   141825   141821   141835   141835 
  141831   141833   141831   141831   141832   141828   141831   141832 
  141829   141829   141833   141829   141824   141832   141836   141831 
  141829   141828   141828   141837   141840   141832   141829   141825 
  141817   141820   141832   141835   141829   141829   141831   141833 
  141829   141826   141832   141835   141835   141828   141820   141825 
  141832   141829   141828   141831   141832   141836   141837   141829 
  141833   141837   141828   141833   141841   141836   141837   141836 
  141831   141829   141833   141833   141828   141828   141828   141828 
  141832   141825   141825   141839   141831   141824   141840   141841 
  141831   141832   141839   141837   141835   141831   141829   141835 
  141831   141822   141826   141843   141844   141824   141825   141840 
  141832   141825   141835   141833   141818   141817   141828   141832 
  141836   141836   141824   141822   141832   141828   141825   141824 
  141817   141833   141845   141828   141828   141839   141832   141831 
  141832   141822   141821   141833   141833   141824   141821   141833 
  141839   141832   141826   141822   141836   141839   141820   141826 
  141837   141826   141829   141829   141821   141831   141841   141833 
  141836   141837   141820   141824   141835   141829   141831   141829 
  141824   141832   141840   141836   141836   141836   141821   141818 
  141831   141828   141828   141831   141824   141826   141833   141832 
  141828   141826   141828   141832   141829   141826   141825   141825 
  141826   141820   141822   141826   141818   141826   141839   141825 
  141821   141829   141824   141818   141828   141825   141821   141831 
  141837   141826   141818   141822   141831   141833   141831   141829 
  141829   141829   141828   141822   141820   141829   141828   141818 
  141826   141831   141822   141828   141835   141828   141822   141822 
  141822   141831   141831   141821   141817   141821   141824   141816 
  141822   141840   141831   141822   141832   141828   141824   141835 
  141836   141828   141824   141824   141825   141829   141833   141836 
  141831   141824   141822   141824   141828   141828   141822   141826 
  141831   141829   141832   141828   141825   141829   141822   141816 
  141825   141831   141833   141836   141828   141816   141818   141829 
  141829   141829   141836   141837   141820   141825   141845   141832 
  141818   141829   141825   141821   141828   141825   141820   141820 
  141828   141829   141821   141833   141844   141832   141831   141836 
  141822   141824   141844   141833   141831   141843   141828   141818 
  141831   141833   141837   141843   141837   141829   141828   141824 
  141828   141836   141826   141820   141829   141828   141825   141825 
  141824   141828   141832   141833   141832   141828   141835   141833 
  141821   141820   141821   141822   141835   141836   141826   141826 
  141833   141833   141821   141821   141833   141832   141831   141832 
  141822   141817   141821   141821   141826   141837   141832   141826 
  141828   141822   141833   141847   141833   141825   141824   141816 
  141822   141828   141824   141831   141825   141817   141831   141831 
  141824   141831   141826   141824   141824   141826   141835   141828 
  141820   141832   141839   141826   141818   141829   141828   141821 
  141837   141833   141817   141826   141829   141820   141825   141835 
  141832   141818   141809   141817   141828   141829   141828   141825 
  141822   141829   141832   141820   141817   141828   141825   141817 
  141828   141833   141829   141831   141829   141829   141824   141814 
  141824   141829   141826   141828   141829   141828   141828   141824 
  141820   141826   141832   141826   141821   141828   141829   141820 
  141817   141828   141835   141825   141817   141826   141836   141826 
  141814   141820   141832   141826   141818   141820   141818   141821 
  141821   141817   141828   141837   141828   141820   141826   141826 
  141825   141835   141833   141817   141818   141832   141829   141822 
  141825   141825   141825   141828   141826   141831   141826   141818 
  141825   141829   141822   141824   141821   141817   141829   141829 
  141821   141829   141844   141845   141822   141813   141828   141826 
  141821   141828   141820   141818   141835   141831   141828   141836 
  141826   141818   141821   141824   141829   141837   141833   141824 
  141824   141828   141831   141832   141828   141826   141822   141818 
  141824   141822   141821   141831   141826   141817   141824   141822 
  141817   141832   141840   141825   141821   141826   141822   141825 
  141826   141822   141831   141835   141821   141813   141820   141820 
  141818   141821   141826   141833   141833   141828   141822   141816 
  141821   141832   141826   141821   141825   141831   141825   141820 
  141831   141831   141826   141826   141824   141828   141828   141821 
  141821   141821   141821   141821   141821   141824   141829   141828 
  141821   141825   141829   141821   141824   141835   141825   141817 
  141822   141822   141820   141825   141826   141821   141821   141824 
  141828   141826   141826   141832   141826   141820   141826   141828 
  141822   141826   141828   141826   141821   141816   141825   141829 
  141817   141814   141824   141828   141833   141833   141820   141821 
  141836   141831   141821   141831   141833   141828   141828   141824 
  141828   141833   141824   141822   141835   141836   141826   141822 
  141824   141828   141828   141828   141831   141837   141836   141817 
  141817   141832   141831   141831   141832   141828   141826   141825 
  141825   141832   141832   141826   141835   141840   141836   141826 
  141817   141824   141837   141832   141821   141824   141826   141825 
  141822   141824   141829   141832   141829   141826   141832   141836 
  141828   141825   141828   141828   141833   141833   141824   141825 
  141826   141817   141818   141829   141835   141831   141828   141833 
  141831   141826   141833   141832   141825   141828   141825   141824 
  141832   141832   141831   141835   141835   141829   141826   141828 
  141828   141837   141844   141829   141821   141824   141824   141829 
  141829   141824   141825   141829   141829   141828   141822   141820 
  141824   141826   141824   141821   141828   141826   141817   141828 
  141840   141829   141820   141832   141841   141833   141826   141828 
  141828   141831   141833   141824   141816   141825   141836   141831 
  141824   141824   141825   141829   141829   141825   141828   141829 
  141828   141824   141821   141829   141837   141833   141825   141818 
  141817   141828   141833   141822   141822   141829   141826   141824 
  141818   141824   141829   141813   141821   141836   141822   141821 
  141824   141825   141826   141820   141825   141829   141817   141821 
  141829   141825   141822   141824   141826   141822   141821   141829 
  141832   141825   141824   141836   141835   141813   141817   141833 
  141824   141820   141835   141836   141824   141824   141833   141832 
  141821   141832   141848   141832   141820   141837   141836   141820 
  141826   141835   141835   141828   141822   141836   141837   141825 
  141831   141835   141829   141831   141825   141826   141832   141826 
  141824   141822   141820   141828   141833   141825   141821   141828 
  141828   141822   141822   141829   141831   141826   141833   141835 
  141822   141822   141831   141828   141826   141828   141832   141829 
  141824   141825   141829   141836   141843   141828   141822   141835 
  141826   141822   141831   141826   141829   141831   141826   141828 
  141831   141831   141829   141825   141831   141835   141829   141828 
  141828   141822   141829   141837   141832   141831   141832   141829 
  141828   141832   141832   141828   141828   141828   141822   141820 
  141825   141835   141841   141835   141824   141828   141832   141825 
  141820   141825   141833   141829   141825   141836   141835   141824 
  141831   141840   141836   141829   141828   141825   141824   141825 
  141821   141824   141836   141831   141818   141824   141828   141831 
  141835   141833   141835   141825   141813   141825   141835   141825 
  141816   141820   141832   141833   141825   141828   141832   141832 
  141833   141833   141831   141828   141833   141832   141818   141817 
  141831   141835   141829   141826   141826   141831   141831   141817 
  141763   141617   141470   141625   142144   142348   141629   140783 
  140942   141758   142392   142715   142543   141871   141505   141733 
  141947   142195   142776   142815   141628   140528   141170   142460 
  142126   141084   141486   142427   142033   141378   142113   142653 
  142157   142061   141920   141031   140742   141651   141833   141237 
  141897   142422   141540   141393   142056   141755   141953   142835 
  141786   140495   141192   142182   142291   142068   142211   142452 
  142222   142009   141966   141762   141748   141909   141949   141913 
  141608   141309   141690   142365   142263   141639   141199   141197 
  142052   142418   141818   142348   142886   141750   141126   141461 
  141458   141562   141737   141817   141848   141458   141133   141264 
  141828   142354   142169   142129   142371   142022   141615   141704 
  141997   141855   141504   141578   141724   141835   141995   142055 
  141889   141678   141709   141731   141678   141647   141905   142435 
  142601   142458   142277   142002   141520   141165   141581   142168 
  142109   141632   141173   141131   141593   142132   142465   142223 
  141409   141457   142150   141771   141513   142267   142383   141852 
  141490   141358   141685   141870   141967   142399   142086   141454 
  141413   141339   141489   141924   142010   142029   142365   142342 
  141471   141215   141799   141702   141305   141439   142021   142844 
  143055   141906   140532   140755   142218   142778   142308   142716 
  142635   140378   139349   141250   143021   143127   142547   142194 
  141766   140984   141293   142410   142438   141918   141696   141432 
  141226   141852   142943   143175   142493   141257   140675   141399 
  141844   141656   141535   141575   141906   142069   141498   140721 
  141127   142832   143395   141853   140647   140894   140984   140594 
  140969   141257   140323   139133   138473   138354   139027   141458 
  144724   146121   145743   145022   144409   144639   145719   146001 
  143768   139320   136470   139050   144285   146273   144261   140352 
  135777   133623   136960   143297   148053   149148   145624   140691 
  139982   142113   141421   139442   141204   143814   143505   142485 
  142198   141563   140336   140458   141542   140780   140162   142057 
  143052   142153   142947   144274   143190   140759   138550   138130 
  140294   143533   145107   144489   144051   142869   139688   137884 
  139341   142720   146005   146368   143487   140641   139054   138460 
  139603   141004   141091   140680   141508   143322   142226   139006 
  139168   141589   142361   142121   142196   142115   141073   139785 
  140174   142464   144171   143614   142257   141000   139814   139743 
  141076   142932   143492   142476   142447   143405   142960   141890 
  142152   143289   144148   144487   143973   142646   141966   141640 
  140934   140958   141187   141139   140806   139841   140011   141388 
  141300   140211   140755   142119   142800   143615   143395   141623 
  141439   142956   143989   143749   141971   140765   140834   140517 
  141050   142299   141971   141471   142331   142549   141405   140845 
  140956   140844   141110   141548   141578   141687   142103   142264 
  141814   140860   140394   140764   140648   141021   142630   143305 
  142716   142114   142056   142491   142500   142308   142670   142182 
  141455   142528   143546   143050   142177   141432   141122   141241 
  141497   142191   142420   141543   141002   141002   140687   140613 
  141075   141759   142420   142855   143268   143075   142534   142570 
  142431   141921   141419   141336   141357   140229   139681   141397 
  142919   142344   141033   140749   141596   142701   143337   143495 
  143266   142319   141597   141941   142167   141849   141902   142264 
  142198   141555   141183   141585   141605   140910   140324   140231 
  141191   142306   142084   141369   141658   142435   141988   140859 
  141097   142659   143149   141706   141432   142677   142129   140898 
  141083   141421   141698   142346   142805   142630   141863   141474 
  141654   141575   141131   140975   141666   141949   141494   141561 
  141574   141818   142284   141937   142265   142896   142230   141804 
  142317   142654   142786   142681   141876   141377   141546   141385 
  141556   142308   142176   141493   141359   141405   141270   141497 
  142419   142738   141925   141617   141860   141363   140842   141274 
  142018   142323   141826   141127   141362   142088   141967   141234 
  141323   141875   141654   141201   141351   141848   142317   142561 
  142198   141752   141894   141810   141588   142206   142994   142850 
  141949   141292   141411   142056   142454   142337   142254   142074 
  141674   141759   142092   141795   141577   141670   141212   141156 
  141763   142101   142429   142447   142018   142007   142022   141802 
  142042   142123   141405   140675   140907   141859   142230   141729 
  141161   141293   141940   142076   141820   141544   141486   142299 
  142570   141434   140973   141453   141602   141906   142519   142535 
  141943   141529   141818   142146   141311   140705   141633   142234 
  142163   141948   141266   141407   142468   142577   141928   142256 
  142781   142021   141439   142026   142365   142102   142013   141525 
  140800   141147   141554   141173   141331   142095   142225   141596 
  141423   142137   142372   141790   141805   142119   141898   142032 
  142376   141907   141439   142156   142654   141995   141879   142090 
  141281   141008   142140   142094   140913   141222   141844   141586 
  141770   142175   142222   142090   141507   141234   141983   142484 
  142065   141546   141616   142237   142522   142199   141951   141918 
  141898   141835   141547   141210   141407   141956   142414   142534 
  141928   141469   141891   142110   141633   141393   141901   142348 
  142009   141442   141345   141592   141748   141872   141955   141678 
  141531   141416   140985   141255   141716   141681   141994   141968 
  141608   142013   142260   141878   141895   142207   142379   142601 
  142592   142184   141930   142123   142153   141778   141741   142130 
  141891   141049   141033   141659   141812   141759   142080   142323 
  141831   141394   141471   141367   141276   141251   141177   141392 
  141455   141178   141212   141420   141420   141563   141706   141714 
  141821   141999   142281   142137   141874   142358   142835   142576 
  142065   142191   142626   142716   142701   142234   141632   141795 
  142250   142146   141546   141151   141320   141845   141968   141513 
  141566   142180   142155   141532   141401   141879   142211   142171 
  142042   141997   142029   141821   141647   141937   142092   141975 
  141847   141516   141214   141683   142518   142260   141415   141455 
  141748   141475   141409   141982   142157   141573   141388   141558 
  141481   141652   141673   141226   141305   141909   142172   141968 
  141731   141735   141650   141447   141663   142079   142233   142002 
  141824   142369   142618   141928   141609   141933   142114   142115 
  142230   142068   141492   141516   142098   142025   141477   141315 
  141748   142260   141880   141142   141520   142311   142071   141408 
  141423   141974   142361   142200   141920   142069   142296   142226 
  141840   141278   141089   141289   141723   142354   142364   141718 
  141494   141612   141570   141583   141582   141513   141524   141779 
  142345   142357   141658   141332   141509   141816   142078   141971 
  141886   142338   142454   141764   141562   142040   142180   142053 
  141885   141763   141913   141957   141724   141581   141416   141313 
  141691   141971   141891   141970   142229   142358   141736   141042 
  141393   141683   141620   142022   142101   141720   141841   142207 
  142048   141658   141759   142072   142090   141978   141948   141783 
