Origin Time       2018/04/09 06:38:00
Lat.              35.2
Long.             132.6
Depth. (km)       10
Mag.              3.8
Station Code      SMNH03
Station Lat.      35.2243
Station Long.     132.7223
Station Height(m) 9
Record Time       2018/04/09 06:38:52
Sampling Freq(Hz) 100Hz
Duration Time(s)  120
Dir.              3
Scale Factor      2942(gal)/8224139
Max. Acc. (gal)   1.503
Last Correction   2018/04/09 06:38:37
Memo.             
[...]
   37049    37064    37066    37042    37027    37060    37076    37052 
   37052    37069    37060    37045    37050    37057    37050    37050 
   37058    37064    37062    37054    37052    37054    37048    37046 
   37072    37084    37056    37049    37058    37056    37065    37075 
   37087    37085    37044    37029    37053    37049    37056    37087 
   37057    37025    37060    37053    37029    37057    37060    37045 
   37046    37050    37056    37038    37034    37060    37060    37042 
   37039    37050    37056    37049    37062    37062    37041    37046 
   37048    37041    37060    37060    37039    37054    37066    37048 
   37037    37042    37052    37057    37056    37048    37039    37048 
   37049    37034    37046    37060    37049    37045    37048    37045 
   37053    37062    37058    37046    37050    37057    37048    37041 
   37057    37062    37044    37038    37050    37054    37045    37052 
   37064    37049    37037    37049    37045    37037    37057    37071 
   37060    37042    37034    37045    37056    37057    37056    37053 
   37057    37061    37056    37054    37062    37064    37044    37033 
   37050    37056    37042    37057    37079    37068    37045    37027 
   37035    37064    37057    37041    37053    37061    37071    37056 
   37015    37041    37083    37044    37031    37071    37045    37034 
   37068    37054    37038    37046    37049    37053    37045    37035 
   37057    37076    37056    37039    37039    37039    37064    37073 
   37048    37045    37056    37052    37052    37056    37046    37037 
   37042    37053    37053    37053    37058    37058    37058    37053 
   37038    37049    37076    37060    37042    37044    37037    37054 
   37069    37042    37035    37050    37041    37045    37061    37054 
   37056    37061    37042    37042    37068    37066    37045    37046 
   37060    37057    37048    37044    37046    37062    37062    37045 
   37046    37053    37056    37065    37062    37061    37050    37044 
   37066    37066    37048    37053    37042    37031    37057    37069 
   37054    37056    37062    37053    37049    37061    37058    37050 
   37065    37068    37031    37029    37065    37065    37054    37058 
   37060    37062    37046    37038    37049    37050    37052    37061 
   37071    37061    37039    37041    37048    37030    37022    37053 
   37072    37066    37073    37068    37048    37050    37054    37053 
   37056    37056    37057    37060    37057    37065    37075    37056 
   37030    37038    37057    37052    37039    37052    37061    37054 
   37056    37057    37056    37050    37048    37064    37060    37048 
   37064    37062    37046    37054    37064    37054    37045    37048 
   37045    37053    37068    37056    37038    37041    37046    37064 
   37066    37038    37042    37058    37044    37045    37052    37038 
   37050    37073    37058    37042    37050    37050    37052    37065 
   37058    37049    37058    37064    37060    37053    37050    37048 
   37042    37049    37049    37049    37062    37057    37044    37048 
   37052    37045    37057    37076    37066    37045    37041    37057 
   37064    37046    37045    37058    37052    37044    37052    37057 
   37060    37053    37046    37050    37048    37048    37057    37056 
   37049    37048    37049    37044    37054    37077    37056    37041 
   37061    37053    37041    37052    37052    37041    37046    37061 
   37054    37042    37050    37057    37050    37042    37045    37057 
   37057    37048    37056    37064    37048    37052    37066    37056 
   37039    37042    37058    37061    37045    37048    37066    37056 
   37044    37060    37054    37049    37064    37053    37038    37045 
   37042    37052    37066    37048    37042    37057    37053    37068 
   37087    37056    37045    37071    37062    37044    37053    37062 
   37057    37048    37048    37050    37061    37065    37058    37057 
   37057    37057    37049    37057    37076    37066    37056    37060 
   37052    37054    37062    37058    37058    37060    37049    37042 
   37049    37054    37053    37049    37050    37064    37072    37053 
   37041    37057    37062    37052    37052    37049    37048    37054 
   37052    37056    37065    37060    37061    37066    37054    37044 
   37045    37050    37058    37062    37054    37048    37046    37048 
   37061    37073    37071    37052    37023    37026    37061    37072 
   37056    37057    37060    37045    37041    37060    37069    37060 
   37049    37052    37069    37069    37046    37058    37077    37060 
   37052    37062    37056    37053    37064    37065    37057    37060 
   37069    37068    37069    37066    37053    37053    37064    37073 
   37066    37056    37072    37065    37042    37065    37076    37056 
   37056    37053    37044    37068    37079    37061    37058    37056 
   37042    37061    37081    37071    37058    37061    37061    37053 
   37060    37073    37066    37066    37062    37049    37069    37085 
   37056    37044    37056    37061    37071    37064    37048    37054 
   37069    37076    37065    37048    37045    37057    37066    37061 
   37061    37076    37071    37053    37056    37061    37057    37049 
   37049    37053    37058    37073    37081    37066    37062    37069 
   37062    37064    37072    37066    37064    37058    37053    37060 
   37060    37054    37071    37071    37049    37064    37075    37056 
   37062    37071    37064    37073    37073    37056    37056    37056 
   37050    37053    37054    37060    37061    37056    37068    37064 
   37045    37064    37071    37054    37053    37054    37056    37066 
   37068    37057    37056    37068    37058    37048    37048    37044 
   37058    37061    37046    37050    37060    37066    37061    37050 
   37058    37062    37056    37068    37080    37062    37045    37050 
   37058    37054    37057    37064    37066    37066    37058    37054 
   37071    37077    37058    37049    37054    37057    37071    37071 
   37056    37056    37062    37064    37054    37048    37062    37060 
   37048    37054    37069    37072    37056    37053    37065    37057 
   37052    37062    37062    37057    37062    37058    37053    37061 
   37069    37065    37053    37048    37060    37072    37062    37050 
   37056    37065    37065    37057    37053    37069    37064    37049 
   37069    37069    37052    37069    37079    37064    37068    37073 
   37066    37062    37060    37058    37060    37053    37039    37048 
   37065    37071    37089    37080    37038    37057    37075    37048 
   37060    37068    37053    37064    37058    37046    37054    37057 
   37057    37064    37071    37062    37052    37062    37069    37066 
   37069    37064    37054    37065    37071    37046    37045    37076 
   37069    37054    37069    37066    37060    37068    37061    37053 
   37058    37062    37065    37073    37076    37061    37056    37061 
   37053    37048    37068    37077    37054    37048    37065    37061 
   37060    37072    37062    37057    37062    37049    37046    37062 
   37060    37049    37056    37061    37050    37053    37066    37061 
   37056    37069    37066    37056    37060    37054    37052    37065 
   37061    37048    37056    37062    37053    37050    37052    37056 
   37064    37060    37061    37071    37056    37056    37069    37048 
   37041    37066    37065    37050    37056    37058    37054    37057 
   37065    37064    37057    37050    37052    37065    37068    37058 
   37052    37052    37053    37049    37056    37064    37056    37056 
   37071    37069    37052    37056    37064    37056    37065    37069 
   37061    37071    37065    37054    37071    37064    37044    37061 
   37065    37049    37060    37065    37058    37066    37060    37037 
   37029    37053    37075    37058    37038    37057    37080    37071 
   37058    37056    37052    37057    37065    37066    37061    37052 
   37048    37064    37080    37069    37058    37064    37065    37062 
   37056    37050    37066    37071    37053    37057    37080    37075 
   37050    37054    37064    37068    37080    37069    37056    37069 
   37066    37050    37069    37084    37069    37073    37079    37062 
   37058    37056    37060    37076    37069    37056    37060    37062 
   37062    37068    37065    37052    37050    37073    37088    37071 
   37050    37064    37072    37064    37072    37079    37079    37068 
   37039    37050    37073    37068    37075    37077    37066    37064 
   37052    37052    37061    37060    37072    37073    37050    37060 
   37076    37072    37071    37060    37053    37075    37083    37064 
   37056    37058    37054    37053    37060    37061    37069    37069 
   37050    37045    37054    37054    37057    37066    37066    37050 
   37044    37058    37053    37050    37068    37060    37041    37048 
   37062    37072    37066    37064    37060    37048    37057    37071 
   37058    37057    37068    37060    37057    37065    37057    37050 
   37054    37057    37060    37057    37065    37073    37065    37062 
   37058    37054    37061    37071    37065    37052    37058    37061 
   37048    37060    37064    37062    37071    37056    37057    37083 
   37069    37053    37069    37072    37050    37045    37066    37071 
   37058    37066    37061    37057    37076    37064    37053    37068 
   37049    37046    37077    37066    37046    37065    37077    37072 
   37066    37057    37050    37053    37069    37080    37069    37068 
   37073    37052    37053    37071    37050    37061    37089    37060 
   37049    37066    37058    37066    37073    37057    37060    37064 
   37052    37054    37072    37069    37053    37062    37066    37052 
   37062    37081    37080    37068    37048    37048    37064    37061 
   37056    37056    37060    37066    37062    37075    37072    37046 
   37058    37073    37057    37054    37060    37061    37081    37084 
   37058    37054    37069    37066    37058    37066    37072    37061 
   37066    37077    37073    37069    37071    37069    37054    37045 
   37060    37061    37044    37050    37075    37071    37054    37056 
   37061    37072    37071    37054    37061    37062    37057    37075 
   37072    37062    37079    37076    37057    37057    37060    37050 
   37056    37071    37073    37073    37069    37064    37073    37071 
   37052    37060    37077    37069    37062    37065    37058    37062 
   37071    37062    37065    37065    37046    37044    37065    37068 
   37061    37064    37061    37072    37087    37072    37053    37056 
   37075    37083    37064    37052    37066    37085    37068    37050 
   37069    37057    37038    37084    37102    37065    37056    37065 
   37077    37093    37068    37038    37049    37056    37062    37075 
   37056    37049    37072    37062    37054    37073    37057    37041 
   37066    37087    37085    37076    37061    37045    37041    37061 
   37075    37054    37045    37062    37058    37056    37072    37069 
   37062    37075    37076    37053    37050    37072    37069    37056 
   37058    37066    37073    37073    37068    37054    37061    37081 
   37071    37053    37058    37069    37075    37066    37062    37056 
   36971    36787    36628    36822    37480    37781    36864    35542 
   35432    36643    38070    38801    38136    36464    35538    36045 
   37134    38303    39244    39070    37336    35317    35311    37405 
   38641    37955    37474    37407    36402    35779    36850    37947 
   37824    37135    36277    35553    36013    37523    38016    37017 
   36509    37031    37246    37022    36953    36999    37373    37463 
   36485    36001    36688    37064    37365    37916    37561    36715 
   36647    37254    37519    37183    37200    37390    36981    36880 
   37305    37044    36593    37215    37755    36872    35943    36305 
   37319    37746    37143    36774    37075    36925    36780    37008 
   37029    37316    37698    37581    37461    37389    36834    36297 
   36844    37662    37261    36697    37068    37196    36377    35738 
   36452    37435    37249    37081    37666    37800    37488    37512 
   37331    36833    36805    36834    36629    36761    36973    37029 
   37273    37515    37384    37189    37002    36652    36994    37948 
   38003    37165    36278    35833    36436    37292    37581    37895 
   37458    36383    36413    36622    36741    37709    37935    37231 
   36850    36605    36613    36817    37272    37895    37372    36466 
   36409    36491    37131    37802    37358    37544    38313    37281 
   35538    35664    36853    37156    37018    37305    37743    38113 
   37751    36204    34998    35598    37404    38799    38893    38578 
   37566    34562    33069    36359    39968    40128    39272    38356 
   35708    33120    34106    37530    39729    39746    37787    34797 
   33677    35583    38271    39930    39919    37100    34098    35167 
   37366    37729    38580    39069    37720    36080    34383    33621 
   35892    39195    39873    38342    36432    34850    34901    36941 
   39081    39577    39189    38938    38176    37137    36374    36139 
   37083    37399    35143    33250    34248    35459    35518    36925 
   39768    41088    39872    37478    35590    35166    35846    37503 
   38971    37983    35642    33718    32859    34650    38326    40598 
   39452    37238    37719    39654    40556    40498    39750    38909 
   38299    37116    35248    34457    35700    36886    36933    37282 
   37548    36570    35390    34735    34538    35274    36593    37538 
   37208    36061    35534    34543    33442    34992    37446    38265 
   37897    36687    36134    36585    36120    35985    37565    38743 
   38589    38496    39457    40161    39058    37551    36942    37322 
   38665    39290    39019    39042    37866    35469    34292    34689 
   35635    35905    35233    35055    35822    36510    36128    35206 
   35661    36709    36161    35802    37947    40597    40853    39356 
   38828    39557    39436    38323    37984    38354    38142    37563 
   37808    38137    37245    36544    36553    36367    36566    36707 
   36418    36522    36683    36613    36097    35579    36317    37118 
   36925    36309    35163    34535    34886    35355    36464    37247 
   36525    35955    35743    35488    36455    37667    37662    37808 
   38453    38188    37346    37041    37503    38372    38487    38043 
   38693    39131    37887    37154    37608    38165    38719    38476 
   37671    37023    36297    36544    36865    35699    35278    35661 
   35179    35280    35995    35950    35657    35725    36003    36468 
   37660    38867    38676    37967    37836    38260    38685    37879 
   36749    37095    37571    36752    36350    37235    37744    37575 
   37222    36350    35588    36039    37432    37748    36796    36915 
   37245    36175    35873    37066    38014    37994    37312    37222 
   37628    37103    36628    37442    38298    37908    37102    36904 
   36629    36471    37258    37627    36954    36695    37087    37106 
   36333    36011    37041    37249    36022    35932    36718    37003 
   37349    37806    38267    38192    37328    37145    37601    37687 
   37937    38268    37860    37243    37039    36691    36389    36593 
   36717    36501    35941    35640    36167    36585    36763    37046 
   36559    35885    36698    37947    37866    37489    37201    36532 
   37147    38433    38080    37314    37354    37419    37127    36725 
   37041    37470    36788    36107    36220    36672    37303    37494 
   37035    36679    36796    37120    37343    37485    37377    36911 
   36904    37363    37100    36545    36988    37899    37774    36805 
   36593    36988    36860    36528    36733    37152    37083    36740 
   36409    36528    37324    37396    37026    37478    37396    36811 
   36933    36988    36898    36919    37029    37469    37404    36898 
   36921    37415    37953    37797    37187    37015    37022    37192 
   37218    36693    37050    38094    37721    36724    36703    37081 
   37093    36846    36921    37262    37332    37222    37216    37656 
   37733    36553    35974    36869    37262    37041    37454    37899 
   37704    37098    36547    36775    37314    37532    37531    36796 
   36215    36786    36837    36298    36710    37076    36632    36633 
   37200    37010    36148    36123    36825    37157    36923    36471 
   36489    36675    36560    36725    36771    36794    37516    37908 
   37602    37180    36794    37079    37644    37644    37706    37821 
   37444    37073    36963    37135    37767    38065    37616    37528 
   37727    37227    36790    36987    37129    37052    36863    36659 
   36790    37234    37381    36805    36242    36508    36861    36652 
   36571    36660    36350    36186    36547    36782    36799    36972 
   37093    36960    36958    37465    38146    38052    37076    36757 
   37399    37399    37152    37594    37551    37174    37508    37485 
   36718    36698    37450    37566    37068    37056    37166    36597 
   36591    37466    37288    36548    36703    36755    36598    37021 
   37255    36952    36668    36734    37103    37135    36749    36668 
   37072    37535    37573    37399    37473    37241    36512    36402 
   37264    37828    37404    37099    37411    37193    36575    36742 
   37339    37608    37322    36749    36833    37199    36968    36934 
   37255    37214    37019    36752    36458    36671    37272    37300 
   36559    36495    37368    37322    36485    36670    37373    37416 
   37288    37316    37397    37679    37708    37079    36582    36965 
   37353    37035    36903    37134    36954    36599    36647    37029 
   37315    37079    36670    36810    37143    36994    36749    36879 
   37068    36952    36640    36605    37058    37378    36995    36586 
   36818    37014    36998    37264    37345    37057    37007    37135 
   37100    37309    37704    37507    37288    37373    36814    36381 
   36967    37435    37361    37319    37239    37080    37046    36894 
   36684    37035    37440    37079    36775    36980    37089    37466 
   37729    36976    36543    37162    37372    36865    36938    37561 
   37354    36690    36761    37108    37143    37035    36991    36964 
   36711    36684    37025    36772    36452    37168    37723    37204 
   36791    37057    37185    36944    36923    37210    37405    37389 
   37277    37270    37341    37120    36909    37228    37489    37245 
   37026    37050    37126    37119    37164    37419    37341    36852 
   36771    36941    36720    36497    36823    37192    36845    36239 
   36358    36914    36968    36837    37129    37320    37165    37091 
   37116    37135    37222    37453    37663    37377    37023    37299 
   37377    36821    36768    37287    37280    37012    37234    37381 
   37062    36788    36899    37370    37593    37257    36917    36737 
   36783    37071    36965    36579    36672    36942    36814    36648 
   36802    36992    36859    36582    36683    37095    37332    37196 
