Origin Time       2018/04/09 06:38:00
Lat.              35.2
Long.             132.6
Depth. (km)       10
Mag.              3.8
Station Code      SMNH03
Station Lat.      35.2243
Station Long.     132.7223
Station Height(m) 110
Record Time       2018/04/09 06:38:52
Sampling Freq(Hz) 100Hz
Duration Time(s)  120
Dir.              6
Scale Factor      7845(gal)/8223790
Max. Acc. (gal)   4.023
Last Correction   2018/04/09 06:38:37
Memo.             
[...]
      39       37       37       35       32       36       40       39 
      37       37       36       33       36       39       35       36 
      40       39       39       39       37       37       37       37 
      39       37       37       40       39       35       31       36 
      43       41       39       39       37       37       36       35 
      37       37       36       40       39       33       35       37 
      37       40       37       36       40       37       36       40 
      40       40       40       36       36       36       36       40 
      39       33       35       37       39       39       36       35 
      36       37       39       36       36       39       37       35 
      36       36       36       40       37       32       33       37 
      39       40       39       35       33       36       40       37 
      36       37       39       35       33       36       40       39 
      37       37       37       39       37       36       37       37 
      39       37       33       35       41       39       39       39 
      36       35       39       40       39       39       37       39 
      39       37       40       39       33       37       41       39 
      37       37       37       37       37       40       39       36 
      36       37       40       41       39       37       37       36 
      36       33       35       39       37       33       35       40 
      39       33       35       37       37       37       39       35 
      36       39       39       40       41       37       36       40 
      40       37       36       36       39       39       36       36 
      41       40       36       35       36       39       39       36 
      35       37       37       36       37       39       39       37 
      36       36       37       39       37       35       35       36 
      36       36       36       35       36       39       36       37 
      39       37       39       39       37       39       39       40 
      39       37       39       40       39       37       39       39 
      37       37       40       40       39       39       39       36 
      37       39       37       37       39       39       39       36 
      36       39       37       37       40       39       33       36 
      39       39       39       37       37       37       36       37 
      39       35       35       37       40       40       39       36 
      36       37       39       39       36       33       36       39 
      39       39       36       36       37       37       39       37 
      37       37       35       36       37       36       37       41 
      40       36       37       36       35       37       40       40 
      39       37       36       37       39       39       37       39 
      39       37       39       40       37       37       37       37 
      40       37       36       40       43       39       35       39 
      40       37       37       39       37       37       37       36 
      37       37       36       35       35       37       37       36 
      36       36       37       39       37       39       39       36 
      39       39       35       37       39       35       35       37 
      37       37       37       37       37       36       36       36 
      36       40       41       36       33       39       39       36 
      37       36       37       40       39       39       39       37 
      39       39       37       36       36       36       37       37 
      36       36       39       37       36       36       35       36 
      40       40       36       37       39       39       37       35 
      36       37       36       37       40       37       36       35 
      36       37       36       37       37       36       36       36 
      39       37       33       35       40       39       37       36 
      35       36       39       37       37       36       37       37 
      36       36       36       36       39       40       36       35 
      37       39       37       36       33       33       37       37 
      36       35       35       37       39       39       39       37 
      36       37       36       36       37       36       35       37 
      40       37       33       36       36       33       36       39 
      37       37       36       35       36       39       39       33 
      36       40       39       39       39       37       37       35 
      35       39       37       35       40       43       39       37 
      39       39       40       39       35       36       37       37 
      39       39       36       37       39       40       39       37 
      40       40       39       39       39       37       37       36 
      36       36       37       37       36       37       39       37 
      37       39       39       40       37       35       36       36 
      37       37       36       36       37       37       39       36 
      36       39       39       36       37       37       36       36 
      35       37       40       36       33       39       43       39 
      35       35       33       35       39       40       39       36 
      35       37       37       35       35       37       39       37 
      39       39       36       37       37       36       39       40 
      39       36       35       37       37       36       39       41 
      37       33       37       39       37       35       35       35 
      35       36       39       39       36       33       33       36 
      36       37       37       35       35       36       36       36 
      36       35       35       36       37       37       36       35 
      35       36       39       37       36       36       37       39 
      39       36       37       37       36       35       33       37 
      36       33       36       41       39       36       36       35 
      35       39       37       35       37       37       36       39 
      43       40       35       35       36       35       37       39 
      37       37       36       36       36       37       39       39 
      40       43       40       36       35       36       39       39 
      37       39       39       36       36       39       40       39 
      36       36       35       33       37       40       39       39 
      40       37       35       37       40       40       37       37 
      37       36       36       39       41       40       39       39 
      36       33       36       37       39       37       36       37 
      36       35       37       39       39       39       37       35 
      35       37       37       39       39       36       36       39 
      39       37       39       40       37       36       37       36 
      36       39       39       33       33       36       37       37 
      37       36       39       39       36       35       37       39 
      39       40       37       33       37       39       37       40 
      40       37       37       36       35       40       39       35 
      39       40       36       35       37       39       36       35 
      36       39       40       39       36       36       37       37 
      37       36       36       39       39       37       37       36 
      35       36       37       37       39       41       40       37 
      35       35       36       36       37       37       36       36 
      37       40       39       36       35       37       37       37 
      37       39       36       36       37       37       37       39 
      39       37       35       36       39       36       35       39 
      41       36       35       36       36       36       37       36 
      36       39       39       36       37       39       35       35 
      39       39       37       36       33       35       40       40 
      37       36       37       37       39       37       36       36 
      36       36       39       40       35       31       36       41 
      39       36       37       36       37       39       37       35 
      35       37       36       35       36       37       37       39 
      40       40       37       36       36       37       39       39 
      37       37       39       40       37       36       37       39 
      39       39       40       39       37       39       40       37 
      36       36       39       39       37       36       35       35 
      37       40       39       39       37       36       36       37 
      37       37       39       40       37       37       39       39 
      36       37       37       36       39       40       37       39 
      37       33       32       35       36       37       36       36 
      36       36       36       37       35       36       39       37 
      35       35       36       36       36       37       37       36 
      36       36       35       36       39       37       35       35 
      37       37       37       39       37       35       36       39 
      37       35       36       35       35       37       36       35 
      39       36       33       39       39       36       36       35 
      35       40       40       36       35       36       36       36 
      37       37       37       39       36       35       37       37 
      37       37       35       33       36       39       39       36 
      37       40       39       35       36       37       36       36 
      36       36       39       37       35       36       37       35 
      36       36       35       36       35       33       37       39 
      36       35       36       35       33       35       36       37 
      40       37       35       36       37       36       37       39 
      37       35       37       37       37       40       39       37 
      36       35       33       35       37       39       37       36 
      37       37       36       37       39       35       33       35 
      36       40       40       36       36       39       39       37 
      37       37       36       36       37       39       40       37 
      36       39       37       37       39       37       37       36 
      36       40       40       36       36       35       35       39 
      40       37       39       40       37       35       37       36 
      39       41       41       37       36       35       37       37 
      39       41       39       37       39       37       39       43 
      39       35       36       37       39       40       39       36 
      36       39       36       37       41       41       40       36 
      35       37       39       37       37       37       35       36 
      37       40       39       36       35       35       37       39 
      36       36       39       39       37       36       33       35 
      39       39       37       37       36       35       37       39 
      37       39       37       33       35       36       37       37 
      37       35       35       37       37       36       39       39 
      36       35       39       39       36       35       37       36 
      36       36       28      -14     -141     -337     -336      156 
     751      499     -692    -1625    -1224      379     2003     2226 
     750    -1077    -1761     -961      804     2416     2683     1278 
   -1302    -3227    -2214      519     1534      993      612     -538 
   -1993    -1252      492     1090     1410      999     -773    -1401 
    -135      900      787      -60     -664     -174      440      278 
      95       75      -83     -240     -583     -691      130      804 
     476      108      162      318      544      496     -263     -908 
    -538      -37      108      432      211     -726     -805      265 
     672     -282     -649      210      672      409      211      369 
     340     -135     -279      -44      326      827      781       13 
    -799     -908     -606     -395      500     1155      456       36 
      -8     -380     -456     -571     -349      508      449     -166 
      66       27     -472       -2      116     -326      760     1417 
     261     -324     -272     -162      290      278       -5     -179 
    -452     -279      319      469       99     -199     -756    -1105 
      -5     1092     1269     1340      349     -824     -792    -1100 
    -800      770     1030      360       -8     -418     -459     -375 
     106      990      699       25     -356     -750      122      681 
      41      461      537     -542     -812     -691     -364      326 
     429      346      394      233     -116     -899    -1260     -236 
    1247     2146     2224     1227    -1163    -3527    -2844      452 
    2644     2839     1911     -386    -2867    -3222    -1277      996 
    2124     2142      872    -1359    -2339    -1138      884     2721 
    2947      174    -2866    -2616     -612      865     1734     1310 
      39     -918    -2007    -2494     -490     2371     2925     1718 
    -348    -2767    -2577       62     1853     2520     2497      876 
   -1456    -2412    -1669      245     2560     2847      607    -1111 
   -1539    -1733     -855      508      726      294     -226    -1058 
   -1503     -807      -62        1     -321    -1232    -1186       68 
     265      577     2421     3897     3647     2304     1493     1129 
      36     -855     -797     -702     -772     -943    -1395     -657 
    1394     1171    -1833    -4059    -4180    -1744     2262     3461 
    1404     -953    -2924    -3261    -1969     -670     1560     3264 
    2061      580      155     -197      238      442     -550     -704 
     171     1073     2386     3049     1652     -689    -1872    -1557 
    -599      507      607     -599    -1453    -1188      261     2008 
    1674     -349    -1876    -2297    -1363     -577    -1375    -1404 
     530     2276     2365      950      276     1460     1312     -449 
    -517      342      548      700      251     -318      243      457 
    -225     -147      425      332      159       98     -102      699 
    1725     1244      602      452     -190     -595     -495    -1090 
   -2101    -1917     -661     -178     -530    -1113    -1992    -1923 
    -943      203     2255     3289     1526     -645    -1624    -1053 
    1139     2496     1431     -434    -1633    -2259    -2097     -873 
     353     1189     1976     2200     2786     3847     3073     1140 
    -760    -2577    -2222     -850    -1011     -903     -121     -189 
   -1067    -2255    -2336    -1760    -1853    -1111      317     1331 
    2177     1852      777      525      719     1127     1827     1995 
    1129      336      145     -839    -1737     -958      -24      557 
    1275      982      -13     -295     -506    -1181    -1337     -897 
    -368     -396    -1530    -1969     -650      568     1417     2273 
    1890      791      403      398      318      170      -81     -198 
    -311     -409      278      838       51     -276      233     -627 
   -1823    -1283     -121      562      643      257      507      675 
    -275     -417      307      460     1047     1557      795      307 
     326     -464    -1048     -396       31     -125      -70     -558 
    -996     -379      -64     -228      -86     -369     -858     -187 
     684      369      176      357       54      106      341      136 
     236      766      823      333      900     1667      379     -746 
    -710    -1171     -774      103     -213     -657    -1074    -1436 
   -1151     -612      315     1165     1156      710      136     -178 
     -35      388      676      116      132     1081      502     -371 
     183      476      486      282     -573     -684     -340     -427 
     -99      359      295      157      -94     -221      259      284 
    -357     -392     -324     -467     -387     -604     -126      749 
     419      251      494      299      287      352      774     1275 
     697     -178     -657     -661     -365     -627     -334      801 
     743      172      118     -224     -498     -670     -980     -565 
     508     1148      885      386       68     -380     -553      -75 
     641     1080      675       -5      133      213     -394     -449 
    -135      205      920      291    -1263    -1256     -943    -1021 
     -89      523      206      306      299     -225     -371     -182 
     -49      553     1055      432      -12      -47     -326      282 
     502     -496     -295      280     -261     -429     -199     -238 
     -44      326      251     -182       12      587      550      585 
     965      734      290      307      137     -240     -247      -44 
     159      191      -79     -383     -433     -259     -255     -491 
    -652     -615     -274      124      238      155      -99     -210 
    -121     -149       83      464      684      899      542       29 
     341      349     -379     -255      247     -143      129      861 
      95     -257      378     -263     -805       -4      360      170 
     267      184     -406     -693      -39      534      190     -292 
    -414     -294       18      153       -9      -72      -29       63 
     364      373      -43       -6      395      405      160     -114 
    -473     -606     -444     -164      337      772      652      319 
     322      457      325      -86     -382     -220      -21       12 
     145      -28     -233      148       10     -517      -68      157 
    -353     -171      317      301       29     -203      -49       94 
    -245     -297      128      315      390      487      291      129 
     275      228       45      261      417       44     -321     -267 
     -95     -205     -328      -39      244       40     -333     -414 
    -198       20       83      133      139     -110     -251       59 
     286      325      326     -118     -483     -166      113        5 
      70      305      190      -63      -54      218      527      294 
     -33      249      210     -141      -20      -17      -12      267 
      39     -336      -60      315      183      -39      -86     -171 
      59      303      -68       68      521      -99     -492      -60 
      62      216      450      195     -313     -611     -257      256 
     157       24      213      167     -205     -430     -264     -159 
    -155      388      864      225     -486        8      646      299 
     -75      156      143      155      595      267     -284      141 
     260     -201       -6      287       18     -245     -172       33 
      78       58       44     -240     -653     -625     -178       58 
     153      392      301      -32      -22      -52     -286       14 
     550      326     -211     -164      103       17     -179       82 
     537      356       72      278      102     -390     -295       70 
     145      149      311      301       16     -166     -109      295 
     664      292     -328     -440     -102      259      108     -477 
    -548       58      292      -10      -72       37      -54     -151 
    -144        0      261       95     -440     -345      251      391 
     259      283      241       67     -237     -464     -274      -51 
      93      457      534      337      313      -44     -367      171 
