Origin Time       2018/04/09 06:38:00
Lat.              35.2
Long.             132.6
Depth. (km)       10
Mag.              3.8
Station Code      SMNH03
Station Lat.      35.2243
Station Long.     132.7223
Station Height(m) 9
Record Time       2018/04/09 06:38:52
Sampling Freq(Hz) 100Hz
Duration Time(s)  120
Dir.              1
Scale Factor      2942(gal)/8224139
Max. Acc. (gal)   2.660
Last Correction   2018/04/09 06:38:37
Memo.             
[...]
    2803     2809     2809     2803     2802     2805     2803     2803 
    2806     2802     2802     2805     2805     2803     2803     2805 
    2806     2803     2803     2806     2803     2801     2805     2809 
    2806     2806     2808     2803     2802     2809     2806     2803 
    2806     2806     2803     2803     2803     2805     2805     2805 
    2808     2805     2802     2805     2808     2806     2803     2803 
    2805     2805     2805     2806     2805     2802     2805     2808 
    2809     2806     2805     2803     2805     2808     2806     2805 
    2806     2803     2801     2805     2806     2803     2803     2805 
    2806     2806     2805     2805     2806     2803     2801     2802 
    2803     2806     2805     2803     2806     2806     2803     2805 
    2808     2805     2803     2805     2806     2805     2802     2802 
    2805     2806     2805     2803     2805     2805     2805     2809 
    2806     2803     2808     2805     2801     2805     2806     2802 
    2803     2806     2801     2799     2803     2805     2803     2806 
    2805     2801     2801     2803     2805     2806     2805     2805 
    2806     2805     2805     2806     2805     2805     2805     2803 
    2805     2806     2805     2805     2805     2803     2805     2805 
    2803     2803     2805     2805     2806     2805     2802     2803 
    2805     2803     2805     2806     2805     2805     2808     2808 
    2803     2806     2809     2805     2805     2808     2805     2805 
    2809     2808     2805     2805     2805     2803     2803     2806 
    2808     2806     2805     2806     2805     2805     2806     2806 
    2806     2806     2806     2805     2808     2810     2809     2805 
    2806     2808     2803     2806     2809     2808     2808     2808 
    2803     2803     2805     2803     2806     2809     2806     2805 
    2805     2803     2802     2805     2806     2803     2803     2809 
    2808     2805     2806     2805     2803     2805     2805     2806 
    2806     2805     2805     2806     2805     2803     2805     2805 
    2803     2803     2803     2803     2803     2806     2806     2803 
    2805     2808     2805     2803     2803     2803     2803     2803 
    2802     2803     2806     2805     2802     2802     2803     2805 
    2803     2805     2805     2802     2801     2802     2803     2805 
    2803     2803     2805     2805     2803     2805     2805     2805 
    2803     2802     2802     2803     2803     2805     2805     2801 
    2802     2802     2801     2805     2806     2803     2803     2803 
    2805     2806     2803     2801     2803     2805     2803     2803 
    2803     2802     2803     2805     2802     2802     2802     2802 
    2803     2803     2805     2806     2805     2802     2803     2806 
    2803     2801     2803     2806     2803     2802     2803     2803 
    2803     2805     2805     2802     2801     2803     2805     2802 
    2801     2805     2805     2802     2805     2806     2802     2802 
    2805     2803     2802     2802     2803     2805     2802     2802 
    2803     2802     2802     2801     2802     2803     2802     2802 
    2803     2802     2803     2805     2803     2803     2802     2799 
    2801     2801     2801     2805     2805     2803     2803     2802 
    2801     2803     2805     2803     2801     2801     2802     2802 
    2802     2803     2803     2803     2802     2802     2802     2801 
    2802     2805     2805     2803     2803     2805     2803     2803 
    2803     2803     2805     2805     2803     2802     2803     2805 
    2805     2803     2803     2803     2803     2805     2803     2803 
    2805     2805     2803     2803     2802     2803     2806     2805 
    2802     2803     2805     2803     2805     2805     2803     2806 
    2806     2806     2806     2806     2808     2806     2803     2805 
    2806     2805     2806     2808     2805     2805     2805     2803 
    2802     2802     2803     2803     2803     2805     2805     2803 
    2803     2803     2803     2803     2802     2802     2802     2803 
    2806     2806     2802     2802     2802     2803     2803     2801 
    2802     2803     2803     2806     2809     2805     2802     2806 
    2808     2803     2801     2801     2802     2802     2801     2798 
    2799     2801     2799     2802     2806     2803     2802     2806 
    2805     2802     2801     2802     2802     2802     2803     2806 
    2803     2802     2803     2803     2802     2802     2803     2805 
    2808     2808     2805     2803     2805     2802     2801     2802 
    2805     2806     2806     2806     2805     2805     2805     2803 
    2803     2806     2805     2805     2805     2803     2803     2803 
    2806     2806     2802     2801     2806     2806     2805     2806 
    2805     2806     2808     2806     2805     2803     2802     2802 
    2805     2806     2805     2801     2802     2803     2803     2803 
    2803     2803     2803     2805     2805     2805     2806     2805 
    2801     2801     2805     2803     2803     2806     2805     2803 
    2805     2805     2803     2805     2803     2801     2805     2808 
    2805     2803     2801     2801     2805     2805     2805     2806 
    2805     2803     2805     2805     2801     2801     2803     2805 
    2803     2802     2802     2805     2803     2801     2802     2805 
    2803     2802     2803     2802     2802     2803     2803     2802 
    2803     2803     2802     2802     2803     2802     2801     2802 
    2803     2805     2802     2798     2801     2803     2803     2803 
    2803     2801     2801     2799     2801     2803     2802     2802 
    2806     2806     2802     2803     2802     2801     2805     2805 
    2801     2802     2805     2802     2805     2805     2801     2803 
    2805     2803     2803     2805     2805     2803     2802     2805 
    2805     2802     2803     2805     2801     2803     2806     2803 
    2803     2805     2802     2802     2803     2802     2802     2806 
    2806     2803     2805     2805     2803     2803     2802     2801 
    2802     2805     2805     2805     2806     2805     2803     2805 
    2805     2805     2803     2802     2805     2808     2806     2806 
    2805     2803     2803     2803     2802     2803     2806     2806 
    2805     2803     2805     2806     2805     2805     2805     2803 
    2803     2803     2803     2803     2803     2805     2805     2803 
    2805     2805     2803     2802     2803     2803     2802     2802 
    2805     2809     2806     2803     2805     2806     2805     2803 
    2803     2805     2805     2802     2802     2802     2802     2803 
    2802     2799     2802     2803     2801     2802     2803     2802 
    2802     2802     2801     2805     2806     2801     2801     2803 
    2802     2802     2803     2805     2803     2802     2802     2803 
    2803     2802     2805     2805     2803     2803     2803     2801 
    2802     2803     2802     2801     2801     2803     2805     2805 
    2802     2802     2803     2805     2801     2802     2805     2803 
    2799     2801     2803     2802     2803     2805     2802     2803 
    2805     2803     2803     2805     2805     2803     2802     2802 
    2803     2805     2805     2806     2806     2805     2803     2805 
    2805     2803     2803     2805     2801     2799     2802     2802 
    2802     2803     2803     2802     2803     2801     2803     2806 
    2805     2803     2805     2803     2801     2802     2801     2798 
    2802     2805     2803     2803     2805     2805     2803     2802 
    2803     2806     2803     2801     2805     2806     2803     2801 
    2801     2802     2801     2801     2805     2803     2802     2803 
    2803     2802     2803     2803     2802     2801     2803     2805 
    2803     2801     2803     2806     2806     2805     2803     2799 
    2799     2802     2801     2802     2803     2799     2801     2803 
    2802     2801     2803     2802     2799     2802     2805     2802 
    2801     2803     2805     2803     2799     2801     2803     2802 
    2801     2802     2803     2802     2802     2802     2803     2803 
    2803     2803     2805     2805     2803     2801     2802     2802 
    2802     2801     2799     2799     2801     2801     2803     2803 
    2802     2801     2802     2802     2803     2803     2803     2803 
    2803     2803     2802     2802     2803     2805     2802     2803 
    2805     2803     2803     2805     2803     2802     2805     2806 
    2802     2802     2805     2803     2801     2799     2801     2801 
    2802     2802     2802     2802     2803     2802     2802     2805 
    2805     2805     2802     2799     2801     2802     2805     2803 
    2802     2805     2802     2799     2803     2805     2803     2806 
    2808     2803     2802     2803     2801     2801     2805     2806 
    2805     2802     2803     2803     2803     2805     2803     2802 
    2805     2805     2802     2803     2805     2803     2803     2802 
    2802     2806     2806     2802     2803     2802     2801     2802 
    2805     2805     2805     2805     2802     2801     2805     2805 
    2802     2803     2803     2805     2806     2805     2805     2805 
    2802     2802     2805     2803     2802     2805     2803     2803 
    2806     2806     2803     2803     2805     2803     2803     2803 
    2803     2803     2803     2805     2808     2809     2808     2806 
    2806     2805     2805     2806     2805     2802     2801     2805 
    2809     2806     2802     2803     2803     2802     2803     2806 
    2806     2802     2802     2805     2803     2802     2803     2802 
    2801     2803     2805     2803     2805     2805     2803     2802 
    2805     2803     2801     2803     2805     2803     2802     2805 
    2805     2803     2802     2803     2803     2802     2801     2805 
    2805     2802     2802     2803     2802     2802     2802     2805 
    2805     2802     2802     2806     2808     2805     2802     2802 
    2803     2803     2803     2803     2805     2806     2808     2808 
    2805     2801     2802     2806     2806     2806     2805     2802 
    2803     2803     2803     2803     2803     2803     2803     2802 
    2803     2805     2805     2803     2803     2803     2806     2808 
    2806     2803     2803     2805     2803     2803     2808     2808 
    2805     2802     2805     2806     2806     2806     2808     2808 
    2808     2806     2805     2805     2805     2806     2806     2805 
    2803     2806     2808     2805     2803     2806     2803     2802 
    2808     2808     2802     2805     2806     2803     2805     2805 
    2805     2806     2808     2805     2803     2803     2803     2805 
    2805     2803     2803     2803     2806     2805     2803     2805 
    2806     2805     2805     2808     2808     2805     2803     2803 
    2803     2805     2808     2808     2803     2803     2803     2805 
    2808     2808     2803     2803     2805     2805     2805     2805 
    2806     2809     2808     2805     2805     2806     2805     2805 
    2806     2808     2808     2806     2805     2805     2806     2806 
    2808     2809     2806     2805     2806     2805     2803     2805 
    2803     2805     2808     2806     2805     2803     2805     2801 
    2774     2725     2708     2818     2983     2906     2625     2536 
    2619     2735     3022     3180     2928     2700     2704     2604 
    2521     2918     3329     3073     2587     2506     2728     2728 
    2756     3069     2944     2710     2812     2884     2901     2794 
    2884     2862     2330     2396     3102     3014     2251     2335 
    2988     3079     2979     3046     2937     2546     2581     2899 
    2600     2559     3048     3033     2646     2543     2940     3298 
    3260     3156     3026     2907     2928     2833     2637     2497 
    2366     2493     2677     2544     2470     2768     2948     2733 
    3041     3700     3422     2465     2016     2443     2825     2754 
    2812     2790     2606     2925     3028     2334     2524     3354 
    3196     2740     2617     2749     3136     3211     2852     2775 
    3056     3092     2799     2482     2312     2531     3064     3181 
    2918     2782     2664     2562     2606     2729     2813     2884 
    2840     2952     3171     2835     2693     2813     2416     2408 
    2843     2855     2782     2863     2781     2772     2983     2971 
    3076     3140     2459     2284     2922     2960     2797     2894 
    2668     2367     2617     3059     2980     2991     3160     2887 
    2880     2975     2729     2617     2508     2767     3132     2560 
    2220     2791     2963     2745     2955     3026     2729     2988 
    3333     2987     2623     2790     3122     2847     2407     2477 
    2517     2506     2749     2756     2400     2674     3518     3300 
    2323     2579     3298     2643     2158     2945     3433     3230 
    2814     2276     2099     2281     2340     2752     3500     3195 
    2408     2722     3446     3701     3662     3333     2620     2498 
    3546     4045     3268     2197     1348     1503     2922     3572 
    2592     2482     3465     3846     4305     5065     4677     2905 
    2064     3781     6473     8068     7863     5647     2139     -564 
   -1165      407     2632     2358    -1189    -4633    -4391    -1501 
     985     2050     1975     2344     3676     3871     2512     1895 
    3165     5400     7065     7006     6164     5671     4349     2281 
    1570     2196     2401     1744      496     -629     -464      322 
     490      731     1966     2843     1964     1119     1891     3545 
    5070     5524     5429     6177     6910     6145     4297     2459 
    1525     2436     5539     8419     7319     3244      423       51 
     653     1849     3458     3014     1031      511      716      861 
    1375     1607     1991     2613     2073     1123      992     1200 
    2506     4939     5930     4515     2323      997     1314     2266 
    2334     2423     3345     4079     3929     3172     2798     3357 
    4108     3878     3257     3708     4942     5514     4332     3249 
    4195     4932     4294     3759     3022     1336       93      691 
    2336     2492      598     -256     1225     3087     4206     4283 
    3175     1621      615     1537     4020     4503     2689     2346 
    3504     3933     3966     4025     3451     2188     1453     2108 
    3038     3319     3241     2928     2826     3300     2775     1159 
    1656     3786     3399     1431     1142     1193      546      776 
    1698     2532     3393     3716     3316     3130     3439     3500 
    3449     3666     3144     2165     1547     1317     1933     2709 
    2836     2763     3007     3038     2431     2187     2737     3087 
    2709     2424     2791     3221     3153     3057     3364     3900 
    4779     5401     4881     4032     3855     3524     2803     2741 
    2679     2111     2058     2412     2851     3342     3366     3403 
    3493     2635     1660     1979     2716     2551     2196     2451 
    2759     2806     2644     2280     2466     3491     3943     3434 
    3106     3095     3433     3909     3743     3408     3165     2937 
    3132     3310     3312     2948     2128     2103     2466     2124 
    1566     1262     1759     2076     1178      940     1821     2394 
    2701     3337     4039     3728     2902     2799     2519     2149 
    2743     3156     3287     3855     3360     2065     1838     2061 
    2263     2799     2995     2862     2770     2486     2045     1865 
    1984     2162     2798     3192     2463     2281     2952     2880 
    2736     3264     3689     3589     2918     2370     2508     2598 
    2170     2073     2795     3354     3165     2565     2509     3520 
    3996     3098     2542     3141     3507     2891     2413     3187 
    4063     3341     2284     2716     3804     3947     3268     2889 
    2994     2945     2594     2574     2682     2444     2488     2623 
    2504     2596     2725     2897     3250     3269     2997     2968 
    3026     2988     2959     3204     3541     2979     2529     3190 
    3492     3257     3114     2789     2235     1883     2192     2830 
    3172     2925     2289     2214     2786     2932     2475     2149 
    2313     2585     2259     1746     2000     2481     2501     2322 
    2293     2894     3415     2790     2169     2731     3241     2531 
    2145     3167     3561     2365     1883     3307     4264     3423 
    2847     3547     4047     3612     3275     3261     2947     2847 
    3122     3057     2802     2724     2670     2498     2223     2241 
    2376     2452     2910     2797     1991     1948     2342     2336 
    2246     2632     3480     3746     2944     2461     2986     3322 
    3184     3076     3044     3095     2970     2786     2805     2610 
    2231     2470     3146     3289     2951     2675     2628     2608 
    2517     2361     2208     2342     2527     2594     2531     2500 
    2944     3229     2891     2641     2763     2994     3227     3164 
    2789     2879     3453     3665     3330     2880     2714     2886 
    2999     2963     3145     3122     2562     2195     2400     2820 
    2920     2650     2400     2452     2682     2521     2393     2839 
    2925     2532     2430     2405     2654     3206     3056     2631 
    2721     2943     3048     3030     3032     3130     3014     2671 
    2659     2938     3100     2992     2539     2492     2884     2887 
    2797     2845     2714     2704     3003     2961     2648     3025 
    3588     3026     2307     2767     3284     3130     2948     2945 
    3142     3214     2924     2947     3202     2713     2289     2855 
    3148     2851     2600     2323     2458     2856     2559     1948 
    1979     2431     2604     2662     2943     2835     2497     2675 
    2558     2081     2336     2898     3034     2870     2577     2473 
    2814     3121     3045     3078     3319     3426     3296     2930 
    2605     2660     2999     2874     2114     2270     3368     3235 
    2349     2331     2589     2862     3068     2654     2563     3176 
    2928     2069     2477     3650     3700     2601     2061     2598 
    3083     3069     2728     2452     2702     3397     3936     3299 
    2207     2405     3161     3407     3272     2583     2280     3195 
    3724     3159     2901     2844     2170     1998     2632     2825 
    2536     2269     2250     2772     3204     2743     2504     3427 
    3726     2667     2450     3460     3551     2654     2384     2667 
    2887     3002     2818     2552     2536     2751     3030     2914 
    2363     2282     2758     2783     2540     2709     2882     2902 
    3102     3069     2647     2471     2731     2941     2867     2824 
    2770     2763     2972     2795     2490     2808     2866     2162 
    2120     2797     2766     2430     2617     2907     3123     3362 
    3181     2787     2936     3096     2860     2849     3057     3103 
    2897     2535     2425     2853     3105     2695     2519     2779 
