Origin Time       2018/04/09 06:38:00
Lat.              35.2
Long.             132.6
Depth. (km)       10
Mag.              3.8
Station Code      SMN016
Station Lat.      35.1957
Station Long.     132.8146
Station Height(m) 210
Record Time       2018/04/09 06:38:53
Sampling Freq(Hz) 100Hz
Duration Time(s)  60
Dir.              E-W
Scale Factor      7845(gal)/8223790
Max. Acc. (gal)   6.765
Last Correction   2018/04/09 06:38:53
Memo.             
[...]
    -780     -778     -774     -778     -783     -778     -778     -783 
    -784     -778     -774     -776     -778     -780     -781     -777 
    -776     -783     -781     -777     -784     -785     -777     -777 
    -784     -778     -770     -776     -780     -773     -767     -777 
    -789     -785     -773     -777     -785     -784     -777     -777 
    -780     -777     -774     -778     -778     -778     -778     -777 
    -774     -777     -783     -781     -778     -781     -780     -780 
    -785     -777     -767     -778     -787     -777     -772     -778 
    -784     -780     -777     -783     -783     -778     -778     -781 
    -783     -776     -769     -776     -781     -778     -778     -781 
    -780     -777     -778     -781     -778     -778     -780     -781 
    -781     -777     -778     -783     -778     -776     -778     -777 
    -777     -781     -778     -776     -781     -783     -783     -783 
    -778     -776     -777     -783     -784     -776     -772     -778 
    -785     -781     -777     -781     -778     -774     -778     -784 
    -781     -772     -774     -784     -783     -777     -777     -781 
    -780     -777     -778     -783     -783     -778     -774     -778 
    -783     -776     -773     -778     -780     -780     -781     -785 
    -781     -777     -777     -780     -780     -777     -774     -781 
    -781     -774     -778     -784     -776     -774     -781     -780 
    -777     -774     -777     -785     -780     -773     -784     -785 
    -777     -778     -781     -777     -774     -776     -781     -783 
    -778     -778     -781     -783     -781     -776     -778     -784 
    -780     -774     -774     -781     -778     -773     -781     -788 
    -783     -774     -774     -783     -783     -777     -783     -787 
    -778     -772     -776     -780     -781     -777     -777     -783 
    -783     -781     -778     -777     -777     -778     -783     -783 
    -777     -777     -780     -781     -777     -777     -783     -781 
    -780     -776     -774     -778     -780     -777     -781     -785 
    -777     -772     -780     -785     -774     -770     -780     -783 
    -777     -776     -781     -784     -778     -774     -778     -780 
    -773     -773     -783     -783     -776     -777     -784     -785 
    -780     -777     -778     -778     -777     -778     -776     -778 
    -781     -776     -778     -780     -777     -781     -784     -781 
    -776     -774     -778     -780     -774     -772     -778     -783 
    -778     -780     -784     -780     -777     -778     -780     -777 
    -773     -776     -783     -778     -773     -781     -783     -780 
    -778     -776     -778     -781     -777     -777     -781     -780 
    -774     -780     -784     -776     -777     -783     -780     -778 
    -777     -776     -780     -780     -774     -773     -780     -784 
    -780     -781     -783     -777     -777     -784     -784     -778 
    -774     -780     -783     -780     -780     -780     -778     -777 
    -778     -781     -781     -781     -783     -780     -777     -778 
    -781     -783     -784     -783     -777     -777     -781     -780 
    -773     -777     -784     -783     -778     -781     -783     -783 
    -776     -773     -783     -785     -773     -773     -781     -778 
    -774     -781     -783     -776     -778     -783     -780     -778 
    -774     -780     -785     -777     -776     -781     -778     -780 
    -780     -778     -778     -778     -777     -777     -780     -780 
    -777     -777     -780     -781     -777     -773     -783     -787 
    -774     -772     -781     -783     -778     -776     -777     -778 
    -778     -783     -783     -777     -777     -784     -785     -776 
    -773     -783     -785     -778     -778     -781     -777     -776 
    -781     -778     -774     -778     -783     -783     -778     -776 
    -777     -780     -781     -780     -773     -774     -781     -781 
    -773     -776     -783     -778     -780     -783     -776     -772 
    -778     -785     -787     -776     -774     -785     -785     -773 
    -772     -780     -778     -773     -778     -785     -781     -774 
    -778     -784     -783     -777     -774     -777     -781     -780 
    -777     -778     -778     -776     -777     -781     -780     -778 
    -776     -777     -781     -780     -778     -777     -777     -774 
    -776     -783     -781     -776     -777     -780     -778     -774 
    -774     -781     -780     -774     -780     -783     -776     -776 
    -785     -787     -780     -776     -776     -778     -783     -783 
    -777     -776     -780     -778     -778     -783     -781     -777 
    -777     -780     -783     -777     -773     -783     -787     -777 
    -773     -776     -773     -773     -781     -789     -785     -776 
    -778     -783     -774     -773     -781     -784     -777     -774 
    -780     -778     -776     -777     -778     -778     -778     -777 
    -780     -785     -778     -777     -781     -778     -777     -776 
    -778     -783     -780     -776     -780     -783     -777     -777 
    -781     -780     -778     -777     -776     -778     -777     -777 
    -781     -783     -777     -777     -784     -783     -777     -776 
    -781     -780     -774     -780     -783     -777     -778     -784 
    -781     -774     -774     -780     -783     -780     -776     -780 
    -784     -780     -777     -780     -780     -781     -780     -777 
    -780     -783     -781     -781     -780     -780     -777     -773 
    -780     -784     -773     -774     -788     -784     -772     -778 
    -784     -780     -777     -777     -780     -783     -777     -776 
    -783     -783     -777     -777     -780     -776     -776     -783 
    -781     -774     -777     -780     -777     -778     -776     -773 
    -778     -783     -778     -774     -778     -781     -780     -778 
    -781     -778     -774     -778     -783     -777     -773     -781 
    -785     -777     -773     -781     -784     -776     -777     -785 
    -783     -776     -778     -784     -781     -781     -784     -780 
    -777     -776     -777     -780     -781     -778     -774     -774 
    -780     -783     -778     -777     -784     -783     -774     -774 
    -781     -781     -777     -781     -787     -781     -777     -781 
    -787     -781     -773     -776     -778     -773     -776     -784 
    -783     -777     -778     -781     -783     -780     -776     -777 
    -781     -781     -776     -777     -781     -777     -776     -780 
    -781     -780     -778     -778     -776     -776     -778     -785 
    -785     -777     -776     -783     -783     -777     -776     -778 
    -780     -774     -773     -783     -787     -777     -776     -785 
    -783     -774     -777     -781     -777     -776     -780     -781 
    -780     -776     -778     -781     -778     -776     -777     -780 
    -783     -781     -778     -776     -777     -778     -778     -778 
    -780     -777     -776     -778     -780     -778     -777     -781 
    -783     -777     -778     -783     -777     -774     -780     -783 
    -778     -780     -781     -781     -783     -778     -774     -778 
    -780     -776     -780     -784     -780     -783     -783     -777 
    -777     -776     -776     -778     -777     -774     -781     -788 
    -784     -777     -777     -778     -780     -776     -774     -783 
    -783     -770     -770     -780     -784     -778     -777     -781 
    -778     -773     -783     -787     -776     -777     -784     -777 
    -772     -776     -781     -784     -781     -778     -784     -783 
    -774     -777     -785     -785     -778     -776     -777     -777 
    -778     -781     -784     -783     -774     -773     -778     -780 
    -780     -783     -784     -784     -773     -765     -772     -784 
    -787     -785     -787     -781     -770     -767     -778     -784 
    -783     -785     -783     -776     -773     -776     -781     -783 
    -780     -778     -776     -770     -774     -784     -787     -787 
    -781     -776     -776     -777     -777     -777     -784     -789 
    -777     -770     -773     -774     -780     -785     -780     -776 
    -772     -774     -785     -784     -777     -780     -783     -777 
    -773     -778     -781     -780     -780     -777     -778     -776 
    -772     -780     -791     -787     -777     -776     -777     -777 
    -774     -776     -780     -780     -776     -774     -780     -784 
    -780     -774     -774     -778     -778     -778     -781     -783 
    -778     -780     -784     -783     -773     -773     -781     -781 
    -778     -780     -780     -776     -772     -778     -784     -777 
    -777     -785     -785     -778     -776     -778     -783     -780 
    -778     -780     -778     -778     -781     -780     -781     -780 
    -776     -778     -778     -777     -778     -781     -781     -780 
    -776     -776     -783     -780     -774     -781     -784     -776 
    -774     -781     -783     -776     -777     -787     -785     -773 
    -772     -781     -783     -774     -777     -780     -774     -776 
    -781     -784     -785     -783     -777     -774     -780     -783 
    -778     -777     -780     -778     -776     -776     -780     -778 
    -780     -785     -785     -777     -776     -781     -780     -774 
    -778     -787     -780     -769     -773     -785     -787     -778 
    -776     -777     -780     -780     -780     -780     -777     -777 
    -781     -784     -780     -776     -777     -780     -778     -780 
    -781     -781     -778     -777     -780     -783     -783     -777 
    -774     -778     -783     -781     -777     -780     -778     -774 
    -777     -784     -783     -774     -774     -784     -784     -774 
    -774     -780     -780     -780     -784     -781     -778     -778 
    -781     -785     -781     -774     -776     -777     -774     -777 
    -780     -780     -781     -780     -776     -781     -784     -777 
    -776     -781     -780     -776     -777     -781     -780     -776 
    -778     -783     -780     -773     -777     -784     -781     -776 
    -778     -783     -777     -772     -781     -785     -776     -773 
    -781     -784     -777     -773     -778     -783     -777     -774 
    -778     -781     -780     -777     -777     -776     -780     -780 
    -776     -777     -778     -778     -780     -780     -778     -774 
    -774     -780     -783     -777     -776     -783     -781     -776 
    -780     -780     -774     -776     -780     -778     -777     -780 
    -780     -778     -781     -780     -777     -777     -774     -776 
    -783     -784     -784     -796     -814     -816     -792     -805 
    -965    -1193    -1183     -861     -665     -972    -1464    -1579 
   -1205     -595      -13      445      714      681      430       93 
    -303     -770    -1235    -1475    -1640    -2015    -2344    -2176 
   -1560    -1104     -946     -774     -498      -40       52     -568 
    -861      -10      913      333    -1003    -1378    -1024    -1013 
   -1513    -1684     -996     -355     -751    -1579    -1471     -379 
     414      133     -499     -498     -280     -652    -1254    -1475 
   -1387    -1413    -1854    -2150    -1347       81      540       -5 
    -116      197        2     -576    -1198    -1463    -1229    -1269 
   -1694    -1745    -1251     -535      -55     -221     -604     -451 
      40      121     -387     -915    -1074    -1394    -1981    -1895 
   -1210     -673      -75      283     -144     -560     -521     -741 
   -1107     -954     -905    -1629    -1985    -1098     -234     -218 
    -240     -302     -728     -762     -388     -440     -741     -851 
    -985    -1078    -1158    -1341     -888      -91     -342    -1138 
   -1209     -749     -484     -816    -1304    -1213     -903     -973 
   -1055     -711     -156      194       95     -456    -1193    -1578 
   -1393    -1275    -1341     -912     -432     -463     -217      391 
     279     -653    -1275    -1227    -1228    -1240     -847     -515 
    -500     -693    -1209    -1534    -1101     -542     -540     -760 
    -799     -726     -631     -687     -890     -973     -949     -702 
    -244     -149     -510     -931    -1063     -777     -832    -1501 
   -1506     -699     -407     -734     -869     -496      147      295 
    -405    -1333    -1613    -1021     -588    -1069    -1549    -1344 
   -1044     -967     -905     -822     -603     -334     -207      -59 
    -297    -1065    -1188     -566     -303     -369     -346     -322 
    -469     -938    -1474    -1814    -2014    -1736    -1000     -780 
   -1135     -981     -190      382      298     -120     -367     -283 
    -294    -1142    -2442    -2679    -1618     -685     -765    -1112 
    -695      152      405       28     -326     -473     -610     -862 
   -1273    -1362     -726     -340     -708     -974    -1016     -936 
    -700    -1053    -1548    -1237    -1085    -1142     -252      704 
     695      225     -410    -1185    -1771    -1944    -1726    -1310 
    -861     -510     -472     -877    -1302    -1075     -370      129 
     261      108     -423     -990    -1020     -990    -1308    -1171 
    -680     -909    -1524    -1597    -1390    -1601    -2228    -2614 
   -2228    -1136       14      519      754     1768     3491     4599 
    3496     -530    -5516    -7871    -6110    -1316     3334     3508 
    -486    -3396    -2802     -475     1395      873    -2351    -4737 
   -2874     1264     4045     4774     2859    -2138    -6053    -5212 
   -2594    -1224     -895    -2027    -3180    -1196     2166     2725 
     915    -1471    -4125    -4327     -380     3464     3613     1243 
   -1780    -3489    -2675     -575      967      699     -704    -1849 
   -2587    -2205     -912    -1162    -3527    -5148    -3796     -932 
     791     1181     1813     2748     2857     1987      587     -475 
    -947    -1534    -2098    -2340    -2126    -1453    -1328    -2088 
   -3010    -3327    -2018      787     3194     3387     1269    -1119 
   -2098    -2427    -2546    -1838    -1069     -702     -164      -60 
    -271      340      754      289       78     -623    -2442    -2960 
   -1215      409      699      427     -491    -1875    -2660    -3326 
   -3958    -2752     -338      720      556      136     -696     -946 
     -82       44     -842     -784      128      355     -236     -832 
    -929    -1216    -2124    -2481    -1960    -1209     -351        5 
    -448     -471      868     2056     1410      415      206     -953 
   -2874    -3424    -2772    -1930     -778       76     -326     -989 
    -934    -1073    -1763    -2239    -1921     -518     1088     1360 
     114    -1449    -1999    -1528    -1094     -950    -1008    -1274 
   -1055     -263      261      217     -342    -1004     -969     -492 
    -425     -365      180      299     -407    -1175    -1858    -2358 
   -2123    -1632    -1471    -1031     -432     -479     -513     -117 
    -268     -707     -282      627      969      523     -328     -912 
   -1105    -1765    -2782    -3037    -2698    -2347    -1630     -419 
     778     1421     1386     1034      341     -892    -1921    -2215 
   -2408    -2493    -1903    -1003     -326        9      -45     -433 
   -1026    -1225     -544        0     -197       55      756      585 
    -147     -409     -444    -1077    -2263    -2894    -2398    -1941 
   -2535    -2855    -1535      257     1251     1460      859      156 
     125     -211    -1173    -1410    -1151    -1368    -1363     -915 
    -672     -672    -1096    -1543    -1290    -1267    -1842    -1502 
     -55      972     1101      808       47     -796     -876     -711 
   -1200    -1833    -2064    -2200    -1981     -908       55     -261 
   -1062     -819      124      302     -522    -1395    -1507     -973 
    -270      243     -193    -1559    -2319    -1857    -1290    -1148 
    -884     -418       98      784      850     -292    -1266    -1111 
   -1013    -1768    -2412    -1962     -718      205      259      222 
     542      136    -1254    -1995    -1514     -993     -999    -1020 
    -753     -639     -796     -553      -51     -291    -1011    -1129 
    -927     -876     -602     -608    -1239    -1412     -876     -324 
      72       36     -592    -1133    -1235    -1426    -1800    -1852 
   -1705    -1502     -739      365      749      370      144      -86 
    -908    -1370     -700     -338    -1254    -1910    -1364     -918 
   -1120    -1011     -710     -981    -1291    -1255    -1107     -319 
     712      360     -787     -776     -133     -333    -1104    -1663 
   -1575     -899     -413     -407     -503     -506     -419     -355 
    -294     -461    -1329    -2196    -1927     -896      -28      216 
    -418    -1097     -947     -893    -1404    -1351     -616     -356 
    -800    -1136    -1230    -1266     -931     -749    -1301    -1620 
   -1188     -600      225     1100      776     -592    -1150     -643 
    -629    -1291    -1653    -1788    -1865    -1165     -241     -734 
   -1723    -1028      418      646      278      279      129     -206 
    -329     -838    -1741    -1872    -1503    -1686    -1856    -1475 
   -1190     -950     -328      -40     -330     -225      218      -95 
    -943    -1213     -976     -731     -517     -664    -1119    -1225 
   -1179    -1220     -951     -835    -1213    -1089     -301       79 
     -98     -396     -858    -1185    -1175    -1216    -1254    -1209 
   -1374    -1491     -943      324     1286      895     -326    -1192 
   -1387    -1264     -951     -450     -392    -1028    -1501    -1534 
   -1588    -1358     -648     -370     -765     -737     -291     -765 
   -1655    -1301     -280      136       64     -160     -321     -309 
    -398     -913    -1945    -2756    -2454    -1667    -1263     -855 
    -280      228      864     1341      935     -338    -1682    -2162 
   -1629     -961     -884    -1192    -1247     -724       -2      106 
    -669    -1367    -1197     -877     -908     -800     -487     -178 
      71       14     -372     -692    -1019    -1713    -2134    -1795 
   -1576    -1587     -890     -109     -315     -544       36      243 
    -453     -886     -552     -410    -1107    -1710    -1482    -1109 
    -824     -437     -581    -1031     -661      -71     -429    -1035 
    -919     -568     -792    -1304    -1178     -557     -427     -747 
    -850     -832     -932     -970     -953    -1000     -935     -537 
      36      210     -251     -757     -876    -1005    -1301    -1278 
   -1043    -1274    -1799    -1813    -1274     -695     -259      -32 
    -178     -396     -144      222      -99     -862    -1289    -1247 
   -1120    -1244    -1483    -1486    -1119     -352      373      287 
    -311     -410      -90     -193     -909    -1777    -2058    -1447 
    -849    -1117    -1599    -1277     -230      545      144     -974 
   -1513    -1334    -1215    -1115     -641     -337     -514     -328 
     288      228     -612    -1308    -1539    -1347     -939    -1205 
   -2014    -1864     -702      151      198     -263     -503        8 
