Origin Time       2018/04/09 06:38:00
Lat.              35.2
Long.             132.6
Depth. (km)       10
Mag.              3.8
Station Code      SMN016
Station Lat.      35.1957
Station Long.     132.8146
Station Height(m) 210
Record Time       2018/04/09 06:38:53
Sampling Freq(Hz) 100Hz
Duration Time(s)  60
Dir.              N-S
Scale Factor      7845(gal)/8223790
Max. Acc. (gal)   6.682
Last Correction   2018/04/09 06:38:53
Memo.             
[...]
  -13231   -13231   -13234   -13235   -13232   -13234   -13232   -13231 
  -13238   -13243   -13234   -13224   -13230   -13235   -13228   -13231 
  -13238   -13231   -13225   -13235   -13240   -13231   -13225   -13232 
  -13232   -13225   -13227   -13238   -13242   -13231   -13232   -13238 
  -13234   -13228   -13234   -13238   -13228   -13227   -13234   -13231 
  -13228   -13232   -13240   -13238   -13228   -13232   -13236   -13228 
  -13231   -13235   -13232   -13231   -13235   -13231   -13228   -13232 
  -13236   -13236   -13232   -13231   -13236   -13234   -13227   -13234 
  -13238   -13234   -13230   -13230   -13225   -13225   -13230   -13235 
  -13235   -13228   -13225   -13232   -13238   -13236   -13238   -13238 
  -13232   -13227   -13227   -13228   -13227   -13231   -13238   -13236 
  -13232   -13232   -13231   -13227   -13228   -13232   -13230   -13230 
  -13235   -13232   -13224   -13227   -13238   -13236   -13228   -13230 
  -13235   -13235   -13234   -13236   -13235   -13225   -13230   -13238 
  -13234   -13228   -13230   -13235   -13234   -13232   -13238   -13236 
  -13230   -13234   -13236   -13231   -13228   -13232   -13230   -13225 
  -13231   -13238   -13238   -13235   -13230   -13230   -13232   -13234 
  -13232   -13234   -13232   -13234   -13235   -13227   -13225   -13234 
  -13235   -13231   -13235   -13238   -13234   -13230   -13227   -13232 
  -13236   -13234   -13234   -13234   -13230   -13230   -13238   -13236 
  -13234   -13234   -13232   -13231   -13230   -13228   -13230   -13230 
  -13235   -13238   -13236   -13236   -13234   -13232   -13232   -13232 
  -13232   -13231   -13230   -13228   -13230   -13232   -13235   -13236 
  -13235   -13230   -13231   -13235   -13228   -13227   -13236   -13238 
  -13235   -13234   -13232   -13230   -13227   -13228   -13238   -13240 
  -13232   -13231   -13232   -13230   -13227   -13231   -13235   -13236 
  -13235   -13238   -13236   -13225   -13225   -13234   -13231   -13230 
  -13235   -13236   -13232   -13234   -13236   -13232   -13228   -13232 
  -13238   -13231   -13230   -13236   -13234   -13230   -13232   -13235 
  -13230   -13223   -13231   -13236   -13231   -13232   -13240   -13235 
  -13227   -13230   -13230   -13231   -13235   -13238   -13238   -13231 
  -13228   -13231   -13230   -13228   -13236   -13238   -13231   -13223 
  -13230   -13236   -13232   -13234   -13238   -13234   -13232   -13235 
  -13230   -13228   -13230   -13230   -13231   -13231   -13238   -13240 
  -13227   -13224   -13238   -13238   -13231   -13228   -13230   -13232 
  -13231   -13234   -13238   -13231   -13230   -13238   -13236   -13228 
  -13234   -13238   -13230   -13224   -13231   -13236   -13235   -13230 
  -13235   -13236   -13231   -13230   -13230   -13230   -13231   -13235 
  -13234   -13231   -13232   -13234   -13232   -13228   -13230   -13234 
  -13232   -13230   -13235   -13238   -13228   -13227   -13238   -13235 
  -13225   -13236   -13238   -13227   -13225   -13232   -13235   -13232 
  -13230   -13235   -13234   -13227   -13230   -13236   -13232   -13232 
  -13234   -13228   -13228   -13236   -13236   -13231   -13230   -13234 
  -13234   -13228   -13234   -13240   -13232   -13228   -13232   -13232 
  -13228   -13227   -13231   -13235   -13234   -13232   -13238   -13238 
  -13225   -13225   -13236   -13232   -13228   -13235   -13234   -13231 
  -13235   -13238   -13235   -13230   -13231   -13232   -13228   -13231 
  -13235   -13235   -13232   -13235   -13236   -13224   -13224   -13236 
  -13235   -13231   -13234   -13232   -13228   -13228   -13232   -13236 
  -13231   -13230   -13238   -13238   -13228   -13230   -13234   -13230 
  -13228   -13232   -13235   -13230   -13227   -13235   -13236   -13230 
  -13234   -13236   -13227   -13224   -13232   -13236   -13231   -13228 
  -13235   -13234   -13230   -13232   -13232   -13234   -13234   -13231 
  -13231   -13228   -13231   -13238   -13231   -13231   -13240   -13236 
  -13227   -13227   -13234   -13238   -13232   -13234   -13236   -13230 
  -13227   -13235   -13240   -13231   -13225   -13232   -13232   -13230 
  -13230   -13228   -13230   -13235   -13242   -13236   -13223   -13225 
  -13235   -13232   -13231   -13234   -13234   -13232   -13234   -13236 
  -13234   -13228   -13231   -13238   -13232   -13227   -13231   -13235 
  -13235   -13234   -13232   -13234   -13234   -13231   -13230   -13227 
  -13230   -13238   -13234   -13223   -13228   -13242   -13236   -13227 
  -13234   -13235   -13230   -13231   -13232   -13232   -13227   -13228 
  -13242   -13238   -13225   -13230   -13238   -13232   -13228   -13232 
  -13232   -13232   -13238   -13238   -13231   -13227   -13231   -13232 
  -13235   -13238   -13232   -13227   -13228   -13232   -13236   -13234 
  -13238   -13240   -13228   -13224   -13234   -13234   -13231   -13238 
  -13240   -13238   -13231   -13223   -13228   -13235   -13235   -13236 
  -13235   -13230   -13223   -13227   -13236   -13235   -13234   -13240 
  -13238   -13228   -13232   -13235   -13225   -13228   -13235   -13235 
  -13232   -13228   -13234   -13236   -13231   -13235   -13235   -13231 
  -13232   -13234   -13232   -13230   -13232   -13235   -13231   -13228 
  -13230   -13235   -13238   -13232   -13232   -13235   -13230   -13230 
  -13235   -13232   -13228   -13232   -13235   -13231   -13230   -13236 
  -13236   -13234   -13232   -13232   -13228   -13228   -13235   -13235 
  -13232   -13235   -13238   -13232   -13228   -13231   -13234   -13232 
  -13230   -13234   -13236   -13231   -13231   -13238   -13234   -13225 
  -13234   -13236   -13232   -13231   -13232   -13232   -13230   -13234 
  -13242   -13231   -13223   -13235   -13236   -13228   -13234   -13238 
  -13234   -13227   -13228   -13236   -13235   -13230   -13236   -13240 
  -13234   -13230   -13232   -13232   -13230   -13232   -13232   -13234 
  -13234   -13232   -13235   -13238   -13235   -13232   -13228   -13232 
  -13236   -13232   -13228   -13230   -13234   -13234   -13230   -13231 
  -13235   -13230   -13228   -13234   -13235   -13230   -13227   -13234 
  -13238   -13232   -13231   -13234   -13231   -13230   -13235   -13235 
  -13232   -13232   -13231   -13232   -13234   -13232   -13230   -13228 
  -13234   -13238   -13232   -13227   -13232   -13235   -13232   -13232 
  -13235   -13232   -13227   -13230   -13236   -13231   -13225   -13235 
  -13242   -13232   -13228   -13234   -13235   -13230   -13231   -13234 
  -13232   -13228   -13234   -13236   -13228   -13227   -13235   -13236 
  -13232   -13231   -13235   -13235   -13231   -13231   -13234   -13231 
  -13230   -13234   -13231   -13230   -13235   -13238   -13234   -13230 
  -13236   -13236   -13228   -13231   -13236   -13230   -13227   -13235 
  -13238   -13227   -13227   -13238   -13238   -13232   -13232   -13235 
  -13230   -13227   -13232   -13234   -13230   -13228   -13235   -13238 
  -13231   -13232   -13236   -13231   -13231   -13238   -13235   -13228 
  -13230   -13231   -13231   -13234   -13232   -13234   -13234   -13230 
  -13235   -13234   -13232   -13234   -13230   -13234   -13230   -13228 
  -13238   -13232   -13228   -13236   -13234   -13227   -13230   -13236 
  -13235   -13227   -13230   -13238   -13232   -13228   -13232   -13232 
  -13232   -13234   -13231   -13234   -13232   -13225   -13235   -13238 
  -13231   -13232   -13235   -13230   -13230   -13231   -13228   -13227 
  -13230   -13238   -13240   -13232   -13227   -13228   -13228   -13235 
  -13238   -13227   -13224   -13232   -13238   -13235   -13234   -13238 
  -13232   -13224   -13232   -13238   -13232   -13235   -13238   -13232 
  -13224   -13221   -13225   -13230   -13235   -13242   -13240   -13232 
  -13223   -13224   -13228   -13232   -13242   -13246   -13235   -13225 
  -13223   -13221   -13227   -13235   -13238   -13238   -13235   -13228 
  -13221   -13224   -13235   -13240   -13236   -13227   -13221   -13224 
  -13231   -13238   -13246   -13243   -13228   -13219   -13220   -13224 
  -13231   -13243   -13254   -13242   -13221   -13220   -13223   -13223 
  -13238   -13254   -13250   -13231   -13216   -13217   -13224   -13232 
  -13246   -13247   -13235   -13230   -13225   -13221   -13230   -13242 
  -13246   -13236   -13228   -13228   -13224   -13224   -13235   -13244 
  -13242   -13228   -13224   -13228   -13231   -13238   -13243   -13240 
  -13228   -13220   -13224   -13228   -13230   -13242   -13247   -13235 
  -13223   -13224   -13234   -13234   -13234   -13236   -13232   -13228 
  -13228   -13227   -13230   -13238   -13238   -13235   -13231   -13228 
  -13225   -13227   -13236   -13240   -13235   -13234   -13232   -13228 
  -13228   -13235   -13240   -13236   -13231   -13228   -13227   -13228 
  -13235   -13242   -13236   -13230   -13232   -13234   -13231   -13225 
  -13230   -13244   -13240   -13228   -13232   -13230   -13224   -13228 
  -13236   -13238   -13232   -13228   -13228   -13228   -13234   -13240 
  -13238   -13231   -13230   -13231   -13232   -13232   -13234   -13238 
  -13235   -13228   -13228   -13231   -13230   -13232   -13242   -13240 
  -13230   -13230   -13231   -13227   -13230   -13238   -13242   -13232 
  -13225   -13230   -13228   -13228   -13236   -13238   -13236   -13228 
  -13224   -13235   -13236   -13234   -13242   -13235   -13224   -13228 
  -13227   -13225   -13234   -13236   -13235   -13231   -13231   -13235 
  -13235   -13231   -13238   -13236   -13230   -13230   -13228   -13227 
  -13234   -13242   -13242   -13230   -13224   -13232   -13232   -13230 
  -13236   -13238   -13231   -13228   -13231   -13231   -13232   -13234 
  -13235   -13236   -13236   -13231   -13227   -13230   -13232   -13232 
  -13235   -13234   -13228   -13230   -13235   -13235   -13234   -13235 
  -13231   -13231   -13234   -13230   -13228   -13232   -13235   -13234 
  -13225   -13224   -13230   -13231   -13231   -13236   -13238   -13230 
  -13227   -13236   -13235   -13231   -13236   -13236   -13228   -13225 
  -13230   -13231   -13231   -13232   -13236   -13236   -13230   -13230 
  -13236   -13232   -13231   -13236   -13234   -13228   -13232   -13232 
  -13228   -13231   -13236   -13231   -13230   -13235   -13234   -13230 
  -13231   -13232   -13231   -13230   -13227   -13234   -13238   -13232 
  -13232   -13235   -13231   -13225   -13228   -13235   -13232   -13228 
  -13235   -13236   -13230   -13232   -13236   -13231   -13228   -13232 
  -13231   -13227   -13228   -13232   -13236   -13236   -13234   -13234 
  -13234   -13231   -13231   -13232   -13230   -13228   -13231   -13230 
  -13230   -13236   -13236   -13234   -13236   -13236   -13231   -13227 
  -13232   -13238   -13228   -13227   -13236   -13235   -13232   -13238 
  -13238   -13232   -13227   -13227   -13231   -13230   -13227   -13232 
  -13238   -13236   -13232   -13234   -13236   -13231   -13224   -13227 
  -13231   -13231   -13232   -13234   -13234   -13234   -13235   -13232 
  -13232   -13235   -13231   -13223   -13228   -13248   -13244   -13144 
  -12964   -13027   -13605   -14080   -13312   -11753   -11790   -14045 
  -15596   -14411   -12548   -12591   -13775   -13680   -12275   -12029 
  -13657   -14397   -12445   -10438   -11353   -13672   -14318   -13759 
  -14175   -14986   -14677   -13680   -12954   -13243   -14179   -13574 
  -11184   -10593   -12631   -13020   -11703   -12957   -15399   -15057 
  -13336   -13170   -13387   -12703   -13135   -14719   -14572   -12974 
  -12779   -13616   -12843   -11028   -11227   -13643   -15014   -14006 
  -12853   -12833   -13147   -12901   -11979   -11881   -13586   -15180 
  -14901   -13910   -13721   -13618   -12834   -12399   -13004   -13728 
  -13501   -12641   -12125   -12000   -12098   -12287   -12544   -13763 
  -15427   -15404   -13992   -13355   -13543   -12912   -11897   -12305 
  -13182   -12988   -12818   -13300   -13771   -14179   -14202   -13853 
  -13865   -13406   -11873   -11469   -13157   -14058   -12463   -11086 
  -12461   -14729   -15037   -14169   -14337   -14517   -12752   -10835 
  -11219   -13009   -14115   -13651   -12726   -12934   -13535   -13437 
  -13478   -14218   -14731   -13986   -12768   -12507   -12499   -12322 
  -12961   -13317   -12243   -11688   -12900   -14245   -14361   -13864 
  -13730   -13853   -13751   -13227   -12571   -12930   -14131   -14071 
  -12816   -12503   -13070   -13043   -12623   -12680   -12980   -13204 
  -13552   -13709   -13117   -12483   -13150   -14177   -13590   -12798 
  -13670   -14206   -13135   -12567   -13351   -13941   -13427   -12437 
  -12067   -12680   -13495   -13706   -13590   -13684   -13730   -13217 
  -12544   -12410   -12600   -13080   -14011   -14139   -12976   -12387 
  -13101   -13463   -13051   -13527   -14751   -14447   -12926   -12644 
  -13193   -12602   -11708   -12301   -13659   -14207   -13994   -13537 
  -12893   -12865   -13747   -13653   -12179   -12089   -13825   -14255 
  -12843   -12417   -13319   -13495   -13155   -13366   -13462   -13382 
  -13905   -14110   -12927   -12131   -13443   -14714   -13755   -12415 
  -12745   -13200   -12231   -11782   -13298   -14473   -13851   -13093 
  -12974   -12864   -12784   -12850   -13313   -14058   -13957   -13393 
  -13481   -13120   -12141   -12650   -14234   -14357   -13532   -13705 
  -13621   -11816   -10557   -11942   -14054   -14536   -14170   -13986 
  -13126   -12060   -12536   -13565   -13393   -13238   -13944   -13911 
  -13157   -13247   -13626   -13350   -13603   -14504   -13802   -11655 
  -11020   -12166   -12934   -13316   -14079   -14156   -13207   -12343 
  -12098   -12676   -13617   -13633   -12850   -12540   -12456   -11299 
   -9644    -9847   -12756   -16567   -19291   -20237   -18640   -14674 
  -11249    -9984   -10095   -12376   -15759   -15194   -10714    -8702 
  -11199   -14777   -17644   -18949   -16618   -11327    -7335    -7148 
   -9255   -12680   -17089   -18846   -16530   -13574   -11469    -9701 
   -8680    -9024   -11387   -14990   -17113   -16682   -15624   -15373 
  -14596   -11900    -9421   -10329   -13560   -15745   -16154   -15037 
  -12314    -9837    -9451   -11265   -14175   -15670   -15331   -14975 
  -14121   -12118   -11457   -13783   -16421   -16353   -14233   -12272 
  -11233   -10802   -11230   -12217   -12285   -11373   -10995   -12363 
  -15238   -17332   -16556   -13975   -12170   -11353   -10125    -9340 
  -10970   -13763   -14881   -14478   -14296   -14635   -14917   -14578 
  -14133   -14084   -13231   -11989   -12568   -14247   -14470   -13347 
  -13324   -14624   -14542   -12987   -12677   -13243   -12312   -10804 
  -11307   -13063   -13895   -14385   -14760   -13527   -11686   -11105 
  -11219   -11647   -12830   -14065   -14506   -14572   -14844   -14246 
  -11853   -10173   -11869   -14662   -15079   -14553   -15479   -15275 
  -12235   -10611   -12482   -13959   -13396   -13651   -14789   -13470 
  -10574   -10628   -13597   -15530   -15234   -14131   -12654   -10805 
   -9892   -10643   -11929   -13396   -15136   -15422   -14089   -13813 
  -14736   -14727   -14052   -13867   -13703   -12964   -12185   -12195 
  -12541   -12436   -12761   -13610   -13400   -12842   -13501   -13896 
  -12893   -12136   -12438   -13066   -13960   -14909   -14723   -13278 
  -12089   -12145   -13142   -14230   -14377   -13425   -12581   -12835 
  -13676   -13624   -12420   -11900   -12898   -13775   -13590   -13238 
  -13090   -12644   -12307   -13009   -14092   -14283   -14088   -14373 
  -14149   -12507   -11071   -11527   -12442   -12394   -12887   -14176 
  -14335   -13987   -14321   -14149   -13824   -14403   -14428   -13296 
  -11956   -10781   -10677   -12039   -13269   -13398   -13161   -13404 
  -14428   -15341   -14971   -14115   -13806   -13339   -12561   -12125 
  -11608   -11192   -11959   -13246   -13832   -13824   -13672   -13890 
  -14269   -13864   -13296   -13421   -13209   -12321   -12017   -12748 
  -13270   -12341   -11260   -12039   -13591   -13946   -13798   -14351 
  -14747   -14084   -13456   -13828   -13899   -12571   -11641   -12846 
  -14280   -13760   -13057   -14003   -14685   -13841   -13181   -13296 
  -12879   -11980   -11989   -13018   -13977   -14061   -13296   -12868 
  -13419   -13740   -13043   -12183   -12209   -13085   -13676   -13400 
  -13027   -12908   -12637   -12604   -13065   -13405   -13717   -14185 
  -14212   -13836   -13590   -13520   -13508   -13225   -12656   -12584 
  -12799   -12098   -11164   -11611   -12903   -13878   -14572   -14963 
  -15016   -14891   -14045   -12644   -12131   -12650   -12883   -12630 
  -12586   -12776   -13201   -13567   -13336   -13198   -13247   -12923 
  -13385   -14594   -14445   -13032   -12270   -12610   -12972   -12777 
  -12787   -13258   -13266   -12717   -12977   -14488   -15322   -14191 
  -12870   -13213   -13959   -12820   -10694   -10755   -12921   -13841 
  -13051   -13016   -13806   -13751   -13192   -13748   -15265   -15622 
  -14149   -12738   -12186   -11589   -11412   -12467   -13726   -14073 
  -13987   -14323   -14380   -12997   -11442   -11663   -12510   -12187 
  -12093   -13477   -14195   -13122   -12637   -13867   -14729   -13849 
  -12609   -12926   -14218   -14350   -13709   -13761   -13355   -12221 
  -12577   -13954   -13851   -12868   -13073   -13744   -13294   -12556 
  -12571   -12712   -12749   -13375   -14148   -13432   -11738   -11908 
  -13798   -14426   -13909   -14044   -14179   -13787   -13728   -13628 
  -12688   -11932   -12345   -12775   -12382   -12256   -12760   -13132 
  -13406   -13825   -14139   -13954   -13201   -12641   -12961   -13702 
  -13659   -12677   -12812   -14585   -14839   -12934   -12040   -12586 
  -12807   -13108   -14125   -14314   -12829   -11696   -12363   -13333 
  -13270   -13004   -13560   -14253   -13736   -12668   -12907   -13834 
  -13651   -13347   -14308   -14782   -13338   -11947   -12190   -12576 
  -12143   -12326   -13753   -14631   -13555   -12033   -12213   -13463 
  -13961   -13792   -13965   -14196   -13643   -12579   -11896   -11878 
  -12380   -13232   -13851   -13748   -13510   -13721   -13833   -13402 
  -12982   -13224   -13814   -13718   -13004   -12861   -13115   -12866 
  -12654   -12787   -12829   -13209   -13707   -13555   -13462   -13587 
  -13070   -12490   -12799   -13598   -14075   -14053   -13815   -13551 
  -13385   -13413   -13314   -12587   -11696   -11778   -12614   -13128 
  -13274   -13298   -13262   -13633   -14258   -14227   -13601   -13497 
  -14008   -13998   -13392   -12772   -11919   -11546   -12649   -13824 
  -13679   -13122   -13018   -13035   -12962   -13410   -14346   -14164 
  -12839   -12734   -13859   -13770   -12571   -12302   -12861   -13123 
  -13387   -13612   -13009   -12384   -12884   -13743   -13740   -13128 
  -13051   -13535   -13495   -12987   -13062   -13702   -14056   -14006 
  -13963   -13799   -13063   -12081   -11875   -12514   -12906   -12870 
  -13204   -13892   -14315   -14318   -14103   -13694   -13046   -12544 
  -12353   -12104   -11878   -12086   -12752   -13549   -13900   -13760 
  -14050   -14844   -14810   -13814   -13101   -12738   -12167   -11912 
  -12442   -13209   -13475   -13270   -13408   -13948   -13806   -12912 
  -12337   -12513   -13155   -13771   -13948   -13657   -13043   -12660 
  -13129   -13829   -13591   -12843   -12891   -13265   -12719   -12036 
  -12694   -13983   -14234   -13686   -13702   -14090   -13616   -12645 
  -12664   -13471   -13744   -13412   -13084   -12708   -12276   -12168 
  -12355   -12695   -13359   -14122   -14354   -13882   -13068   -12501 
