Origin Time       2018/04/09 06:38:00
Lat.              35.2
Long.             132.6
Depth. (km)       10
Mag.              3.8
Station Code      SMN016
Station Lat.      35.1957
Station Long.     132.8146
Station Height(m) 210
Record Time       2018/04/09 06:38:53
Sampling Freq(Hz) 100Hz
Duration Time(s)  60
Dir.              U-D
Scale Factor      7845(gal)/8223790
Max. Acc. (gal)   5.003
Last Correction   2018/04/09 06:38:53
Memo.             
[...]
   -2933    -2933    -2933    -2929    -2930    -2936    -2934    -2933 
   -2934    -2930    -2932    -2934    -2933    -2932    -2932    -2934 
   -2937    -2937    -2933    -2933    -2936    -2933    -2929    -2933 
   -2940    -2937    -2933    -2932    -2936    -2936    -2932    -2933 
   -2938    -2936    -2928    -2930    -2938    -2933    -2928    -2934 
   -2937    -2936    -2934    -2933    -2930    -2933    -2934    -2933 
   -2934    -2937    -2936    -2932    -2932    -2934    -2932    -2930 
   -2934    -2936    -2934    -2936    -2936    -2930    -2929    -2936 
   -2938    -2933    -2929    -2934    -2937    -2933    -2930    -2934 
   -2937    -2933    -2930    -2936    -2938    -2936    -2932    -2930 
   -2933    -2934    -2930    -2933    -2937    -2936    -2934    -2933 
   -2933    -2936    -2932    -2930    -2936    -2937    -2932    -2932 
   -2936    -2934    -2933    -2936    -2937    -2933    -2930    -2934 
   -2937    -2933    -2932    -2936    -2936    -2932    -2929    -2933 
   -2937    -2938    -2933    -2930    -2933    -2932    -2930    -2933 
   -2936    -2937    -2933    -2932    -2934    -2934    -2933    -2934 
   -2937    -2936    -2930    -2929    -2933    -2936    -2936    -2933 
   -2932    -2933    -2933    -2932    -2930    -2932    -2934    -2936 
   -2938    -2934    -2930    -2934    -2936    -2930    -2932    -2936 
   -2934    -2932    -2936    -2937    -2933    -2934    -2934    -2932 
   -2932    -2932    -2933    -2937    -2937    -2933    -2933    -2934 
   -2932    -2932    -2934    -2934    -2933    -2933    -2934    -2933 
   -2934    -2932    -2929    -2937    -2938    -2930    -2926    -2934 
   -2937    -2929    -2929    -2937    -2934    -2926    -2928    -2933 
   -2936    -2930    -2930    -2938    -2937    -2932    -2934    -2932 
   -2930    -2934    -2933    -2937    -2940    -2933    -2926    -2929 
   -2936    -2938    -2937    -2936    -2934    -2932    -2930    -2934 
   -2934    -2934    -2938    -2934    -2929    -2930    -2932    -2929 
   -2932    -2937    -2938    -2937    -2934    -2928    -2928    -2932 
   -2934    -2936    -2938    -2938    -2930    -2928    -2936    -2936 
   -2932    -2933    -2938    -2937    -2930    -2929    -2933    -2934 
   -2937    -2937    -2937    -2938    -2936    -2930    -2929    -2936 
   -2940    -2934    -2928    -2932    -2933    -2928    -2930    -2938 
   -2937    -2930    -2932    -2937    -2934    -2930    -2934    -2937 
   -2930    -2930    -2936    -2932    -2929    -2934    -2938    -2938 
   -2934    -2930    -2934    -2936    -2930    -2933    -2937    -2936 
   -2932    -2930    -2930    -2933    -2936    -2936    -2934    -2932 
   -2932    -2933    -2933    -2934    -2933    -2934    -2938    -2936 
   -2932    -2933    -2933    -2934    -2940    -2937    -2932    -2934 
   -2937    -2930    -2933    -2937    -2933    -2933    -2936    -2933 
   -2928    -2930    -2937    -2937    -2932    -2932    -2934    -2932 
   -2933    -2937    -2932    -2930    -2937    -2933    -2929    -2934 
   -2938    -2936    -2930    -2930    -2936    -2934    -2930    -2933 
   -2936    -2933    -2932    -2933    -2934    -2933    -2933    -2932 
   -2929    -2933    -2938    -2936    -2932    -2933    -2934    -2934 
   -2932    -2933    -2936    -2933    -2928    -2933    -2937    -2933 
   -2933    -2933    -2933    -2936    -2936    -2934    -2934    -2934 
   -2933    -2933    -2934    -2936    -2936    -2932    -2930    -2933 
   -2933    -2932    -2936    -2936    -2930    -2930    -2934    -2936 
   -2936    -2933    -2932    -2933    -2933    -2934    -2934    -2932 
   -2932    -2933    -2934    -2937    -2934    -2933    -2936    -2934 
   -2930    -2929    -2933    -2937    -2937    -2933    -2932    -2929 
   -2937    -2944    -2934    -2928    -2934    -2938    -2938    -2936 
   -2930    -2930    -2936    -2937    -2932    -2928    -2930    -2933 
   -2936    -2938    -2936    -2930    -2926    -2934    -2940    -2933 
   -2928    -2934    -2940    -2933    -2928    -2934    -2937    -2934 
   -2933    -2932    -2932    -2932    -2934    -2938    -2933    -2929 
   -2933    -2937    -2936    -2932    -2932    -2936    -2940    -2936 
   -2929    -2929    -2933    -2934    -2934    -2930    -2934    -2937 
   -2930    -2932    -2937    -2932    -2930    -2938    -2940    -2932 
   -2930    -2936    -2936    -2933    -2934    -2934    -2936    -2937 
   -2932    -2932    -2936    -2933    -2930    -2938    -2941    -2934 
   -2932    -2933    -2930    -2933    -2938    -2936    -2933    -2933 
   -2932    -2934    -2937    -2933    -2932    -2932    -2934    -2938 
   -2933    -2929    -2934    -2934    -2932    -2936    -2941    -2933 
   -2926    -2933    -2940    -2937    -2932    -2934    -2934    -2933 
   -2938    -2937    -2930    -2930    -2938    -2938    -2934    -2932 
   -2932    -2934    -2936    -2936    -2933    -2932    -2930    -2930 
   -2933    -2933    -2933    -2933    -2932    -2933    -2934    -2932 
   -2933    -2937    -2936    -2932    -2933    -2934    -2932    -2932 
   -2936    -2937    -2934    -2932    -2933    -2934    -2933    -2933 
   -2933    -2936    -2932    -2929    -2933    -2936    -2933    -2930 
   -2930    -2934    -2936    -2933    -2933    -2934    -2930    -2928 
   -2932    -2934    -2932    -2934    -2933    -2930    -2932    -2933 
   -2932    -2930    -2934    -2937    -2933    -2930    -2933    -2936 
   -2933    -2932    -2930    -2929    -2932    -2936    -2932    -2926 
   -2930    -2938    -2933    -2929    -2933    -2936    -2933    -2932 
   -2934    -2932    -2926    -2928    -2934    -2937    -2933    -2930 
   -2932    -2930    -2932    -2934    -2930    -2930    -2934    -2934 
   -2933    -2934    -2933    -2928    -2930    -2937    -2936    -2929 
   -2932    -2936    -2932    -2929    -2934    -2937    -2932    -2929 
   -2932    -2934    -2933    -2932    -2936    -2936    -2929    -2932 
   -2938    -2933    -2929    -2930    -2932    -2933    -2934    -2930 
   -2930    -2932    -2933    -2933    -2932    -2932    -2930    -2930 
   -2934    -2936    -2933    -2934    -2933    -2933    -2936    -2934 
   -2936    -2936    -2930    -2929    -2934    -2938    -2934    -2930 
   -2936    -2936    -2929    -2930    -2933    -2932    -2932    -2933 
   -2938    -2937    -2930    -2930    -2933    -2936    -2933    -2930 
   -2932    -2934    -2934    -2932    -2930    -2934    -2937    -2932 
   -2928    -2932    -2933    -2929    -2932    -2937    -2933    -2929 
   -2930    -2930    -2932    -2933    -2934    -2934    -2934    -2933 
   -2933    -2934    -2933    -2930    -2933    -2934    -2933    -2934 
   -2937    -2932    -2928    -2930    -2936    -2934    -2933    -2934 
   -2933    -2930    -2933    -2938    -2936    -2930    -2932    -2934 
   -2933    -2930    -2934    -2936    -2929    -2932    -2934    -2930 
   -2933    -2936    -2932    -2932    -2934    -2937    -2934    -2929 
   -2934    -2937    -2933    -2932    -2930    -2932    -2933    -2933 
   -2936    -2932    -2928    -2930    -2934    -2932    -2932    -2937 
   -2933    -2929    -2937    -2933    -2926    -2934    -2934    -2930 
   -2936    -2932    -2929    -2933    -2936    -2933    -2929    -2930 
   -2934    -2932    -2932    -2938    -2938    -2932    -2933    -2936 
   -2933    -2934    -2932    -2929    -2932    -2937    -2938    -2934 
   -2932    -2932    -2934    -2937    -2933    -2929    -2933    -2934 
   -2932    -2932    -2933    -2934    -2933    -2933    -2936    -2936 
   -2926    -2926    -2934    -2936    -2932    -2934    -2936    -2928 
   -2930    -2934    -2930    -2932    -2936    -2933    -2930    -2936 
   -2934    -2932    -2934    -2933    -2930    -2930    -2932    -2938 
   -2936    -2928    -2929    -2933    -2930    -2932    -2938    -2938 
   -2932    -2932    -2933    -2933    -2932    -2932    -2936    -2938 
   -2934    -2930    -2929    -2932    -2936    -2937    -2934    -2933 
   -2932    -2932    -2930    -2926    -2933    -2941    -2937    -2932 
   -2929    -2929    -2930    -2936    -2940    -2933    -2928    -2930 
   -2932    -2930    -2934    -2938    -2934    -2928    -2930    -2936 
   -2930    -2928    -2937    -2937    -2932    -2933    -2929    -2929 
   -2932    -2933    -2937    -2937    -2932    -2932    -2930    -2929 
   -2930    -2936    -2937    -2929    -2930    -2934    -2930    -2933 
   -2936    -2932    -2933    -2934    -2932    -2929    -2929    -2933 
   -2938    -2937    -2932    -2930    -2930    -2929    -2930    -2937 
   -2937    -2929    -2932    -2938    -2933    -2928    -2930    -2936 
   -2936    -2932    -2930    -2932    -2933    -2936    -2934    -2926 
   -2925    -2933    -2936    -2933    -2934    -2933    -2932    -2930 
   -2930    -2932    -2936    -2936    -2934    -2932    -2930    -2930 
   -2929    -2930    -2936    -2934    -2930    -2933    -2934    -2936 
   -2933    -2928    -2933    -2940    -2936    -2932    -2933    -2930 
   -2929    -2932    -2934    -2936    -2934    -2934    -2933    -2929 
   -2932    -2937    -2936    -2930    -2930    -2933    -2932    -2933 
   -2934    -2934    -2933    -2930    -2932    -2932    -2929    -2934 
   -2936    -2934    -2933    -2929    -2929    -2932    -2936    -2943 
   -2936    -2929    -2929    -2930    -2932    -2933    -2936    -2937 
   -2933    -2933    -2933    -2930    -2933    -2937    -2933    -2930 
   -2932    -2932    -2933    -2934    -2936    -2934    -2933    -2930 
   -2932    -2934    -2933    -2934    -2937    -2932    -2930    -2933 
   -2930    -2929    -2936    -2938    -2933    -2929    -2929    -2930 
   -2934    -2936    -2936    -2934    -2932    -2933    -2934    -2933 
   -2932    -2933    -2936    -2937    -2934    -2933    -2933    -2933 
   -2933    -2936    -2936    -2930    -2930    -2934    -2936    -2933 
   -2930    -2932    -2934    -2934    -2934    -2932    -2930    -2933 
   -2936    -2933    -2929    -2933    -2940    -2937    -2934    -2936 
   -2930    -2929    -2934    -2936    -2934    -2937    -2934    -2929 
   -2933    -2937    -2932    -2932    -2932    -2932    -2936    -2934 
   -2929    -2932    -2934    -2928    -2933    -2940    -2933    -2928 
   -2933    -2934    -2930    -2930    -2937    -2940    -2934    -2930 
   -2929    -2933    -2937    -2936    -2932    -2932    -2934    -2932 
   -2929    -2933    -2937    -2933    -2932    -2936    -2937    -2932 
   -2930    -2933    -2934    -2933    -2932    -2933    -2937    -2937 
   -2934    -2933    -2932    -2932    -2933    -2933    -2933    -2934 
   -2934    -2934    -2932    -2932    -2936    -2936    -2934    -2933 
   -2932    -2933    -2933    -2934    -2934    -2933    -2934    -2933 
   -2929    -2930    -2934    -2936    -2936    -2933    -2932    -2933 
   -2933    -2938    -2971    -3064    -3213    -3250    -2940    -2554 
   -2891    -3947    -4399    -3538    -2322    -1759    -1902    -2187 
   -2188    -2269    -2718    -3071    -2832    -2218    -2096    -2674 
   -3673    -4831    -4941    -3480    -1840    -1677    -2978    -4052 
   -4167    -3411    -2201    -1958    -2346    -2065    -2243    -3948 
   -4992    -3392    -1266    -1046    -2201    -3458    -4341    -4430 
   -3358    -2107    -1852    -2328    -2894    -3456    -4251    -4353 
   -2829    -1404    -1514    -2444    -3666    -4403    -3842    -2619 
   -1818    -2068    -2997    -3713    -3894    -3404    -2470    -1836 
   -2070    -2756    -2948    -2986    -3303    -3194    -2509    -1885 
   -2340    -3929    -4707    -3781    -2500    -2053    -2573    -3218 
   -3364    -3427    -3355    -2871    -2465    -2209    -2104    -2679 
   -3593    -3981    -3643    -2775    -2011    -2088    -2710    -3099 
   -3148    -3065    -3213    -3487    -2948    -2150    -2454    -3071 
   -3064    -3138    -3306    -2971    -2641    -2731    -2967    -3126 
   -2932    -2623    -2797    -3288    -3407    -2937    -2687    -3122 
   -3190    -2706    -2920    -3404    -2948    -2305    -2457    -2913 
   -3200    -3348    -3053    -2560    -2749    -3226    -3096    -2617 
   -2358    -2597    -3137    -3349    -3179    -3069    -3086    -3006 
   -2852    -2702    -2686    -3152    -3505    -3011    -2700    -2894 
   -2602    -2496    -3132    -3310    -2905    -2874    -3168    -3061 
   -2612    -2560    -2947    -3291    -3323    -2933    -2598    -2770 
   -2980    -2937    -2960    -3007    -2956    -3095    -3294    -3053 
   -2562    -2323    -2492    -2887    -3123    -3281    -3321    -2688 
   -2191    -2683    -3061    -2932    -3184    -3712    -3796    -3076 
   -2015    -1757    -2484    -3522    -4336    -3879    -2201    -1524 
   -2347    -2979    -3179    -3422    -3303    -2926    -2821    -2860 
   -2758    -2813    -3407    -3955    -3673    -2882    -2316    -2137 
   -2253    -2767    -3458    -3632    -3114    -2872    -3217    -2955 
   -2450    -2801    -3046    -2759    -2396    -2020    -2721    -4126 
   -4009    -2951    -2532    -2203    -2189    -3080    -3472    -3024 
   -3061    -3314    -2837    -2093    -2200    -3388    -4178    -3562 
   -2797    -2587    -2245    -2102    -2648    -3213    -3433    -3673 
   -3717    -2809    -1723    -1965    -2716    -3048    -3861    -4610 
   -3789    -2155    -1495    -1952    -2647    -3431    -3964    -3634 
   -2945    -2551    -2567    -2953    -3355    -3563    -3232    -1958 
    -892    -1246    -2397    -3882    -5305    -4860    -2126      321 
     421    -1709    -5279    -8177    -7535    -3743      -41     1273 
    -359    -3649    -6197    -6632    -4657    -1425      650      360 
   -1884    -4360    -5336    -4691    -2613     -728    -1487    -3138 
   -3140    -3457    -4969    -4683    -2640    -1652    -1248     -862 
   -2575    -5498    -5764    -3186    -1302    -1705    -2863    -3707 
   -4151    -3534    -2380    -2034    -2316    -3235    -4333    -3670 
   -1982    -1547    -1995    -2531    -3404    -3967    -3365    -2296 
   -2245    -3037    -3177    -2929    -3123    -3231    -3177    -3430 
   -3674    -3038    -1709    -1274    -2215    -3469    -4301    -4237 
   -2986    -1393    -1016    -2556    -4363    -4140    -2636    -1884 
   -1995    -2764    -3867    -3912    -2775    -1968    -2272    -3225 
   -3789    -3781    -4090    -4190    -3145    -2133    -1833    -1763 
   -2702    -4519    -5081    -3642    -1777    -1463    -2574    -3154 
   -2801    -2419    -2079    -1871    -2546    -3742    -3924    -3159 
   -2474    -1749    -1278    -2262    -4367    -5358    -3970    -1705 
   -1138    -2571    -3947    -4495    -4310    -2739    -1069    -1201 
   -2457    -3338    -3642    -4101    -4334    -3397    -2157    -1575 
   -1582    -2350    -3757    -4816    -4409    -2932    -2053    -2107 
   -2616    -3369    -3538    -3061    -2924    -3144    -3150    -2625 
   -1885    -2101    -3291    -4210    -4490    -3890    -2471    -1783 
   -2334    -2767    -2592    -2652    -3196    -3406    -3219    -3264 
   -2905    -1859    -1490    -2435    -3721    -3885    -2876    -2432 
   -2971    -3240    -2882    -2573    -2782    -3156    -3295    -3315 
   -3002    -2452    -2411    -2852    -3387    -3709    -3242    -2276 
   -1810    -2299    -3179    -3312    -2924    -3136    -3341    -2791 
   -2632    -3109    -3026    -2809    -3213    -3280    -2688    -2485 
   -2894    -3257    -3215    -2840    -2743    -3167    -3264    -2941 
   -2947    -2924    -2602    -2710    -3059    -3113    -3299    -3632 
   -3643    -3088    -1946    -1524    -2840    -4036    -3566    -2654 
   -2266    -2440    -3096    -3276    -2805    -2475    -2421    -2934 
   -3723    -3767    -3208    -2577    -2370    -2872    -3099    -2529 
   -2106    -2624    -3634    -3701    -2727    -2253    -2674    -3414 
   -4072    -3960    -3063    -2196    -1895    -2340    -3063    -3369 
   -3419    -3388    -3121    -3032    -3202    -2917    -2377    -2442 
   -2933    -3221    -3142    -2539    -1757    -1880    -2895    -3701 
   -3925    -3543    -2677    -2353    -2887    -3194    -2875    -2554 
   -2641    -2893    -2859    -2756    -3024    -3289    -3252    -3136 
   -2917    -2770    -2849    -2814    -3041    -3734    -3662    -2516 
   -1841    -2393    -3217    -3424    -3111    -2914    -3149    -3117 
   -2656    -2905    -3615    -3384    -2675    -2705    -3071    -2974 
   -2619    -2641    -3134    -3210    -2669    -2619    -2909    -2624 
   -2536    -3111    -3029    -2281    -2340    -3028    -3447    -3699 
   -3473    -2570    -2196    -2810    -3230    -2955    -2650    -2856 
   -3154    -2837    -2567    -3087    -3558    -3383    -2972    -2725 
   -2843    -2941    -2748    -2905    -3288    -3002    -2504    -2686 
   -3125    -3346    -3450    -3215    -2751    -2509    -2691    -3296 
   -3411    -2617    -2354    -2937    -3037    -2709    -2851    -3219 
   -3022    -2281    -2098    -3079    -4032    -3831    -3163    -2755 
   -2277    -2188    -3011    -3385    -2712    -2452    -2878    -3049 
   -3059    -3253    -3238    -2813    -2679    -3079    -3272    -3045 
   -2837    -3032    -3357    -3068    -2550    -2477    -2542    -2945 
   -3709    -3653    -2647    -2065    -2509    -3117    -3237    -3146 
   -3068    -2949    -2756    -2646    -2781    -2782    -2589    -2947 
   -3634    -3414    -2371    -2011    -2798    -3514    -3472    -3253 
   -3009    -2520    -2316    -2836    -3435    -3315    -2824    -2837 
   -3111    -2979    -2664    -2647    -3036    -3291    -2965    -2600 
   -2506    -2619    -3198    -3882    -3784    -2859    -2057    -2137 
   -2806    -3388    -3547    -3308    -3030    -2830    -2382    -2010 
   -2600    -3696    -3811    -3082    -2749    -2679    -2278    -2130 
   -2636    -3150    -3414    -3704    -3646    -2910    -2130    -2041 
   -2621    -3248    -3520    -3581    -3449    -2945    -2442    -2421 
   -2605    -2947    -3716    -3906    -2914    -2236    -2631    -3059 
   -3029    -2860    -2720    -2743    -3024    -3403    -3349    -2652 
   -2257    -2778    -3400    -3260    -2631    -2489    -2974    -3217 
   -2907    -2574    -2532    -2701    -3230    -3944    -3827    -2783 
   -2118    -2270    -2563    -2913    -3511    -3769    -3257    -2740 
   -2979    -3211    -2565    -1984    -2498    -3369    -3642    -3284 
   -2690    -2261    -2195    -2743    -3534    -3346    -2474    -2515 
   -3325    -3711    -3489    -2825    -2076    -2069    -2855    -3555 
   -3470    -2704    -2380    -2978    -3349    -3053    -2820    -2772 
   -2836    -3244    -3634    -3194    -2276    -2269    -3207    -3724 
   -3284    -2550    -2266    -2610    -3200    -3514    -3264    -2701 
   -2506    -2836    -3029    -2859    -2768    -2839    -2866    -2805 
   -2654    -2655    -3132    -3647    -3480    -2862    -2381    -2246 
   -2662    -3373    -3645    -3369    -2945    -2608    -2527    -2832 
   -3256    -3254    -2860    -2776    -3114    -3169    -2768    -2596 
   -2913    -3083    -2917    -2926    -2924    -2688    -2813    -3194 
   -3172    -2875    -2640    -2598    -2848    -3082    -3046    -2934 
   -2915    -3109    -3397    -3314    -2797    -2493    -2794    -3180 
   -3152    -2964    -2880    -2859    -2979    -3068    -2835    -2506 
   -2424    -2679    -3073    -3223    -3090    -2967    -2965    -2986 
