Origin Time       2018/04/09 06:38:00
Lat.              35.2
Long.             132.6
Depth. (km)       10
Mag.              3.8
Station Code      HRS012
Station Lat.      34.4276
Station Long.     132.7422
Station Height(m) 215
Record Time       2018/04/09 06:39:14
Sampling Freq(Hz) 100Hz
Duration Time(s)  60
Dir.              E-W
Scale Factor      7845(gal)/8223790
Max. Acc. (gal)   1.867
Last Correction   2018/04/09 06:39:14
Memo.             
[...]
    3996     3984     3978     3974     3971     3977     3979     3979 
    3984     3981     3970     3969     3975     3978     3983     3983 
    3979     3981     3982     3984     3984     3983     3986     3983 
    3975     3975     3981     3979     3971     3970     3974     3978 
    3983     3984     3978     3978     3981     3975     3975     3978 
    3975     3975     3979     3979     3983     3987     3984     3982 
    3982     3983     3981     3974     3971     3977     3978     3978 
    3981     3981     3977     3982     3982     3977     3978     3977 
    3970     3973     3979     3979     3981     3984     3987     3986 
    3982     3979     3975     3970     3970     3981     3983     3975 
    3975     3983     3982     3977     3982     3987     3984     3978 
    3975     3974     3970     3975     3984     3982     3978     3982 
    3984     3984     3986     3986     3971     3967     3983     3984 
    3971     3973     3979     3979     3984     3986     3982     3979 
    3979     3979     3979     3971     3970     3977     3977     3978 
    3989     3991     3984     3981     3982     3984     3986     3975 
    3973     3981     3975     3974     3978     3970     3969     3974 
    3979     3989     3990     3983     3984     3981     3975     3986 
    3991     3983     3979     3974     3963     3963     3970     3971 
    3975     3987     3990     3984     3984     3989     3987     3983 
    3973     3969     3973     3973     3970     3974     3981     3986 
    3981     3974     3979     3986     3983     3984     3991     3984 
    3967     3967     3982     3984     3978     3964     3958     3969 
    3979     3979     3984     3989     3979     3977     3987     3993 
    3984     3982     3984     3983     3977     3975     3974     3965 
    3964     3974     3974     3967     3978     3991     3993     3994 
    3993     3986     3977     3970     3967     3965     3971     3982 
    3984     3975     3971     3975     3983     3989     3990     3989 
    3989     3978     3964     3969     3982     3982     3979     3981 
    3979     3971     3973     3978     3970     3964     3977     3989 
    3984     3983     3996     4002     3994     3982     3975     3970 
    3964     3962     3970     3982     3983     3973     3967     3977 
    3986     3987     3982     3982     3990     3986     3971     3974 
    3986     3984     3975     3975     3979     3974     3970     3975 
    3982     3973     3963     3974     3993     4001     3998     3987 
    3978     3973     3963     3969     3982     3974     3970     3983 
    3982     3977     3979     3978     3983     3987     3978     3974 
    3969     3970     3986     3983     3973     3982     3997     3990 
    3982     3975     3963     3967     3982     3979     3970     3971 
    3977     3979     3982     3974     3970     3979     3991     3994 
    3984     3981     3974     3963     3965     3975     3987     3997 
    3987     3978     3986     3987     3978     3975     3974     3969 
    3965     3967     3971     3982     3982     3981     3986     3984 
    3981     3973     3967     3978     3990     3990     3987     3989 
    3981     3962     3958     3977     3996     3996     3981     3969 
    3963     3964     3978     3984     3978     3979     3986     3984 
    3981     3981     3982     3977     3971     3973     3979     3987 
    3989     3977     3973     3979     3975     3964     3963     3971 
    3979     3983     3989     3987     3990     4000     3989     3970 
    3963     3960     3959     3967     3986     4002     3994     3977 
    3962     3960     3977     3996     3998     3987     3978     3981 
    3983     3983     3984     3984     3981     3967     3946     3939 
    3955     3978     4005     4020     4010     3993     3983     3979 
    3975     3978     3986     3977     3959     3956     3963     3979 
    3994     3986     3978     3977     3970     3962     3963     3974 
    3979     3970     3967     3989     4010     4001     3986     3989 
    3994     3993     3971     3947     3973     4014     3996     3962 
    3971     3991     3971     3924     3899     3920     3975     4021 
    4014     3987     4001     4031     4021     3983     3956     3975 
    4020     4008     3920     3867     3939     4040     4033     3981 
    3987     4016     4020     3977     3912     3923     3987     4027 
    4013     3947     3905     3963     4048     4059     3990     3921 
    3924     3965     3970     3943     3939     3974     4023     4017 
    3956     3943     4005     4040     4028     3984     3958     4029 
    4104     4033     3886     3831     3920     4024     4016     3947 
    3902     3906     3979     4054     4003     3921     3964     4051 
    4047     4006     3996     3975     3969     3994     3954     3893 
    3940     4014     4010     3971     3921     3890     3973     4124 
    4144     4023     3939     3936     3910     3847     3858     3959 
    4035     4068     4093     4041     3946     3892     3886     3982 
    4152     4189     4033     3867     3825     3879     3974     4079 
    4068     3894     3809     3947     4068     4003     3892     3910 
    4027     4079     4055     4024     3928     3878     4039     4152 
    4033     3951     3994     3954     3861     3899     4000     4008 
    3998     4017     3990     3924     3839     3808     3948     4104 
    4067     3983     4000     4029     3990     3978     4095     4197 
    4120     3958     3873     3873     3888     3920     3956     3936 
    3899     3920     3958     3951     3932     3959     3993     4003 
    4067     4117     4041     3969     4010     4027     3951     3901 
    3932     4012     4048     3986     3929     3956     3993     4029 
    4068     4036     3973     3948     3915     3838     3816     3896 
    3974     4002     3984     3924     3901     3990     4097     4116 
    4068     4039     4060     4081     4066     4023     3974     3982 
    4008     3917     3811     3854     3963     4000     3956     3899 
    3880     3877     3874     3920     3979     3997     4013     4040 
    4055     4067     4091     4105     4052     4008     4069     4118 
    4066     4017     3974     3886     3805     3782     3817     3847 
    3838     3889     4008     4029     3960     3954     4003     4077 
    4158     4126     3987     3948     4031     4036     3937     3915 
    4028     4124     4104     4000     3877     3840     3947     4060 
    3991     3821     3820     3954     3973     3889     3867     3909 
    3983     4105     4159     4041     3929     3987     4033     3959 
    3959     4098     4175     4090     3973     3935     3942     3909 
    3856     3870     3937     4008     4033     3993     3946     3937 
    3919     3899     3927     3970     4002     4035     4040     4028 
    4035     4051     4067     4010     3890     3896     4023     4071 
    4036     4006     3950     3901     3943     3991     3951     3890 
    3885     3913     3931     3951     3996     4023     4016     4036 
    4071     4082     4082     4025     3916     3856     3866     3929 
    3994     4002     4002     4025     4045     4040     3969     3893 
    3919     3990     3983     3912     3912     4016     4091     4041 
    3944     3905     3937     3993     4013     3989     3978     4014 
    4067     4083     4023     3937     3927     3982     3996     3905 
    3821     3865     3954     3993     3975     3958     4010     4062 
    4021     3958     3951     4009     4050     4002     3958     4003 
    4035     3994     3978     3973     3942     3962     4035     4087 
    4064     3978     3890     3844     3856     3908     3932     3960 
    4039     4099     4058     3932     3855     3898     3990     4077 
    4128     4083     3965     3894     3892     3923     3970     3993 
    4017     4072     4064     4000     3987     4006     3970     3951 
    3990     3942     3835     3863     3948     3973     4003     4040 
    4012     3944     3912     3906     3908     3962     4041     4058 
    4060     4107     4105     4036     3991     3994     4008     3964 
    3883     3875     3936     3965     3959     3978     4025     4055 
    4028     3951     3870     3836     3886     3939     3946     3987 
    4071     4098     4058     4027     4003     3969     3979     3974 
    3927     3987     4093     4059     3970     3965     3991     3956 
    3889     3878     3917     3946     3962     3977     3991     4006 
    4017     3994     3928     3905     3954     4029     4110     4120 
    4048     3982     3943     3927     3923     3919     3942     3991 
    4040     4040     3993     3969     3964     3951     3917     3859 
    3873     3958     3979     3967     3984     3990     4031     4133 
    4170     4079     3975     3943     3940     3932     3951     3987 
    4000     3964     3924     3946     4000     3996     3940     3899 
    3871     3870     3936     4024     4051     4017     4008     4060 
    4077     4017     3983     3973     3944     3967     4013     3994 
    3973     4013     4058     4050     3994     3909     3844     3840 
    3861     3901     3954     3990     4060     4133     4095     3990 
    3951     4002     4021     3929     3879     3959     4024     4028 
    4002     3951     3984     4088     4081     3947     3867     3889 
    3946     3994     3970     3921     3958     3987     3951     3943 
    3978     4023     4044     4005     3969     3987     3993     3984 
    4020     4062     4052     4001     3970     3986     3996     3956 
    3898     3861     3871     3912     3925     3931     3991     4050 
    4035     4009     4009     4003     3991     3977     3978     3993 
    3994     4010     4048     4035     3979     3956     3958     3948 
    3948     3998     4045     3997     3902     3873     3904     3954 
    4003     4014     3978     3984     4068     4114     4017     3873 
    3842     3947     4044     4033     4001     3984     3947     3959 
    4009     3991     3964     3984     3989     3947     3919     3948 
    3977     3974     3994     4035     4066     4088     4039     3898 
    3824     3886     3954     3959     3970     4000     4016     4002 
    3977     3989     4020     3998     3940     3950     4023     4043 
    4002     3967     3947     3959     3994     3973     3947     4012 
    4063     4010     3969     4002     3990     3890     3839     3901 
    3969     3955     3924     3963     4021     4021     4000     3994 
    4002     4012     4000     3973     3936     3925     3970     4010 
    4016     4048     4110     4093     4017     4039     4078     3964 
    3801     3757     3824     3910     3954     3990     4047     4052 
    4009     3997     3987     3910     3835     3882     4000     4085 
    4122     4110     4074     4058     4036     3983     3944     3946 
    3935     3932     3983     4012     3951     3880     3861     3879 
    3927     3979     3989     3975     3996     4036     4055     4023 
    3970     3986     4050     4013     3913     3943     4023     3987 
    3935     3962     4025     4048     4010     4000     4027     3981 
    3878     3839     3894     3969     3984     3967     3983     4028 
    4054     4051     4031     3997     3970     3974     4003     4008 
    3959     3929     3954     3951     3939     3989     4014     3974 
    3944     3927     3905     3910     3955     4025     4066     4041 
    4023     4062     4068     3998     3936     3917     3919     3927 
    3946     3973     4020     4078     4033     3928     3935     3981 
    3932     3877     3908     3974     3990     3996     4028     4043 
    4041     4039     4006     3960     3960     3996     3984     3921 
    3890     3964     4077     4047     3912     3892     3969     3983 
    3964     4000     4020     3991     3997     4005     3964     3947 
    3981     4028     4036     3975     3947     4014     4055     3984 
    3880     3840     3882     3939     3947     3913     3927     4043 
    4139     4091     3996     3973     3974     3956     3986     4074 
    4126     4086     4001     3944     3902     3842     3812     3866 
    3958     4009     4006     3979     3982     4013     4003     3977 
    3969     3955     4006     4095     4098     4055     4024     3994 
    3967     3905     3858     3912     3975     3924     3850     3896 
    4002     4012     3948     3964     4020     3997     3963     4003 
    4054     4032     4014     4048     4036     4036     4112     4082 
    3946     3928     3954     3865     3828     3935     3975     3896 
    3846     3856     3885     3929     3979     4051     4117     4094 
    4035     4029     4062     4079     4036     3987     4016     4040 
    4002     3983     3997     3970     3931     3920     3890     3851 
    3821     3811     3886     3978     3983     3951     3916     3932 
    4074     4191     4125     4005     4025     4145     4159     4032 
    3937     3955     3996     4016     4005     3919     3842     3848 
    3859     3844     3831     3852     3940     4017     4003     3993 
    4029     3979     3886     3908     3975     3931     3744     3596 
    3665     3775     3705     3643     3842     4171     4348     4386 
    4476     4625     4687     4644     4585     4568     4603     4692 
    4762     4687     4483     4279     3962     3388     2832     2556 
    2309     2022     2154     2678     3026     3215     3640     4135 
    4282     4152     4147     4455     4884     5151     5300     5526 
    5680     5530     5159     4719     4321     4001     3677     3489 
    3600     3690     3434     2979     2624     2461     2380     2338 
    2502     2970     3673     4364     4638     4602     4783     5097 
    5128     4930     4857     5103     5328     5229     5012     4634 
    4094     3757     3377     2778     2452     2357     2188     2259 
    2754     3329     3748     3925     3960     4266     4776     5044 
    5046     4920     4858     5036     5147     4846     4535     4633 
    4571     4033     3688     3511     3059     2818     2999     3014 
    2887     3026     3331     3550     3561     3387     3360     3688 
    3998     4114     4425     4955     5381     5659     5753     5556 
    5119     4534     3939     3538     3322     3103     2920     2909 
    3064     3329     3557     3649     3678     3708     3917     4302 
    4401     4230     4253     4398     4368     4164     3982     4067 
    4342     4449     4347     4243     4199     4136     3965     3734 
    3550     3368     3295     3478     3646     3634     3692     3932 
    4143     4162     4063     3954     3902     3932     4043     4180 
    4153     4052     4148     4276     4178     3944     3870     4088 
    4275     4251     4289     4340     4202     4023     3846     3639 
    3611     3761     3844     3870     3936     4116     4336     4245 
    3951     3817     3693     3542     3547     3611     3701     3928 
    4055     3989     4082     4283     4305     4326     4356     4280 
    4302     4344     4156     3937     3986     4136     4028     3743 
    3576     3524     3383     3191     3211     3353     3465     3767 
    4212     4483     4556     4500     4525     4731     4661     4228 
    4036     4152     4170     4031     3823     3732     3866     3846 
    3623     3640     3786     3762     3724     3724     3684     3715 
    3798     3940     4298     4585     4449     4220     4248     4288 
    4147     4014     3931     3815     3901     4133     4029     3682 
    3543     3565     3566     3573     3662     3823     3959     4109 
    4287     4365     4360     4334     4243     4140     4187     4293 
    4238     4088     4014     4017     3975     3813     3677     3634 
    3559     3451     3424     3599     3912     4106     4183     4248 
    4187     4012     3944     4062     4202     4191     4113     4166 
    4338     4345     4072     3852     3873     3942     3901     3792 
    3748     3809     3840     3797     3823     3948     3955     3834 
    3852     4043     4159     4039     3842     3811     3937     4094 
    4191     4215     4243     4283     4220     4044     3899     3889 
    3944     3831     3622     3743     4045     4102     4017     3983 
    4074     4170     3984     3759     3824     3981     3986     3850 
    3757     3960     4309     4302     3936     3743     3940     4175 
    4064     3817     3813     3890     3940     4048     4014     3867 
    3851     3917     3993     4085     4189     4245     4159     4055 
    4074     3975     3800     3836     3847     3827     4039     4148 
    4027     3913     3858     3970     4017     3790     3740     3880 
    3898     3946     4012     4003     4071     4197     4286     4263 
    4139     4095     4060     3902     3908     4069     4009     3834 
    3886     4027     3902     3662     3661     3813     3880     3816 
    3769     3902     4069     4128     4255     4378     4260     4124 
    4124     4071     3981     3935     3948     4071     4136     4055 
    3946     3820     3817     3909     3781     3591     3612     3753 
    3886     3879     3780     3858     4101     4209     4097     4029 
    4132     4197     4158     4140     4205     4341     4431     4326 
    4094     3896     3763     3753     3765     3604     3555     3802 
    3959     3939     3935     3902     3842     3888     3983     3921 
    3812     3912     4064     4131     4147     4129     4233     4329 
    4191     4104     4144     4050     3898     3816     3788     3865 
    3978     3940     3854     3902     3939     3898     3908     3917 
    3971     4074     4048     4001     4078     4098     3986     3902 
    3927     3967     3982     3981     3940     3906     3899     3935 
    4020     4063     4125     4248     4203     3954     3780     3766 
    3802     3863     3936     4003     4110     4183     4117     3975 
    3880     3913     4000     3981     3883     3834     3951     4180 
    4116     3811     3852     4058     3919     3728     3789     3946 
    4054     4066     4071     4122     4195     4286     4232     4041 
    3969     3981     3963     3948     3910     3867     3894     3940 
    3913     3871     3894     3889     3815     3744     3727     3852 
    4086     4197     4145     4063     4064     4151     4110     3946 
    3978     4174     4222     4125     4032     3978     3977     4006 
    3913     3709     3669     3759     3750     3728     3782     3886 
    4036     4087     4051     4129     4237     4186     4059     4032 
    4088     4102     4087     4112     4072     3978     4001     4055 
    3896     3662     3686     3878     3920     3796     3719     3815 
    3954     3986     4035     4148     4158     4121     4118     4064 
    4008     4010     4066     4082     3994     4032     4140     4024 
    3901     3931     3886     3824     3889     3942     3927     3920 
    3904     3859     3827     3869     3932     3861     3770     3890 
    4117     4271     4256     4139     4166     4293     4256     4113 
    4027     3994     3947     3897     3888     3909     3982     3956 
    3686     3537     3701     3838     3897     4017     4025     3937 
