Origin Time       2018/04/09 06:38:00
Lat.              35.2
Long.             132.6
Depth. (km)       10
Mag.              3.8
Station Code      HRS012
Station Lat.      34.4276
Station Long.     132.7422
Station Height(m) 215
Record Time       2018/04/09 06:39:14
Sampling Freq(Hz) 100Hz
Duration Time(s)  60
Dir.              N-S
Scale Factor      7845(gal)/8223790
Max. Acc. (gal)   0.767
Last Correction   2018/04/09 06:39:14
Memo.             
[...]
   11659    11665    11654    11649    11665    11663    11651    11658 
   11662    11653    11645    11653    11668    11658    11642    11649 
   11650    11641    11651    11668    11666    11659    11658    11657 
   11662    11672    11673    11666    11659    11653    11647    11647 
   11643    11642    11647    11650    11649    11655    11663    11663 
   11655    11657    11662    11657    11654    11661    11669    11668 
   11658    11662    11666    11649    11639    11649    11650    11642 
   11641    11651    11662    11657    11649    11661    11674    11668 
   11658    11658    11666    11665    11654    11646    11649    11649 
   11647    11661    11666    11659    11661    11655    11647    11654 
   11654    11649    11650    11653    11659    11668    11668    11665 
   11663    11659    11651    11642    11639    11646    11661    11666 
   11657    11658    11668    11669    11659    11654    11654    11651 
   11647    11649    11647    11645    11649    11653    11657    11663 
   11662    11662    11674    11672    11654    11658    11666    11646 
   11634    11643    11650    11655    11661    11662    11663    11647 
   11630    11650    11673    11666    11657    11659    11661    11658 
   11647    11645    11662    11670    11658    11653    11659    11654 
   11646    11657    11666    11657    11639    11642    11661    11661 
   11651    11657    11654    11650    11657    11661    11669    11673 
   11655    11649    11651    11639    11641    11661    11661    11647 
   11649    11653    11653    11653    11655    11666    11678    11669 
   11653    11645    11643    11654    11661    11663    11669    11661 
   11643    11641    11639    11641    11658    11662    11657    11663 
   11666    11661    11658    11654    11653    11651    11657    11662 
   11654    11654    11669    11672    11651    11646    11654    11649 
   11654    11666    11657    11651    11659    11657    11649    11651 
   11661    11662    11653    11645    11639    11649    11672    11678 
   11665    11662    11669    11659    11647    11651    11657    11653 
   11653    11647    11638    11645    11663    11672    11665    11659 
   11659    11651    11651    11668    11665    11655    11651    11642 
   11641    11657    11676    11677    11661    11645    11632    11632 
   11651    11663    11668    11673    11668    11653    11638    11643 
   11662    11658    11651    11653    11650    11653    11657    11658 
   11658    11663    11672    11654    11642    11654    11658    11662 
   11670    11658    11645    11650    11658    11659    11655    11658 
   11653    11642    11647    11649    11638    11639    11639    11627 
   11620    11646    11678    11668    11651    11661    11651    11638 
   11653    11678    11706    11736    11742    11728    11713    11709 
   11718    11719    11684    11615    11550    11521    11533    11545 
   11524    11527    11599    11678    11691    11630    11595    11678 
   11797    11828    11777    11732    11762    11815    11776    11701 
   11696    11713    11673    11553    11442    11479    11603    11607 
   11470    11412    11531    11677    11699    11610    11569    11705 
   11897    11940    11828    11718    11728    11774    11701    11587 
   11574    11626    11634    11578    11521    11519    11584    11658 
   11661    11597    11558    11620    11762    11840    11774    11647 
   11622    11726    11788    11676    11491    11458    11624    11765 
   11713    11581    11564    11673    11742    11681    11597    11641 
   11784    11807    11647    11542    11647    11772    11699    11534 
   11521    11666    11749    11619    11427    11450    11672    11815 
   11777    11682    11665    11782    11893    11786    11564    11506 
   11663    11778    11681    11545    11545    11604    11599    11541 
   11521    11558    11605    11665    11729    11750    11726    11718 
   11723    11695    11718    11816    11770    11539    11455    11639 
   11807    11774    11658    11599    11581    11526    11438    11446 
   11622    11793    11788    11708    11682    11653    11607    11610 
   11634    11711    11870    11927    11769    11547    11485    11611 
   11738    11709    11569    11499    11550    11587    11557    11570 
   11701    11858    11855    11703    11569    11521    11560    11674 
   11776    11784    11722    11651    11610    11635    11704    11712 
   11650    11635    11645    11557    11472    11543    11696    11772 
   11716    11632    11596    11587    11627    11704    11691    11618 
   11682    11807    11753    11634    11659    11709    11688    11680 
   11655    11585    11615    11708    11650    11531    11545    11634 
   11685    11663    11583    11561    11676    11792    11769    11669 
   11630    11677    11688    11605    11529    11581    11720    11743 
   11655    11643    11729    11777    11699    11591    11600    11696 
   11729    11674    11658    11688    11635    11538    11514    11534 
   11577    11653    11666    11611    11595    11623    11649    11689 
   11755    11826    11854    11817    11757    11699    11614    11549 
   11596    11686    11701    11654    11603    11557    11519    11527 
   11593    11650    11672    11680    11658    11587    11530    11569 
   11677    11758    11785    11784    11759    11736    11742    11732 
   11685    11680    11703    11635    11541    11587    11676    11623 
   11531    11542    11619    11678    11665    11600    11578    11654 
   11713    11674    11638    11666    11715    11727    11666    11607 
   11657    11797    11854    11713    11549    11574    11700    11696 
   11595    11593    11695    11692    11569    11503    11543    11615 
   11655    11630    11581    11620    11759    11808    11693    11611 
   11669    11765    11803    11739    11654    11689    11772    11724 
   11604    11542    11530    11530    11506    11495    11574    11686 
   11708    11658    11635    11647    11681    11718    11732    11746 
   11750    11722    11716    11722    11670    11611    11599    11630 
   11666    11654    11626    11630    11627    11584    11539    11556 
   11624    11677    11676    11637    11635    11689    11712    11713 
   11749    11767    11736    11676    11616    11641    11747    11781 
   11677    11550    11504    11535    11581    11587    11584    11659 
   11786    11799    11646    11512    11576    11745    11782    11651 
   11573    11680    11803    11734    11583    11564    11646    11681 
   11630    11587    11630    11686    11681    11673    11680    11653 
   11639    11650    11618    11599    11662    11677    11595    11587 
   11696    11761    11709    11639    11628    11618    11573    11591 
   11705    11809    11793    11688    11618    11622    11665    11696 
   11681    11705    11750    11674    11549    11512    11554    11632 
   11696    11684    11624    11589    11576    11553    11545    11596 
   11693    11770    11793    11782    11759    11729    11704    11718 
   11747    11706    11620    11581    11573    11553    11553    11599 
   11643    11630    11596    11618    11642    11624    11663    11739 
   11729    11703    11728    11724    11680    11642    11624    11658 
   11688    11638    11578    11601    11676    11703    11632    11550 
   11583    11692    11729    11703    11693    11693    11677    11635 
   11591    11604    11626    11597    11601    11641    11665    11734 
   11824    11807    11665    11545    11566    11659    11696    11653 
   11603    11615    11662    11657    11589    11577    11649    11696 
   11678    11618    11584    11645    11715    11726    11745    11754 
   11720    11704    11718    11705    11661    11618    11593    11601 
   11641    11635    11574    11564    11595    11595    11607    11635 
   11645    11676    11727    11739    11699    11645    11645    11703 
   11732    11713    11669    11616    11591    11618    11653    11649 
   11628    11663    11723    11676    11572    11561    11603    11618 
   11607    11618    11723    11842    11807    11668    11627    11684 
   11674    11614    11622    11673    11693    11722    11739    11642 
   11549    11587    11601    11554    11608    11704    11672    11589 
   11607    11668    11688    11676    11653    11665    11673    11628 
   11627    11659    11655    11703    11801    11823    11739    11650 
   11643    11658    11600    11533    11530    11589    11669    11705 
   11688    11654    11611    11605    11616    11566    11537    11623 
   11739    11769    11726    11695    11689    11684    11658    11607 
   11576    11627    11727    11784    11766    11734    11719    11692 
   11641    11595    11583    11585    11587    11626    11635    11546 
   11507    11614    11678    11626    11622    11696    11734    11731 
   11708    11681    11674    11651    11641    11718    11794    11757 
   11634    11564    11623    11686    11669    11661    11695    11706 
   11663    11560    11480    11530    11627    11639    11608    11616 
   11662    11682    11643    11639    11735    11799    11746    11682 
   11685    11712    11703    11657    11637    11658    11688    11686 
   11626    11584    11604    11618    11600    11585    11591    11607 
   11637    11663    11657    11641    11670    11720    11708    11649 
   11639    11688    11728    11736    11711    11669    11666    11680 
   11650    11599    11601    11677    11709    11634    11581    11612 
   11622    11601    11616    11646    11638    11630    11662    11691 
   11696    11706    11704    11658    11596    11584    11647    11739 
   11767    11716    11692    11708    11685    11647    11623    11593 
   11604    11649    11630    11550    11564    11646    11612    11530 
   11566    11654    11719    11769    11761    11695    11676    11735 
   11759    11681    11622    11689    11759    11686    11604    11619 
   11626    11614    11669    11705    11616    11511    11558    11670 
   11639    11523    11551    11689    11715    11677    11716    11755 
   11738    11726    11704    11638    11587    11611    11659    11666 
   11641    11630    11630    11638    11665    11677    11650    11657 
   11719    11742    11672    11608    11647    11701    11661    11585 
   11581    11653    11676    11584    11515    11581    11681    11677 
   11619    11653    11734    11753    11736    11688    11616    11641 
   11719    11722    11666    11628    11673    11739    11693    11595 
   11564    11601    11647    11655    11620    11591    11632    11699 
   11676    11624    11649    11676    11668    11650    11630    11659 
   11720    11735    11682    11595    11589    11691    11708    11616 
   11584    11634    11668    11665    11681    11715    11706    11685 
   11674    11665    11657    11630    11638    11670    11643    11569 
   11519    11569    11647    11615    11577    11655    11750    11769 
   11746    11724    11729    11747    11729    11666    11595    11600 
   11641    11611    11597    11650    11693    11689    11615    11547 
   11599    11655    11623    11619    11650    11619    11592    11657 
   11731    11729    11718    11757    11778    11711    11645    11674 
   11705    11670    11627    11605    11593    11603    11645    11639 
   11581    11577    11615    11630    11657    11655    11619    11632 
   11689    11715    11681    11662    11726    11769    11722    11655 
   11630    11663    11682    11597    11488    11529    11678    11724 
   11678    11689    11706    11658    11624    11646    11689    11743 
   11727    11618    11560    11605    11658    11659    11626    11614 
   11638    11655    11668    11678    11661    11665    11739    11772 
   11669    11574    11580    11610    11616    11587    11561    11627 
   11736    11751    11665    11630    11712    11777    11753    11709 
   11672    11626    11607    11604    11587    11597    11641    11642 
   11597    11595    11655    11665    11611    11615    11670    11670 
   11650    11681    11709    11695    11688    11706    11724    11735 
   11747    11720    11614    11476    11427    11504    11580    11587 
   11608    11676    11747    11777    11720    11607    11551    11615 
   11745    11855    11884    11893    11986    12059    11967    11758 
   11538    11331    11181    11178    11261    11295    11318    11469 
   11673    11668    11538    11604    11781    11843    11855    11980 
   12208    12236    12048    12010    11998    11734    11464    11310 
   11223    11250    11225    11157    11303    11499    11479    11341 
   11275    11416    11739    12048    12218    12345    12460    12312 
   11954    11812    11739    11454    11353    11534    11533    11353 
   11222    11151    11230    11400    11449    11446    11539    11706 
   11815    11807    11805    11924    12051    12039    12021    12058 
   11914    11742    11880    11996    11778    11576    11493    11340 
   11191    11102    11171    11470    11616    11425    11295    11403 
   11499    11502    11561    11804    12182    12351    12163    11947 
   11874    11844    11745    11497    11263    11204    11307    11507 
   11566    11457    11577    11914    11973    11650    11480    11722 
   11923    11874    11896    12032    12054    11935    11696    11364 
   11191    11229    11249    11306    11468    11539    11591    11803 
   12004    12131    12231    12140    11956    11799    11583    11411 
   11233    10944    10852    11014    11080    11137    11475    11900 
   12140    12218    12181    12089    12112    12247    12216    11942 
   11731    11684    11655    11605    11496    11318    11200    11203 
   11313    11468    11574    11632    11661    11681    11688    11534 
   11288    11322    11547    11535    11492    11734    11988    12125 
   12197    12182    12188    12100    11858    11688    11553    11457 
   11521    11529    11344    11199    11217    11317    11372    11313 
   11340    11622    11951    12079    12009    11929    11880    11874 
   11977    11917    11614    11430    11530    11727    11742    11639 
   11641    11611    11526    11488    11383    11345    11562    11706 
   11577    11487    11569    11672    11722    11666    11618    11738 
   11836    11796    11853    11966    11947    11962    11954    11696 
   11446    11403    11475    11519    11383    11257    11368    11469 
   11452    11519    11673    11736    11709    11803    12017    12031 
   11790    11641    11691    11670    11562    11587    11692    11859 
   12050    11980    11772    11746    11739    11557    11372    11353 
   11488    11584    11466    11331    11400    11481    11453    11480 
   11551    11539    11558    11729    11892    11919    11969    12122 
   12164    11959    11751    11759    11808    11734    11642    11554 
   11419    11333    11292    11242    11306    11439    11446    11462 
   11646    11793    11827    11885    11911    11835    11812    11858 
   11799    11729    11805    11842    11747    11696    11681    11560 
   11431    11497    11531    11345    11250    11319    11412    11511 
   11546    11630    11797    11863    11881    11947    12046    12098 
   11963    11793    11801    11788    11591    11416    11402    11448 
   11445    11426    11484    11541    11584    11696    11732    11696 
   11755    11713    11542    11570    11745    11838    11896    11900 
   11777    11646    11632    11651    11519    11364    11446    11587 
   11572    11496    11457    11564    11735    11731    11729    11824 
   11780    11736    11854    11897    11761    11627    11692    11808 
   11659    11414    11422    11560    11585    11535    11491    11534 
   11622    11584    11543    11673    11799    11809    11776    11776 
   11908    12033    11890    11614    11560    11706    11668    11419 
   11325    11419    11492    11493    11502    11599    11719    11736 
   11712    11712    11739    11778    11757    11731    11797    11902 
   11983    11929    11749    11627    11545    11437    11422    11466 
   11387    11310    11403    11481    11453    11504    11716    11916 
   11855    11685    11732    11832    11801    11808    11846    11842 
   11881    11904    11757    11503    11404    11526    11595    11507 
   11480    11618    11728    11624    11500    11527    11523    11503 
   11587    11645    11659    11685    11678    11726    11840    11892 
   11861    11796    11796    11855    11759    11577    11647    11796 
   11608    11345    11392    11523    11507    11495    11584    11630 
   11543    11497    11630    11824    11888    11777    11695    11722 
   11670    11560    11627    11896    12083    11996    11762    11558 
   11518    11632    11637    11472    11329    11279    11400    11531 
   11416    11325    11502    11728    11835    11813    11805    11971 
   12135    12063    11847    11754    11857    11894    11700    11448 
   11352    11427    11483    11313    11160    11429    11816    11785 
   11510    11496    11781    11927    11762    11624    11720    11858 
   11847    11769    11727    11682    11700    11750    11685    11611 
   11618    11615    11577    11521    11538    11620    11564    11376 
   11340    11568    11811    11834    11739    11699    11692    11684 
   11632    11577    11658    11765    11734    11703    11750    11757 
   11673    11622    11719    11820    11743    11564    11516    11646 
   11718    11659    11624    11620    11596    11580    11562    11533 
   11534    11499    11411    11466    11655    11770    11772    11755 
   11824    11907    11902    11908    11886    11761    11665    11600 
   11493    11500    11607    11564    11438    11435    11507    11564 
   11593    11638    11739    11788    11753    11750    11781    11719 
   11545    11484    11666    11781    11650    11572    11670    11772 
   11805    11770    11709    11657    11632    11639    11634    11661 
   11735    11739    11645    11521    11458    11461    11502    11591 
   11615    11556    11612    11761    11838    11792    11688    11713 
   11799    11720    11551    11472    11557    11691    11689    11674 
   11777    11831    11728    11576    11541    11673    11722    11564 
   11533    11692    11745    11642    11512    11491    11600    11654 
   11600    11611    11785    11973    11966    11844    11793    11766 
   11666    11564    11510    11421    11300    11288    11479    11765 
   11827    11603    11502    11615    11672    11708    11786    11800 
   11758    11723    11718    11736    11759    11767    11747    11750 
   11753    11668    11572    11500    11399    11356    11434    11558 
   11630    11614    11641    11799    11892    11827    11799    11785 
   11701    11641    11557    11497    11564    11628    11619    11562 
   11553    11704    11815    11708    11605    11745    11914    11796 
   11531    11462    11654    11826    11669    11427    11455    11581 
   11649    11684    11647    11655    11758    11792    11692    11564 
   11599    11747    11739    11591    11584    11757    11830    11736 
   11681    11681    11657    11587    11480    11441    11514    11542 
   11547    11632    11673    11635    11680    11846    11971    11908 
   11755    11663    11570    11487    11531    11653    11755    11809 
