Origin Time       2018/04/09 06:38:00
Lat.              35.2
Long.             132.6
Depth. (km)       10
Mag.              3.8
Station Code      HRS012
Station Lat.      34.4276
Station Long.     132.7422
Station Height(m) 215
Record Time       2018/04/09 06:39:14
Sampling Freq(Hz) 100Hz
Duration Time(s)  60
Dir.              U-D
Scale Factor      7845(gal)/8223790
Max. Acc. (gal)   0.304
Last Correction   2018/04/09 06:39:14
Memo.             
[...]
  -10890   -10885   -10887   -10893   -10897   -10894   -10894   -10899 
  -10903   -10897   -10891   -10891   -10894   -10891   -10890   -10890 
  -10891   -10893   -10891   -10893   -10894   -10894   -10894   -10895 
  -10895   -10895   -10891   -10891   -10897   -10897   -10889   -10887 
  -10895   -10897   -10895   -10897   -10897   -10894   -10894   -10893 
  -10890   -10894   -10899   -10895   -10889   -10890   -10893   -10890 
  -10890   -10899   -10905   -10893   -10885   -10887   -10886   -10882 
  -10890   -10903   -10902   -10895   -10895   -10894   -10887   -10889 
  -10893   -10894   -10895   -10897   -10895   -10890   -10890   -10893 
  -10893   -10894   -10893   -10890   -10895   -10903   -10902   -10895 
  -10890   -10886   -10883   -10886   -10889   -10895   -10901   -10899 
  -10895   -10894   -10893   -10889   -10887   -10891   -10897   -10897 
  -10895   -10887   -10885   -10893   -10903   -10909   -10902   -10890 
  -10883   -10881   -10882   -10897   -10905   -10887   -10881   -10895 
  -10899   -10895   -10902   -10906   -10894   -10881   -10882   -10891 
  -10894   -10894   -10895   -10889   -10887   -10894   -10895   -10897 
  -10902   -10897   -10895   -10895   -10890   -10886   -10891   -10894 
  -10893   -10894   -10897   -10889   -10881   -10891   -10905   -10901 
  -10895   -10897   -10891   -10881   -10886   -10903   -10905   -10899 
  -10897   -10889   -10878   -10883   -10893   -10897   -10899   -10895 
  -10889   -10885   -10886   -10893   -10899   -10905   -10905   -10894 
  -10883   -10885   -10893   -10897   -10897   -10891   -10887   -10887 
  -10886   -10891   -10899   -10905   -10902   -10890   -10879   -10882 
  -10891   -10895   -10899   -10903   -10901   -10894   -10887   -10883 
  -10885   -10890   -10897   -10897   -10897   -10891   -10887   -10890 
  -10899   -10905   -10906   -10897   -10887   -10883   -10889   -10894 
  -10897   -10899   -10897   -10887   -10882   -10885   -10894   -10902 
  -10903   -10894   -10882   -10882   -10894   -10908   -10908   -10895 
  -10889   -10890   -10887   -10887   -10897   -10899   -10895   -10894 
  -10893   -10887   -10886   -10894   -10899   -10902   -10902   -10897 
  -10889   -10878   -10882   -10895   -10897   -10895   -10897   -10895 
  -10890   -10891   -10899   -10906   -10899   -10886   -10881   -10885 
  -10889   -10893   -10897   -10903   -10905   -10897   -10890   -10889 
  -10887   -10887   -10890   -10887   -10886   -10895   -10905   -10903 
  -10901   -10897   -10890   -10883   -10887   -10894   -10897   -10903 
  -10901   -10893   -10882   -10875   -10882   -10894   -10899   -10897 
  -10897   -10899   -10901   -10897   -10894   -10890   -10890   -10891 
  -10890   -10891   -10891   -10893   -10899   -10899   -10890   -10883 
  -10885   -10893   -10902   -10908   -10903   -10890   -10882   -10886 
  -10894   -10899   -10899   -10895   -10890   -10876   -10867   -10876 
  -10893   -10897   -10897   -10894   -10885   -10881   -10893   -10894 
  -10887   -10901   -10914   -10916   -10921   -10930   -10933   -10920 
  -10908   -10921   -10918   -10874   -10835   -10851   -10893   -10882 
  -10841   -10859   -10897   -10908   -10924   -10894   -10824   -10867 
  -10951   -10918   -10887   -10933   -10928   -10879   -10891   -10913 
  -10913   -10953   -10959   -10851   -10775   -10858   -10984   -10967 
  -10824   -10771   -10867   -10932   -10883   -10839   -10851   -10916 
  -11003   -10980   -10894   -10887   -10867   -10820   -10840   -10876 
  -10926   -10984   -10963   -10876   -10841   -10886   -10870   -10808 
  -10868   -10933   -10895   -10908   -10989   -10986   -10859   -10754 
  -10798   -10937   -11011   -10926   -10821   -10854   -10918   -10933 
  -10953   -10895   -10790   -10844   -10953   -10921   -10886   -10935 
  -10908   -10801   -10802   -10909   -10979   -10995   -10918   -10737 
  -10709   -10933   -11080   -10986   -10858   -10828   -10862   -10953 
  -10982   -10820   -10758   -10975   -11061   -10897   -10835   -10818 
  -10729   -10860   -11083   -10956   -10793   -10959   -10996   -10764 
  -10791   -11018   -10952   -10758   -10836   -10974   -10882   -10794 
  -10871   -10925   -10908   -10943   -10972   -10882   -10829   -10947 
  -10986   -10870   -10870   -10939   -10841   -10768   -10899   -10962 
  -10889   -10936   -10984   -10837   -10736   -10859   -10948   -10854 
  -10844   -10983   -11026   -10953   -10864   -10759   -10732   -10881 
  -11029   -11009   -10899   -10845   -10871   -10881   -10854   -10879 
  -10932   -10957   -10936   -10856   -10835   -10890   -10913   -10894 
  -10851   -10854   -10963   -11001   -10870   -10779   -10835   -10943 
  -11005   -10966   -10903   -10894   -10836   -10774   -10868   -10941 
  -10864   -10889   -10982   -10912   -10854   -10908   -10886   -10817 
  -10812   -10876   -10986   -10987   -10895   -10922   -10963   -10881 
  -10837   -10862   -10854   -10905   -10972   -10897   -10828   -10901 
  -10962   -10949   -10866   -10764   -10835   -10960   -10909   -10835 
  -10894   -10935   -10881   -10840   -10864   -10903   -10944   -10955 
  -10885   -10818   -10860   -10953   -10987   -10937   -10879   -10891 
  -10893   -10810   -10790   -10899   -10984   -10975   -10916   -10840 
  -10795   -10833   -10937   -10995   -10921   -10827   -10854   -10918 
  -10894   -10874   -10887   -10899   -10963   -10949   -10798   -10779 
  -10924   -10995   -10952   -10908   -10886   -10843   -10817   -10848 
  -10916   -10970   -10956   -10953   -10952   -10851   -10794   -10864 
  -10881   -10839   -10876   -10945   -10917   -10859   -10882   -10897 
  -10870   -10906   -10978   -10936   -10843   -10872   -10921   -10859 
  -10809   -10847   -10921   -11001   -11018   -10924   -10821   -10856 
  -10933   -10854   -10744   -10847   -10999   -10963   -10893   -10917 
  -10897   -10858   -10889   -10889   -10854   -10885   -10928   -10902 
  -10859   -10871   -10918   -10939   -10918   -10879   -10876   -10924 
  -10924   -10848   -10821   -10870   -10902   -10920   -10926   -10903 
  -10922   -10937   -10858   -10841   -10912   -10903   -10883   -10893 
  -10897   -10948   -10944   -10874   -10866   -10847   -10825   -10890 
  -10905   -10860   -10893   -10924   -10910   -10936   -10901   -10820 
  -10878   -10944   -10902   -10895   -10916   -10895   -10902   -10928 
  -10903   -10851   -10835   -10874   -10910   -10902   -10893   -10920 
  -10913   -10839   -10872   -10968   -10890   -10827   -10897   -10876 
  -10866   -10968   -10972   -10887   -10856   -10859   -10879   -10913 
  -10901   -10847   -10848   -10963   -11032   -10912   -10794   -10854 
  -10945   -10917   -10843   -10849   -10891   -10889   -10885   -10878 
  -10871   -10943   -11018   -10953   -10808   -10770   -10870   -10921 
  -10875   -10875   -10956   -11006   -10922   -10797   -10821   -10917 
  -10908   -10905   -10943   -10903   -10859   -10864   -10864   -10867 
  -10885   -10930   -10978   -10929   -10856   -10854   -10825   -10768 
  -10848   -10980   -10967   -10936   -10991   -10972   -10844   -10771 
  -10828   -10902   -10905   -10909   -10929   -10909   -10883   -10875 
  -10862   -10899   -10956   -10924   -10871   -10867   -10854   -10860 
  -10922   -10922   -10863   -10897   -10933   -10887   -10886   -10883 
  -10878   -10939   -10932   -10886   -10897   -10887   -10874   -10879 
  -10841   -10832   -10924   -10984   -10924   -10887   -10947   -10937 
  -10836   -10801   -10854   -10909   -10926   -10932   -10928   -10906 
  -10905   -10893   -10833   -10812   -10874   -10928   -10922   -10921 
  -10897   -10844   -10864   -10913   -10918   -10932   -10932   -10881 
  -10848   -10852   -10868   -10908   -10925   -10921   -10935   -10918 
  -10893   -10890   -10825   -10777   -10881   -11001   -10963   -10868 
  -10866   -10875   -10832   -10847   -10913   -10921   -10912   -10936 
  -10936   -10913   -10908   -10889   -10866   -10856   -10854   -10899 
  -10944   -10902   -10868   -10924   -10943   -10893   -10863   -10860 
  -10874   -10886   -10863   -10875   -10930   -10917   -10858   -10881 
  -10939   -10936   -10908   -10875   -10871   -10902   -10902   -10868 
  -10859   -10889   -10897   -10876   -10932   -11009   -10944   -10835 
  -10821   -10848   -10858   -10867   -10870   -10872   -10905   -10966 
  -10991   -10932   -10860   -10832   -10818   -10806   -10843   -10957 
  -11022   -10976   -10963   -10948   -10870   -10845   -10841   -10781 
  -10775   -10858   -10922   -10968   -11033   -11048   -10960   -10813 
  -10737   -10793   -10821   -10849   -10990   -11048   -10984   -10968 
  -10887   -10704   -10665   -10774   -10862   -10976   -11090   -11059 
  -10949   -10889   -10849   -10795   -10767   -10816   -10945   -11043 
  -10995   -10908   -10878   -10837   -10801   -10832   -10897   -10951 
  -10948   -10887   -10862   -10893   -10897   -10895   -10917   -10905 
  -10872   -10875   -10882   -10867   -10897   -10955   -10939   -10903 
  -10935   -10936   -10858   -10793   -10809   -10837   -10832   -10894 
  -11002   -10991   -10897   -10881   -10912   -10881   -10798   -10773 
  -10870   -10986   -10996   -10967   -10939   -10859   -10785   -10814 
  -10882   -10881   -10918   -11011   -11003   -10937   -10897   -10854 
  -10821   -10801   -10827   -10908   -10922   -10887   -10910   -10943 
  -10921   -10893   -10867   -10840   -10859   -10886   -10894   -10916 
  -10910   -10887   -10918   -10933   -10908   -10913   -10901   -10844 
  -10831   -10870   -10908   -10928   -10935   -10914   -10844   -10824 
  -10906   -10945   -10887   -10851   -10883   -10928   -10924   -10883 
  -10891   -10926   -10925   -10922   -10886   -10824   -10881   -10962 
  -10876   -10797   -10909   -11002   -10922   -10854   -10876   -10882 
  -10866   -10854   -10848   -10899   -10957   -10937   -10905   -10878 
  -10831   -10837   -10912   -10935   -10882   -10876   -10929   -10924 
  -10891   -10870   -10833   -10860   -10933   -10929   -10894   -10925 
  -10959   -10928   -10859   -10797   -10835   -10955   -10952   -10854 
  -10856   -10908   -10928   -10937   -10897   -10848   -10887   -10924 
  -10879   -10864   -10897   -10894   -10890   -10906   -10876   -10856 
  -10878   -10871   -10894   -10955   -10948   -10914   -10894   -10866 
  -10854   -10836   -10841   -10922   -10952   -10897   -10870   -10868 
  -10881   -10899   -10889   -10914   -10984   -10976   -10916   -10854 
  -10800   -10862   -10944   -10897   -10868   -10905   -10893   -10883 
  -10905   -10875   -10863   -10917   -10921   -10890   -10897   -10886 
  -10868   -10879   -10879   -10885   -10922   -10921   -10882   -10895 
  -10895   -10844   -10866   -10925   -10924   -10913   -10925   -10909 
  -10864   -10837   -10833   -10854   -10899   -10963   -10998   -10948 
  -10874   -10854   -10832   -10809   -10890   -10971   -10948   -10920 
  -10895   -10843   -10849   -10885   -10886   -10903   -10916   -10897 
  -10914   -10920   -10875   -10870   -10901   -10908   -10890   -10867 
  -10852   -10878   -10937   -10948   -10889   -10867   -10901   -10912 
  -10883   -10856   -10885   -10932   -10926   -10908   -10894   -10875 
  -10901   -10920   -10870   -10820   -10851   -10913   -10916   -10922 
  -10949   -10920   -10879   -10854   -10832   -10881   -10943   -10906 
  -10878   -10902   -10878   -10874   -10902   -10889   -10914   -10933 
  -10903   -10917   -10893   -10827   -10833   -10867   -10895   -10948 
  -10970   -10905   -10858   -10866   -10843   -10860   -10925   -10922 
  -10908   -10906   -10891   -10893   -10891   -10899   -10933   -10926 
  -10885   -10881   -10874   -10870   -10897   -10878   -10862   -10916 
  -10937   -10893   -10875   -10895   -10887   -10883   -10921   -10944 
  -10902   -10845   -10870   -10924   -10893   -10847   -10901   -10960 
  -10886   -10818   -10878   -10921   -10893   -10885   -10912   -10897 
  -10871   -10921   -10933   -10847   -10851   -10962   -10966   -10854 
  -10809   -10867   -10936   -10936   -10894   -10903   -10930   -10908 
  -10864   -10825   -10840   -10872   -10851   -10878   -10943   -10937 
  -10933   -10952   -10936   -10921   -10908   -10862   -10849   -10889 
  -10864   -10839   -10912   -10941   -10878   -10832   -10848   -10920 
  -10966   -10909   -10843   -10854   -10870   -10887   -10926   -10951 
  -10976   -10929   -10802   -10800   -10902   -10910   -10824   -10812 
  -10897   -10960   -10960   -10935   -10940   -10980   -10952   -10866 
  -10848   -10847   -10813   -10858   -10940   -10979   -10972   -10897 
  -10875   -10947   -10920   -10818   -10802   -10817   -10845   -10905 
  -10854   -10773   -10871   -10984   -10937   -10881   -10878   -10875 
  -10890   -10864   -10870   -10982   -10947   -10804   -10866   -10978 
  -10893   -10829   -10948   -10996   -10889   -10879   -10998   -11052 
  -10990   -10890   -10843   -10840   -10867   -10912   -10852   -10787 
  -10870   -10940   -10930   -10827   -10693   -10750   -10801   -10693 
  -10771   -11043   -11146   -11101   -11142   -11148   -10989   -10876 
  -10872   -10805   -10701   -10736   -10854   -10893   -10903   -10914 
  -10905   -10918   -10854   -10729   -10682   -10651   -10686   -10895 
  -11090   -11161   -11192   -11146   -10982   -10829   -10828   -10914 
  -10913   -10871   -10914   -10951   -10902   -10817   -10724   -10696 
  -10748   -10816   -10889   -10979   -11059   -11094   -11075   -11025 
  -10922   -10754   -10665   -10731   -10810   -10844   -10876   -10878 
  -10890   -10978   -11036   -10937   -10801   -10825   -10922   -10948 
  -11016   -11149   -11137   -10926   -10798   -10788   -10678   -10574 
  -10616   -10722   -10845   -10947   -11003   -11014   -10991   -10986 
  -10962   -10936   -10976   -10999   -10991   -11011   -10980   -10875 
  -10808   -10818   -10840   -10827   -10777   -10712   -10697   -10795 
  -11006   -11134   -11036   -10913   -10921   -10879   -10779   -10820 
  -10917   -10956   -11005   -10970   -10849   -10790   -10752   -10709 
  -10758   -10903   -11048   -11068   -11047   -11102   -11097   -10957 
  -10808   -10725   -10712   -10735   -10788   -10852   -10921   -11033 
  -11059   -10893   -10750   -10787   -10841   -10860   -10975   -11082 
  -11005   -10879   -10854   -10849   -10831   -10814   -10804   -10848 
  -10935   -10930   -10840   -10820   -10882   -10908   -10895   -10921 
  -10974   -10996   -10991   -10960   -10889   -10840   -10851   -10864 
  -10901   -10924   -10839   -10762   -10790   -10886   -11029   -11051 
  -10926   -10879   -10867   -10813   -10854   -10926   -10924   -10940 
  -10980   -10993   -10984   -10912   -10810   -10797   -10843   -10833 
  -10768   -10771   -10885   -10959   -10918   -10870   -10867   -10821 
  -10766   -10897   -11056   -11009   -10959   -10940   -10847   -10893 
  -11022   -10960   -10839   -10800   -10777   -10843   -10957   -10963 
  -10922   -10876   -10824   -10825   -10824   -10791   -10848   -10948 
  -10926   -10883   -10933   -10944   -10951   -11005   -10945   -10868 
  -10968   -11070   -11045   -10970   -10840   -10783   -10832   -10763 
  -10648   -10735   -10889   -10893   -10839   -10889   -11021   -11060 
  -10966   -10893   -10829   -10768   -10875   -11034   -11014   -10912 
  -10872   -10831   -10788   -10824   -10909   -10975   -10943   -10866 
  -10852   -10852   -10881   -10939   -10917   -10887   -10866   -10800 
  -10858   -10984   -10945   -10871   -10939   -11024   -10966   -10851 
  -10854   -10874   -10844   -10918   -10957   -10874   -10890   -10916 
  -10813   -10741   -10760   -10828   -10878   -10856   -10932   -11094 
  -11048   -10890   -10902   -10943   -10851   -10795   -10863   -10932 
  -10979   -11005   -10930   -10825   -10837   -10890   -10867   -10814 
  -10810   -10882   -10939   -10874   -10788   -10856   -10972   -10928 
  -10878   -10980   -11002   -10912   -10881   -10883   -10971   -11091 
  -10970   -10752   -10764   -10833   -10781   -10805   -10893   -10870 
  -10863   -10966   -10987   -10926   -10928   -10918   -10867   -10883 
  -10940   -10960   -10917   -10841   -10841   -10897   -10887   -10847 
  -10851   -10859   -10864   -10893   -10941   -10963   -10912   -10835 
  -10832   -10874   -10894   -10890   -10885   -10894   -10878   -10828 
  -10844   -10895   -10895   -10910   -10932   -10902   -10852   -10825 
  -10902   -11026   -11033   -10980   -10980   -10957   -10843   -10787 
  -10875   -10906   -10862   -10882   -10891   -10874   -10879   -10871 
  -10886   -10912   -10883   -10820   -10795   -10867   -10951   -10991 
  -11013   -10960   -10891   -10902   -10899   -10859   -10856   -10897 
  -10893   -10828   -10863   -10957   -10912   -10840   -10902   -10908 
  -10778   -10737   -10814   -10859   -10906   -11017   -11061   -10957 
  -10883   -10916   -10875   -10805   -10862   -10941   -10949   -10948 
  -10940   -10870   -10786   -10821   -10966   -11016   -10908   -10812 
  -10809   -10843   -10859   -10878   -10916   -10914   -10926   -10982 
  -10956   -10879   -10828   -10805   -10816   -10808   -10825   -10945 
  -11043   -11014   -10947   -10917   -10926   -10953   -10910   -10812 
  -10795   -10805   -10770   -10835   -10959   -10970   -10906   -10871 
  -10887   -10913   -10921   -10937   -10936   -10917   -10899   -10881 
  -10913   -10937   -10875   -10849   -10912   -10932   -10886   -10876 
  -10895   -10886   -10868   -10840   -10839   -10897   -10916   -10860 
  -10844   -10895   -10940   -10970   -10978   -10910   -10831   -10841 
  -10899   -10917   -10902   -10878   -10824   -10794   -10862   -10963 
  -10956   -10872   -10867   -10913   -10928   -10909   -10856   -10835 
  -10870   -10922   -10980   -10976   -10872   -10787   -10827   -10914 
  -10939   -10886   -10837   -10874   -10956   -11005   -10963   -10871 
  -10886   -10944   -10860   -10783   -10860   -10920   -10876   -10878 
  -10962   -10980   -10916   -10839   -10785   -10794   -10856   -10897 
  -10902   -10925   -10972   -10991   -10962   -10885   -10839   -10864 
  -10886   -10885   -10874   -10856   -10874   -10914   -10908   -10867 
  -10859   -10833   -10805   -10905   -11009   -10971   -10906   -10912 
  -10932   -10886   -10835   -10885   -10918   -10839   -10788   -10881 
  -11032   -11068   -10916   -10768   -10791   -10832   -10844   -10922 
  -10944   -10894   -10902   -10918   -10928   -10935   -10881   -10847 
  -10866   -10875   -10930   -11002   -10945   -10809   -10771   -10835 
  -10913   -10982   -11003   -10968   -10894   -10805   -10793   -10866 
  -10905   -10905   -10926   -10940   -10917   -10881   -10871   -10901 
  -10926   -10903   -10858   -10858   -10887   -10862   -10814   -10862 
  -10967   -10999   -10955   -10894   -10859   -10868   -10879   -10858 
  -10847   -10902   -10937   -10883   -10868   -10921   -10906   -10860 
  -10870   -10891   -10890   -10897   -10928   -10955   -10966   -10917 
  -10854   -10867   -10862   -10817   -10891   -11011   -10980   -10862 
  -10809   -10831   -10879   -10897   -10871   -10858   -10895   -10937 
  -10905   -10849   -10862   -10941   -11037   -11039   -10929   -10860 
  -10825   -10741   -10712   -10814   -10970   -11045   -10963   -10863 
  -10860   -10858   -10833   -10878   -10932   -10921   -10935   -10979 
  -10894   -10766   -10809   -10903   -10897   -10897   -10932   -10913 
  -10854   -10810   -10818   -10890   -10966   -10970   -10913   -10906 
  -10940   -10921   -10903   -10916   -10872   -10782   -10794   -10917 
