Origin Time       2018/04/09 06:38:00
Lat.              35.2
Long.             132.6
Depth. (km)       10
Mag.              3.8
Station Code      SMN009
Station Lat.      35.0112
Station Long.     132.2227
Station Height(m) 20
Record Time       2018/04/09 06:39:00
Sampling Freq(Hz) 100Hz
Duration Time(s)  60
Dir.              N-S
Scale Factor      7845(gal)/8223790
Max. Acc. (gal)   4.047
Last Correction   2018/04/09 06:39:00
Memo.             
[...]
    8588     8648     8706     8718     8673     8608     8577     8621 
    8704     8741     8707     8644     8577     8552     8615     8708 
    8739     8696     8631     8607     8638     8665     8668     8664 
    8644     8629     8646     8668     8681     8683     8654     8608 
    8587     8618     8679     8712     8702     8665     8618     8596 
    8611     8640     8688     8745     8727     8633     8564     8577 
    8654     8723     8725     8669     8612     8608     8653     8680 
    8645     8586     8579     8645     8734     8768     8711     8618 
    8561     8572     8635     8710     8760     8746     8645     8522 
    8490     8587     8729     8810     8787     8683     8564     8520 
    8573     8658     8721     8726     8684     8646     8641     8644 
    8630     8618     8633     8649     8646     8676     8746     8743 
    8638     8543     8530     8587     8692     8785     8776     8667 
    8561     8559     8654     8752     8745     8618     8505     8523 
    8640     8761     8815     8750     8607     8510     8525     8626 
    8752     8814     8748     8600     8500     8525     8627     8721 
    8761     8738     8672     8598     8575     8623     8669     8667 
    8650     8649     8664     8685     8680     8645     8626     8635 
    8646     8657     8676     8668     8629     8608     8629     8687 
    8733     8691     8618     8610     8634     8645     8660     8669 
    8657     8644     8653     8675     8679     8653     8617     8606 
    8637     8672     8672     8662     8694     8730     8691     8590 
    8523     8542     8626     8741     8824     8806     8672     8513 
    8457     8543     8706     8834     8812     8638     8490     8492 
    8602     8737     8826     8793     8661     8550     8536     8576 
    8638     8711     8721     8660     8638     8676     8681     8649 
    8649     8640     8568     8543     8644     8768     8812     8764 
    8627     8486     8483     8615     8729     8742     8712     8679 
    8648     8649     8660     8626     8571     8576     8654     8731 
    8738     8694     8650     8617     8591     8602     8650     8688 
    8694     8672     8635     8612     8637     8683     8688     8668 
    8650     8627     8619     8655     8695     8688     8646     8602 
    8590     8621     8681     8733     8735     8677     8602     8579 
    8604     8644     8683     8696     8667     8641     8657     8685 
    8679     8640     8607     8599     8623     8669     8688     8676 
    8675     8677     8655     8638     8634     8608     8584     8611 
    8696     8773     8777     8708     8610     8532     8529     8604 
    8687     8716     8714     8699     8668     8634     8625     8631 
    8629     8627     8655     8696     8698     8652     8610     8625 
    8675     8685     8655     8654     8679     8664     8619     8607 
    8637     8673     8687     8657     8618     8621     8646     8667 
    8699     8707     8654     8626     8644     8631     8606     8635 
    8703     8731     8684     8619     8587     8590     8633     8675 
    8680     8687     8700     8687     8664     8637     8595     8575 
    8614     8684     8715     8707     8695     8671     8633     8606 
    8584     8577     8621     8704     8753     8721     8669     8646 
    8634     8623     8619     8606     8603     8662     8734     8729 
    8672     8630     8610     8598     8607     8646     8694     8723 
    8710     8657     8619     8634     8642     8612     8603     8649 
    8698     8698     8662     8640     8625     8614     8650     8729 
    8739     8646     8550     8543     8611     8703     8762     8734 
    8661     8618     8599     8590     8629     8699     8725     8683 
    8626     8599     8607     8642     8680     8700     8696     8668 
    8618     8586     8622     8698     8715     8665     8615     8608 
    8634     8668     8676     8662     8671     8704     8702     8625 
    8561     8595     8657     8675     8684     8691     8664     8623 
    8612     8640     8685     8707     8680     8623     8599     8629 
    8660     8660     8654     8679     8711     8684     8603     8563 
    8604     8681     8733     8721     8655     8588     8581     8635 
    8695     8712     8684     8641     8615     8618     8641     8671 
    8676     8668     8667     8652     8629     8633     8650     8665 
    8680     8667     8622     8612     8648     8664     8658     8684 
    8716     8699     8633     8577     8581     8633     8691     8710 
    8679     8648     8642     8645     8638     8631     8652     8680 
    8681     8662     8630     8607     8618     8653     8691     8721 
    8721     8662     8588     8567     8610     8673     8712     8688 
    8630     8607     8637     8676     8695     8688     8649     8607 
    8618     8661     8669     8660     8677     8691     8662     8621 
    8599     8606     8638     8694     8738     8712     8629     8567 
    8563     8622     8719     8762     8707     8623     8595     8615 
    8652     8677     8667     8623     8611     8668     8730     8716 
    8640     8573     8573     8640     8711     8715     8661     8619 
    8623     8655     8679     8672     8653     8649     8661     8673 
    8654     8607     8594     8645     8704     8699     8646     8606 
    8603     8642     8703     8735     8694     8612     8591     8638 
    8672     8673     8673     8658     8634     8626     8634     8655 
    8691     8704     8671     8615     8583     8592     8645     8712 
    8734     8688     8629     8622     8650     8649     8623     8641 
    8683     8672     8630     8630     8671     8696     8680     8626 
    8577     8587     8668     8743     8731     8660     8619     8626 
    8642     8650     8648     8638     8642     8658     8667     8675 
    8684     8655     8598     8590     8655     8699     8677     8657 
    8661     8667     8676     8680     8653     8598     8561     8604 
    8692     8727     8703     8673     8652     8615     8583     8598 
    8642     8667     8685     8719     8735     8706     8631     8548 
    8543     8648     8753     8749     8652     8564     8560     8612 
    8653     8664     8695     8757     8770     8685     8587     8569 
    8591     8590     8607     8675     8739     8750     8715     8649 
    8583     8572     8614     8658     8668     8635     8622     8683 
    8749     8743     8692     8614     8523     8487     8575     8734 
    8838     8816     8694     8550     8486     8520     8610     8731 
    8841     8838     8695     8503     8395     8454     8652     8857 
    8927     8810     8608     8482     8483     8579     8687     8715 
    8672     8645     8672     8742     8791     8725     8553     8417 
    8433     8610     8822     8910     8820     8635     8503     8509 
    8588     8638     8655     8654     8592     8483     8428     8506 
    8730     9005     9111     8954     8729     8630     8607     8519 
    8446     8596     8850     8769     8286     8016     8424     9053 
    9163     8815     8642     8843     8942     8671     8505     8622 
    8467     8063     8058     8482     8810     8834     8929     9312 
    9462     8937     8156     7871     8031     8177     8507     9100 
    9470     9217     8463     8208     9000     9521     8762     7827 
    7796     8376     8797     8676     8519     8621     8542     8618 
    9131     9123     8456     8278     8781     9009     9057     9377 
    9022     8237     8139     8020     7820     8451     9038     8772 
    8559     8833     9038     8877     8456     8148     8404     8870 
    8807     8625     8823     9256     9769     9733     8655     7281 
    6978     7758     8177     8385     9139     9355     9193     9607 
    9427     8333     7921     8434     8727     8552     8526     8866 
    9454     9540     8163     7069     8135     9011     8025     7418 
    8673    10334    10613     9463     8263     7954     7852     7781 
    8472     9248     9057     8194     7948     8808     9155     8579 
    8808     9180     8359     7735     8225     9398    10365     9705 
    7974     7244     7654     7886     8097     9261    10417    10497 
    9697     8213     7064     6934     7276     8013     9121     9880 
    9725     9207     9250     9489     8915     7858     7446     8033 
    9040     9007     7701     7543     9362    10308     8947     7527 
    7659     8407     8710     8838     9451     9972     9436     8520 
    8077     7804     7967     8602     8700     8449     8619     8950 
    9131     9034     8591     8155     7942     8131     9092     9977 
    9520     8621     8588     8687     7998     7061     7310     9074 
   10355     9653     8229     8020     8792     9020     8704     8641 
    8752     8765     8644     8677     8891     8612     8262     8401 
    8137     7657     7831     8510     9674    10322     9371     8413 
    8792     9211     8680     8148     8299     8496     8408     8414 
    8622     8449     7628     7538     8849     9887     9813     9491 
    9413     9321     8603     7317     6957     7990     8598     8527 
    9327    10075     9166     7851     7770     8549     9090     9120 
    9119     9042     8374     7919     8460     8676     7847     7450 
    8482    10106    10555     9169     7989     8379     8781     8387 
    8108     8322     8492     8263     8379     9339     9987     9223 
    8068     8235     8876     8245     7685     8387     8696     8298 
    8428     9196     9915     9882     9094     8110     7514     7564 
    7971     8856    10206    10574     9297     7982     7510     7330 
    7612     8121     8117     8401     9374     9694     9254     9150 
    9166     9055     9071     8530     7803     8326     9080     8644 
    8291     8546     8391     8517     9190     8991     8270     8152 
    7989     7707     8519     9686     9683     9258     8931     8388 
    8496     9285     9182     7881     7118     7827     8777     9159 
    9327     9319     9147     8654     7728     7652     8954     9470 
    8388     7955     8473     8437     8586     9362     9602     9342 
    9027     8290     7673     8217     8985     8708     8333     8549 
    8672     8752     9026     9084     8653     7996     7929     8499 
    8734     8596     8947     9612     9625     8905     8158     7786 
    7785     8152     8600     8730     8951     9586     9898     9413 
    8388     7312     7114     7967     8796     9065     9036     8958 
    8876     8424     8077     9034     9944     8974     7940     8490 
    9294     9258     8633     8085     8056     7978     7824     8703 
    9896     9536     8098     7566     8506     9541     9382     8700 
    8711     8872     8149     7447     8160     9240     8985     8124 
    8185     9246     9922     9224     8833     9474     8702     7063 
    7572     9047     8950     7929     7586     8418     9088     8326 
    8098     9710    10498     9121     8110     8988     9742     8696 
    7468     7789     8799     8819     7531     6968     8665    10066 
    8783     7061     7489     8515     7959     7195     7944     9104 
    9448     9753    10968    12293    12019    10091     8830     9595 
   10254     8893     7214     7063     7592     7352     6446     6308 
    6998     6760     5845     6675     9080     9926     8862     9038 
   11078    12341    11858    11331    11075     9333     7218     7425 
    8757     8976     8102     6793     6226     6664     6305     5313 
    6165     8229     8918     8857     9780    11181    11777    11180 
   10424    10547    10480     9035     7626     8064     9310     8958 
    6918     4997     4834     6416     7870     9024    10412    10530 
    9447     9018    10085    11317    10249     8133     7713     7894 
    7284     7279     9360    11345     9513     5663     5101     8224 
   10721    10343     8873     8337     8569     8559     8474     9433 
   10193     8374     6475     7376     8594     8237     7378     7616 
    8857     8716     7875     9089    11275    12198    11439     9354 
    7371     6906     7461     8046     9174    10258     8850     6145 
    5489     6667     8233     9329     9259     9185     9967    10156 
    9359     8657     8120     7994     8385     8522     9694    12020 
   12177     9954     7711     6269     6295     7348     7592     7184 
    7830     8814     8640     8545     9147     9008     8338     8385 
    8721     8731     9482    10662    10026     8417     7850     7819 
    8426     9539     9429     8598     8649     8410     6825     6345 
    7946     9166     9699    10027     9350     8716     8499     7919 
    8106     9103     9688    10197    10274     8845     7335     7300 
    7129     6210     7155    10179    11732    10436     8549     7843 
    8588     9508     8319     6237     6843     9282     9926     9217 
    9760    10514     9262     7510     7796     9225     9088     7103 
    6070     7369     8591     8467     8687     9300     8653     7429 
    8197    10662    11716    10879     9941     9109     7782     6594 
    6952     8454     8885     8044     7608     7631     8046     9713 
   11223    10783     9495     8526     7927     8286     8903     8139 
    7299     8233     9791    10039     8293     6219     6389     7860 
    8020     7759     8564     8542     7761     8784    10415    11458 
   12737    12883    11311     9296     7034     4903     4410     6354 
    8868     9352     7974     6678     6979     8248     8731     9258 
   10329     9940     9028     9956    11318    10864     8675     6843 
    7261     8710     8714     7627     7604     8156     7283     6365 
    7690     9941    11024    10517     9169     8391     8037     8175 
    9825    10288     8314     8004     9224     8957     8739     8644 
    6843     5576     6544     8688    11499    12511     9347     6010 
    6613     8635     9670    10164     9690     8715     8182     7657 
    8073     9699    10055     9013     8307     7668     7299     7497 
    7408     7749     8421     8137     8235     9513    10247    10169 
   10802    11256     9229     7042     7669     9040     9470     9153 
    8129     7360     6999     6794     7527     9016     9809     9358 
    8857     9063     9308     9071     8543     8517     9054     8993 
    8688     8837     8095     6511     6413     8334     9949     9871 
    9385     9046     8276     8033     9124     9979     9254     8035 
    7240     7089     8451     9902     9478     8749     8869     8858 
    8772     9045     9101     8688     8390     8251     8194     8546 
    8908     9178     9215     8187     7273     7730     8233     8116 
    8725    10511    11061     8726     6269     6374     8060     9929 
   11225    10380     7717     6612     8007     9429     9979    10039 
    9202     8139     7912     7902     7628     7627     8044     8676 
    9277     9262     8619     8552     9082     8604     7634     7956 
    8845     9251     9757    10129     9767     9130     8318     7191 
    7010     8673     9733     8330     7125     7758     8490     8924 
    9340     8937     8378     9045    10214    10017     8390     7191 
    7314     8005     8629     9414    10292    10276     9285     8281 
    7584     7279     7612     8220     8482     8691     9396     9724 
    8568     7203     7619     8961     9733    10088     9921     9319 
    8937     8486     7933     8280     8966     8349     7371     7632 
    8176     7869     7739     9043    10336     9753     8571     8294 
    8213     7940     8236     8896     9007     9080     9841    10380 
    9856     8823     8005     7403     6940     7040     8068     9300 
    9459     8685     8268     8806     9524     9155     8101     7963 
    8723     9566    10200     9795     8411     7636     7670     7743 
    8113     8569     8430     8235     8619     9046     9008     8947 
    9283     9563     9158     8352     8073     8542     9073     9157 
    8630     7869     7817     8306     8484     8483     8673     8961 
    8718     7854     7867     9229    10049     9445     8591     8195 
    8344     9071     9347     8780     8649     8806     8404     8078 
    7967     7923     8239     8454     8667     9391     9737     9086 
    8313     8299     8880     9115     8911     8860     8626     8167 
    8093     8290     8520     8679     8706     8816     8889     8487 
    7798     8097     9568     9666     8020     8202     9960     9578 
    8220     8808     9639     8815     7735     7109     6843     7909 
    9502     9760     9094     8600     8460     8635     8789     8569 
    8719     9724    10139     9579     9088     8110     6886     6939 
    7558     7708     8479    10291    11016     9555     7732     7096 
    7743     8687     8513     8064     9024    10239     9821     8464 
    8149     8856     8850     8159     8224     9143     9560     8413 
    7049     7302     8237     8591     8895     9513     9841     9533 
    8996     8684     8845     8883     8054     7689     8584     8883 
    8158     7938     8301     8418     8343     8695     9505    10014 
    9896     9435     8760     7944     7334     7136     7380     8453 
    9961    10592    10161     9104     7774     7188     7444     7652 
    7974     8454     8806     9613    10408    10000     9040     8592 
    8413     8176     7933     7933     8903    10008     9192     7736 
    7955     8341     7558     7234     8378    10098    10631     9180 
    7734     8117     8985     8826     8454     8741     9027     8896 
    8804     8660     8221     7938     8137     8536     8688     8819 
    9130     8961     8375     8237     8687     9294     9394     8629 
    7863     8310     9317     9134     8328     8479     8857     8426 
    7889     8271     9198     9198     8376     8172     8704     9173 
    9244     9104     8733     8189     8052     8311     8695     9180 
    9209     8550     7906     8035     8783     8868     8221     8413 
    9234     8999     8046     8152     9359    10048     9409     8152 
    7435     7707     8375     8857     9208     9242     8893     8785 
    8781     8444     8328     8394     8144     8151     8827     9621 
    9856     9262     8259     7533     7510     8267     9065     8941 
    8564     9086     9405     8581     8029     8379     8896     9223 
    9088     8698     8426     7884     7395     7936     8916     9178 
    9081     9238     9340     9200     8816     8252     8118     8548 
    8984     9354     9651     9239     7950     6829     6871     7830 
    8665     9001     9250     9369     9238     8970     8586     8494 
    8688     8725     9192     9961     9297     7655     7340     8122 
    8598     8863     8982     8576     8007     7959     8408     8974 
    9279     8949     8486     8553     8853     9180     9322     8865 
    8398     8513     8858     9121     8972     8125     7340     7577 
    8189     8404     8891     9431     9124     8738     8899     9078 
    9047     8777     8533     8784     9023     8727     8754     9351 
    8974     7404     6561     6974     7577     8324     9351     9934 
   10011     9898     9572     9231     8772     8039     7777     8305 
