Origin Time       2018/04/09 06:38:00
Lat.              35.2
Long.             132.6
Depth. (km)       10
Mag.              3.8
Station Code      SMN009
Station Lat.      35.0112
Station Long.     132.2227
Station Height(m) 20
Record Time       2018/04/09 06:39:00
Sampling Freq(Hz) 100Hz
Duration Time(s)  60
Dir.              U-D
Scale Factor      7845(gal)/8223790
Max. Acc. (gal)   2.213
Last Correction   2018/04/09 06:39:00
Memo.             
[...]
   12137    12197    12264    12259    12217    12195    12194    12214 
   12241    12248    12225    12198    12191    12201    12210    12224 
   12235    12229    12212    12204    12198    12194    12217    12256 
   12258    12217    12185    12188    12202    12221    12251    12251 
   12206    12170    12185    12228    12248    12247    12229    12188 
   12172    12212    12247    12226    12198    12213    12239    12239 
   12213    12183    12185    12231    12266    12248    12202    12172 
   12178    12214    12248    12258    12239    12209    12198    12208 
   12201    12179    12201    12262    12289    12249    12186    12152 
   12175    12225    12256    12249    12217    12195    12202    12225 
   12243    12240    12210    12179    12175    12204    12243    12258 
   12243    12212    12190    12201    12221    12226    12229    12231 
   12206    12186    12213    12241    12221    12201    12213    12235 
   12245    12247    12216    12147    12112    12177    12297    12357 
   12299    12178    12091    12094    12188    12299    12339    12299 
   12221    12139    12104    12148    12231    12286    12289    12247 
   12191    12167    12181    12210    12245    12263    12241    12204 
   12175    12168    12182    12221    12275    12287    12231    12167 
   12168    12206    12224    12229    12229    12224    12213    12198 
   12198    12212    12224    12243    12245    12217    12198    12198 
   12170    12164    12243    12313    12289    12209    12144    12129 
   12179    12268    12316    12266    12179    12141    12158    12210 
   12275    12291    12243    12194    12170    12152    12174    12253 
   12306    12275    12204    12148    12150    12216    12271    12264 
   12231    12198    12181    12190    12214    12224    12235    12239 
   12221    12218    12233    12221    12175    12155    12195    12262 
   12297    12272    12198    12145    12164    12214    12245    12254 
   12240    12202    12177    12191    12236    12268    12247    12198 
   12181    12186    12205    12237    12251    12233    12218    12212 
   12190    12186    12221    12245    12218    12202    12228    12231 
   12202    12191    12202    12209    12233    12271    12256    12183 
   12133    12148    12214    12299    12337    12275    12151    12075 
   12112    12226    12328    12340    12262    12155    12091    12129 
   12249    12332    12314    12229    12136    12098    12159    12266 
   12313    12285    12228    12167    12143    12193    12256    12249 
   12206    12194    12213    12248    12264    12220    12164    12177 
   12217    12221    12218    12243    12266    12245    12187    12145 
   12171    12243    12286    12275    12224    12162    12143    12197 
   12267    12271    12229    12205    12193    12193    12235    12256 
   12198    12147    12187    12266    12297    12264    12195    12145 
   12155    12204    12239    12254    12254    12228    12190    12186 
   12216    12225    12217    12221    12216    12194    12213    12252 
   12253    12214    12168    12164    12221    12274    12266    12213 
   12171    12182    12233    12259    12239    12198    12167    12182 
   12243    12272    12240    12191    12174    12191    12208    12228 
   12253    12259    12244    12210    12155    12140    12198    12260 
   12264    12244    12221    12201    12204    12214    12206    12187 
   12194    12244    12279    12244    12190    12168    12170    12201 
   12254    12280    12252    12208    12187    12182    12191    12216 
   12221    12218    12237    12243    12208    12188    12205    12214 
   12217    12231    12233    12217    12197    12202    12229    12235 
   12225    12209    12187    12181    12201    12248    12276    12241 
   12197    12182    12186    12212    12240    12237    12218    12206 
   12214    12231    12218    12190    12193    12212    12229    12247 
   12225    12195    12214    12229    12201    12187    12212    12237 
   12252    12251    12212    12155    12152    12221    12290    12285 
   12217    12158    12158    12208    12248    12241    12206    12194 
   12217    12229    12221    12218    12208    12191    12204    12231 
   12235    12221    12228    12240    12218    12178    12166    12188 
   12221    12253    12276    12258    12198    12162    12174    12209 
   12251    12271    12226    12159    12166    12233    12268    12247 
   12209    12183    12175    12183    12233    12286    12260    12204 
   12190    12183    12182    12221    12263    12254    12210    12168 
   12172    12205    12252    12297    12263    12158    12127    12182 
   12239    12282    12279    12212    12167    12186    12216    12217 
   12206    12216    12244    12264    12252    12198    12143    12143 
   12198    12264    12302    12290    12224    12155    12129    12158 
   12220    12276    12310    12302    12225    12122    12085    12144 
   12240    12309    12329    12291    12205    12125    12101    12144 
   12244    12337    12344    12248    12135    12094    12136    12221 
   12305    12317    12248    12175    12155    12181    12221    12244 
   12244    12235    12216    12204    12202    12183    12182    12235 
   12275    12252    12218    12206    12181    12158    12185    12236 
   12270    12279    12249    12183    12143    12159    12204    12256 
   12299    12286    12205    12133    12129    12172    12244    12316 
   12313    12218    12131    12122    12175    12240    12297    12313 
   12252    12155    12101    12114    12204    12328    12380    12297 
   12154    12074    12089    12175    12293    12370    12336    12212 
   12098    12069    12135    12260    12344    12318    12229    12167 
   12150    12155    12181    12226    12272    12297    12282    12208 
   12124    12109    12182    12268    12291    12263    12233    12204 
   12179    12183    12205    12208    12204    12233    12278    12271 
   12221    12172    12132    12155    12247    12299    12271    12218 
   12175    12159    12195    12248    12251    12217    12206    12221 
   12228    12213    12202    12194    12186    12221    12289    12283 
   12208    12151    12145    12175    12231    12286    12297    12247 
   12186    12162    12160    12179    12226    12276    12293    12259 
   12190    12133    12129    12179    12256    12320    12313    12225 
   12139    12112    12151    12245    12313    12289    12229    12187 
   12155    12163    12220    12267    12254    12218    12195    12195 
   12221    12251    12231    12170    12150    12198    12271    12306 
   12285    12204    12110    12098    12193    12295    12333    12301 
   12210    12121    12112    12178    12244    12271    12276    12270 
   12226    12158    12118    12158    12248    12309    12303    12240 
   12158    12135    12194    12245    12236    12204    12182    12205 
   12266    12295    12260    12187    12112    12089    12171    12316 
   12411    12359    12170    12001    12008    12174    12356    12434 
   12379    12241    12093    12001    12023    12163    12355    12468 
   12409    12229    12055    11988    12064    12224    12360    12401 
   12320    12179    12098    12129    12206    12240    12231    12221 
   12231    12256    12258    12218    12174    12141    12143    12217 
   12309    12313    12253    12208    12166    12129    12141    12216 
   12305    12330    12283    12229    12193    12175    12190    12248 
   12336    12422    12468    12402    12122    11746    11615    11853 
   12218    12425    12437    12501    12617    12387    11828    11688 
   12208    12487    12210    12112    12240    12266    12275    12216 
   12082    12070    12182    12055    11766    12117    12895    13024 
   12556    12303    12322    12000    11551    11739    12248    12384 
   12393    12561    12380    11878    11691    11998    12403    12112 
   11797    12426    12733    12413    12401    12240    12083    12451 
   12656    12241    11719    11762    11975    12174    12552    12239 
   11977    12800    12819    11716    11728    12438    12046    11558 
   12347    12973    12537    12363    12515    12114    11534    11819 
   12472    11892    11492    12630    13308    12934    12036    11160 
   11815    12808    12372    11971    12210    11969    11657    12101 
   12749    13100    12930    12083    11658    11965    11736    11338 
   11870    12950    13470    12822    12015    11685    11493    11732 
   12000    12376    13204    12985    11820    11523    12213    12676 
   12188    11635    11719    12112    12857    12908    11939    12179 
   13242    12877    11715    11202    11443    11745    12005    12694 
   13123    12704    12004    11695    11951    12210    12191    12376 
   12822    12505    11564    11704    12532    12756    12664    12091 
   11184    11403    12455    12754    12696    12788    12236    11610 
   11907    12367    12305    12129    11855    11499    12163    13559 
   13298    11531    11273    12606    12810    11859    11650    12272 
   12636    12417    12174    11850    11627    12303    12779    12505 
   12528    12025    11168    11877    13115    13084    12332    11693 
   11578    12046    12722    12846    11940    11581    12321    12209 
   11767    12518    12993    12221    11792    12259    12221    11776 
   12129    12571    12596    12754    12194    11191    11458    12314 
   12652    12775    12382    11720    12002    12600    12457    12395 
   12567    12283    12016    11996    11916    11896    12019    12295 
   12306    11940    12025    12240    12204    12771    13274    12546 
   11549    11411    11696    12056    12826    13117    12294    11890 
   12314    12221    11820    11836    11937    12237    12723    12604 
   12016    11958    12484    12439    11618    11574    12465    12526 
   12198    12733    12866    12187    11888    12052    12313    12403 
   12236    11834    11395    11931    12837    12395    11870    12492 
   12799    12359    12046    12059    12249    12182    11681    11821 
   12783    12911    12125    11896    12287    12553    12507    12093 
   11511    11627    12293    12437    12349    12345    12158    12345 
   12561    11962    11624    12197    12388    12042    12396    12985 
   12583    12093    12233    11994    11713    12108    12231    11967 
   12210    12636    12413    12074    12024    11569    11792    13211 
   13263    12044    11831    11952    11693    12225    13046    12542 
   11920    12371    12285    11780    12124    12055    11437    12201 
   13161    12183    11569    12717    12972    12194    11884    11496 
   11496    12602    13350    12665    11819    12019    12127    11803 
   12405    12834    12005    11955    12592    11977    11481    12260 
   12576    12136    12294    12532    11917    11809    12596    12478 
   11985    12413    12283    11568    12334    13466    12669    11395 
   11449    11924    12155    12436    12853    13001    12151    11290 
   11772    12313    12062    12168    12731    12879    12305    11623 
   11527    11928    12591    12779    12388    12625    12637    11554 
   11481    12417    12314    11854    12152    12533    12356    12067 
   12375    12540    11904    11871    12511    12303    12170    12563 
   12077    11770    12321    12198    11797    12136    12695    12641 
   12310    12627    12455    11369    11597    12565    12428    12417 
   12361    11392    11541    12642    12627    12117    12179    12671 
   12741    12056    11819    12143    12382    12713    12444    11685 
   11672    11704    11523    12439    13495    12839    11542    11326 
   11946    12433    12461    12368    12244    12108    11979    11674 
   11884    12649    12876    12881    13127    13004    12552    12309 
   12464    12525    11963    11485    11361    10976    10951    11515 
   11778    12217    13234    13536    12796    12017    11877    12673 
   13089    12330    12341    12621    11638    11696    12927    12386 
   11119    11593    12160    11371    11472    12806    13009    12163 
   11803    12125    12019    11805    13095    13767    12502    12479 
   13216    12297    11439    11546    11298    11302    12610    13080 
   11294    10885    12939    13563    12783    12745    12210    10655 
   10370    12066    13421    13494    13327    12640    11487    11711 
   12951    12421    11176    12191    13227    12290    11973    12295 
   11026    10027    11585    13446    13365    12600    12463    12071 
   11473    11823    12128    12452    13664    13514    11708    10828 
   11149    12017    13396    13659    11762    10467    11794    13555 
   13284    11939    12141    12926    11977    11094    11792    12703 
   12779    12062    11561    11383    11389    12166    12552    12629 
   13404    12901    11514    12020    13230    12924    11854    11793 
   12439    12077    11014    11101    12581    13270    12178    11276 
   11542    12502    13192    12614    12021    12188    12301    12603 
   12775    12363    12143    11871    11353    11866    12976    12855 
   12330    12503    12209    11434    11209    11526    12171    13158 
   13824    12898    11512    11492    11584    11354    12036    13132 
   13080    11677    11310    12737    13086    11819    11518    12590 
   12816    11894    11615    11840    12380    13648    13514    11449 
   10370    11353    12727    13089    12874    12584    12043    12179 
   12231    10845    11237    14115    14536    12100    10879    11704 
   12016    10990    10994    12294    13008    12981    12723    12868 
   12792    11487    10928    12249    13242    12487    11573    12274 
   13150    12054    10471    11422    13413    12876    11742    12480 
   13051    12739    12332    11757    11573    12021    12429    12324 
   11998    11813    11716    11943    12533    13104    12784    11379 
   11419    13425    13565    11406    10580    11534    12220    12783 
   13508    12796    11628    12268    12745    11850    11881    12267 
   11507    11433    12482    12873    12345    11475    11558    13286 
   13802    11889    10708    11600    12973    13215    12260    11969 
   12779    13312    13063    11735    10084     9910    11391    13354 
   13878    12707    12144    12216    11762    11988    12677    11908 
   10912    12114    14068    13699    11871    11838    12749    11971 
   11190    11790    12367    12773    12452    11302    11415    12553 
   12779    11870    11362    12600    13416    11958    11267    12822 
   13505    12348    11464    11462    12152    13296    13092    11720 
   11696    12175    11217    10563    12188    14161    13737    12314 
   12017    11739    11362    12101    12825    12710    12660    12162 
   11029    11086    12297    13062    12981    12575    12270    11574 
   11298    12415    12901    12148    12002    12675    12942    12128 
   11345    11479    11674    11830    12540    13554    13497    11904 
   11132    11638    12019    13208    13839    12073    11041    11682 
   11731    12021    13109    12927    11392    10956    12302    13536 
   13462    12532    11369    10490    10831    12406    13564    13537 
   12546    11078    11136    12937    13524    11966    10953    12193 
   13429    12776    11767    11481    11573    12050    12858    13567 
   13136    11404    10342    11241    12892    13451    12646    11796 
   11668    11850    12337    12835    12417    11716    11682    12194 
   12870    12845    12471    12505    11637    10570    12020    14023 
   13119    11468    11753    12187    12155    12657    12198    11213 
   11980    12725    12000    11954    12739    12667    12314    12540 
   12411    11803    11811    12380    12560    12291    12198    11780 
   10867    11577    13601    13533    11828    11643    12451    12289 
   12132    12626    12301    11506    11728    12584    12829    12241 
   11874    12019    12213    12609    12602    12040    11969    12197 
   12116    12218    12826    12849    11689    11032    11674    12307 
   12629    12779    12249    11646    11719    12056    12486    12976 
   12820    12160    12067    12287    12185    12218    12089    11550 
   11789    12660    12877    12363    11898    12031    12120    11762 
   11827    12411    12997    13059    12040    11183    11897    12839 
   12831    12802    12830    12133    11152    10920    11902    12980 
   12825    12415    12253    11356    10936    12102    12762    12390 
   13144    13770    12148    11059    12025    12359    11745    11824 
   12398    12776    12652    12097    11796    12027    12307    12086 
   11657    12193    13250    12872    11786    11878    11961    11446 
   12330    13767    13220    11750    11280    11427    11692    12376 
   13095    13015    12301    11851    11914    11709    11241    11696 
   12907    13668    13375    12050    11041    11269    11682    12071 
   13046    13690    13177    12044    11225    11303    11774    12186 
   12854    12977    12012    11529    12046    12254    11912    12112 
   13068    13054    11700    11173    12037    12811    12625    12017 
   11885    12075    12383    12725    12587    12447    12614    12124 
   11179    11165    12120    12873    12939    12598    12106    11762 
   11701    11788    12079    12565    12837    12649    12073    11577 
   11855    12521    12837    12862    12552    11877    11264    11403 
   12472    13146    12669    12452    12734    11796    10408    10943 
   12534    13243    13278    13014    12064    10984    11227    12425 
   12996    13005    12727    12214    12096    11985    11508    11502 
   12147    12652    12439    11919    12051    12544    12521    12322 
   12256    12181    12322    12287    11723    11659    12464    12792 
   12239    11755    11769    12275    12893    12854    12243    12010 
   12233    11904    11465    12122    12873    12567    11913    11796 
   12401    12784    12155    11770    12282    12428    12116    12105 
   12116    12124    12449    12719    12457    11778    11637    12345 
   12630    12259    12239    12328    12136    12112    12239    12245 
   12152    11993    11901    12181    12592    12213    11661    12445 
   13188    12429    11877    12028    11732    11946    12938    12708 
   11743    12016    12433    11861    11645    12245    12695    12694 
   12340    11704    11468    11911    12373    12723    12849    12576 
   12511    12371    11615    11192    11769    12692    12935    12455 
   12272    12293    11880    11807    12384    12715    12498    12044 
   11743    11858    12170    12353    12268    12155    12491    12831 
   12399    11757    11840    12216    12093    11988    12318    12329 
   12141    12511    12727    12087    11491    11805    12609    12933 
   12418    11784    11723    11838    11947    12514    13066    12910 
   12218    11488    11479    12164    12596    12613    12514    12321 
   12117    12040    12052    11853    11643    12105    12877    12921 
   12221    11665    11866    12491    12775    12580    12236    11826 
   11564    11896    12590    12629    11859    11719    12537    12752 
   12183    11969    12109    12133    12220    12428    12425    12274 
   12178    12244    12503    12414    11912    11747    12037    12325 
