Origin Time       2018/04/09 06:38:00
Lat.              35.2
Long.             132.6
Depth. (km)       10
Mag.              3.8
Station Code      SMN009
Station Lat.      35.0112
Station Long.     132.2227
Station Height(m) 20
Record Time       2018/04/09 06:39:00
Sampling Freq(Hz) 100Hz
Duration Time(s)  60
Dir.              E-W
Scale Factor      7845(gal)/8223790
Max. Acc. (gal)   5.430
Last Correction   2018/04/09 06:39:00
Memo.             
[...]
   12301    12333    12376    12410    12406    12371    12341    12352 
   12379    12372    12352    12347    12343    12348    12363    12368 
   12379    12413    12411    12353    12317    12333    12360    12376 
   12376    12344    12320    12353    12414    12436    12406    12361 
   12326    12306    12322    12373    12406    12394    12351    12312 
   12325    12380    12429    12447    12406    12322    12270    12297 
   12373    12438    12445    12394    12326    12286    12287    12328 
   12405    12468    12453    12382    12329    12314    12313    12348 
   12393    12370    12329    12357    12391    12382    12384    12394 
   12375    12349    12340    12337    12347    12375    12383    12367 
   12371    12391    12373    12337    12328    12330    12353    12413 
   12442    12393    12325    12301    12312    12343    12399    12448 
   12438    12368    12310    12294    12307    12351    12409    12422 
   12378    12351    12379    12391    12333    12276    12309    12388 
   12448    12468    12405    12280    12235    12318    12417    12434 
   12405    12370    12321    12314    12371    12399    12367    12347 
   12359    12347    12348    12409    12438    12378    12306    12286 
   12324    12395    12460    12457    12361    12252    12248    12343 
   12418    12428    12406    12363    12314    12333    12403    12428 
   12395    12356    12322    12316    12357    12386    12356    12333 
   12363    12396    12410    12409    12372    12314    12286    12306 
   12363    12418    12445    12426    12341    12263    12305    12415 
   12445    12391    12351    12329    12314    12347    12406    12417 
   12379    12343    12312    12301    12359    12426    12406    12361 
   12372    12395    12371    12322    12305    12337    12383    12401 
   12387    12361    12341    12349    12383    12402    12393    12363 
   12325    12307    12340    12401    12421    12390    12372    12363 
   12316    12295    12353    12409    12396    12373    12380    12373 
   12352    12359    12353    12317    12330    12418    12475    12429 
   12337    12272    12253    12302    12388    12445    12461    12444 
   12360    12267    12287    12388    12433    12396    12341    12301 
   12302    12356    12424    12438    12383    12318    12301    12334 
   12401    12445    12426    12370    12328    12313    12302    12317 
   12376    12414    12390    12363    12366    12375    12380    12363 
   12337    12340    12372    12394    12386    12367    12356    12334 
   12310    12329    12383    12414    12418    12422    12391    12314 
   12276    12325    12384    12390    12370    12361    12359    12359 
   12370    12383    12396    12394    12348    12306    12322    12373 
   12413    12413    12363    12309    12297    12334    12406    12456 
   12414    12329    12301    12326    12375    12424    12406    12341 
   12320    12341    12370    12405    12422    12378    12301    12276 
   12337    12426    12445    12395    12357    12326    12309    12356 
   12414    12403    12355    12333    12344    12368    12382    12370 
   12353    12352    12363    12390    12401    12380    12343    12317 
   12328    12355    12359    12356    12390    12442    12455    12393 
   12293    12244    12279    12367    12460    12474    12376    12286 
   12290    12343    12390    12418    12395    12334    12332    12402 
   12437    12378    12306    12297    12325    12361    12403    12409 
   12382    12382    12394    12361    12312    12307    12347    12394 
   12429    12434    12372    12283    12278    12349    12398    12410 
   12406    12356    12306    12348    12399    12368    12344    12375 
   12394    12387    12379    12370    12341    12322    12337    12359 
   12366    12388    12428    12406    12339    12324    12330    12307 
   12344    12436    12438    12363    12332    12341    12340    12359 
   12394    12382    12339    12341    12393    12422    12395    12344 
   12301    12295    12347    12421    12456    12425    12357    12299 
   12274    12289    12352    12428    12459    12442    12388    12297 
   12236    12287    12410    12478    12452    12380    12309    12276 
   12306    12368    12413    12429    12428    12378    12283    12243 
   12316    12420    12463    12437    12375    12316    12312    12359 
   12390    12363    12337    12363    12398    12396    12387    12366 
   12321    12297    12328    12380    12429    12460    12411    12290 
   12214    12287    12442    12525    12465    12328    12231    12268 
   12379    12436    12409    12361    12345    12349    12351    12370 
   12403    12399    12351    12312    12325    12368    12401    12403 
   12376    12334    12329    12372    12399    12375    12336    12324 
   12343    12384    12415    12406    12368    12344    12341    12328 
   12321    12347    12386    12426    12441    12394    12317    12293 
   12324    12359    12390    12417    12413    12383    12340    12290 
   12279    12349    12444    12461    12399    12344    12325    12332 
   12359    12379    12351    12328    12372    12429    12411    12341 
   12297    12312    12379    12455    12441    12325    12247    12317 
   12442    12472    12394    12290    12241    12297    12424    12490 
   12426    12332    12303    12339    12384    12399    12384    12355 
   12333    12361    12390    12361    12334    12352    12363    12349 
   12367    12409    12413    12378    12347    12314    12299    12359 
   12439    12429    12375    12366    12348    12314    12324    12360 
   12383    12405    12420    12383    12313    12283    12328    12386 
   12418    12444    12421    12321    12263    12316    12372    12378 
   12409    12461    12422    12318    12274    12286    12309    12380 
   12474    12471    12378    12312    12295    12295    12340    12428 
   12467    12420    12351    12297    12267    12309    12406    12452 
   12424    12383    12345    12305    12318    12406    12441    12345 
   12267    12312    12388    12417    12429    12429    12367    12291 
   12295    12353    12372    12367    12406    12428    12361    12299 
   12320    12360    12379    12415    12445    12384    12276    12252 
   12328    12426    12491    12456    12324    12236    12299    12429 
   12464    12371    12262    12247    12349    12469    12472    12383 
   12347    12375    12387    12375    12347    12268    12204    12280 
   12464    12577    12555    12428    12231    12116    12221    12434 
   12542    12487    12352    12253    12260    12361    12461    12457 
   12375    12324    12318    12313    12328    12359    12359    12373 
   12449    12482    12383    12267    12290    12409    12467    12403 
   12263    12160    12212    12386    12548    12587    12478    12309 
   12195    12187    12231    12264    12313    12418    12529    12553 
   12438    12268    12206    12262    12370    12536    12664    12598 
   12386    12231    12118    12048    12303    12642    12568    12326 
   12285    12426    12553    12414    12102    12096    12550    12854 
   12544    12091    12094    12476    12583    12159    11896    12175 
   12471    12471    12505    12563    12391    12186    12120    12285 
   12441    12478    12978    13281    12550    11850    11712    11801 
   11947    11858    12114    12981    13579    13311    12297    11619 
   11812    12270    12488    12128    11943    12800    13319    12334 
   11435    12008    12571    12125    12195    12581    12233    12583 
   13536    13122    11927    11708    12105    12042    12112    12424 
   12133    12388    13367    12985    12019    12195    12275    11677 
   11591    11902    12426    13657    13948    12660    12136    12051 
   11497    11977    12293    11218    11187    12970    13927    12858 
   12059    12569    12868    12664    12139    11410    11715    13163 
   13740    12771    12185    12306    11950    11832    11564    10474 
   11422    14145    14484    12884    11947    11704    11580    11688 
   12348    12776    12645    13058    13432    12806    12010    11608 
   11747    12484    12685    11772    11541    12860    13852    13555 
   12376    10930    10990    12476    12820    11907    11765    12676 
   13309    12864    12008    12263    13336    12910    11276    10914 
   11913    12949    13409    13288    12915    12548    12251    11777 
   11306    11411    11727    12105    12861    13153    12744    12761 
   13023    12420    11330    11076    12021    13258    13670    12961 
   12064    12125    12610    12619    12529    12244    11880    12082 
   11966    11491    11855    12418    12555    12960    13225    12422 
   11674    12316    12970    12676    12421    11973    11634    12538 
   13131    12474    12289    12873    13003    12530    11809    11098 
   11211    12093    12694    13092    13371    13032    12437    11603 
   10685    10849    11961    13208    14177    14177    13396    12448 
   11684    11554    11669    11591    11854    12713    13313    12989 
   12417    12187    12185    12055    11404    11167    12236    13147 
   13103    13194    13184    12428    11703    11587    11971    12665 
   13108    12962    12587    12129    11935    12274    12396    12297 
   12274    11881    11597    11881    12108    12181    12691    13494 
   13482    12488    11911    11996    12117    12576    12958    12685 
   12456    12368    11713    11110    11670    12717    13113    13053 
   12896    12617    12464    12302    11745    11461    11823    12170 
   12410    12789    12989    12730    12560    12604    12074    11663 
   12143    12249    12456    13779    13672    11961    11778    12291 
   11701    11364    11913    12337    12583    12853    12245    11688 
   12680    13000    11866    12089    13267    13269    12969    12898 
   11950    11200    12042    12538    12010    12368    12880    12390 
   12188    12218    11792    11979    12579    12303    12052    12444 
   12398    12467    13209    13286    12594    12144    12135    12275 
   12183    12023    12046    12089    12486    12958    12591    12128 
   12303    12413    12336    12302    11931    11696    12409    12864 
   12279    12484    13362    12762    11723    12032    12537    12334 
   12243    12383    12303    12656    13158    12217    11225    12046 
   12696    12352    12502    12540    11970    12056    12591    12507 
   12398    12752    12517    11861    12043    12360    12266    12711 
   13151    12730    12201    12122    12291    12496    12583    12195 
   11622    11784    12245    12325    12696    13201    12799    12132 
   12164    12073    11668    12110    13096    13186    12279    11857 
   12619    13211    12696    11770    11455    12093    12425    11824 
   12046    12951    12515    12002    12753    12799    12243    12841 
   13227    12434    12032    12006    11535    11817    12949    12995 
   12062    11689    11977    12517    13123    13203    12568    12101 
   12009    11711    11843    12595    12704    12388    12842    13296 
   12625    11729    11628    12305    13563    14442    14069    13365 
   12964    12001    10836    10471    10115     9477     9925    11202 
   11422    11244    12954    15187    14611    12077    11026    11956 
   13181    13693    13279    13274    14508    14493    12343    11365 
   12677    13548    12934    12371    11935    11003    10791    11395 
   11412    11294    11736    11785    11311    11516    12154    12528 
   13440    14192    13261    12070    12062    12781    13976    14512 
   13667    13468    14338    13879    12129    10798     9408     8151 
    8626     9539     9711    11168    13647    14550    14067    13710 
   13883    14305    14176    13837    14330    14199    12152    10566 
   10980    11626    11495    10883    10427    11230    12260    12571 
   13621    14426    13477    12459    12252    12306    12621    13099 
   12984    11735    10623    11152    12005    11591    11677    12957 
   13035    12594    13524    14423    14200    12776    10755    10323 
   11776    12656    11508    10222    10689    11596    11531    11196 
   12401    15016    16364    16221    15205    12989    12417    13640 
   12571    10327     9570     9315     9927    11686    12178    11259 
   11600    12841    12174    10638    11618    14226    14971    13905 
   13281    13300    13440    13679    13238    11969    11149    11352 
   12272    13197    12553    10809    10797    12297    12611    11894 
   12258    13613    13564    11353     9769    10902    12496    11970 
   11206    12807    14882    14308    12363    12329    13675    13986 
   13377    12798    12112    11484    11367    11468    11457    11276 
   10874    10920    12037    12880    11993    11379    13235    15152 
   14330    12353    12048    13328    13798    12661    11929    12525 
   12984    12009     9923     9609    12185    13440    12104    12098 
   13895    13652    10635     9810    12237    13308    13533    14679 
   13936    11014     9409    11203    14026    14575    14400    14647 
   13046    11466    12218    11206     7939     8460    12406    13608 
   11596    10411    11099    12403    13798    14598    14997    15959 
   15394    12445    11608    12753    10590     7939    10701    14396 
   12355     8850    10667    14535    14975    13406    12415    12761 
   13971    13683    12067    10901     9973    10700    12706    11978 
   10319    11537    12341    10543    10230    13680    17548    18057 
   16013    14126    13321    12930    10955     8577    10027    13041 
   12333     9883     9474    10187    10422    10604    11939    14022 
   14342    13016    13351    15299    15673    14366    13636    13212 
   12121    11557    11485    10339     8868     9552    12647    14574 
   12603     9529     9675    12621    14467    13853    12764    12359 
   12478    13413    14656    14562    12822    10735    10119    11317 
   11912    11754    12907    13641    12247    11265    12424    13591 
   12904    11907    12056    12592    12534    11796    11809    12885 
   12573    10631    10508    13529    15965    14318    11024    10854 
   12969    13329    12345    12482    13609    13771    11769     9616 
    8991     8515     9128    12580    15101    13853    13030    15083 
   15822    13394    11790    12614    13116    12226    11688    12295 
   11757     9543    10034    13722    15447    13817    11232     9680 
   10230    12050    13841    14994    14315    11637     9814    10982 
   12326    11233    11047    13996    15526    13126    11480    13053 
   13738    12174    12164    13581    12793    10897    10783    11686 
   12509    12637    11529    11226    12396    12771    12495    12644 
   12204    11191    11306    12448    12997    13643    15079    14080 
   10755    11052    14397    14570    12231    10894    10547    11554 
   13129    12808    11846    11908    10996     9454    10586    13258 
   14008    13595    13579    13296    12991    13197    13146    12463 
   11699    11751    12517    12280    11011    11020    12625    13513 
   12409    10940    11129    12347    13096    13220    12941    12684 
   12667    12684    13122    13535    12587    11088    11034    12402 
   13189    12179    11299    12320    13138    12263    11878    12469 
   11975    11294    12197    13154    13093    12962    12898    12436 
   11739    11577    12147    12451    12351    12852    13186    12187 
   11716    12826    12860    11214    11221    13356    13763    11789 
   11053    12330    13355    13248    12567    12226    12259    11442 
   10377    10859    12055    12649    13196    13953    14269    13748 
   12735    12046    12302    12906    12583    11784    11425    11232 
   11600    12464    12376    11553    11373    11686    11751    11753 
   12511    14214    14921    13182    11808    12842    13240    11911 
   11800    12954    13030    12105    11754    12208    12384    11750 
   11090    11291    12033    12359    12179    12356    13049    13193 
   12581    12359    12960    13527    13026    11793    11508    12341 
   12711    12654    12827    12326    11659    11927    11844    11276 
   11584    12118    12170    12484    13066    13204    12775    12248 
   12768    14004    13319    11446    11734    12672    11940    11722 
   12776    13066    12521    11897    11226    11113    11435    11385 
   11988    13829    14238    12483    11911    12532    11983    12040 
   13716    14187    13084    12900    13446    12283    10216     9891 
   10874    11881    12406    12158    12463    13406    13473    13177 
   12898    12312    11967    11651    11461    12231    13127    13189 
   12866    12275    11461    11504    12453    12541    11701    12181 
   13726    13590    12333    12579    13544    13323    12015    10558 
   10422    11766    12586    12204    11932    12220    12143    11893 
   12555    12999    12567    13396    15003    14388    12148    11048 
   11250    11330    11246    11893    13036    13482    12762    11622 
   11062    11391    12143    12721    12888    12567    12040    12220 
   12982    13088    12725    12935    13254    12654    11556    11529 
   12938    13815    12914    11689    11211    10890    10831    11454 
   12380    13192    13198    12444    12301    12827    12881    12263 
   11939    12756    13528    13247    13196    13182    11961    10945 
   11259    11576    11480    11765    12445    13182    13354    12291 
   10908    10947    12403    13637    14092    14295    13498    11557 
   10557    11138    12224    13495    13903    12442    11128    11821 
   12482    11801    11986    12857    12471    12312    13151    12796 
   11338    10944    11662    12361    12788    12892    13023    13378 
   12947    11875    11827    12653    12568    11654    12091    13537 
   13413    12571    12475    11788    10868    11148    12004    12418 
   12029    11699    12459    13242    12984    12576    12769    13049 
   12883    12864    13258    12981    12004    11349    11036    11043 
   11766    12760    13078    12656    12488    12804    12521    11709 
   11630    12426    13132    12815    11974    12225    13157    13054 
   12271    11807    11421    11260    11862    12843    13521    13498 
   12885    12444    12425    12082    11317    11267    12097    12668 
   12791    12713    12125    11637    12194    13246    13537    12831 
   12120    11881    11729    11902    12410    12606    12602    12647 
   12668    12663    12297    11867    11963    11962    11962    12833 
   13585    13009    12069    12019    12155    11576    11083    11488 
   12665    13770    13379    12046    11859    12498    12501    12371 
   12781    13082    12827    12383    12263    12270    11946    11853 
   12175    11904    11288    11535    12456    13147    13089    12406 
   12137    12862    13679    13444    12401    12094    12795    12645 
   11358    11016    11830    11997    11727    12264    12668    12155 
   11847    12356    13193    13448    12934    12795    13047    12329 
   11169    11433    12708    13227    12879    12505    12291    12101 
   11924    11819    12037    12502    12452    11980    11966    12118 
   11986    12329    13225    13343    12510    11897    11653    11620 
