Origin Time       2018/04/09 06:38:00
Lat.              35.2
Long.             132.6
Depth. (km)       10
Mag.              3.8
Station Code      OKY001
Station Lat.      35.1702
Station Long.     133.7311
Station Height(m) 316
Record Time       2018/04/09 06:39:07
Sampling Freq(Hz) 100Hz
Duration Time(s)  65
Dir.              E-W
Scale Factor      7845(gal)/8223790
Max. Acc. (gal)   2.388
Last Correction   2018/04/09 06:39:07
Memo.             
[...]
   -1205     -949     -672     -352        9      351      702     1035 
    1220     1242     1193     1155     1119      994      724      334 
     -41     -292     -514     -846    -1156    -1185     -920     -576 
    -361     -236        5      383      700      912     1071     1156 
    1128      957      688      513      451      292      -43     -386 
    -565     -607     -622     -656     -687     -614     -387     -121 
      99      271      386      549      849     1094     1104     1057 
    1102      990      583      136     -166     -390     -566     -676 
    -753     -816     -784     -619     -414     -221      -32      180 
     479      805     1071     1285     1385     1317     1123      756 
     295      -14     -171     -311     -476     -615     -668     -738 
    -907     -990     -869     -630     -297      156      672     1135 
    1451     1611     1668     1553     1179      666      210      -98 
    -287     -481     -737     -985    -1150    -1196    -1085     -789 
    -376       22      369      730     1131     1426     1498     1422 
    1282     1089      819      425      -13     -351     -565     -726 
    -934    -1140    -1161     -997     -760     -425      -20      406 
     857     1194     1281     1256     1251     1162      928      641 
     360       91     -144     -360     -615     -845     -901     -842 
    -796     -664     -365      -59      174      422      696      939 
    1098     1123     1070     1019      901      664      364       40 
    -295     -577     -733     -822     -895     -838     -621     -363 
     -97      221      506      683      849     1031     1100     1015 
     855      676      475      229      -55     -305     -475     -594 
    -654     -603     -460     -307     -163       10      189      324 
     442      550      626      684      691      634      585      530 
     365      144       -2     -103     -230     -324     -356     -394 
    -405     -298     -120       21      139      299      500      635 
     627      548      490      445      383      310      229      128 
      -2     -124     -211     -283     -326     -295     -183      -45 
      78      210      342      417      434      456      483      480 
     487      498      402      205       31      -89     -198     -309 
    -390     -361     -221      -56       49       79      128      255 
     373      448      529      610      649      612      496      332 
     157        2     -156     -306     -333     -251     -183     -149 
     -91        1       52       52      171      387      495      553 
     649      629      453      248       72      -63     -136     -125 
     -59       -5       -1       -9       13       58      108      157 
     178      151      159      268      380      382      319      274 
     207       99       29       14      -11       -5       90      180 
     180      148      137      105       31        4       54      116 
     202      313      383      402      392      313      151       -8 
    -124     -184     -152      -40       93      171      144       81 
      60       91      163      246      311      411      546      548 
     407      297      190       16     -120     -159     -143     -122 
    -117     -110      -97      -74      -35       28      159      340 
     475      572      645      621      523      430      311      183 
     101        5     -136     -263     -352     -406     -409     -340 
    -201      -32      141      342      558      696      702      631 
     561      502      421      324      238      124       -9      -89 
    -156     -253     -298     -287     -284     -248     -131        9 
     106      210      379      531      612      652      634      558 
     448      311      189       82      -27     -129     -225     -266 
    -233     -211     -189     -101      -25       31      143      238 
     295      409      531      562      564      576      522      386 
     203       17      -71      -91     -166     -225     -211     -201 
    -189     -135      -51       44      147      286      442      521 
     519      514      510      442      309      178      118       87 
       8     -105     -198     -218     -125      -32      -54      -81 
     -28       55      191      369      453      409      361      382 
     425      405      292      203      174      108        8      -18 
      21       14      -63      -91      -28       27       23        9 
      21       82      186      266      280      278      302      332 
     344      317      257      236      225      159      116      103 
       5     -114     -125      -93      -81      -40       14       70 
     137      191      252      332      375      387      398      367 
     297      229      193      162      103       74       94       97 
      75       20      -99     -189     -164      -90       -5      116 
     271      383      391      328      282      270      266      288 
     315      274      147       28      -17      -36      -78     -109 
     -90      -20       93      189      218      228      259      286 
     268      222      171      124      129      212      289      288 
     228      147       63       16       39       85      105       95 
      78       81       93       51      -44      -43      105      212 
     216      230      271      306      346      337      272      244 
     236      178      114       75       21      -43      -87     -110 
     -95      -40       35      122      198      246      292      337 
     394      430      370      288      263      211       79      -45 
     -95      -90      -56      -13        9       25       54       82 
     122      171      207      271      348      357      286      209 
     199      229      212      153      112      101      120      125 
      64      -37      -87      -41       21       37       58      143 
     270      340      306      259      253      249      245      233 
     187      160      170      162      118       56        5      -28 
     -72      -87      -22       95      209      275      287      284 
     265      211      178      194      183      110       65       97 
     129      129      118       89       58       91      160      178 
     164      178      211      221      203      144       25      -68 
     -21      121      201      182      144      162      245      307 
     274      199      139       94      117      210      246      152 
      39       32       90       91       37       -9      -35       -4 
     106      248      319      278      228      246      275      261 
     220      190      214      217      122       51       76       56 
     -40     -105     -110      -36       93      157      157      191 
     261      325      338      274      201      197      228      243 
     221      151       79       43       31       32       47       55 
      45       39       81      155      184      175      193      241 
     261      233      172      144      194      243      233      218 
     156       10      -97      -79       -9       52      103      151 
     198      216      180      147      153      184      244      314 
     333      279      238      238      167       35      -56     -102 
     -78        5       43       63      139      202      203      170 
     137      153      240      338      375      334      259      201 
     159      109       32      -55      -54       52      114       90 
      76       81       63       56       81      125      201      282 
     338      363      336      261      167       90       81      112 
     118       95       70       47       39       23       -8      -11 
      11       62      149      203      232      309      390      400 
     349      261      193      159      101       47       64      125 
     172      152       60       -1      -16      -40      -52      -51 
     -39       59      190      244      265      322      376      390 
     369      348      338      294      205      121       60       -4 
     -71     -133     -186     -194     -139      -56        2       62 
     197      325      337      337      406      480      526      483 
     349      263      210       85      -39     -125     -197     -195 
    -125      -81      -72      -47       27      117      164      225 
     324      383      448      553      572      477      360      199 
       0      -85      -75     -144     -228     -186      -95      -43 
     -28        5      112      249      355      394      383      425 
     480      409      263      141       47       14       40       52 
      62       99      125       89       -9      -99     -122      -71 
      72      225      292      346      414      388      248      101 
      74      167      252      253      189      102       59       54 
      23       -5       17       85      159      167       95       62 
      75       44       49      155      222      246      321      375 
     340      276      251      244      191      135      121       82 
      16      -21      -59     -105     -125      -78       59      176 
     174      153      198      237      263      340      405      383 
     353      346      283      176       85        2      -71     -109 
    -112      -97      -93     -103      -59       70      195      245 
     276      363      450      490      472      342      194      189 
     225      144       13      -44      -56     -102     -155     -152 
    -105      -13      129      243      232      157      214      392 
     467      409      355      332      311      249      141       47 
     -31     -121     -167     -135      -65        5       68      109 
     125      133      156      199      251      317      386      403 
     372      329      284      259      206       74      -43      -85 
    -120     -160     -156      -74       65      184      209      153 
     109      136      205      294      370      395      388      329 
     214      152      148      137      144      136       47      -49 
     -82      -67      -79     -136     -128        5      178      302 
     329      322      390      450      391      276      183      156 
     218      271      222       97      -20      -74      -90     -155 
    -233     -163       56      166       89       81      199      259 
     321      460      535      561      592      549      434      241 
     -60     -279     -234     -102     -126     -263     -307     -211 
    -116      -70       47      201      238      249      367      517 
     685      877      935      789      557      292      -90     -562 
    -895    -1011     -981     -722     -278       64      292      533 
     633      525      429      479      696      955      992      923 
     986      916      432     -238     -712     -896     -886     -727 
    -496     -276     -121     -133     -252     -332     -382     -243 
     261      885     1296     1409     1308     1246     1252     1048 
     561      -11     -441     -612     -665     -756     -826     -828 
    -850     -881     -841     -747     -476      178      982     1525 
    1705     1545     1208     1024     1024      963      826      639 
     153     -591    -1051    -1059     -996    -1123    -1370    -1381 
    -939     -318      276      838     1136     1102     1097     1363 
    1725     1831     1552     1112      774      438     -225    -1115 
   -1759    -2043    -1992    -1502     -897     -581     -359       45 
     589     1148     1502     1568     1505     1305      922      587 
     483      392      116     -218     -532     -777     -796     -745 
    -762     -517      109      658      737      464      328      544 
     776      706      369       41        5      163      194       70 
     -55      -43       78       32     -182     -218      -68       -5 
      81      318      321       22        9      363      579      476 
     175       -8      191      373      190       58      102       39 
     -31      -44     -159     -291     -174      233      592      649 
     506      289       62      -76      -68        4       23       58 
     211      395      514      510      220     -268     -503     -241 
     240      450      322      283      414      315      -63     -373 
    -399     -178      112      379      633      753      657      451 
     225      105      263      430      141     -378     -612     -492 
    -225     -109     -252     -319      -72      278      492      568 
     626      738      853      845      621      352      289      324 
     305      245      -43     -568     -934     -946     -637     -211 
     -62     -118       82      503      766      843      832      687 
     588      669      573       90     -419     -668     -741     -842 
   -1057    -1202    -1057     -572      156      897     1480     1878 
    1981     1794     1559     1336     1047      745      383     -168 
    -774    -1159    -1334    -1509    -1713    -1821    -1713    -1208 
    -344      479     1031     1424     1810     2157     2226     1903 
    1359      843      615      627      409     -151     -726    -1197 
   -1507    -1516    -1429    -1530    -1641    -1503    -1100     -406 
     461     1208     1803     2295     2556     2575     2354     1877 
    1398     1005      441     -315    -1057    -1651    -1996    -2191 
   -2361    -2266    -1773    -1081     -383      175      631     1219 
    1917     2403     2501     2378     2199     1934     1549     1000 
     263     -479    -1089    -1579    -1869    -1914    -1884    -1846 
   -1682    -1350     -830      -74      762     1447     1937     2224 
    2239     2001     1651     1278      868      491      212     -125 
    -499     -692     -885    -1282    -1579    -1532    -1251     -824 
    -427     -224       78      666     1173     1355     1325     1197 
    1121     1188     1213     1043      770      473      102     -278 
    -530     -804    -1206    -1443    -1383    -1216     -943     -542 
    -124      313      778     1173     1448     1632     1701     1571 
    1327     1092      818      502      216     -128     -592    -1125 
   -1599    -1809    -1783    -1729    -1575    -1148     -456      370 
    1121     1692     2126     2344     2319     2199     1930     1386 
     745      240     -203     -719    -1217    -1603    -1891    -1969 
   -1761    -1413    -1020     -549      -20      493      949     1355 
    1723     1975     2062     2068     1988     1624      943      178 
    -475     -943    -1236    -1416    -1557    -1649    -1586    -1347 
   -1011     -572        5      583     1013     1368     1701     1911 
    1906     1652     1323     1026      577       37     -329     -618 
    -950    -1235    -1381    -1320    -1116     -853     -415      174 
     672      999     1163     1159     1090      989      816      685 
     603      425      190      -70     -399     -627     -661     -643 
    -594     -473     -315      -63      207      325      400      498 
     464      415      492      542      538      573      553      423 
     282      180       99        5      -98     -178     -263     -390 
    -445     -344     -175      -59       13      102      202      282 
     375      532      710      814      820      765      660      457 
     157     -151     -400     -533     -537     -493     -432     -346 
    -279     -159       65      257      340      410      529      700 
     864      870      707      521      375      206      -28     -229 
    -272     -225     -203     -217     -251     -220      -49      129 
     206      218      168       79       75      186      302      375 
     453      531      538      453      333      236      144       32 
     -41      -45      -56     -125     -206     -224     -202     -178 
     -75       90      232      403      589      691      724      658 
     454      270      191       94      -43     -143     -246     -337 
    -319     -237     -118       59      167      133      121      244 
     372      380      334      328      346      324      241      166 
     144      129       75       51      129      214      197      163 
     189      194      118       27      -47      -95      -60       21 
      47       32       49      101      175      259      352      491 
     607      572      448      328      170      -29     -216     -338 
    -364     -309     -198      -71       -4       54      220      422 
     508      483      456      521      591      499      319      206 
      71     -133     -259     -284     -314     -289     -143       17 
     105      149      182      225      298      359      375      390 
     422      451      448      359      212       91       10      -51 
    -101     -135     -121      -47       52      125      129       89 
      91      143      156      151      207      322      399      348 
     238      199      203      157       94       54       -5      -71 
     -74       -5       86      141      157      217      294      299 
     279      251      129       20       85      220      275      284 
     309      344      309      139      -70     -206     -253     -206 
     -83       58      197      282      252      141       62      101 
     224      299      292      299      369      425      375      236 
      93        2      -32      -21      -10      -44      -76      -54 
     -21        5       47       97      148      203      272      359 
     421      421      413      429      388      289      238      195 
      71      -94     -221     -266     -238     -168      -87       -9 
      89      202      292      329      297      297      396      464 
     395      280      214      176      129       65        2      -14 
      -5      -37     -110     -159     -155     -110      -14      116 
     243      373      476      476      429      395      338      289 
     295      314      287      176       44      -47     -156     -252 
    -238     -175     -122      -10      140      212      199      167 
     189      287      394      444      472      500      441      287 
     167       91      -16      -91      -85      -94     -153     -172 
    -112      -14       52       87      156      241      283      322 
     353      333      332      360      348      299      230      171 
     151      120       59       27       -2      -74     -112      -75 
     -16       39       49        1        0      112      266      407 
     506      504      445      409      365      287      166       16 
     -71      -65      -36      -52     -133     -194     -149      -51 
      35      124      205      263      359      460      469      413 
     333      229      184      197      186      178      174      103 
     -23     -137     -203     -224     -170      -49       68      157 
     225      265      275      274      321      405      422      346 
     271      257      236      128        5      -45      -52      -44 
     -29      -27      -20       20       76      126      155      183 
     225      271      326      390      436      429      333      210 
     143       76       -2      -45      -71      -68       -9       29 
