Origin Time       2018/04/09 06:38:00
Lat.              35.2
Long.             132.6
Depth. (km)       10
Mag.              3.8
Station Code      OKY001
Station Lat.      35.1702
Station Long.     133.7311
Station Height(m) 316
Record Time       2018/04/09 06:39:07
Sampling Freq(Hz) 100Hz
Duration Time(s)  65
Dir.              U-D
Scale Factor      7845(gal)/8223790
Max. Acc. (gal)   0.855
Last Correction   2018/04/09 06:39:07
Memo.             
[...]
   -2274    -2270    -2270    -2269    -2266    -2265    -2269    -2276 
   -2280    -2278    -2274    -2269    -2263    -2263    -2266    -2269 
   -2273    -2276    -2278    -2278    -2276    -2272    -2266    -2262 
   -2265    -2272    -2276    -2278    -2277    -2272    -2266    -2266 
   -2272    -2276    -2274    -2273    -2274    -2274    -2272    -2270 
   -2272    -2270    -2270    -2274    -2274    -2273    -2270    -2270 
   -2272    -2273    -2273    -2269    -2267    -2270    -2273    -2273 
   -2272    -2269    -2269    -2269    -2269    -2272    -2274    -2273 
   -2270    -2269    -2269    -2269    -2272    -2273    -2274    -2272 
   -2270    -2272    -2273    -2272    -2270    -2270    -2272    -2273 
   -2272    -2270    -2269    -2267    -2269    -2270    -2273    -2276 
   -2276    -2273    -2270    -2267    -2265    -2269    -2276    -2278 
   -2276    -2274    -2272    -2270    -2267    -2269    -2270    -2272 
   -2276    -2277    -2273    -2272    -2270    -2269    -2269    -2269 
   -2269    -2270    -2270    -2273    -2276    -2273    -2272    -2272 
   -2269    -2270    -2273    -2273    -2270    -2270    -2273    -2274 
   -2276    -2276    -2277    -2280    -2278    -2278    -2281    -2282 
   -2286    -2295    -2296    -2296    -2295    -2290    -2285    -2281 
   -2273    -2257    -2236    -2220    -2207    -2189    -2176    -2172 
   -2177    -2195    -2215    -2235    -2263    -2315    -2381    -2431 
   -2446    -2434    -2409    -2346    -2223    -2120    -2120    -2180 
   -2228    -2250    -2215    -2146    -2172    -2290    -2353    -2367 
   -2452    -2525    -2444    -2273    -2165    -2173    -2269    -2411 
   -2500    -2370    -2116    -2047    -2101    -2069    -2068    -2174 
   -2258    -2270    -2251    -2196    -2118    -2139    -2323    -2517 
   -2604    -2608    -2528    -2459    -2470    -2413    -2247    -2121 
   -2134    -2158    -2037    -1884    -1857    -1956    -2088    -2191 
   -2330    -2457    -2509    -2521    -2448    -2407    -2504    -2548 
   -2496    -2501    -2444    -2170    -1899    -1822    -1938    -2151 
   -2245    -2199    -2149    -2149    -2234    -2369    -2430    -2459 
   -2596    -2627    -2397    -2212    -2201    -2222    -2278    -2317 
   -2174    -2001    -2026    -2110    -2143    -2269    -2467    -2519 
   -2412    -2301    -2200    -2150    -2180    -2162    -2121    -2135 
   -2157    -2215    -2362    -2509    -2589    -2596    -2508    -2377 
   -2296    -2215    -2141    -2155    -2162    -2134    -2116    -2083 
   -2134    -2243    -2263    -2261    -2313    -2350    -2353    -2361 
   -2307    -2250    -2316    -2373    -2347    -2338    -2421    -2489 
   -2377    -2191    -2110    -2111    -2069    -2015    -2092    -2185 
   -2185    -2200    -2236    -2319    -2479    -2594    -2597    -2485 
   -2378    -2386    -2351    -2224    -2119    -2074    -2119    -2161 
   -2111    -2115    -2212    -2249    -2195    -2161    -2224    -2313 
   -2319    -2322    -2380    -2409    -2428    -2478    -2457    -2389 
   -2390    -2328    -2180    -2126    -2119    -2069    -2022    -2030 
   -2120    -2174    -2189    -2285    -2385    -2457    -2519    -2489 
   -2397    -2331    -2272    -2211    -2215    -2274    -2316    -2313 
   -2254    -2234    -2312    -2282    -2137    -2126    -2199    -2220 
   -2226    -2226    -2239    -2215    -2180    -2234    -2319    -2420 
   -2519    -2511    -2496    -2517    -2382    -2189    -2126    -2111 
   -2089    -2076    -2057    -2091    -2172    -2230    -2249    -2200 
   -2223    -2412    -2481    -2357    -2332    -2435    -2463    -2396 
   -2373    -2388    -2344    -2265    -2189    -2151    -2115    -2031 
   -2003    -2065    -2137    -2195    -2246    -2343    -2423    -2396 
   -2427    -2523    -2535    -2500    -2412    -2281    -2224    -2211 
   -2151    -2070    -2031    -2049    -2093    -2133    -2196    -2292 
   -2330    -2336    -2396    -2425    -2369    -2346    -2386    -2381 
   -2323    -2290    -2238    -2157    -2154    -2235    -2305    -2300 
   -2261    -2249    -2231    -2162    -2111    -2157    -2195    -2196 
   -2274    -2403    -2461    -2417    -2382    -2407    -2377    -2285 
   -2215    -2174    -2150    -2168    -2230    -2276    -2296    -2299 
   -2277    -2288    -2292    -2195    -2142    -2266    -2397    -2390 
   -2327    -2297    -2281    -2282    -2292    -2289    -2304    -2292 
   -2243    -2226    -2178    -2123    -2161    -2203    -2181    -2200 
   -2277    -2342    -2384    -2415    -2459    -2458    -2338    -2226 
   -2189    -2165    -2144    -2121    -2162    -2330    -2416    -2327 
   -2265    -2292    -2303    -2270    -2247    -2236    -2222    -2242 
   -2278    -2274    -2255    -2258    -2282    -2327    -2332    -2286 
   -2258    -2253    -2258    -2258    -2222    -2185    -2211    -2263 
   -2285    -2307    -2351    -2338    -2277    -2280    -2312    -2281 
   -2223    -2236    -2272    -2231    -2209    -2285    -2376    -2386 
   -2319    -2295    -2307    -2232    -2147    -2193    -2253    -2220 
   -2227    -2290    -2297    -2293    -2319    -2324    -2301    -2246 
   -2201    -2223    -2255    -2292    -2340    -2313    -2231    -2224 
   -2243    -2209    -2249    -2324    -2293    -2250    -2282    -2312 
   -2278    -2273    -2338    -2334    -2269    -2257    -2251    -2188 
   -2154    -2220    -2290    -2304    -2311    -2319    -2296    -2272 
   -2304    -2317    -2258    -2228    -2251    -2250    -2243    -2266 
   -2293    -2296    -2292    -2290    -2299    -2317    -2301    -2251 
   -2231    -2218    -2182    -2157    -2141    -2191    -2340    -2435 
   -2390    -2358    -2377    -2327    -2247    -2249    -2277    -2269 
   -2232    -2207    -2226    -2222    -2163    -2174    -2270    -2342 
   -2332    -2300    -2322    -2304    -2220    -2234    -2301    -2289 
   -2262    -2261    -2270    -2304    -2311    -2295    -2272    -2253 
   -2286    -2280    -2232    -2251    -2230    -2176    -2205    -2231 
   -2219    -2245    -2316    -2374    -2361    -2353    -2398    -2363 
   -2263    -2254    -2277    -2246    -2218    -2223    -2251    -2290 
   -2316    -2277    -2199    -2165    -2150    -2169    -2239    -2266 
   -2308    -2397    -2389    -2332    -2330    -2297    -2231    -2214 
   -2230    -2246    -2258    -2261    -2274    -2319    -2343    -2277 
   -2211    -2258    -2316    -2280    -2245    -2258    -2251    -2246 
   -2243    -2234    -2301    -2361    -2278    -2207    -2274    -2350 
   -2335    -2304    -2258    -2203    -2222    -2228    -2174    -2185 
   -2232    -2199    -2188    -2277    -2317    -2303    -2350    -2393 
   -2392    -2390    -2366    -2338    -2296    -2232    -2220    -2226 
   -2196    -2160    -2163    -2215    -2223    -2232    -2336    -2378 
   -2286    -2245    -2307    -2296    -2222    -2236    -2276    -2281 
   -2307    -2334    -2349    -2328    -2259    -2236    -2265    -2249 
   -2222    -2238    -2236    -2199    -2208    -2282    -2327    -2324 
   -2340    -2324    -2262    -2263    -2280    -2239    -2251    -2295 
   -2243    -2182    -2243    -2344    -2376    -2349    -2295    -2251 
   -2218    -2135    -2091    -2165    -2250    -2304    -2363    -2407 
   -2404    -2328    -2265    -2269    -2242    -2227    -2255    -2238 
   -2246    -2285    -2254    -2219    -2245    -2297    -2344    -2346 
   -2322    -2309    -2293    -2266    -2219    -2160    -2147    -2182 
   -2209    -2245    -2319    -2378    -2374    -2376    -2397    -2317 
   -2218    -2230    -2215    -2184    -2250    -2304    -2286    -2247 
   -2195    -2177    -2214    -2269    -2332    -2373    -2344    -2305 
   -2312    -2301    -2228    -2162    -2205    -2315    -2338    -2270 
   -2255    -2307    -2307    -2270    -2258    -2231    -2218    -2230 
   -2220    -2236    -2274    -2295    -2313    -2286    -2243    -2277 
   -2317    -2315    -2323    -2311    -2255    -2230    -2254    -2259 
   -2255    -2272    -2288    -2327    -2338    -2254    -2214    -2246 
   -2218    -2203    -2247    -2263    -2261    -2285    -2319    -2303 
   -2255    -2269    -2308    -2334    -2334    -2292    -2289    -2293 
   -2203    -2124    -2154    -2242    -2313    -2335    -2342    -2334 
   -2284    -2234    -2219    -2226    -2245    -2282    -2328    -2351 
   -2319    -2276    -2286    -2288    -2208    -2160    -2199    -2232 
   -2258    -2311    -2316    -2259    -2234    -2273    -2316    -2293 
   -2259    -2288    -2293    -2257    -2270    -2300    -2309    -2297 
   -2251    -2246    -2297    -2312    -2289    -2266    -2273    -2289 
   -2247    -2187    -2199    -2242    -2243    -2261    -2313    -2316 
   -2303    -2326    -2328    -2285    -2242    -2215    -2184    -2192 
   -2245    -2272    -2296    -2319    -2319    -2323    -2303    -2274 
   -2290    -2297    -2266    -2243    -2242    -2243    -2238    -2230 
   -2246    -2276    -2251    -2224    -2263    -2301    -2326    -2350 
   -2343    -2334    -2312    -2251    -2207    -2211    -2227    -2222 
   -2223    -2247    -2276    -2284    -2265    -2280    -2326    -2313 
   -2285    -2317    -2334    -2254    -2192    -2227    -2266    -2284 
   -2305    -2301    -2284    -2278    -2262    -2254    -2255    -2231 
   -2215    -2241    -2276    -2263    -2239    -2295    -2349    -2303 
   -2257    -2295    -2332    -2308    -2272    -2267    -2282    -2267 
   -2212    -2193    -2230    -2251    -2249    -2276    -2303    -2266 
   -2234    -2273    -2313    -2326    -2336    -2324    -2305    -2297 
   -2249    -2200    -2220    -2228    -2220    -2254    -2266    -2253 
   -2259    -2297    -2369    -2380    -2299    -2239    -2220    -2239 
   -2278    -2231    -2188    -2259    -2292    -2251    -2245    -2266 
   -2303    -2336    -2319    -2301    -2309    -2286    -2263    -2269 
   -2249    -2214    -2226    -2246    -2241    -2263    -2304    -2338 
   -2323    -2242    -2222    -2276    -2303    -2332    -2342    -2297 
   -2280    -2280    -2231    -2193    -2200    -2220    -2251    -2243 
   -2214    -2267    -2338    -2328    -2309    -2311    -2272    -2209 
   -2191    -2236    -2297    -2319    -2327    -2308    -2267    -2265 
   -2289    -2309    -2323    -2295    -2243    -2208    -2182    -2176 
   -2187    -2214    -2261    -2301    -2327    -2355    -2374    -2338 
   -2284    -2273    -2289    -2307    -2319    -2301    -2266    -2220 
   -2180    -2200    -2215    -2177    -2214    -2322    -2363    -2338 
   -2277    -2230    -2280    -2319    -2280    -2272    -2296    -2272 
   -2251    -2270    -2309    -2346    -2338    -2286    -2226    -2193 
   -2193    -2195    -2205    -2211    -2207    -2228    -2236    -2250 
   -2347    -2439    -2454    -2432    -2374    -2296    -2227    -2172 
   -2130    -2149    -2246    -2270    -2215    -2261    -2319    -2281 
   -2285    -2336    -2317    -2278    -2262    -2242    -2259    -2269 
   -2214    -2208    -2273    -2327    -2328    -2281    -2304    -2378 
   -2336    -2200    -2126    -2185    -2270    -2218    -2176    -2313 
   -2403    -2357    -2355    -2335    -2234    -2187    -2170    -2158 
   -2230    -2308    -2332    -2380    -2377    -2300    -2293    -2297 
   -2258    -2280    -2277    -2196    -2173    -2193    -2196    -2215 
   -2247    -2274    -2319    -2367    -2365    -2330    -2338    -2326 
   -2228    -2173    -2192    -2203    -2255    -2349    -2361    -2311 
   -2259    -2196    -2170    -2224    -2270    -2250    -2280    -2340 
   -2319    -2267    -2266    -2299    -2344    -2343    -2278    -2254 
   -2272    -2265    -2258    -2263    -2267    -2235    -2193    -2230 
   -2263    -2276    -2347    -2335    -2191    -2124    -2185    -2263 
   -2322    -2346    -2338    -2355    -2362    -2288    -2219    -2218 
   -2242    -2290    -2311    -2246    -2253    -2340    -2311    -2222 
   -2184    -2199    -2276    -2297    -2220    -2230    -2349    -2380 
   -2300    -2259    -2254    -2265    -2284    -2245    -2245    -2308 
   -2263    -2205    -2269    -2334    -2301    -2222    -2236    -2296 
   -2223    -2166    -2241    -2289    -2282    -2272    -2281    -2342 
   -2401    -2390    -2330    -2286    -2253    -2219    -2211    -2182 
   -2196    -2304    -2335    -2265    -2236    -2226    -2196    -2223 
   -2272    -2277    -2307    -2330    -2288    -2288    -2338    -2370 
   -2358    -2303    -2272    -2236    -2168    -2201    -2296    -2280 
   -2207    -2192    -2226    -2249    -2219    -2223    -2338    -2448 
   -2419    -2270    -2126    -2146    -2303    -2376    -2313    -2289 
   -2357    -2361    -2205    -2074    -2081    -2118    -2199    -2343 
   -2415    -2384    -2316    -2254    -2251    -2277    -2205    -2138 
   -2246    -2386    -2393    -2289    -2200    -2266    -2366    -2276 
   -2193    -2359    -2498    -2419    -2343    -2282    -2153    -2100 
   -2121    -2130    -2196    -2267    -2285    -2355    -2401    -2343 
   -2311    -2332    -2308    -2250    -2241    -2263    -2267    -2313 
   -2362    -2263    -2124    -2095    -2079    -2085    -2168    -2247 
   -2269    -2255    -2263    -2290    -2332    -2447    -2594    -2660 
   -2573    -2377    -2208    -2084    -1962    -1969    -2227    -2496 
   -2509    -2319    -2020    -1802    -1848    -1968    -2081    -2350 
   -2640    -2731    -2624    -2461    -2458    -2558    -2524    -2392 
   -2282    -2212    -2144    -1985    -1852    -1904    -1972    -1972 
   -1977    -1980    -2065    -2305    -2681    -3065    -3167    -2940 
   -2573    -2226    -2064    -1996    -1837    -1777    -1941    -2081 
   -2064    -1961    -1956    -2223    -2598    -2808    -2774    -2516 
   -2273    -2292    -2401    -2369    -2301    -2251    -2098    -1912 
   -1826    -1877    -2138    -2485    -2590    -2386    -2234    -2411 
   -2666    -2691    -2597    -2582    -2509    -2124    -1614    -1405 
   -1564    -1867    -2104    -2245    -2386    -2562    -2716    -2839 
   -2922    -2875    -2639    -2253    -1930    -1864    -1908    -1965 
   -2056    -2007    -1836    -1836    -2116    -2467    -2640    -2675 
   -2721    -2704    -2497    -2215    -2107    -2178    -2281    -2366 
   -2296    -2045    -1903    -1984    -2072    -2107    -2241    -2457 
   -2574    -2471    -2251    -2203    -2380    -2493    -2335    -2134 
   -2215    -2376    -2273    -2110    -2238    -2543    -2606    -2371 
   -2169    -2166    -2165    -1966    -1809    -1933    -2115    -2201 
   -2315    -2471    -2663    -2841    -2818    -2625    -2488    -2332 
   -1985    -1628    -1544    -1723    -1930    -2057    -2204    -2398 
   -2612    -2844    -2910    -2749    -2551    -2332    -2084    -2001 
   -2079    -2111    -2110    -2124    -2093    -2042    -2069    -2215 
   -2447    -2579    -2488    -2413    -2478    -2442    -2303    -2243 
   -2230    -2223    -2228    -2110    -1876    -1802    -1979    -2180 
   -2276    -2334    -2374    -2417    -2551    -2704    -2704    -2578 
   -2428    -2262    -2101    -2015    -2026    -2121    -2212    -2187 
   -2100    -2066    -2095    -2196    -2385    -2573    -2662    -2631 
   -2485    -2286    -2155    -2165    -2242    -2235    -2150    -2042 
   -1953    -1989    -2111    -2222    -2376    -2502    -2417    -2238 
   -2230    -2322    -2394    -2469    -2475    -2475    -2529    -2428 
   -2144    -1972    -2033    -2124    -2064    -1958    -1961    -2079 
   -2246    -2347    -2340    -2315    -2319    -2307    -2319    -2447 
   -2659    -2863    -2965    -2856    -2567    -2228    -1966    -1833 
   -1780    -1740    -1711    -1753    -1881    -2022    -2133    -2255 
   -2439    -2636    -2693    -2635    -2640    -2639    -2548    -2490 
   -2442    -2288    -2100    -1992    -1949    -1980    -2066    -2116 
   -2130    -2150    -2149    -2149    -2230    -2365    -2432    -2405 
   -2369    -2388    -2421    -2430    -2475    -2573    -2616    -2523 
   -2328    -2150    -2019    -1939    -1949    -1972    -1995    -2074 
   -2126    -2118    -2134    -2228    -2377    -2471    -2484    -2466 
   -2439    -2427    -2457    -2482    -2471    -2455    -2413    -2297 
   -2158    -2047    -2004    -2041    -2050    -2026    -2070    -2142 
   -2187    -2243    -2316    -2357    -2384    -2440    -2504    -2562 
   -2606    -2597    -2542    -2475    -2331    -2057    -1814    -1775 
   -1846    -1917    -2033    -2174    -2297    -2430    -2517    -2536 
   -2528    -2455    -2319    -2201    -2158    -2205    -2288    -2292 
   -2219    -2219    -2353    -2466    -2471    -2435    -2366    -2246 
   -2134    -2034    -1966    -1989    -2060    -2126    -2201    -2243 
   -2243    -2266    -2324    -2400    -2494    -2569    -2609    -2641 
   -2614    -2506    -2398    -2297    -2137    -1956    -1817    -1729 
   -1753    -1896    -2049    -2189    -2316    -2378    -2415    -2492 
   -2614    -2718    -2739    -2691    -2597    -2440    -2238    -2053 
   -1933    -1877    -1883    -1949    -2038    -2106    -2168    -2247 
   -2304    -2330    -2344    -2338    -2316    -2336    -2423    -2489 
   -2492    -2458    -2369    -2292    -2299    -2304    -2263    -2219 
   -2162    -2111    -2111    -2116    -2064    -2077    -2220    -2319 
   -2335    -2357    -2362    -2371    -2411    -2421    -2420    -2415 
   -2351    -2261    -2218    -2215    -2191    -2143    -2142    -2201 
   -2218    -2166    -2168    -2241    -2309    -2354    -2371    -2367 
   -2349    -2280    -2223    -2254    -2284    -2285    -2299    -2286 
   -2276    -2295    -2299    -2327    -2378    -2344    -2235    -2130 
   -2097    -2133    -2147    -2143    -2169    -2214    -2257    -2304 
   -2370    -2461    -2539    -2497    -2363    -2274    -2239    -2234 
   -2261    -2254    -2236    -2227    -2169    -2137    -2173    -2192 
   -2214    -2273    -2331    -2358    -2340    -2312    -2312    -2305 
   -2255    -2223    -2242    -2250    -2250    -2290    -2342    -2378 
   -2390    -2327    -2228    -2195    -2174    -2126    -2102    -2107 
   -2130    -2180    -2288    -2403    -2423    -2413    -2431    -2393 
   -2323    -2303    -2299    -2280    -2249    -2201    -2189    -2212 
   -2220    -2255    -2292    -2288    -2282    -2239    -2166    -2184 
   -2284    -2347    -2354    -2354    -2338    -2313    -2308    -2300 
   -2266    -2211    -2169    -2182    -2230    -2276    -2322    -2354 
   -2340    -2312    -2282    -2209    -2150    -2176    -2224    -2250 
   -2296    -2330    -2303    -2297    -2319    -2280    -2226    -2230 
   -2254    -2259    -2292    -2358    -2382    -2366    -2332    -2262 
   -2168    -2074    -2060    -2153    -2250    -2280    -2307    -2355 
   -2366    -2344    -2319    -2278    -2267    -2308    -2358    -2367 
   -2335    -2313    -2273    -2185    -2138    -2161    -2212    -2246 
   -2262    -2297    -2335    -2338    -2322    -2281    -2242    -2246 
   -2269    -2270    -2276    -2309    -2323    -2303    -2286    -2239 
   -2151    -2146    -2232    -2289    -2305    -2328    -2323    -2269 
   -2207    -2189    -2215    -2238    -2239    -2262    -2307    -2309 
   -2309    -2344    -2331    -2280    -2270    -2255    -2242    -2281 
   -2311    -2296    -2278    -2257    -2209    -2163    -2173    -2228 
   -2274    -2309    -2363    -2397    -2367    -2296    -2251    -2253 
