Origin Time       2018/04/09 06:38:00
Lat.              35.2
Long.             132.6
Depth. (km)       10
Mag.              3.8
Station Code      OKY001
Station Lat.      35.1702
Station Long.     133.7311
Station Height(m) 316
Record Time       2018/04/09 06:39:07
Sampling Freq(Hz) 100Hz
Duration Time(s)  65
Dir.              N-S
Scale Factor      7845(gal)/8223790
Max. Acc. (gal)   1.870
Last Correction   2018/04/09 06:39:07
Memo.             
[...]
   -3743    -3497    -3261    -3090    -2922    -2756    -2721    -2882 
   -3118    -3315    -3450    -3547    -3673    -3794    -3828    -3821 
   -3856    -3937    -4027    -4069    -3970    -3662    -3335    -3165 
   -3065    -3029    -3094    -3168    -3276    -3438    -3518    -3478 
   -3416    -3393    -3418    -3511    -3677    -3839    -3937    -3986 
   -3979    -3859    -3613    -3369    -3284    -3334    -3366    -3329 
   -3253    -3194    -3203    -3188    -3073    -3030    -3238    -3639 
   -3978    -4106    -4132    -4140    -4067    -3890    -3690    -3570 
   -3470    -3312    -3176    -3053    -2893    -2795    -2844    -3014 
   -3226    -3481    -3780    -4016    -4178    -4276    -4197    -3973 
   -3807    -3703    -3515    -3283    -3145    -3067    -2998    -3007 
   -3087    -3160    -3221    -3331    -3522    -3705    -3797    -3856 
   -3947    -4048    -4114    -4050    -3809    -3484    -3227    -3098 
   -3037    -3037    -3119    -3230    -3288    -3284    -3315    -3388 
   -3434    -3562    -3824    -4047    -4118    -4099    -4051    -3902 
   -3631    -3388    -3260    -3180    -3137    -3163    -3230    -3254 
   -3210    -3148    -3146    -3260    -3435    -3612    -3809    -3993 
   -4069    -3996    -3856    -3755    -3670    -3555    -3440    -3412 
   -3469    -3457    -3315    -3184    -3134    -3099    -3102    -3202 
   -3350    -3483    -3622    -3767    -3844    -3812    -3748    -3726 
   -3740    -3766    -3757    -3678    -3574    -3488    -3423    -3348 
   -3235    -3126    -3090    -3148    -3268    -3383    -3464    -3544 
   -3663    -3788    -3825    -3773    -3709    -3647    -3591    -3576 
   -3577    -3561    -3501    -3423    -3400    -3407    -3368    -3314 
   -3327    -3380    -3400    -3440    -3499    -3489    -3497    -3574 
   -3596    -3565    -3619    -3724    -3746    -3704    -3696    -3697 
   -3596    -3414    -3299    -3271    -3265    -3329    -3426    -3440 
   -3400    -3388    -3407    -3440    -3492    -3562    -3640    -3696 
   -3708    -3690    -3653    -3593    -3566    -3582    -3593    -3626 
   -3662    -3591    -3414    -3279    -3215    -3141    -3111    -3206 
   -3339    -3419    -3477    -3565    -3649    -3693    -3736    -3815 
   -3901    -3939    -3888    -3766    -3620    -3461    -3288    -3150 
   -3119    -3156    -3179    -3218    -3283    -3327    -3392    -3515 
   -3622    -3681    -3734    -3797    -3848    -3846    -3774    -3689 
   -3624    -3558    -3480    -3412    -3364    -3317    -3280    -3260 
   -3250    -3269    -3336    -3407    -3454    -3510    -3585    -3670 
   -3719    -3694    -3647    -3651    -3682    -3677    -3627    -3586 
   -3562    -3520    -3458    -3372    -3298    -3267    -3272    -3349 
   -3437    -3435    -3430    -3491    -3549    -3580    -3603    -3631 
   -3658    -3663    -3651    -3640    -3634    -3603    -3537    -3492 
   -3472    -3406    -3310    -3276    -3307    -3348    -3396    -3445 
   -3480    -3524    -3581    -3624    -3672    -3717    -3721    -3682 
   -3600    -3505    -3473    -3489    -3500    -3500    -3472    -3412 
   -3365    -3346    -3329    -3315    -3345    -3434    -3553    -3632 
   -3639    -3611    -3592    -3589    -3611    -3623    -3596    -3585 
   -3604    -3603    -3554    -3453    -3355    -3343    -3414    -3473 
   -3466    -3427    -3400    -3407    -3414    -3411    -3489    -3615 
   -3685    -3728    -3742    -3649    -3511    -3447    -3438    -3447 
   -3472    -3495    -3534    -3576    -3565    -3532    -3485    -3397 
   -3334    -3369    -3464    -3501    -3480    -3488    -3501    -3466 
   -3440    -3485    -3568    -3634    -3676    -3657    -3607    -3581 
   -3518    -3440    -3472    -3541    -3559    -3580    -3593    -3555 
   -3489    -3418    -3376    -3397    -3440    -3439    -3397    -3376 
   -3369    -3362    -3419    -3532    -3604    -3651    -3719    -3735 
   -3686    -3663    -3667    -3650    -3612    -3532    -3404    -3323 
   -3325    -3349    -3330    -3273    -3268    -3346    -3429    -3478 
   -3532    -3592    -3649    -3719    -3769    -3751    -3707    -3690 
   -3663    -3613    -3566    -3474    -3333    -3241    -3246    -3277 
   -3275    -3279    -3329    -3411    -3511    -3607    -3693    -3776 
   -3811    -3776    -3713    -3634    -3546    -3503    -3520    -3516 
   -3459    -3392    -3331    -3292    -3272    -3250    -3267    -3330 
   -3400    -3495    -3630    -3728    -3728    -3699    -3731    -3820 
   -3852    -3744    -3589    -3503    -3449    -3375    -3303    -3241 
   -3176    -3168    -3269    -3388    -3439    -3481    -3565    -3642 
   -3699    -3731    -3731    -3735    -3735    -3690    -3615    -3526 
   -3424    -3358    -3345    -3343    -3349    -3388    -3439    -3469 
   -3487    -3470    -3449    -3470    -3488    -3508    -3573    -3638 
   -3670    -3674    -3646    -3601    -3555    -3522    -3476    -3435 
   -3480    -3532    -3491    -3439    -3420    -3376    -3316    -3316 
   -3369    -3407    -3464    -3593    -3719    -3765    -3719    -3658 
   -3657    -3662    -3605    -3544    -3524    -3481    -3388    -3339 
   -3352    -3330    -3291    -3303    -3353    -3435    -3516    -3542 
   -3559    -3623    -3692    -3727    -3738    -3738    -3689    -3585 
   -3481    -3419    -3411    -3430    -3406    -3357    -3376    -3419 
   -3414    -3414    -3457    -3488    -3504    -3561    -3640    -3658 
   -3601    -3539    -3518    -3523    -3516    -3491    -3465    -3457 
   -3472    -3485    -3488    -3500    -3524    -3515    -3484    -3511 
   -3574    -3600    -3580    -3543    -3537    -3558    -3550    -3477 
   -3384    -3342    -3358    -3399    -3464    -3528    -3566    -3608 
   -3651    -3647    -3623    -3612    -3551    -3461    -3457    -3508 
   -3507    -3447    -3387    -3380    -3418    -3449    -3470    -3489 
   -3495    -3514    -3576    -3615    -3565    -3488    -3496    -3589 
   -3670    -3674    -3605    -3499    -3433    -3469    -3519    -3477 
   -3420    -3422    -3433    -3430    -3429    -3429    -3438    -3461 
   -3477    -3505    -3563    -3608    -3609    -3591    -3615    -3682 
   -3657    -3530    -3453    -3478    -3511    -3483    -3424    -3388 
   -3391    -3393    -3366    -3376    -3483    -3601    -3626    -3592 
   -3582    -3591    -3600    -3612    -3589    -3542    -3554    -3591 
   -3530    -3418    -3360    -3362    -3410    -3477    -3505    -3497 
   -3488    -3469    -3442    -3439    -3470    -3520    -3585    -3653 
   -3694    -3707    -3688    -3599    -3461    -3365    -3357    -3400 
   -3453    -3495    -3508    -3495    -3462    -3415    -3375    -3379 
   -3456    -3570    -3647    -3659    -3638    -3601    -3554    -3514 
   -3478    -3473    -3534    -3634    -3688    -3622    -3476    -3355 
   -3295    -3265    -3276    -3345    -3430    -3519    -3630    -3697 
   -3678    -3640    -3627    -3600    -3558    -3557    -3581    -3550 
   -3496    -3472    -3419    -3348    -3336    -3380    -3427    -3459 
   -3484    -3516    -3530    -3535    -3544    -3544    -3544    -3553 
   -3574    -3634    -3689    -3657    -3551    -3468    -3435    -3404 
   -3381    -3399    -3456    -3516    -3532    -3504    -3470    -3440 
   -3431    -3445    -3477    -3557    -3631    -3601    -3541    -3558 
   -3576    -3526    -3505    -3562    -3611    -3595    -3558    -3526 
   -3443    -3333    -3277    -3302    -3376    -3422    -3431    -3499 
   -3619    -3685    -3666    -3627    -3631    -3650    -3615    -3569 
   -3577    -3593    -3527    -3387    -3310    -3354    -3402    -3352 
   -3299    -3388    -3535    -3568    -3541    -3549    -3586    -3615 
   -3624    -3643    -3685    -3694    -3615    -3469    -3357    -3333 
   -3352    -3366    -3388    -3453    -3523    -3538    -3505    -3465 
   -3474    -3547    -3622    -3662    -3663    -3627    -3566    -3481 
   -3423    -3459    -3485    -3419    -3404    -3508    -3550    -3485 
   -3491    -3570    -3577    -3504    -3458    -3492    -3534    -3524 
   -3530    -3544    -3495    -3414    -3385    -3439    -3520    -3551 
   -3558    -3595    -3651    -3651    -3539    -3414    -3400    -3477 
   -3557    -3574    -3543    -3522    -3489    -3415    -3361    -3346 
   -3333    -3362    -3488    -3631    -3704    -3721    -3678    -3555 
   -3450    -3438    -3480    -3554    -3638    -3645    -3595    -3578 
   -3530    -3392    -3269    -3267    -3357    -3478    -3566    -3549 
   -3496    -3508    -3484    -3388    -3372    -3477    -3619    -3743 
   -3809    -3781    -3684    -3572    -3468    -3407    -3407    -3423 
   -3443    -3459    -3407    -3317    -3276    -3284    -3341    -3447 
   -3568    -3681    -3776    -3797    -3711    -3605    -3565    -3557 
   -3541    -3527    -3538    -3578    -3532    -3375    -3272    -3288 
   -3331    -3335    -3330    -3415    -3543    -3622    -3651    -3634 
   -3619    -3645    -3613    -3538    -3550    -3638    -3663    -3626 
   -3585    -3483    -3346    -3279    -3287    -3355    -3426    -3431 
   -3450    -3492    -3477    -3445    -3480    -3566    -3669    -3746 
   -3730    -3661    -3618    -3553    -3485    -3484    -3516    -3514 
   -3449    -3395    -3407    -3391    -3325    -3310    -3375    -3483 
   -3537    -3508    -3515    -3581    -3649    -3705    -3712    -3650 
   -3561    -3510    -3530    -3582    -3599    -3530    -3416    -3377 
   -3402    -3357    -3237    -3161    -3210    -3396    -3593    -3638 
   -3607    -3623    -3585    -3457    -3395    -3431    -3497    -3615 
   -3770    -3835    -3765    -3609    -3431    -3308    -3302    -3439 
   -3692    -3960    -4162    -4230    -4067    -3748    -3530    -3406 
   -3160    -2896    -2880    -2994    -2953    -2811    -2792    -2941 
   -3242    -3709    -4168    -4436    -4567    -4534    -4178    -3667 
   -3319    -3122    -2961    -2859    -2821    -2809    -2863    -3090 
   -3406    -3530    -3420    -3427    -3703    -3928    -3996    -4220 
   -4630    -4872    -4642    -3929    -3137    -2797    -2936    -3090 
   -3034    -2963    -2906    -2584    -2093    -2089    -2856    -3788 
   -4391    -4784    -4934    -4672    -4185    -3773    -3630    -3730 
   -3846    -3906    -3913    -3663    -3102    -2620    -2582    -2785 
   -2833    -2767    -2791    -3001    -3433    -3831    -3917    -3824 
   -3761    -3770    -3867    -4028    -4167    -4238    -4195    -3991 
   -3681    -3321    -2992    -2972    -3304    -3473    -3141    -2700 
   -2586    -2792    -3207    -3673    -3932    -3947    -3819    -3589 
   -3429    -3445    -3478    -3570    -3816    -3894    -3666    -3511 
   -3661    -3878    -3886    -3802    -3820    -3719    -3329    -2988 
   -3069    -3325    -3249    -2895    -2632    -2565    -2679    -2925 
   -3268    -3805    -4452    -4888    -4905    -4581    -4233    -4021 
   -3819    -3622    -3437    -3167    -2967    -2917    -2805    -2685 
   -2745    -2906    -3114    -3447    -3809    -4001    -3970    -3858 
   -3805    -3759    -3651    -3557    -3615    -3834    -3991    -3955 
   -3817    -3595    -3227    -2732    -2303    -2309    -2809    -3369 
   -3595    -3559    -3680    -4024    -4270    -4356    -4364    -4194 
   -3898    -3642    -3362    -2941    -2502    -2338    -2519    -2704 
   -2737    -3010    -3645    -4261    -4722    -5063    -5201    -5046 
   -4564    -3861    -3199    -2774    -2513    -2274    -2107    -2169 
   -2457    -2737    -2921    -3258    -3847    -4495    -5003    -5144 
   -4852    -4441    -4126    -3763    -3306    -2922    -2720    -2681 
   -2718    -2774    -2852    -2922    -3034    -3303    -3589    -3754 
   -3944    -4117    -4082    -3970    -3852    -3542    -3241    -3355 
   -3682    -3705    -3446    -3410    -3697    -3762    -3419    -3164 
   -3183    -3191    -3241    -3538    -3817    -3828    -3773    -3812 
   -3761    -3492    -3229    -3188    -3300    -3487    -3719    -3771 
   -3518    -3277    -3303    -3400    -3395    -3433    -3538    -3507 
   -3392    -3477    -3762    -3915    -3835    -3798    -3836    -3678 
   -3368    -3269    -3481    -3676    -3615    -3375    -3033    -2678 
   -2494    -2590    -2913    -3349    -3770    -4024    -4016    -3919 
   -3984    -4170    -4287    -4289    -4162    -3879    -3542    -3271 
   -3083    -2934    -2809    -2816    -3014    -3207    -3284    -3385 
   -3550    -3684    -3759    -3761    -3703    -3655    -3620    -3640 
   -3817    -4020    -4005    -3785    -3503    -3256    -3109    -3041 
   -2995    -3046    -3213    -3335    -3385    -3484    -3640    -3755 
   -3809    -3902    -4078    -4176    -4048    -3786    -3589    -3420 
   -3094    -2717    -2606    -2759    -2910    -3001    -3146    -3342 
   -3626    -3974    -4122    -4067    -4068    -4143    -4178    -4170 
   -4059    -3797    -3528    -3438    -3414    -3230    -2906    -2606 
   -2498    -2560    -2562    -2544    -2839    -3427    -3948    -4289 
   -4514    -4558    -4496    -4464    -4364    -4182    -4055    -3878 
   -3565    -3279    -3019    -2664    -2355    -2326    -2555    -2824 
   -3014    -3179    -3341    -3481    -3603    -3662    -3704    -3893 
   -4270    -4669    -4843    -4656    -4256    -3910    -3627    -3311 
   -3032    -2839    -2677    -2632    -2809    -2991    -2948    -2818 
   -2833    -3025    -3262    -3429    -3636    -4008    -4371    -4546 
   -4604    -4612    -4492    -4220    -3975    -3936    -3960    -3761 
   -3289    -2717    -2188    -1772    -1549    -1628    -2046    -2669 
   -3294    -3842    -4342    -4760    -4974    -4965    -4872    -4822 
   -4780    -4638    -4360    -3950    -3369    -2675    -2089    -1803 
   -1763    -1863    -2135    -2548    -2952    -3276    -3549    -3796 
   -4027    -4261    -4557    -4904    -5147    -5140    -4852    -4387 
   -3898    -3433    -2955    -2501    -2195    -2192    -2404    -2523 
   -2555    -2691    -2895    -3122    -3407    -3723    -4058    -4415 
   -4664    -4710    -4577    -4301    -3996    -3751    -3520    -3354 
   -3329    -3319    -3213    -3038    -2886    -2825    -2836    -2882 
   -2988    -3133    -3289    -3466    -3657    -3842    -4012    -4110 
   -4139    -4202    -4327    -4421    -4407    -4248    -3912    -3450 
   -2975    -2582    -2332    -2214    -2215    -2412    -2764    -3057 
   -3240    -3446    -3689    -3893    -4113    -4430    -4708    -4761 
   -4641    -4436    -4093    -3677    -3339    -3028    -2677    -2425 
   -2392    -2542    -2759    -2929    -3073    -3283    -3551    -3812 
   -4041    -4248    -4418    -4504    -4442    -4207    -3897    -3636 
   -3430    -3206    -3018    -2975    -3022    -3030    -3018    -3030 
   -3059    -3134    -3261    -3403    -3565    -3747    -3906    -4024 
   -4105    -4083    -3927    -3723    -3580    -3528    -3495    -3454 
   -3464    -3504    -3496    -3391    -3208    -3057    -3006    -3019 
   -3119    -3349    -3572    -3649    -3651    -3682    -3750    -3840 
   -3901    -3866    -3786    -3757    -3738    -3642    -3476    -3330 
   -3245    -3244    -3325    -3365    -3298    -3242    -3252    -3257 
   -3229    -3207    -3245    -3360    -3526    -3676    -3773    -3846 
   -3923    -4000    -4031    -3958    -3812    -3672    -3568    -3495 
   -3442    -3366    -3248    -3136    -3057    -2992    -2967    -3059 
   -3276    -3542    -3774    -3910    -3927    -3871    -3809    -3770 
   -3728    -3670    -3623    -3596    -3573    -3510    -3388    -3277 
   -3194    -3114    -3118    -3254    -3377    -3439    -3544    -3663 
   -3712    -3703    -3634    -3541    -3514    -3591    -3713    -3761 
   -3666    -3505    -3365    -3269    -3215    -3188    -3257    -3480 
   -3696    -3736    -3708    -3709    -3628    -3426    -3284    -3335 
   -3508    -3655    -3716    -3724    -3672    -3507    -3288    -3164 
   -3171    -3267    -3438    -3638    -3785    -3828    -3753    -3592 
   -3442    -3360    -3353    -3450    -3609    -3686    -3605    -3447 
   -3364    -3357    -3329    -3314    -3388    -3487    -3553    -3636 
   -3753    -3800    -3740    -3665    -3623    -3565    -3466    -3372 
   -3336    -3366    -3419    -3461    -3462    -3416    -3369    -3361 
   -3402    -3504    -3600    -3650    -3709    -3723    -3623    -3524 
   -3524    -3565    -3558    -3501    -3440    -3393    -3355    -3358 
   -3412    -3477    -3544    -3600    -3582    -3495    -3430    -3422 
   -3426    -3435    -3492    -3576    -3585    -3501    -3410    -3388 
   -3466    -3596    -3680    -3705    -3742    -3788    -3757    -3628 
   -3508    -3484    -3508    -3507    -3458    -3372    -3264    -3160 
   -3115    -3171    -3284    -3402    -3496    -3574    -3670    -3765 
   -3789    -3719    -3631    -3634    -3707    -3757    -3762    -3742 
   -3655    -3495    -3373    -3348    -3312    -3245    -3254    -3348 
   -3391    -3330    -3275    -3283    -3283    -3295    -3427    -3632 
   -3776    -3850    -3888    -3892    -3847    -3747    -3653    -3626 
   -3595    -3476    -3349    -3307    -3310    -3275    -3186    -3092 
   -3057    -3107    -3258    -3458    -3605    -3708    -3825    -3925 
   -3951    -3912    -3831    -3763    -3761    -3767    -3689    -3541 
   -3365    -3180    -3051    -3013    -3029    -3051    -3107    -3254 
   -3456    -3600    -3665    -3713    -3765    -3784    -3769    -3747 
   -3711    -3692    -3716    -3731    -3719    -3663    -3527    -3372 
   -3257    -3194    -3180    -3180    -3213    -3296    -3345    -3341 
   -3361    -3438    -3523    -3589    -3676    -3765    -3813    -3854 
   -3904    -3942    -3913    -3780    -3626    -3526    -3431    -3307 
   -3188    -3086    -3002    -2986    -3063    -3161    -3262    -3445 
   -3661    -3788    -3831    -3863    -3909    -3927    -3908    -3871 
   -3755    -3569    -3447    -3383    -3312    -3268    -3253    -3230 
   -3196    -3186    -3226    -3292    -3354    -3447    -3601    -3738 
   -3757    -3719    -3730    -3743    -3743    -3794    -3823    -3709 
   -3527    -3399    -3315    -3235    -3194    -3219    -3276    -3327 
   -3365    -3391    -3399    -3423    -3518    -3663    -3765    -3775 
   -3744    -3726    -3703    -3642    -3596    -3607    -3597    -3522 
   -3419    -3321    -3257    -3248    -3288    -3335    -3349    -3369 
   -3426    -3453    -3431    -3451    -3561    -3724    -3888    -3958 
   -3898    -3813    -3750    -3645    -3507    -3406    -3358    -3323 
   -3268    -3226    -3232    -3237    -3184    -3146    -3227    -3397 
   -3524    -3580    -3670    -3825    -3924    -3901    -3831    -3781 
   -3748    -3715    -3663    -3607    -3535    -3400    -3238    -3125 
   -3052    -3025    -3075    -3199    -3358    -3503    -3592    -3636 
   -3673    -3707    -3721    -3743    -3815    -3899    -3915    -3848 
   -3757    -3627    -3427    -3244    -3167    -3157    -3179    -3230 
   -3272    -3279    -3291    -3342    -3400    -3446    -3518    -3627 
   -3746    -3838    -3890    -3909    -3870    -3773    -3672    -3582 
   -3491    -3415    -3380    -3354    -3302    -3215    -3119    -3064 
   -3090    -3210    -3381    -3516    -3605    -3692    -3759    -3789 
   -3802    -3809    -3809    -3801    -3770    -3709    -3618    -3501 
   -3375    -3267    -3211    -3206    -3221    -3257    -3306    -3329 
