Origin Time       2018/04/09 06:38:00
Lat.              35.2
Long.             132.6
Depth. (km)       10
Mag.              3.8
Station Code      HRSH10
Station Lat.      34.7471
Station Long.     132.3794
Station Height(m) 712
Record Time       2018/04/09 06:38:58
Sampling Freq(Hz) 100Hz
Duration Time(s)  120
Dir.              4
Scale Factor      7845(gal)/8223790
Max. Acc. (gal)   2.491
Last Correction   2018/04/09 06:38:43
Memo.             
[...]
   -2731    -2731    -2733    -2731    -2728    -2732    -2733    -2729 
   -2731    -2733    -2732    -2731    -2731    -2732    -2733    -2733 
   -2733    -2735    -2735    -2732    -2729    -2729    -2731    -2731 
   -2733    -2736    -2732    -2729    -2731    -2733    -2729    -2728 
   -2731    -2732    -2729    -2731    -2733    -2732    -2732    -2733 
   -2731    -2731    -2732    -2732    -2731    -2731    -2729    -2729 
   -2729    -2729    -2731    -2732    -2731    -2729    -2731    -2731 
   -2731    -2732    -2733    -2731    -2732    -2732    -2731    -2733 
   -2732    -2729    -2732    -2735    -2732    -2731    -2732    -2733 
   -2733    -2731    -2731    -2731    -2729    -2731    -2731    -2728 
   -2729    -2731    -2731    -2729    -2731    -2732    -2731    -2732 
   -2732    -2731    -2731    -2732    -2732    -2729    -2728    -2729 
   -2732    -2731    -2729    -2731    -2731    -2732    -2732    -2731 
   -2732    -2733    -2732    -2729    -2729    -2732    -2732    -2731 
   -2731    -2731    -2729    -2731    -2731    -2732    -2735    -2733 
   -2728    -2729    -2732    -2729    -2728    -2731    -2729    -2729 
   -2731    -2732    -2733    -2733    -2733    -2733    -2731    -2728 
   -2729    -2731    -2729    -2729    -2731    -2731    -2732    -2731 
   -2729    -2731    -2732    -2732    -2731    -2729    -2729    -2733 
   -2733    -2731    -2731    -2731    -2729    -2731    -2732    -2732 
   -2732    -2732    -2731    -2731    -2731    -2731    -2731    -2732 
   -2732    -2729    -2728    -2731    -2731    -2731    -2731    -2729 
   -2731    -2733    -2733    -2731    -2731    -2731    -2729    -2731 
   -2732    -2729    -2731    -2732    -2732    -2731    -2731    -2732 
   -2733    -2732    -2729    -2731    -2731    -2727    -2728    -2731 
   -2731    -2729    -2729    -2731    -2733    -2733    -2732    -2729 
   -2729    -2731    -2731    -2731    -2732    -2732    -2731    -2731 
   -2732    -2732    -2731    -2729    -2728    -2727    -2729    -2731 
   -2731    -2729    -2731    -2732    -2731    -2733    -2733    -2729 
   -2728    -2728    -2729    -2731    -2731    -2732    -2732    -2732 
   -2732    -2729    -2728    -2731    -2729    -2728    -2732    -2731 
   -2729    -2732    -2733    -2729    -2728    -2729    -2731    -2732 
   -2731    -2729    -2731    -2732    -2732    -2733    -2732    -2731 
   -2732    -2732    -2729    -2729    -2733    -2733    -2731    -2731 
   -2731    -2731    -2731    -2729    -2731    -2732    -2731    -2731 
   -2731    -2732    -2732    -2729    -2728    -2729    -2732    -2731 
   -2731    -2732    -2732    -2732    -2731    -2729    -2731    -2731 
   -2731    -2731    -2729    -2731    -2731    -2731    -2731    -2731 
   -2732    -2731    -2729    -2731    -2732    -2733    -2731    -2729 
   -2731    -2731    -2729    -2731    -2733    -2732    -2732    -2733 
   -2731    -2728    -2731    -2731    -2729    -2731    -2732    -2732 
   -2732    -2732    -2732    -2732    -2731    -2733    -2735    -2735 
   -2733    -2731    -2731    -2735    -2733    -2732    -2732    -2732 
   -2731    -2731    -2731    -2731    -2732    -2732    -2732    -2731 
   -2731    -2732    -2732    -2732    -2731    -2732    -2733    -2731 
   -2732    -2731    -2729    -2732    -2733    -2731    -2731    -2735 
   -2732    -2729    -2731    -2732    -2731    -2729    -2731    -2731 
   -2729    -2733    -2735    -2733    -2732    -2731    -2732    -2732 
   -2731    -2731    -2732    -2733    -2733    -2731    -2731    -2732 
   -2731    -2729    -2732    -2732    -2732    -2731    -2731    -2731 
   -2731    -2729    -2728    -2728    -2735    -2737    -2733    -2731 
   -2729    -2731    -2732    -2732    -2731    -2731    -2733    -2731 
   -2729    -2731    -2729    -2731    -2733    -2732    -2732    -2732 
   -2731    -2732    -2732    -2729    -2729    -2735    -2733    -2728 
   -2729    -2732    -2732    -2732    -2731    -2731    -2731    -2729 
   -2732    -2732    -2729    -2732    -2732    -2729    -2729    -2733 
   -2733    -2735    -2733    -2731    -2733    -2733    -2732    -2732 
   -2732    -2729    -2729    -2729    -2729    -2731    -2731    -2731 
   -2732    -2732    -2732    -2732    -2732    -2732    -2732    -2731 
   -2731    -2733    -2732    -2731    -2729    -2728    -2729    -2731 
   -2729    -2729    -2729    -2729    -2732    -2732    -2732    -2733 
   -2729    -2731    -2733    -2731    -2732    -2733    -2731    -2731 
   -2732    -2732    -2735    -2733    -2732    -2732    -2732    -2731 
   -2732    -2732    -2729    -2728    -2729    -2731    -2732    -2732 
   -2731    -2729    -2731    -2732    -2733    -2733    -2733    -2731 
   -2732    -2732    -2731    -2729    -2731    -2732    -2731    -2728 
   -2729    -2732    -2731    -2729    -2731    -2731    -2731    -2732 
   -2732    -2731    -2729    -2729    -2729    -2729    -2729    -2732 
   -2733    -2732    -2727    -2725    -2728    -2729    -2733    -2733 
   -2731    -2729    -2733    -2735    -2731    -2729    -2731    -2731 
   -2731    -2731    -2729    -2728    -2729    -2731    -2732    -2731 
   -2731    -2732    -2732    -2731    -2731    -2731    -2728    -2729 
   -2731    -2731    -2731    -2732    -2732    -2731    -2731    -2732 
   -2732    -2733    -2733    -2732    -2732    -2731    -2731    -2731 
   -2731    -2732    -2732    -2732    -2731    -2731    -2733    -2732 
   -2731    -2732    -2732    -2732    -2731    -2732    -2732    -2732 
   -2735    -2737    -2735    -2733    -2736    -2744    -2758    -2764 
   -2755    -2744    -2755    -2781    -2802    -2814    -2820    -2820 
   -2801    -2762    -2729    -2733    -2748    -2740    -2713    -2693 
   -2666    -2623    -2581    -2523    -2485    -2529    -2647    -2721 
   -2604    -2413    -2451    -2778    -3051    -2872    -2494    -2403 
   -2590    -2874    -3044    -2925    -2679    -2745    -3238    -3539 
   -3215    -2463    -1929    -2403    -3383    -3699    -3334    -2899 
   -2755    -2717    -2486    -2027    -1429    -1491    -2875    -4418 
   -4429    -2980    -1644    -1391    -1803    -2268    -2392    -2074 
   -2281    -3446    -4189    -3635    -2752    -2616    -2929    -2867 
   -2436    -2142    -2301    -2844    -3370    -3682    -3765    -3450 
   -2627    -1671    -1520    -2400    -3145    -3111    -2917    -2922 
   -2817    -2490    -2135    -1755    -1794    -2828    -3812    -3415 
   -2376    -2100    -2539    -2882    -2875    -2767    -2803    -2875 
   -2932    -3152    -3036    -2425    -2361    -2925    -3207    -3148 
   -3053    -2814    -2362    -2034    -2377    -3346    -3813    -3024 
   -2056    -1999    -2355    -2478    -2400    -2281    -2305    -2629 
   -3091    -3225    -2844    -2390    -2496    -3107    -3473    -3339 
   -3130    -2911    -2523    -2274    -2380    -2475    -2529    -2794 
   -3005    -2964    -2837    -2627    -2374    -2381    -2741    -3017 
   -2959    -2732    -2424    -2386    -2837    -3203    -3049    -2776 
   -2875    -3006    -2821    -2663    -2570    -2482    -2701    -2964 
   -2776    -2323    -2134    -2384    -2663    -2655    -2583    -2671 
   -2909    -3122    -3091    -2809    -2500    -2463    -2651    -2772 
   -2729    -2521    -2467    -2878    -3327    -3339    -3080    -2872 
   -2748    -2689    -2678    -2704    -2895    -3115    -3163    -3141 
   -2947    -2501    -2181    -2369    -2712    -2610    -2349    -2327 
   -2322    -2199    -2151    -2254    -2272    -2254    -2509    -2894 
   -3144    -3194    -3130    -3149    -3204    -3176    -3199    -3281 
   -3161    -2949    -2964    -2929    -2662    -2571    -2681    -2639 
   -2479    -2397    -2363    -2404    -2635    -2884    -2924    -2774 
   -2494    -2274    -2382    -2621    -2623    -2567    -2674    -2718 
   -2739    -2895    -2817    -2501    -2494    -2816    -3142    -3244 
   -3022    -2836    -2922    -2972    -2959    -3025    -2887    -2601 
   -2542    -2639    -2708    -2620    -2358    -2288    -2575    -2841 
   -2779    -2602    -2624    -2789    -2828    -2651    -2529    -2636 
   -2751    -2748    -2674    -2542    -2486    -2647    -3014    -3354 
   -3379    -3230    -3140    -2952    -2664    -2484    -2396    -2378 
   -2416    -2305    -2089    -2184    -2579    -2895    -2953    -2814 
   -2801    -3034    -3173    -3056    -2875    -2851    -2938    -2933 
   -2774    -2543    -2446    -2531    -2682    -2813    -2732    -2481 
   -2434    -2685    -2991    -3083    -2871    -2587    -2492    -2562 
   -2628    -2675    -2752    -2798    -2818    -2817    -2758    -2643 
   -2457    -2500    -2910    -3190    -3159    -2984    -2713    -2579 
   -2700    -2778    -2658    -2583    -2701    -2839    -2879    -2795 
   -2652    -2596    -2613    -2620    -2608    -2577    -2504    -2392 
   -2323    -2409    -2640    -2851    -2999    -3133    -3130    -2971 
   -2884    -2941    -2907    -2625    -2401    -2609    -3019    -3164 
   -2982    -2732    -2583    -2577    -2714    -2781    -2687    -2706 
   -2830    -2799    -2589    -2347    -2293    -2467    -2616    -2624 
   -2593    -2593    -2628    -2752    -2971    -3117    -3118    -3055 
   -2926    -2760    -2675    -2704    -2683    -2511    -2427    -2570 
   -2671    -2686    -2813    -2960    -2984    -2910    -2768    -2585 
   -2497    -2700    -2980    -3033    -2959    -2841    -2708    -2620 
   -2538    -2492    -2573    -2675    -2606    -2554    -2739    -2830 
   -2708    -2639    -2660    -2743    -2840    -2891    -2868    -2674 
   -2448    -2419    -2592    -2840    -3009    -3107    -3086    -2887 
   -2683    -2535    -2525    -2774    -3036    -3052    -2828    -2546 
   -2428    -2519    -2686    -2713    -2566    -2471    -2484    -2547 
   -2708    -2902    -3026    -3072    -3065    -3042    -2953    -2762 
   -2570    -2504    -2532    -2490    -2477    -2609    -2727    -2841 
   -2948    -2868    -2714    -2678    -2718    -2743    -2824    -2957 
   -2863    -2617    -2533    -2482    -2376    -2358    -2508    -2821 
   -3069    -3115    -3042    -2878    -2806    -2944    -2976    -2664 
   -2319    -2324    -2556    -2771    -2857    -2739    -2668    -2857 
   -3071    -3065    -2879    -2706    -2608    -2473    -2409    -2488 
   -2546    -2662    -2818    -2801    -2702    -2700    -2803    -2899 
   -2857    -2749    -2674    -2616    -2658    -2872    -3029    -2956 
   -2797    -2674    -2571    -2531    -2641    -2751    -2666    -2587 
   -2663    -2732    -2675    -2533    -2481    -2612    -2851    -3056 
   -3087    -3042    -3048    -3003    -2872    -2721    -2627    -2641 
   -2640    -2540    -2471    -2438    -2326    -2366    -2770    -3109 
   -3048    -2849    -2697    -2590    -2566    -2567    -2612    -2743 
   -2870    -2976    -3015    -2895    -2731    -2632    -2629    -2775 
   -2975    -3026    -2909    -2821    -2717    -2420    -2234    -2369 
   -2492    -2497    -2674    -2974    -3017    -2884    -2920    -2953 
   -2805    -2781    -2941    -2829    -2436    -2262    -2417    -2640 
   -2754    -2886    -3125    -3125    -2830    -2679    -2660    -2543 
   -2531    -2694    -2787    -2766    -2683    -2583    -2560    -2646 
   -2725    -2710    -2754    -2965    -3168    -3113    -2695    -2269 
   -2303    -2620    -2847    -2934    -2907    -2801    -2694    -2681 
   -2667    -2532    -2555    -2774    -2783    -2601    -2575    -2747 
   -2891    -3026    -3264    -3242    -2808    -2485    -2497    -2509 
   -2376    -2316    -2531    -2952    -3288    -3214    -2663    -2122 
   -2199    -2593    -2668    -2659    -2876    -3096    -3165    -3121 
   -3030    -2863    -2636    -2409    -2211    -2251    -2575    -2910 
   -3011    -2920    -2876    -2808    -2600    -2412    -2362    -2610 
   -3107    -3299    -2971    -2666    -2733    -2867    -2771    -2509 
   -2222    -2008    -2091    -2714    -3531    -3765    -3411    -3125 
   -2948    -2594    -2350    -2374    -2324    -2165    -2182    -2481 
   -2906    -3103    -2980    -2852    -2782    -2673    -2690    -2921 
   -3291    -3628    -3553    -2971    -2255    -1607    -1170    -1140 
   -1381    -1938    -3022    -4180    -4688    -4450    -3906    -3330 
   -2785    -2407    -2242    -2126    -1956    -2002    -2475    -3013 
   -3095    -2809    -2659    -2673    -2606    -2589    -2509    -2053 
   -1571    -1624    -2262    -3129    -3677    -3730    -3624    -3469 
   -3188    -2956    -2953    -3184    -3474    -3434    -2837    -2023 
   -1549    -1692    -2316    -2967    -3372    -3542    -3383    -2916 
   -2289    -1602    -1252    -1591    -2234    -2690    -2940    -2918 
   -2602    -2446    -2635    -2714    -2598    -2770    -3199    -3399 
   -3311    -3296    -3526    -3666    -3514    -3391    -3299    -2914 
   -2394    -2133    -2208    -2446    -2586    -2481    -2323    -2324 
   -2369    -2326    -2227    -2130    -2069    -2037    -2118    -2357 
   -2567    -2701    -2998    -3514    -3933    -4036    -3902    -3736 
   -3785    -3952    -3677    -2825    -2057    -1848    -1892    -1748 
   -1529    -1579    -1814    -1941    -2093    -2394    -2512    -2408 
   -2443    -2802    -3350    -3739    -3829    -3721    -3377    -2990 
   -2916    -2952    -2790    -2610    -2594    -2729    -3080    -3515 
   -3680    -3404    -2772    -2311    -2540    -3115    -3352    -2926 
   -1973    -1090     -677     -560     -554     -789    -1418    -2347 
   -3460    -4621    -5343    -5136    -4162    -3149    -2594    -2258 
   -1933    -1930    -2307    -2797    -3404    -4090    -4619    -4792 
   -4369    -3501    -2619    -1863    -1525    -1663    -1547    -1028 
    -826    -1147    -1629    -1907    -1871    -2019    -2748    -3503 
   -3847    -4087    -4225    -3948    -3329    -2713    -2446    -2567 
   -2764    -2890    -2957    -2887    -2918    -3372    -3912    -3912 
   -3252    -2560    -2323    -2085    -1458     -967    -1324    -2250 
   -2721    -2654    -2758    -2999    -2991    -2817    -2687    -2717 
   -2937    -3176    -3319    -3396    -3268    -2797    -2147    -1730 
   -1860    -2358    -2897    -3402    -3661    -3449    -3069    -2902 
   -2787    -2590    -2432    -2322    -2299    -2322    -2222    -2103 
   -2166    -2475    -2986    -3464    -3658    -3551    -3253    -2910 
   -2822    -3003    -3003    -2799    -2691    -2560    -2270    -2019 
   -1985    -2176    -2525    -2879    -3018    -2972    -3045    -3267 
   -3145    -2527    -2099    -2242    -2481    -2393    -2158    -2255 
   -2745    -3057    -2925    -2806    -3051    -3372    -3311    -2906 
   -2594    -2660    -3067    -3385    -3144    -2646    -2590    -2948 
   -3119    -2709    -1968    -1695    -2215    -2948    -3280    -3186 
   -2986    -2859    -2712    -2467    -2203    -2143    -2455    -2863 
   -2944    -2764    -2582    -2505    -2567    -2654    -2625    -2498 
   -2450    -2706    -3046    -3127    -3098    -3055    -2826    -2527 
   -2565    -3049    -3539    -3608    -3191    -2486    -1973    -1925 
   -2172    -2598    -3032    -3186    -3126    -3018    -2863    -2673 
   -2442    -2230    -2141    -2160    -2277    -2466    -2650    -2941 
   -3299    -3318    -3019    -2949    -3121    -3091    -2878    -2714 
   -2533    -2323    -2280    -2419    -2612    -2763    -2775    -2772 
   -2920    -3076    -3080    -2853    -2432    -2141    -2095    -2155 
   -2393    -2733    -2910    -2986    -3126    -3322    -3451    -3235 
   -2762    -2616    -2822    -2914    -2835    -2700    -2554    -2493 
   -2528    -2532    -2496    -2606    -2806    -2808    -2631    -2497 
   -2500    -2547    -2519    -2546    -2770    -3048    -3144    -2940 
   -2663    -2621    -2706    -2659    -2478    -2431    -2694    -3082 
   -3294    -3176    -2864    -2647    -2586    -2593    -2614    -2691 
   -2847    -2917    -2798    -2700    -2762    -2778    -2579    -2404 
   -2471    -2691    -2960    -3186    -3184    -2917    -2608    -2451 
   -2381    -2335    -2350    -2363    -2382    -2506    -2681    -2874 
   -3152    -3307    -3188    -3063    -3073    -3038    -2786    -2313 
   -1957    -2139    -2697    -3073    -3061    -2817    -2636    -2710 
   -2820    -2790    -2799    -2936    -3049    -2955    -2689    -2362 
   -2106    -2224    -2648    -2955    -3111    -3252    -3248    -2974 
   -2600    -2342    -2278    -2542    -2998    -3237    -3111    -2644 
   -2039    -1663    -1665    -2037    -2660    -3230    -3541    -3630 
   -3503    -3087    -2617    -2506    -2747    -2975    -2974    -2778 
   -2525    -2381    -2363    -2371    -2489    -2843    -3142    -3036 
   -2737    -2616    -2646    -2706    -2744    -2729    -2720    -2652 
   -2459    -2376    -2496    -2517    -2434    -2636    -3092    -3406 
   -3468    -3321    -2879    -2343    -2228    -2569    -2786    -2637 
   -2496    -2559    -2749    -3013    -3171    -3125    -3011    -2926 
   -2855    -2736    -2617    -2573    -2509    -2457    -2506    -2431 
   -2177    -2145    -2492    -2880    -3019    -2987    -2941    -2883 
   -2816    -2828    -2893    -2852    -2731    -2747    -2837    -2732 
   -2555    -2577    -2729    -2856    -2992    -3148    -3172    -3037 
   -2843    -2619    -2481    -2457    -2293    -2057    -2030    -2168 
   -2366    -2624    -2890    -3111    -3273    -3307    -3138    -2878 
   -2724    -2697    -2677    -2637    -2670    -2722    -2709    -2655 
   -2625    -2790    -3130    -3299    -3194    -3026    -2857    -2578 
   -2203    -1923    -1954    -2299    -2697    -2917    -2914    -2735 
   -2608    -2736    -2920    -2930    -2917    -3037    -3156    -3096 
   -2880    -2663    -2551    -2520    -2527    -2610    -2683    -2539 
   -2331    -2338    -2509    -2797    -3086    -3141    -3040    -2924 
   -2764    -2641    -2652    -2712    -2674    -2505    -2365    -2423 
   -2579    -2610    -2569    -2714    -3092    -3414    -3380    -3107 
   -2929    -2863    -2721    -2479    -2317    -2377    -2531    -2592 
   -2589    -2619    -2677    -2720    -2772    -2868    -2941    -2829 
   -2513    -2353    -2544    -2798    -2936    -2956    -2859    -2839 
   -3007    -3083    -2920    -2833    -2951    -3036    -2988    -2766 
   -2431    -2293    -2388    -2446    -2407    -2458    -2679    -2871 
   -2884    -2884    -2936    -2841    -2612    -2506    -2536    -2574 
   -2704    -2868    -2874    -2806    -2789    -2776    -2837    -2959 
   -2884    -2570    -2254    -2170    -2380    -2733    -3064    -3218 
   -3052    -2783    -2733    -2781    -2712    -2650    -2728    -2789 
   -2714    -2673    -2744    -2760    -2651    -2556    -2625    -2781 
   -2725    -2471    -2400    -2635    -2922    -3038    -2976    -2864 
   -2768    -2686    -2655    -2714    -2852    -2982    -2987    -2897 
   -2783    -2643    -2551    -2569    -2646    -2770    -2849    -2754 
   -2556    -2412    -2419    -2579    -2772    -2938    -3048    -2959 
   -2671    -2436    -2421    -2516    -2628    -2754    -2822    -2897 
   -2999    -2970    -2839    -2744    -2682    -2648    -2717    -2836 
   -2830    -2735    -2681    -2632    -2543    -2497    -2565    -2658 
   -2766    -2971    -3102    -2994    -2759    -2542    -2443    -2567 
   -2891    -3169    -3217    -3049    -2697    -2351    -2344    -2601 
