Origin Time       2018/04/09 06:38:00
Lat.              35.2
Long.             132.6
Depth. (km)       10
Mag.              3.8
Station Code      HRSH10
Station Lat.      34.7471
Station Long.     132.3794
Station Height(m) 612
Record Time       2018/04/09 06:38:58
Sampling Freq(Hz) 100Hz
Duration Time(s)  120
Dir.              2
Scale Factor      2942(gal)/8224139
Max. Acc. (gal)   0.332
Last Correction   2018/04/09 06:38:43
Memo.             
[...]
   28235    28235    28233    28231    28232    28233    28235    28233 
   28233    28235    28236    28235    28231    28231    28235    28233 
   28232    28236    28236    28233    28235    28235    28235    28235 
   28232    28232    28232    28232    28236    28235    28231    28235 
   28236    28233    28235    28233    28233    28236    28235    28232 
   28233    28233    28231    28233    28237    28236    28231    28229 
   28232    28235    28235    28233    28232    28233    28233    28232 
   28235    28236    28236    28233    28231    28233    28235    28233 
   28231    28231    28233    28235    28235    28232    28231    28232 
   28233    28235    28232    28231    28233    28235    28233    28233 
   28233    28235    28236    28233    28232    28231    28232    28236 
   28235    28233    28233    28233    28235    28235    28231    28233 
   28233    28232    28233    28233    28232    28232    28232    28232 
   28233    28233    28233    28233    28233    28233    28233    28233 
   28236    28236    28235    28233    28233    28235    28235    28235 
   28236    28236    28231    28232    28236    28233    28233    28236 
   28232    28232    28237    28236    28232    28232    28235    28235 
   28235    28233    28233    28232    28232    28232    28232    28232 
   28235    28233    28229    28229    28232    28236    28236    28231 
   28231    28233    28233    28232    28233    28233    28237    28236 
   28232    28231    28233    28235    28236    28235    28233    28233 
   28233    28235    28233    28231    28231    28231    28233    28236 
   28235    28233    28233    28232    28233    28235    28233    28233 
   28232    28232    28232    28233    28235    28233    28231    28231 
   28235    28233    28231    28231    28235    28236    28236    28232 
   28231    28233    28233    28235    28236    28232    28231    28235 
   28232    28231    28235    28235    28233    28233    28233    28236 
   28236    28232    28235    28237    28235    28233    28233    28232 
   28232    28233    28235    28235    28233    28235    28236    28233 
   28232    28235    28235    28235    28236    28232    28231    28233 
   28233    28231    28233    28235    28233    28232    28232    28235 
   28232    28231    28233    28235    28233    28235    28233    28233 
   28233    28233    28233    28232    28232    28236    28235    28232 
   28232    28232    28235    28236    28235    28232    28232    28232 
   28233    28235    28235    28233    28235    28235    28237    28235 
   28232    28232    28232    28235    28236    28232    28231    28235 
   28236    28235    28235    28232    28231    28232    28233    28237 
   28237    28233    28235    28233    28231    28235    28237    28233 
   28232    28233    28235    28233    28232    28235    28235    28232 
   28233    28233    28233    28231    28231    28233    28235    28232 
   28232    28233    28233    28232    28233    28233    28232    28233 
   28233    28232    28233    28235    28236    28235    28231    28232 
   28236    28236    28233    28233    28236    28235    28235    28235 
   28233    28233    28233    28232    28231    28233    28235    28232 
   28231    28235    28236    28233    28229    28229    28233    28233 
   28232    28232    28232    28231    28232    28232    28232    28236 
   28236    28233    28233    28233    28231    28233    28235    28233 
   28232    28232    28235    28235    28235    28235    28232    28231 
   28235    28233    28231    28235    28236    28232    28232    28231 
   28231    28232    28235    28232    28232    28235    28235    28232 
   28232    28233    28233    28233    28235    28233    28233    28235 
   28233    28233    28235    28232    28232    28232    28233    28235 
   28233    28232    28232    28232    28232    28235    28235    28233 
   28233    28235    28236    28235    28233    28235    28235    28233 
   28237    28233    28231    28237    28235    28232    28235    28233 
   28231    28233    28237    28237    28233    28232    28232    28231 
   28229    28232    28233    28231    28232    28236    28235    28233 
   28235    28233    28232    28235    28233    28231    28232    28233 
   28236    28236    28232    28231    28233    28233    28231    28232 
   28233    28233    28232    28232    28233    28232    28232    28233 
   28233    28233    28232    28232    28233    28235    28235    28236 
   28235    28231    28233    28236    28233    28235    28235    28232 
   28232    28233    28231    28232    28235    28236    28236    28235 
   28236    28236    28235    28233    28235    28235    28235    28237 
   28237    28235    28233    28233    28235    28235    28233    28235 
   28236    28233    28232    28236    28235    28233    28233    28232 
   28235    28236    28232    28232    28235    28235    28233    28233 
   28233    28235    28236    28236    28233    28231    28233    28236 
   28235    28232    28231    28232    28232    28231    28235    28236 
   28232    28232    28233    28231    28232    28236    28236    28233 
   28233    28233    28233    28233    28233    28231    28233    28236 
   28235    28233    28235    28235    28232    28233    28235    28235 
   28232    28233    28235    28235    28235    28233    28231    28233 
   28237    28235    28233    28236    28233    28232    28236    28235 
   28233    28235    28235    28233    28232    28235    28235    28232 
   28232    28233    28235    28235    28235    28232    28233    28236 
   28235    28233    28233    28235    28235    28235    28236    28233 
   28232    28235    28235    28233    28235    28237    28236    28235 
   28235    28235    28235    28233    28235    28236    28233    28232 
   28233    28233    28232    28233    28235    28236    28235    28235 
   28236    28236    28235    28233    28232    28233    28233    28232 
   28231    28232    28233    28235    28235    28235    28233    28233 
   28232    28232    28235    28236    28233    28235    28235    28232 
   28235    28236    28233    28235    28235    28235    28237    28236 
   28235    28236    28236    28233    28232    28235    28236    28233 
   28236    28236    28231    28233    28235    28232    28236    28236 
   28235    28236    28236    28235    28235    28235    28235    28233 
   28232    28235    28236    28233    28233    28235    28235    28233 
   28235    28236    28235    28235    28236    28235    28235    28233 
   28232    28235    28235    28232    28235    28237    28235    28232 
   28232    28235    28235    28235    28235    28233    28233    28235 
   28236    28236    28235    28235    28233    28233    28233    28231 
   28232    28235    28235    28233    28233    28235    28235    28232 
   28232    28235    28233    28232    28233    28233    28235    28236 
   28235    28235    28233    28232    28235    28235    28235    28233 
   28233    28235    28235    28235    28237    28236    28232    28233 
   28235    28235    28235    28236    28233    28233    28235    28233 
   28235    28237    28235    28231    28232    28235    28235    28233 
   28235    28233    28233    28235    28232    28231    28232    28232 
   28235    28235    28235    28233    28232    28232    28233    28235 
   28235    28232    28232    28235    28235    28233    28235    28235 
   28232    28232    28232    28232    28233    28235    28235    28236 
   28235    28233    28232    28233    28235    28236    28235    28233 
   28233    28235    28235    28235    28236    28232    28231    28233 
   28233    28232    28235    28233    28232    28235    28235    28232 
   28232    28235    28233    28232    28232    28235    28236    28232 
   28231    28233    28233    28232    28236    28235    28233    28235 
   28235    28233    28233    28233    28232    28232    28233    28233 
   28233    28233    28232    28232    28233    28235    28236    28235 
   28233    28235    28236    28237    28233    28232    28233    28232 
   28233    28235    28233    28233    28233    28232    28232    28232 
   28231    28233    28236    28233    28235    28236    28235    28233 
   28232    28233    28237    28235    28232    28235    28235    28233 
   28233    28232    28232    28233    28236    28236    28233    28231 
   28233    28235    28233    28233    28235    28233    28232    28235 
   28233    28231    28236    28236    28233    28233    28232    28232 
   28236    28235    28232    28235    28233    28232    28235    28236 
   28233    28235    28237    28235    28232    28233    28233    28231 
   28235    28236    28231    28231    28233    28232    28235    28236 
   28235    28233    28233    28232    28232    28232    28233    28235 
   28233    28232    28233    28235    28235    28235    28235    28233 
   28232    28233    28235    28233    28231    28233    28235    28233 
   28231    28228    28232    28236    28235    28235    28232    28228 
   28232    28237    28235    28233    28235    28233    28231    28233 
   28235    28235    28233    28233    28233    28233    28233    28232 
   28233    28235    28236    28235    28231    28233    28236    28232 
   28232    28236    28235    28233    28235    28235    28231    28232 
   28237    28236    28233    28236    28236    28235    28233    28233 
   28235    28235    28233    28233    28235    28236    28233    28232 
   28235    28235    28232    28235    28236    28236    28239    28237 
   28233    28236    28239    28235    28235    28239    28235    28228 
   28231    28235    28231    28232    28236    28236    28236    28236 
   28232    28232    28235    28232    28231    28235    28236    28232 
   28235    28236    28236    28235    28233    28233    28235    28235 
   28233    28233    28235    28235    28232    28233    28233    28232 
   28235    28237    28235    28233    28235    28235    28233    28235 
   28233    28233    28233    28232    28235    28236    28233    28235 
   28239    28235    28235    28235    28233    28236    28236    28233 
   28235    28236    28235    28236    28235    28236    28239    28235 
   28231    28233    28235    28235    28235    28233    28235    28235 
   28233    28233    28233    28235    28235    28235    28235    28233 
   28233    28235    28235    28235    28236    28237    28233    28232 
   28235    28236    28236    28235    28233    28235    28237    28233 
   28232    28235    28237    28236    28235    28235    28236    28235 
   28233    28236    28233    28231    28236    28233    28229    28232 
   28233    28232    28233    28236    28235    28233    28232    28232 
   28231    28233    28236    28235    28236    28237    28235    28233 
   28233    28233    28236    28235    28233    28233    28232    28232 
   28233    28233    28232    28232    28235    28236    28235    28235 
   28235    28233    28233    28236    28235    28233    28235    28236 
   28235    28233    28232    28235    28233    28232    28235    28236 
   28232    28232    28233    28233    28232    28233    28233    28233 
   28233    28233    28235    28235    28233    28233    28235    28232 
   28227    28231    28237    28233    28231    28235    28236    28233 
   28235    28235    28232    28232    28235    28236    28233    28232 
   28235    28233    28232    28233    28235    28232    28235    28235 
   28231    28232    28235    28233    28233    28233    28231    28231 
   28235    28235    28232    28232    28231    28232    28233    28232 
   28232    28233    28233    28233    28235    28233    28232    28231 
   28233    28235    28232    28228    28231    28235    28232    28231 
   28233    28233    28233    28232    28231    28231    28233    28232 
   28233    28235    28233    28233    28232    28233    28237    28235 
   28232    28233    28231    28232    28236    28235    28233    28233 
   28232    28232    28232    28235    28236    28235    28233    28235 
   28235    28233    28233    28232    28231    28232    28235    28237 
   28235    28232    28236    28237    28232    28233    28236    28233 
   28235    28233    28233    28236    28235    28232    28235    28235 
   28233    28232    28232    28235    28235    28235    28235    28233 
   28235    28233    28231    28232    28233    28232    28235    28233 
   28232    28232    28235    28235    28235    28236    28235    28235 
   28235    28233    28235    28233    28232    28235    28233    28232 
   28236    28236    28232    28232    28233    28232    28235    28236 
   28232    28233    28235    28232    28235    28237    28235    28233 
   28233    28232    28235    28236    28233    28232    28233    28232 
   28231    28235    28233    28231    28232    28235    28233    28229 
   28229    28233    28235    28235    28232    28232    28235    28235 
   28233    28233    28232    28231    28233    28237    28235    28232 
   28232    28232    28232    28233    28232    28233    28233    28233 
   28235    28232    28231    28233    28235    28235    28233    28232 
   28232    28233    28236    28235    28231    28231    28233    28233 
   28235    28235    28229    28227    28228    28227    28221    28210 
   28202    28206    28216    28212    28198    28201    28225    28221 
   28182    28179    28235    28263    28223    28177    28202    28285 
   28314    28277    28262    28275    28271    28277    28267    28146 
   28088    28359    28750    28807    28339    27742    27727    28242 
   28563    28463    28213    28035    28132    28467    28522    28090 
   27697    27884    28501    28804    28416    27692    27307    27823 
   28782    29012    28417    27818    27662    28078    28637    28575 
   28080    27935    28314    28680    28555    28165    27916    27828 
   28047    28613    28837    28463    28007    27789    28038    28525 
   28524    28146    28008    28088    28225    28416    28386    28086 
   27870    28001    28412    28613    28341    28062    28065    28224 
   28402    28383    28198    28165    28283    28325    28310    28309 
   28229    28105    28073    28158    28339    28480    28310    27947 
   27935    28281    28459    28327    28077    27973    28201    28436 
   28328    28097    28034    28136    28364    28507    28323    28101 
   28116    28166    28231    28340    28362    28308    28217    28129 
   28123    28267    28452    28366    28189    28266    28375    28323 
   28181    28032    28121    28474    28541    28116    27858    28115 
   28456    28445    28073    27862    28156    28494    28404    28078 
   28000    28290    28537    28368    28047    28031    28294    28489 
   28348    28030    27982    28208    28348    28339    28240    28116 
   28123    28223    28266    28262    28221    28181    28200    28262 
   28321    28320    28296    28308    28285    28204    28198    28254 
   28231    28201    28237    28192    28077    28134    28298    28302 
   28232    28210    28167    28182    28242    28215    28189    28231 
   28228    28163    28202    28372    28408    28247    28127    28127 
   28262    28433    28379    28189    28162    28286    28397    28331 
   28096    28062    28328    28494    28329    28020    27940    28224 
   28539    28517    28163    27889    28019    28269    28305    28236 
   28225    28287    28321    28190    28055    28131    28262    28271 
   28206    28146    28194    28318    28340    28279    28215    28163 
   28185    28200    28154    28204    28321    28332    28229    28135 
   28175    28302    28336    28277    28201    28161    28236    28327 
   28269    28178    28193    28239    28282    28320    28269    28152 
   28120    28224    28328    28314    28229    28185    28274    28397 
   28355    28209    28108    28127    28262    28300    28204    28200 
   28282    28329    28321    28213    28128    28205    28271    28198 
   28117    28142    28240    28298    28251    28161    28148    28256 
   28335    28260    28138    28100    28167    28309    28393    28251 
   28069    28128    28323    28394    28298    28175    28127    28139 
   28206    28278    28320    28317    28220    28186    28308    28352 
   28259    28185    28177    28237    28320    28290    28178    28148 
   28227    28293    28291    28270    28258    28229    28192    28167 
   28169    28206    28244    28248    28269    28298    28262    28196 
   28177    28208    28223    28179    28159    28219    28291    28318 
   28273    28200    28240    28358    28327    28181    28140    28198 
   28262    28302    28213    28093    28198    28367    28312    28132 
   28038    28109    28262    28308    28244    28225    28270    28301 
   28283    28239    28223    28236    28194    28139    28223    28343 
   28329    28248    28150    28112    28231    28294    28196    28186 
   28294    28340    28291    28202    28165    28239    28323    28289 
   28208    28227    28294    28277    28190    28146    28158    28196 
   28271    28305    28228    28161    28201    28282    28294    28244 
   28213    28201    28177    28155    28147    28186    28301    28397 
   28363    28250    28156    28117    28121    28154    28186    28225 
   28317    28370    28278    28159    28129    28194    28312    28350 
   28264    28171    28156    28233    28327    28347    28304    28247 
   28200    28175    28197    28248    28273    28273    28291    28289 
   28216    28165    28178    28181    28190    28258    28310    28294 
   28251    28237    28256    28221    28066    27977    28150    28359 
   28347    28228    28182    28216    28275    28297    28254    28198 
   28235    28332    28324    28201    28131    28175    28259    28318 
   28291    28190    28112    28120    28210    28328    28337    28183 
   28066    28143    28316    28431    28374    28250    28235    28256 
   28266    28252    28161    28163    28308    28347    28269    28213 
   28169    28169    28221    28201    28150    28161    28179    28223 
   28301    28321    28282    28237    28219    28215    28220    28231 
   28233    28220    28189    28232    28336    28345    28282    28193 
   28093    28128    28250    28271    28242    28224    28173    28125 
   28138    28232    28378    28413    28309    28217    28173    28193 
   28304    28340    28250    28193    28188    28192    28247    28283 
   28237    28215    28250    28290    28278    28206    28189    28242 
   28256    28235    28225    28217    28183    28140    28181    28309 
   28358    28267    28181    28151    28156    28242    28320    28250 
   28143    28151    28224    28294    28304    28242    28220    28231 
   28209    28228    28277    28267    28219    28190    28239    28305 
   28258    28174    28198    28269    28328    28308    28170    28138 
   28254    28306    28262    28169    28143    28220    28273    28271 
   28215    28165    28247    28325    28250    28156    28170    28248 
   28287    28269    28256    28206    28119    28158    28267    28251 
   28169    28155    28236    28399    28482    28340    28152    28171 
   28332    28368    28243    28134    28105    28152    28193    28178 
   28244    28374    28385    28232    28071    28105    28298    28375 
   28169    27928    28061    28398    28487    28287    28024    27966 
   28228    28507    28471    28235    28143    28263    28379    28259 
   27946    27803    28053    28416    28474    28260    28101    28171 
