Origin Time       2018/04/09 06:38:00
Lat.              35.2
Long.             132.6
Depth. (km)       10
Mag.              3.8
Station Code      HRSH10
Station Lat.      34.7471
Station Long.     132.3794
Station Height(m) 612
Record Time       2018/04/09 06:38:58
Sampling Freq(Hz) 100Hz
Duration Time(s)  120
Dir.              3
Scale Factor      2942(gal)/8224139
Max. Acc. (gal)   0.321
Last Correction   2018/04/09 06:38:43
Memo.             
[...]
   38601    38601    38600    38601    38601    38599    38599    38599 
   38596    38599    38604    38601    38596    38599    38604    38603 
   38601    38603    38599    38597    38603    38603    38603    38605 
   38604    38601    38601    38603    38604    38603    38599    38600 
   38604    38604    38599    38600    38605    38605    38604    38603 
   38601    38600    38599    38600    38600    38597    38596    38597 
   38597    38596    38599    38601    38600    38599    38600    38600 
   38601    38600    38597    38600    38601    38600    38601    38601 
   38599    38599    38600    38600    38599    38600    38601    38603 
   38603    38601    38599    38597    38599    38600    38599    38597 
   38599    38599    38597    38597    38597    38597    38599    38599 
   38599    38599    38596    38599    38603    38604    38600    38599 
   38600    38599    38597    38601    38600    38597    38600    38601 
   38599    38599    38601    38603    38600    38600    38601    38601 
   38603    38603    38601    38601    38601    38600    38601    38601 
   38600    38601    38604    38603    38601    38600    38600    38600 
   38601    38601    38599    38599    38599    38599    38599    38599 
   38600    38599    38599    38599    38600    38600    38601    38600 
   38601    38603    38599    38596    38599    38600    38600    38600 
   38601    38603    38600    38601    38604    38603    38601    38604 
   38603    38597    38597    38599    38597    38597    38601    38601 
   38599    38600    38603    38600    38599    38600    38601    38601 
   38601    38600    38600    38600    38600    38600    38600    38604 
   38607    38604    38603    38603    38604    38604    38604    38604 
   38603    38603    38603    38603    38603    38604    38601    38600 
   38601    38604    38600    38597    38599    38600    38599    38599 
   38601    38600    38599    38603    38603    38600    38600    38603 
   38603    38603    38600    38599    38599    38599    38599    38600 
   38600    38600    38601    38599    38599    38603    38601    38599 
   38601    38603    38599    38597    38599    38599    38599    38603 
   38603    38603    38604    38601    38600    38600    38597    38597 
   38600    38601    38603    38600    38599    38601    38601    38600 
   38601    38600    38599    38601    38603    38604    38604    38597 
   38597    38601    38601    38600    38601    38603    38601    38601 
   38603    38603    38603    38600    38599    38601    38603    38601 
   38600    38603    38604    38601    38601    38604    38601    38596 
   38599    38605    38604    38601    38601    38600    38600    38601 
   38599    38600    38603    38600    38601    38604    38603    38603 
   38604    38604    38603    38600    38600    38601    38601    38599 
   38599    38600    38601    38603    38601    38603    38603    38597 
   38597    38599    38595    38595    38597    38599    38599    38600 
   38603    38603    38600    38599    38599    38600    38603    38604 
   38603    38603    38603    38603    38603    38604    38604    38603 
   38601    38599    38597    38597    38599    38601    38601    38597 
   38596    38599    38600    38599    38599    38600    38601    38601 
   38603    38603    38600    38599    38599    38597    38597    38599 
   38601    38600    38595    38596    38596    38596    38599    38597 
   38596    38600    38601    38599    38597    38600    38601    38599 
   38600    38603    38600    38597    38603    38604    38599    38600 
   38600    38601    38601    38600    38599    38600    38600    38601 
   38603    38604    38603    38599    38597    38597    38599    38599 
   38600    38601    38599    38597    38600    38603    38601    38600 
   38601    38601    38600    38600    38601    38600    38600    38603 
   38603    38601    38601    38600    38597    38599    38601    38601 
   38601    38603    38601    38601    38601    38600    38597    38597 
   38597    38597    38600    38599    38599    38599    38597    38595 
   38596    38596    38596    38596    38599    38601    38600    38599 
   38601    38601    38599    38597    38597    38597    38599    38600 
   38595    38593    38599    38599    38596    38596    38597    38596 
   38597    38599    38599    38600    38603    38604    38600    38599 
   38599    38597    38596    38597    38599    38601    38604    38603 
   38601    38601    38601    38600    38599    38600    38600    38600 
   38601    38601    38601    38600    38601    38603    38603    38601 
   38601    38604    38603    38600    38599    38600    38601    38603 
   38601    38603    38604    38604    38603    38603    38604    38605 
   38604    38603    38601    38603    38603    38601    38603    38603 
   38603    38604    38600    38597    38599    38600    38599    38597 
   38599    38601    38600    38597    38599    38599    38597    38599 
   38601    38599    38596    38593    38592    38597    38600    38596 
   38596    38599    38597    38595    38593    38592    38595    38595 
   38595    38599    38597    38597    38597    38596    38595    38596 
   38593    38595    38596    38597    38597    38597    38596    38597 
   38597    38595    38593    38595    38597    38596    38596    38597 
   38597    38596    38595    38597    38597    38595    38599    38603 
   38600    38600    38603    38600    38599    38601    38601    38600 
   38600    38601    38600    38597    38599    38597    38596    38597 
   38597    38599    38600    38599    38599    38599    38599    38600 
   38599    38599    38599    38599    38599    38600    38601    38600 
   38599    38599    38599    38596    38596    38599    38599    38599 
   38599    38597    38596    38596    38596    38599    38600    38596 
   38595    38601    38601    38595    38597    38599    38593    38592 
   38595    38599    38601    38597    38595    38600    38600    38595 
   38593    38596    38599    38596    38597    38600    38597    38595 
   38597    38599    38597    38597    38599    38597    38597    38600 
   38601    38597    38596    38599    38600    38600    38599    38600 
   38601    38599    38595    38597    38600    38597    38595    38599 
   38600    38597    38599    38599    38599    38603    38601    38597 
   38597    38600    38600    38599    38597    38599    38600    38597 
   38596    38597    38597    38597    38596    38595    38597    38597 
   38596    38597    38600    38599    38599    38599    38600    38601 
   38599    38599    38601    38600    38597    38600    38603    38603 
   38601    38599    38600    38601    38601    38600    38599    38599 
   38600    38601    38600    38599    38600    38601    38603    38603 
   38600    38600    38599    38596    38599    38599    38601    38601 
   38599    38599    38599    38600    38599    38595    38596    38600 
   38600    38600    38600    38599    38597    38599    38601    38600 
   38597    38599    38603    38603    38601    38603    38597    38597 
   38601    38600    38597    38596    38597    38600    38601    38600 
   38601    38601    38599    38599    38599    38599    38600    38601 
   38601    38599    38597    38599    38600    38600    38599    38599 
   38600    38600    38600    38603    38601    38599    38599    38600 
   38600    38599    38600    38601    38599    38600    38600    38599 
   38600    38597    38596    38600    38600    38597    38600    38600 
   38597    38596    38597    38597    38599    38600    38599    38597 
   38601    38601    38596    38595    38599    38600    38599    38597 
   38597    38597    38599    38600    38599    38599    38599    38596 
   38596    38599    38599    38593    38595    38600    38600    38597 
   38600    38597    38595    38597    38596    38597    38599    38596 
   38595    38596    38599    38600    38599    38600    38600    38599 
   38600    38603    38599    38597    38600    38600    38599    38599 
   38596    38599    38600    38597    38601    38603    38600    38601 
   38601    38600    38600    38601    38601    38600    38599    38603 
   38603    38600    38599    38600    38600    38597    38600    38601 
   38600    38600    38601    38603    38601    38597    38596    38597 
   38600    38599    38597    38600    38599    38599    38600    38601 
   38601    38601    38601    38600    38599    38600    38600    38597 
   38597    38599    38599    38599    38600    38601    38601    38600 
   38597    38599    38600    38600    38600    38601    38603    38603 
   38599    38597    38597    38596    38596    38599    38600    38603 
   38604    38603    38599    38599    38601    38601    38600    38599 
   38601    38601    38601    38601    38601    38601    38600    38597 
   38596    38600    38601    38599    38599    38601    38603    38603 
   38601    38600    38597    38597    38597    38596    38596    38599 
   38599    38596    38599    38601    38600    38600    38600    38596 
   38597    38603    38601    38603    38603    38599    38597    38599 
   38601    38601    38600    38600    38600    38601    38600    38596 
   38599    38601    38600    38600    38601    38601    38601    38601 
   38600    38600    38604    38599    38599    38604    38601    38599 
   38601    38600    38596    38597    38601    38603    38604    38604 
   38601    38601    38600    38599    38597    38597    38599    38597 
   38596    38597    38596    38596    38600    38600    38597    38593 
   38588    38589    38595    38592    38593    38600    38600    38596 
   38599    38601    38600    38600    38601    38600    38599    38597 
   38597    38597    38597    38599    38600    38599    38597    38599 
   38601    38601    38600    38597    38599    38600    38596    38596 
   38600    38599    38595    38597    38600    38599    38599    38600 
   38597    38599    38601    38601    38601    38600    38599    38601 
   38600    38599    38600    38600    38599    38601    38601    38600 
   38600    38601    38601    38601    38600    38599    38601    38603 
   38601    38600    38601    38600    38600    38600    38600    38599 
   38599    38601    38603    38599    38596    38597    38596    38596 
   38597    38597    38597    38596    38595    38596    38596    38595 
   38593    38595    38596    38597    38597    38599    38596    38593 
   38595    38599    38597    38595    38596    38596    38597    38596 
   38595    38596    38597    38597    38597    38597    38599    38599 
   38596    38596    38597    38597    38596    38596    38597    38597 
   38599    38599    38596    38596    38597    38596    38596    38597 
   38599    38600    38597    38596    38597    38597    38597    38596 
   38595    38595    38596    38595    38596    38597    38596    38595 
   38599    38599    38599    38600    38597    38596    38597    38595 
   38595    38597    38595    38593    38597    38599    38597    38596 
   38596    38597    38597    38599    38599    38597    38599    38600 
   38599    38600    38600    38599    38600    38600    38600    38600 
   38600    38603    38603    38601    38601    38601    38599    38600 
   38601    38603    38601    38600    38600    38601    38600    38599 
   38600    38601    38604    38605    38603    38605    38605    38600 
   38600    38605    38604    38601    38600    38599    38600    38601 
   38603    38604    38603    38600    38599    38603    38603    38597 
   38597    38600    38600    38601    38601    38600    38600    38600 
   38600    38600    38603    38603    38599    38600    38604    38604 
   38604    38604    38603    38604    38605    38604    38605    38605 
   38603    38601    38600    38600    38601    38603    38601    38603 
   38601    38601    38603    38603    38603    38600    38599    38603 
   38603    38600    38599    38599    38599    38603    38604    38603 
   38601    38600    38603    38605    38605    38603    38603    38601 
   38601    38603    38601    38597    38601    38603    38599    38597 
   38597    38595    38597    38601    38601    38603    38601    38600 
   38600    38600    38600    38599    38599    38600    38599    38599 
   38599    38597    38597    38597    38596    38597    38600    38599 
   38595    38596    38596    38595    38596    38597    38599    38603 
   38603    38601    38604    38604    38600    38601    38603    38601 
   38601    38601    38601    38603    38604    38601    38601    38605 
   38604    38604    38604    38604    38604    38604    38604    38605 
   38604    38607    38605    38601    38600    38601    38603    38604 
   38605    38605    38604    38603    38604    38605    38604    38601 
   38603    38603    38603    38601    38601    38603    38603    38601 
   38603    38607    38605    38605    38607    38605    38605    38608 
   38605    38604    38607    38604    38603    38603    38603    38603 
   38601    38603    38604    38604    38607    38607    38603    38601 
   38604    38604    38603    38604    38603    38600    38601    38603 
   38604    38611    38616    38615    38616    38631    38657    38680 
   38678    38651    38631    38638    38653    38646    38634    38658 
   38666    38601    38530    38511    38529    38560    38551    38511 
   38511    38516    38483    38481    38512    38518    38639    38832 
   38680    38271    38061    38111    38514    39083    39082    38628 
   38473    38518    38543    38880    39101    38593    38234    38781 
   39191    38614    38010    38200    38605    39037    39495    39085 
   38092    38028    38703    38866    38506    38241    38300    38529 
   38732    38844    38537    38132    38400    38705    38549    38793 
   39029    38457    38260    38799    38969    38750    38524    38356 
   38466    38782    38996    38888    38400    38136    38510    38888 
   38877    38689    38423    38340    38475    38523    38630    38828 
   38794    38624    38483    38333    38365    38637    38790    38610 
   38396    38534    38713    38581    38480    38512    38593    38794 
   38865    38770    38646    38407    38392    38753    38928    38750 
   38529    38435    38561    38641    38499    38600    38763    38503 
   38430    38639    38551    38529    38689    38587    38461    38573 
   38612    38457    38450    38676    38804    38777    38662    38434 
   38402    38739    38894    38570    38410    38677    38785    38569 
   38485    38630    38674    38610    38623    38623    38578    38666 
   38778    38588    38411    38619    38684    38483    38530    38577 
   38465    38529    38589    38556    38593    38578    38550    38561 
   38568    38670    38685    38561    38591    38673    38657    38626 
   38549    38484    38565    38653    38614    38573    38610    38711 
   38809    38676    38446    38553    38840    38812    38597    38592 
   38638    38599    38604    38589    38557    38557    38576    38616 
   38650    38658    38569    38460    38476    38526    38610    38697 
   38619    38480    38487    38600    38672    38600    38495    38592 
   38735    38662    38584    38641    38643    38614    38674    38673 
   38520    38518    38704    38693    38570    38624    38651    38541 
   38460    38441    38500    38608    38650    38685    38658    38457 
   38416    38626    38722    38745    38757    38576    38460    38539 
   38530    38592    38786    38709    38543    38554    38549    38647 
   38813    38724    38589    38553    38496    38581    38754    38715 
   38561    38504    38610    38762    38638    38410    38533    38677 
   38545    38520    38574    38520    38570    38627    38527    38487 
   38556    38580    38595    38631    38647    38666    38628    38566 
   38570    38564    38583    38661    38627    38512    38537    38643 
   38670    38641    38585    38557    38608    38703    38719    38547 
   38400    38500    38700    38749    38610    38572    38709    38708 
   38614    38630    38639    38551    38445    38468    38605    38650 
   38612    38542    38446    38529    38731    38730    38607    38569 
   38573    38657    38758    38643    38511    38562    38578    38628 
   38720    38556    38384    38533    38701    38651    38573    38623 
   38686    38646    38587    38551    38489    38534    38666    38624 
   38466    38464    38638    38684    38523    38510    38669    38709 
   38664    38638    38562    38484    38565    38739    38750    38603 
   38516    38541    38589    38618    38601    38562    38549    38578 
   38610    38597    38549    38543    38639    38650    38565    38637 
   38731    38651    38551    38580    38686    38685    38570    38564 
   38574    38472    38550    38727    38604    38489    38626    38628 
   38518    38574    38658    38645    38637    38620    38576    38610 
   38603    38500    38564    38720    38712    38638    38626    38643 
   38649    38628    38593    38591    38605    38562    38527    38519 
   38526    38614    38610    38497    38534    38632    38624    38576 
   38574    38593    38566    38516    38493    38551    38669    38666 
   38554    38520    38603    38658    38589    38568    38686    38703 
   38596    38565    38593    38642    38697    38701    38674    38599 
   38500    38539    38658    38674    38622    38601    38624    38624 
   38560    38518    38614    38753    38716    38568    38504    38508 
   38541    38557    38514    38533    38643    38655    38542    38524 
   38597    38610    38655    38677    38553    38492    38569    38628 
   38615    38595    38659    38666    38538    38503    38537    38551 
   38655    38682    38535    38479    38573    38662    38689    38639 
   38561    38542    38576    38647    38649    38541    38541    38601 
   38546    38607    38797    38731    38547    38601    38635    38546 
   38614    38727    38674    38597    38580    38578    38642    38681 
   38587    38518    38553    38546    38520    38519    38468    38508 
   38600    38535    38520    38618    38584    38546    38658    38704 
   38580    38523    38632    38672    38619    38645    38655    38620 
   38649    38618    38551    38650    38661    38484    38543    38680 
   38503    38458    38685    38673    38577    38626    38554    38468 
   38557    38638    38635    38604    38535    38462    38497    38643 
   38722    38685    38603    38543    38593    38641    38634    38674 
   38635    38526    38614    38726    38566    38497    38758    38817 
   38584    38560    38583    38462    38503    38578    38502    38527 
   38611    38554    38535    38591    38654    38727    38623    38489 
   38604    38711    38676    38646    38560    38529    38655    38682 
   38595    38595    38650    38627    38543    38524    38564    38627 
   38662    38562    38450    38477    38541    38596    38632    38622 
   38635    38577    38460    38550    38678    38597    38585    38676 
   38561    38410    38516    38626    38585    38670    38755    38637 
   38592    38624    38493    38425    38627    38815    38749    38616 
   38639    38650    38616    38746    38763    38553    38485    38497 
   38538    38727    38728    38514    38438    38466    38504    38607 
   38630    38507    38514    38651    38696    38664    38523    38469 
   38678    38731    38547    38596    38788    38731    38603    38615 
