Origin Time       2018/04/09 06:38:00
Lat.              35.2
Long.             132.6
Depth. (km)       10
Mag.              3.8
Station Code      HRSH10
Station Lat.      34.7471
Station Long.     132.3794
Station Height(m) 612
Record Time       2018/04/09 06:38:58
Sampling Freq(Hz) 100Hz
Duration Time(s)  120
Dir.              1
Scale Factor      2942(gal)/8224139
Max. Acc. (gal)   0.368
Last Correction   2018/04/09 06:38:43
Memo.             
[...]
  110084   110083   110080   110080   110083   110084   110083   110083 
  110083   110083   110081   110083   110083   110081   110083   110084 
  110081   110083   110084   110083   110084   110084   110081   110083 
  110083   110079   110079   110083   110084   110083   110080   110081 
  110083   110083   110084   110083   110083   110084   110080   110079 
  110081   110081   110079   110081   110081   110080   110080   110079 
  110077   110077   110083   110081   110077   110079   110083   110084 
  110083   110080   110079   110081   110081   110081   110081   110083 
  110081   110081   110083   110081   110079   110077   110081   110087 
  110083   110081   110084   110083   110080   110080   110081   110083 
  110083   110081   110081   110083   110083   110081   110081   110080 
  110081   110083   110084   110083   110081   110084   110080   110077 
  110081   110085   110083   110081   110081   110081   110081   110080 
  110080   110080   110080   110081   110083   110081   110081   110080 
  110081   110083   110080   110081   110083   110080   110083   110085 
  110083   110081   110083   110083   110083   110083   110079   110079 
  110081   110080   110081   110083   110081   110083   110084   110081 
  110081   110081   110080   110083   110084   110083   110083   110081 
  110081   110084   110081   110079   110079   110083   110084   110081 
  110080   110083   110083   110080   110081   110083   110080   110079 
  110080   110079   110080   110084   110084   110081   110081   110081 
  110079   110081   110083   110081   110083   110084   110084   110081 
  110079   110080   110081   110081   110083   110081   110081   110081 
  110079   110079   110081   110083   110081   110083   110083   110081 
  110081   110083   110081   110083   110084   110084   110083   110083 
  110084   110084   110080   110079   110083   110085   110083   110083 
  110085   110084   110083   110084   110084   110081   110080   110081 
  110083   110081   110081   110083   110084   110083   110081   110081 
  110083   110083   110081   110080   110081   110083   110080   110081 
  110083   110080   110083   110085   110083   110084   110085   110080 
  110083   110085   110083   110084   110084   110081   110080   110080 
  110080   110081   110081   110081   110081   110083   110083   110083 
  110083   110081   110081   110079   110079   110081   110081   110081 
  110081   110081   110083   110084   110081   110080   110083   110084 
  110083   110081   110081   110081   110081   110080   110080   110081 
  110081   110081   110083   110083   110083   110083   110081   110080 
  110083   110083   110080   110081   110083   110080   110080   110080 
  110080   110080   110081   110081   110080   110081   110084   110083 
  110083   110083   110081   110083   110083   110080   110079   110083 
  110083   110080   110081   110083   110080   110083   110084   110081 
  110079   110081   110083   110083   110083   110080   110080   110080 
  110080   110079   110080   110079   110080   110081   110081   110080 
  110080   110079   110081   110081   110080   110083   110083   110080 
  110083   110084   110080   110079   110079   110080   110083   110083 
  110080   110079   110077   110079   110080   110080   110080   110079 
  110079   110080   110081   110080   110081   110081   110080   110081 
  110081   110080   110080   110080   110079   110080   110083   110083 
  110080   110080   110083   110081   110079   110080   110080   110080 
  110079   110079   110081   110081   110080   110080   110083   110081 
  110081   110083   110081   110080   110080   110081   110083   110083 
  110083   110084   110083   110081   110081   110081   110081   110081 
  110081   110083   110081   110080   110083   110084   110084   110083 
  110081   110084   110084   110081   110080   110080   110083   110085 
  110084   110081   110083   110084   110081   110080   110084   110084 
  110081   110081   110080   110080   110081   110081   110083   110084 
  110084   110081   110080   110080   110080   110081   110083   110083 
  110079   110076   110079   110081   110081   110084   110084   110081 
  110081   110083   110083   110084   110084   110080   110081   110083 
  110081   110083   110083   110083   110081   110083   110081   110081 
  110081   110083   110084   110083   110080   110080   110080   110079 
  110081   110083   110083   110081   110083   110083   110080   110081 
  110083   110083   110081   110083   110081   110080   110080   110081 
  110080   110080   110081   110081   110083   110081   110079   110080 
  110083   110081   110081   110080   110079   110081   110081   110080 
  110084   110084   110081   110079   110080   110081   110083   110080 
  110079   110080   110080   110080   110080   110080   110080   110081 
  110081   110081   110081   110080   110080   110081   110081   110080 
  110083   110083   110081   110083   110083   110081   110081   110081 
  110081   110081   110080   110079   110080   110081   110083   110081 
  110080   110081   110084   110084   110083   110080   110080   110080 
  110080   110080   110081   110080   110079   110079   110080   110081 
  110081   110080   110081   110081   110081   110084   110083   110080 
  110081   110080   110080   110081   110081   110081   110080   110080 
  110081   110081   110081   110081   110081   110083   110081   110079 
  110081   110083   110079   110079   110083   110083   110081   110081 
  110081   110081   110084   110084   110083   110083   110081   110081 
  110081   110083   110083   110081   110081   110083   110081   110080 
  110080   110083   110081   110080   110081   110084   110081   110080 
  110084   110084   110081   110080   110081   110083   110083   110083 
  110083   110083   110083   110081   110081   110084   110084   110081 
  110081   110081   110081   110083   110083   110083   110081   110077 
  110077   110084   110084   110081   110083   110081   110080   110083 
  110084   110080   110080   110083   110083   110083   110083   110081 
  110081   110081   110080   110080   110081   110083   110081   110081 
  110084   110083   110081   110081   110080   110081   110085   110084 
  110080   110080   110081   110083   110081   110080   110081   110083 
  110083   110081   110080   110079   110080   110083   110085   110084 
  110083   110084   110081   110080   110083   110083   110080   110081 
  110083   110084   110083   110083   110083   110084   110083   110083 
  110081   110079   110083   110084   110081   110081   110081   110081 
  110080   110080   110081   110081   110080   110080   110083   110084 
  110081   110081   110083   110081   110079   110080   110084   110084 
  110083   110083   110080   110081   110084   110083   110081   110083 
  110081   110081   110083   110079   110077   110081   110084   110081 
  110079   110079   110081   110083   110080   110079   110080   110083 
  110083   110081   110081   110083   110083   110083   110081   110080 
  110080   110081   110081   110083   110083   110080   110080   110083 
  110083   110081   110083   110084   110081   110080   110081   110084 
  110084   110079   110079   110081   110081   110081   110081   110080 
  110081   110080   110081   110083   110081   110079   110080   110083 
  110083   110081   110080   110080   110080   110083   110083   110083 
  110081   110080   110081   110080   110079   110083   110084   110080 
  110079   110083   110083   110083   110083   110081   110081   110081 
  110081   110084   110084   110080   110080   110081   110081   110083 
  110083   110081   110081   110080   110079   110079   110080   110083 
  110083   110083   110081   110080   110081   110083   110080   110079 
  110079   110079   110079   110076   110079   110081   110081   110083 
  110081   110079   110081   110083   110080   110079   110080   110080 
  110083   110081   110080   110081   110083   110080   110080   110083 
  110083   110080   110079   110080   110083   110081   110080   110084 
  110084   110083   110083   110081   110081   110081   110081   110081 
  110083   110081   110081   110080   110079   110083   110084   110081 
  110081   110083   110083   110083   110080   110081   110084   110084 
  110081   110081   110083   110081   110081   110081   110081   110083 
  110084   110081   110081   110083   110081   110081   110080   110079 
  110081   110081   110081   110080   110080   110083   110081   110079 
  110080   110081   110081   110081   110083   110083   110080   110081 
  110083   110083   110081   110081   110081   110081   110081   110083 
  110083   110081   110079   110077   110079   110083   110083   110079 
  110080   110080   110080   110083   110081   110080   110081   110081 
  110079   110077   110077   110080   110081   110083   110081   110081 
  110083   110081   110081   110083   110081   110081   110084   110084 
  110081   110080   110080   110080   110081   110081   110079   110080 
  110083   110081   110081   110083   110081   110080   110081   110083 
  110081   110083   110083   110083   110083   110083   110083   110080 
  110079   110084   110085   110081   110081   110083   110083   110083 
  110083   110083   110081   110081   110081   110083   110083   110083 
  110083   110083   110081   110083   110084   110084   110083   110081 
  110084   110085   110084   110081   110081   110081   110080   110081 
  110081   110080   110081   110083   110083   110084   110084   110083 
  110084   110084   110083   110083   110083   110081   110079   110077 
  110077   110080   110080   110080   110081   110083   110083   110081 
  110080   110080   110081   110083   110081   110079   110081   110083 
  110081   110080   110081   110081   110080   110083   110083   110080 
  110080   110081   110083   110084   110084   110081   110081   110083 
  110081   110080   110079   110080   110084   110081   110081   110085 
  110084   110080   110081   110081   110080   110081   110079   110079 
  110081   110081   110081   110081   110080   110080   110080   110081 
  110081   110081   110081   110081   110083   110084   110081   110081 
  110081   110081   110080   110081   110083   110083   110081   110080 
  110081   110081   110080   110080   110083   110085   110084   110080 
  110080   110083   110084   110080   110080   110084   110083   110080 
  110081   110080   110080   110083   110081   110083   110085   110083 
  110079   110081   110084   110080   110077   110079   110081   110081 
  110081   110083   110083   110081   110080   110081   110081   110081 
  110081   110080   110081   110083   110081   110081   110081   110081 
  110081   110080   110080   110080   110081   110083   110081   110079 
  110080   110080   110080   110083   110081   110079   110079   110080 
  110079   110080   110080   110079   110081   110083   110081   110083 
  110083   110083   110083   110083   110080   110079   110081   110081 
  110079   110081   110083   110081   110080   110080   110080   110083 
  110081   110080   110079   110079   110080   110081   110080   110079 
  110080   110081   110081   110080   110077   110079   110080   110079 
  110079   110081   110079   110076   110081   110081   110080   110083 
  110081   110079   110080   110081   110081   110080   110079   110079 
  110081   110081   110080   110080   110079   110079   110080   110080 
  110079   110080   110081   110080   110080   110084   110084   110080 
  110080   110080   110079   110079   110080   110080   110080   110080 
  110081   110080   110080   110081   110081   110080   110081   110083 
  110080   110080   110081   110083   110081   110081   110084   110083 
  110080   110081   110081   110081   110083   110083   110081   110080 
  110080   110081   110081   110080   110079   110080   110079   110080 
  110083   110083   110080   110080   110080   110081   110079   110079 
  110081   110083   110083   110081   110081   110081   110081   110081 
  110083   110083   110083   110083   110083   110081   110081   110080 
  110081   110081   110081   110081   110081   110083   110081   110080 
  110080   110081   110080   110080   110079   110080   110083   110081 
  110080   110084   110084   110081   110083   110083   110080   110080 
  110081   110081   110081   110080   110079   110080   110083   110083 
  110081   110083   110081   110081   110081   110083   110083   110079 
  110080   110084   110081   110079   110080   110083   110081   110081 
  110081   110081   110080   110080   110081   110081   110081   110081 
  110081   110084   110083   110081   110084   110085   110084   110080 
  110080   110084   110085   110080   110080   110085   110084   110080 
  110080   110083   110084   110083   110081   110083   110083   110083 
  110081   110079   110080   110081   110080   110080   110084   110083 
  110081   110083   110083   110081   110081   110080   110080   110081 
  110083   110084   110081   110080   110081   110084   110084   110084 
  110083   110080   110080   110083   110084   110081   110080   110083 
  110081   110080   110083   110083   110080   110080   110081   110081 
  110079   110070   110064   110062   110064   110062   110045   110010 
  109993   110019   110061   110079   110070   110072   110065   109991 
  109895   109934   110116   110239   110201   110127   110128   110122 
  110008   109921   110030   110246   110330   110241   110096   109941 
  109937   110257   110679   110787   110346   109656   109372   109622 
  110006   110307   110569   110709   110539   110162   109769   109399 
  109236   109628   110517   111110   110662   109632   109185   109682 
  110335   110207   109675   109845   110452   110566   110116   109644 
  109759   110320   110547   110173   109614   109575   110255   110670 
  110176   109713   110060   110566   110330   109722   109858   110531 
  110448   109652   109489   110157   110554   110316   109965   109767 
  109742   109991   110401   110428   109890   109626   110089   110430 
  110162   109918   110053   110215   110131   109972   110087   110293 
  110188   109983   110004   110116   110134   110106   110008   109879 
  110034   110380   110324   109860   109653   109976   110363   110328 
  109995   109865   109991   110076   110110   110173   110164   110011 
  109900   110054   110250   110218   110081   110003   110043   110093 
  110056   110128   110243   110154   110022   110015   110083   110115 
  110072   110061   110147   110265   110236   109979   109818   110056 
  110357   110216   109833   109811   110170   110317   109989   109719 
  109933   110261   110263   110019   109858   109969   110197   110254 
  110134   110073   110126   110110   110016   110049   110191   110227 
  110108   109998   110039   110146   110146   110073   110096   110209 
  110220   110114   110037   110007   109962   109960   110080   110192 
  110115   109949   109971   110151   110131   109945   109956   110106 
  110141   110016   109927   110033   110112   110030   109987   110070 
  110141   110029   109948   110169   110347   110184   109935   109912 
  110108   110236   110182   110115   110064   110046   110118   110087 
  109965   110035   110265   110386   110207   109880   109829   110131 
  110397   110284   109998   109973   110088   110030   109929   109937 
  110011   110142   110197   110073   109969   110014   110038   109965 
  109975   110120   110200   110127   110068   110087   110053   110018 
  110133   110205   110002   109814   109996   110316   110358   110146 
  110023   110097   110153   110127   110135   110110   110038   110046 
  110083   110070   110007   109958   110073   110200   110087   109906 
  109906   110062   110218   110192   110041   110030   110143   110134 
  110023   110023   110133   110172   110061   109960   110034   110187 
  110272   110209   110023   109925   110014   110174   110222   110057 
  109931   110043   110173   110169   110118   110079   110074   110101 
  110112   110065   109948   109892   110058   110285   110268   110010 
  109849   110003   110212   110133   109981   110095   110269   110219 
  110029   109971   110103   110133   109980   109960   110101   110130 
  110014   109953   110034   110139   110122   110034   110037   110091 
  110091   110070   110107   110181   110114   109923   109919   110124 
  110261   110219   110081   110053   110162   110146   110020   110022 
  110114   110168   110108   110008   110045   110141   110120   110030 
  110003   110060   110130   110141   110091   110053   110060   110104 
  110143   110096   110045   110077   110145   110195   110110   109938 
  109945   110088   110149   110130   110074   110046   110080   110047 
  109975   110002   110079   110131   110120   110031   110023   110143 
  110185   110087   110008   110038   110119   110146   110100   110061 
  110085   110155   110214   110188   110116   110118   110114   110006 
  109972   110088   110173   110115   109976   109917   110003   110076 
  110077   110128   110166   110080   109960   109939   110038   110154 
  110200   110170   110088   110003   109969   110015   110122   110196 
  110157   110074   110053   110042   110039   110083   110079   110053 
  110084   110091   110042   109991   110050   110226   110263   110108 
  109972   109989   110170   110293   110193   110039   109969   109988 
  110085   110147   110114   110053   110011   109993   109980   109946 
  109973   110151   110343   110295   110046   109894   109966   110064 
  110033   110046   110226   110297   110030   109765   109904   110200 
  110250   110097   109989   110083   110209   110120   109993   110053 
  110184   110218   110091   109948   109998   110180   110277   110154 
  109949   109933   110050   110118   110099   110058   110073   110069 
  109998   110002   110104   110139   110096   110112   110131   110037 
  109977   110088   110215   110153   109989   109977   110092   110118 
  110085   110099   110119   110131   110099   110035   110026   110054 
  110104   110124   110047   110046   110196   110243   110083   109918 
  109973   110187   110223   110076   110079   110191   110128   109949 
  109919   110050   110115   110064   110052   110147   110187   110029 
  109899   110058   110292   110245   110019   109964   110139   110245 
  110058   109831   109931   110216   110257   110046   109983   110155 
  110227   110065   109949   110052   110146   110058   109998   110092 
  110124   110015   110023   110181   110205   110112   110135   110187 
  110065   109914   109964   110087   110100   110095   110158   110193 
  110092   109972   110014   110093   110064   110046   110093   110100 
  110038   110007   110057   110054   109975   110050   110269   110304 
  110087   109931   110025   110155   110103   109998   110047   110176 
  110177   110031   109898   109934   110122   110243   110214   110107 
  109995   109972   110052   110147   110160   110069   110058   110166 
  110135   110003   110029   110122   110112   110085   110146   110168 
  109969   109757   109873   110164   110220   110014   109958   110263 
  110512   110312   109863   109698   110033   110382   110259   109891 
  109806   110131   110444   110363   110046   109852   109914   110034 
  109957   109858   110026   110280   110282   110069   109956   110065 
  110170   110088   109992   110061   110197   110257   110189   110064 
  110068   110158   110072   109902   109911   110053   110147   110181 
