Origin Time       2018/04/09 06:38:00
Lat.              35.2
Long.             132.6
Depth. (km)       10
Mag.              3.8
Station Code      HRSH10
Station Lat.      34.7471
Station Long.     132.3794
Station Height(m) 712
Record Time       2018/04/09 06:38:58
Sampling Freq(Hz) 100Hz
Duration Time(s)  120
Dir.              6
Scale Factor      7845(gal)/8223790
Max. Acc. (gal)   2.249
Last Correction   2018/04/09 06:38:43
Memo.             
[...]
    4756     4757     4757     4757     4757     4756     4756     4757 
    4758     4756     4754     4756     4758     4758     4758     4756 
    4750     4754     4758     4756     4754     4754     4754     4756 
    4756     4756     4758     4756     4753     4757     4757     4754 
    4756     4756     4754     4754     4754     4756     4758     4757 
    4756     4756     4754     4754     4757     4757     4757     4756 
    4756     4754     4756     4757     4756     4753     4756     4757 
    4754     4754     4756     4756     4757     4756     4753     4753 
    4753     4756     4760     4758     4754     4754     4756     4756 
    4756     4756     4756     4757     4757     4753     4753     4756 
    4756     4756     4754     4754     4756     4757     4757     4756 
    4756     4757     4758     4757     4756     4757     4757     4757 
    4757     4758     4757     4757     4757     4757     4758     4758 
    4753     4756     4760     4754     4753     4758     4757     4754 
    4758     4758     4756     4756     4757     4757     4757     4757 
    4758     4757     4756     4756     4757     4757     4757     4757 
    4756     4757     4760     4757     4756     4757     4756     4756 
    4757     4758     4757     4756     4757     4757     4754     4756 
    4758     4757     4756     4756     4756     4754     4754     4757 
    4757     4757     4758     4757     4753     4756     4760     4756 
    4753     4757     4758     4756     4757     4756     4754     4757 
    4756     4756     4757     4757     4756     4754     4756     4757 
    4758     4760     4757     4756     4757     4754     4754     4756 
    4753     4756     4760     4756     4754     4757     4756     4754 
    4757     4757     4757     4757     4758     4757     4754     4756 
    4758     4754     4753     4756     4756     4754     4757     4757 
    4756     4753     4753     4756     4758     4757     4757     4758 
    4757     4756     4757     4757     4756     4754     4754     4756 
    4760     4757     4756     4757     4758     4757     4756     4756 
    4757     4757     4753     4753     4757     4757     4756     4757 
    4760     4756     4756     4758     4758     4754     4754     4757 
    4757     4754     4756     4756     4757     4756     4756     4758 
    4757     4754     4754     4757     4756     4756     4757     4757 
    4756     4758     4758     4757     4758     4757     4756     4760 
    4758     4753     4753     4756     4757     4754     4754     4756 
    4756     4754     4757     4757     4757     4757     4756     4754 
    4756     4757     4756     4754     4757     4758     4756     4756 
    4754     4754     4757     4758     4756     4757     4758     4754 
    4754     4756     4758     4757     4754     4756     4758     4757 
    4756     4757     4757     4754     4756     4758     4757     4754 
    4756     4758     4758     4757     4757     4756     4757     4758 
    4758     4757     4758     4758     4756     4757     4756     4756 
    4757     4756     4754     4757     4760     4757     4757     4756 
    4754     4756     4758     4757     4754     4753     4757     4760 
    4757     4758     4757     4756     4754     4754     4756     4758 
    4757     4756     4757     4757     4757     4757     4757     4756 
    4754     4756     4756     4753     4756     4758     4756     4756 
    4758     4758     4757     4754     4754     4757     4758     4756 
    4753     4756     4758     4756     4754     4756     4757     4754 
    4757     4757     4754     4756     4757     4756     4756     4754 
    4753     4757     4760     4757     4754     4754     4754     4756 
    4757     4757     4754     4756     4757     4754     4754     4757 
    4757     4756     4756     4757     4757     4757     4757     4757 
    4757     4757     4756     4754     4754     4754     4756     4758 
    4756     4753     4756     4754     4757     4757     4754     4756 
    4758     4756     4756     4761     4760     4756     4756     4758 
    4757     4756     4757     4757     4757     4757     4756     4753 
    4754     4757     4758     4754     4754     4757     4754     4752 
    4754     4757     4757     4758     4758     4756     4756     4758 
    4758     4756     4754     4756     4757     4754     4754     4757 
    4758     4756     4754     4757     4758     4756     4756     4757 
    4756     4756     4756     4757     4756     4754     4756     4756 
    4756     4757     4754     4753     4756     4756     4754     4756 
    4757     4757     4754     4754     4757     4757     4754     4754 
    4757     4757     4757     4757     4757     4757     4756     4754 
    4756     4757     4757     4756     4756     4756     4756     4756 
    4753     4753     4757     4754     4753     4758     4760     4756 
    4754     4756     4757     4757     4758     4757     4753     4754 
    4756     4754     4757     4760     4757     4754     4754     4757 
    4756     4754     4757     4757     4754     4756     4757     4754 
    4756     4757     4757     4758     4758     4758     4758     4754 
    4754     4758     4758     4754     4754     4756     4756     4756 
    4757     4757     4757     4757     4757     4757     4758     4757 
    4756     4756     4756     4757     4757     4756     4758     4758 
    4757     4757     4756     4753     4757     4758     4756     4756 
    4760     4758     4754     4754     4757     4757     4754     4757 
    4758     4756     4756     4757     4757     4756     4754     4754 
    4756     4756     4758     4757     4756     4758     4757     4754 
    4756     4758     4757     4753     4754     4758     4756     4753 
    4754     4757     4760     4760     4760     4756     4753     4754 
    4756     4754     4756     4756     4757     4758     4757     4757 
    4756     4753     4753     4756     4757     4757     4754     4756 
    4757     4757     4758     4757     4754     4754     4756     4756 
    4757     4756     4754     4757     4756     4753     4754     4756 
    4756     4756     4756     4757     4756     4754     4757     4756 
    4756     4757     4756     4756     4757     4757     4757     4756 
    4756     4756     4754     4756     4756     4754     4756     4756 
    4756     4758     4756     4757     4757     4756     4758     4758 
    4756     4758     4758     4754     4754     4758     4756     4753 
    4757     4758     4756     4754     4756     4756     4757     4757 
    4757     4756     4754     4757     4757     4754     4756     4757 
    4753     4753     4756     4757     4754     4756     4756     4757 
    4757     4754     4757     4760     4758     4757     4757     4756 
    4754     4756     4756     4756     4757     4757     4756     4756 
    4757     4757     4753     4754     4758     4757     4754     4757 
    4757     4754     4756     4756     4756     4757     4758     4757 
    4756     4757     4754     4753     4757     4758     4757     4757 
    4757     4756     4756     4756     4756     4757     4758     4757 
    4758     4758     4754     4756     4758     4757     4757     4758 
    4756     4754     4756     4757     4757     4756     4756     4757 
    4757     4756     4754     4756     4758     4757     4756     4756 
    4757     4756     4754     4756     4756     4754     4754     4754 
    4756     4756     4756     4757     4757     4757     4757     4756 
    4757     4757     4756     4756     4758     4757     4754     4754 
    4756     4756     4757     4758     4756     4754     4754     4756 
    4754     4754     4757     4758     4757     4757     4756     4756 
    4757     4756     4753     4756     4757     4757     4757     4756 
    4754     4756     4757     4757     4756     4756     4757     4756 
    4756     4757     4754     4754     4757     4756     4754     4757 
    4757     4756     4757     4757     4758     4760     4757     4756 
    4758     4758     4754     4756     4758     4757     4757     4756 
    4754     4757     4758     4757     4754     4756     4756     4754 
    4756     4758     4756     4754     4758     4760     4756     4756 
    4757     4754     4754     4757     4757     4757     4757     4758 
    4758     4758     4756     4757     4758     4757     4756     4758 
    4758     4758     4758     4756     4756     4757     4756     4754 
    4756     4756     4757     4757     4754     4754     4756     4756 
    4757     4757     4757     4756     4756     4757     4756     4754 
    4756     4756     4756     4757     4757     4757     4757     4756 
    4757     4757     4756     4757     4756     4754     4753     4757 
    4760     4757     4754     4756     4758     4757     4754     4756 
    4758     4754     4753     4757     4758     4756     4756     4757 
    4754     4754     4756     4756     4756     4754     4754     4756 
    4756     4754     4754     4756     4756     4756     4756     4757 
    4757     4756     4756     4757     4757     4756     4757     4758 
    4756     4756     4757     4756     4756     4757     4756     4754 
    4757     4758     4756     4754     4756     4757     4757     4757 
    4754     4756     4757     4756     4758     4758     4754     4754 
    4757     4757     4756     4757     4758     4758     4757     4757 
    4756     4757     4758     4756     4754     4758     4758     4754 
    4754     4756     4756     4754     4753     4756     4756     4756 
    4758     4756     4754     4757     4757     4754     4754     4756 
    4757     4758     4756     4754     4757     4758     4754     4753 
    4756     4757     4758     4756     4756     4757     4756     4756 
    4757     4756     4753     4756     4756     4754     4754     4754 
    4756     4757     4757     4756     4756     4757     4757     4757 
    4757     4757     4757     4760     4756     4753     4756     4757 
    4756     4754     4756     4756     4756     4756     4756     4756 
    4754     4756     4757     4757     4756     4754     4753     4756 
    4757     4754     4754     4757     4757     4756     4757     4757 
    4756     4756     4754     4753     4754     4754     4754     4754 
    4754     4757     4757     4753     4754     4757     4757     4757 
    4756     4756     4756     4756     4754     4754     4756     4757 
    4756     4757     4756     4754     4756     4756     4754     4756 
    4756     4753     4753     4754     4754     4754     4756     4754 
    4754     4756     4756     4754     4754     4756     4756     4756 
    4757     4757     4754     4756     4758     4757     4757     4758 
    4756     4754     4756     4757     4756     4752     4753     4756 
    4754     4754     4757     4756     4756     4757     4756     4756 
    4757     4758     4757     4756     4757     4760     4758     4756 
    4757     4758     4756     4754     4757     4757     4756     4757 
    4756     4753     4753     4756     4757     4757     4756     4756 
    4754     4757     4758     4756     4754     4756     4756     4758 
    4754     4753     4756     4757     4757     4756     4756     4756 
    4757     4757     4757     4756     4756     4756     4758     4760 
    4758     4756     4756     4757     4758     4758     4757     4756 
    4754     4756     4757     4756     4758     4757     4754     4757 
    4757     4754     4754     4753     4754     4758     4757     4753 
    4753     4757     4760     4758     4757     4757     4756     4757 
    4758     4757     4756     4756     4756     4757     4758     4757 
    4757     4756     4754     4757     4757     4753     4753     4757 
    4757     4756     4754     4756     4757     4756     4756     4757 
    4754     4754     4756     4754     4756     4758     4757     4756 
    4757     4756     4757     4760     4757     4756     4757     4757 
    4756     4756     4757     4756     4756     4757     4758     4758 
    4756     4754     4756     4754     4754     4757     4757     4754 
    4756     4756     4754     4756     4757     4757     4756     4756 
    4756     4754     4757     4758     4757     4756     4756     4756 
    4756     4756     4756     4756     4756     4757     4757     4758 
    4756     4754     4754     4754     4757     4761     4758     4756 
    4754     4754     4754     4754     4756     4757     4758     4756 
    4756     4758     4757     4754     4756     4756     4754     4756 
    4757     4756     4756     4757     4757     4758     4756     4756 
    4757     4754     4754     4758     4758     4754     4754     4757 
    4756     4754     4753     4753     4757     4758     4756     4753 
    4753     4757     4757     4754     4754     4756     4760     4758 
    4754     4756     4758     4756     4756     4757     4756     4757 
    4758     4758     4760     4758     4757     4757     4756     4756 
    4757     4757     4756     4756     4757     4757     4758     4756 
    4753     4756     4757     4756     4757     4756     4756     4757 
    4760     4758     4758     4762     4769     4777     4777     4768 
    4765     4800     4851     4851     4776     4700     4700     4754 
    4754     4729     4833     4942     4783     4530     4541     4658 
    4656     4666     4758     4870     4904     4726     4553     4672 
    4737     4665     5089     5304     4248     3434     4086     5104 
    5818     5846     5023     4635     4831     4279     3862     4827 
    5032     3909     4806     7114     6305     3159     2755     4876 
    5451     5270     5455     3878     3183     5714     6704     4504 
    3028     3757     5020     5259     5298     5553     4414     3716 
    4950     4922     4140     5057     5042     3878     5022     6619 
    5548     3881     3613     4174     4958     5466     5614     4939 
    3411     3694     5759     5850     4545     4446     4704     4573 
    4491     4533     4716     4726     4904     5539     5182     4058 
    4423     5216     4240     3441     4819     6228     5505     4248 
    4333     4938     5132     4791     4268     4603     5071     4652 
    4712     5175     4801     4564     4830     4793     4567     4365 
    4743     5481     4791     3653     4444     5374     4797     4760 
    5368     4891     4291     4567     4544     4272     4936     5599 
    5113     4708     4938     4669     4271     4519     4459     4320 
    5259     5726     4558     3959     4958     5452     4569     4162 
    4768     4885     4684     5142     5148     4259     4399     5404 
    4932     4071     4668     4941     4409     4685     5201     4990 
    4531     4517     4764     4553     4527     5089     5092     4814 
    4887     4642     4359     4598     4897     4855     4726     4931 
    5139     4858     4622     4943     5071     4418     4113     4797 
    5059     4538     4615     5094     4893     4698     4934     4746 
    4345     4441     4804     4985     5001     4887     4530     4533 
    4945     4908     4722     4635     4406     4671     5201     5032 
    4622     4561     4644     4850     4858     4490     4472     4803 
    4915     5050     5117     4637     4234     4658     5092     4785 
    4657     5027     4918     4557     4592     4592     4602     4878 
    5012     4907     4699     4518     4699     4985     4969     4846 
    4502     4240     4725     4966     4656     5058     5309     4603 
    4500     4845     4633     4710     4927     4660     4641     4752 
    4591     4654     4824     4905     4878     4688     4835     4888 
    4349     4498     5408     5347     4509     4322     4542     4635 
    4828     4770     4499     4703     4878     4617     4765     5209 
    5136     4803     4614     4576     4676     4742     4700     4714 
    4753     4727     4791     4845     4770     4739     4662     4556 
    4739     5074     4977     4486     4491     4996     5086     4752 
    4580     4677     4750     4711     4692     4734     4839     4739 
    4457     4727     5304     5096     4446     4409     4887     5116 
    4799     4421     4541     4873     4884     4830     4869     4675 
    4567     4746     4828     4860     4711     4338     4394     4938 
    5287     5024     4583     4672     4935     4784     4563     4518 
    4546     4753     4924     4854     4866     4943     4757     4491 
    4572     4903     4982     4851     4876     4839     4575     4546 
    4882     4992     4635     4445     4698     4899     4868     4583 
    4305     4641     5055     4892     4756     4849     4814     4851 
    4905     4657     4561     4749     4704     4615     4818     5108 
    5189     4768     4409     4746     4789     4382     4676     4922 
    4496     4679     5174     4784     4449     4932     5062     4579 
    4572     4873     4827     4770     4738     4676     4911     5044 
    4729     4506     4671     4807     4681     4681     4868     4850 
    4610     4502     4716     4893     4862     4828     4669     4627 
    4915     4930     4634     4581     4779     4860     4700     4652 
    4880     5036     4815     4492     4602     4868     4824     4660 
    4588     4843     5146     4834     4445     4590     4772     4754 
    4696     4714     4828     4776     4638     4799     5074     5026 
    4712     4600     4880     5077     4729     4305     4473     4783 
    4684     4692     4992     5022     4708     4461     4506     4754 
    4932     4743     4544     4915     5196     4959     4876     4727 
    4387     4546     4876     4768     4542     4746     5071     4773 
    4514     4754     4540     4390     5013     5154     4687     4746 
    4962     4787     4708     4689     4549     4681     4966     5015 
    4795     4606     4795     4842     4502     4738     5132     4564 
    4263     4866     4943     4639     4851     4949     4644     4745 
    5085     4900     4614     4581     4560     4710     4784     4518 
    4587     4950     4968     4916     4830     4591     4653     4797 
    4730     4752     4835     4787     4591     4638     5063     5022 
    4630     4746     4835     4608     4606     4599     4658     5057 
    4912     4379     4688     5007     4546     4595     5076     4931 
    4749     4749     4515     4617     5044     4918     4581     4855 
    5016     4479     4357     4912     4974     4623     4614     4777 
    4846     4826     4874     4954     4712     4517     4801     4854 
    4418     4580     5262     5026     4456     4780     4920     4464 
    4536     4827     4746     4761     4760     4673     4866     4895 
    4746     4702     4500     4692     5248     5073     4641     4702 
    4746     4756     4788     4556     4498     4739     4823     4731 
    4726     4926     5054     4923     4712     4473     4453     4654 
    4687     4768     4920     4965     4981     4627     4472     4982 
    4789     4252     4919     5386     4527     4214     4904     4822 
    4449     5020     5098     4418     4653     5162     4822     4549 
    4885     5026     4653     4637     4992     4615     4259     4866 
    5020     4633     4818     4874     4760     4887     4635     4450 
    4634     4676     4834     5016     4916     4819     4752     4523 
    4480     4838     4877     4653     4919     4919     4360     4680 
