Origin Time       2018/04/09 06:38:00
Lat.              35.2
Long.             132.6
Depth. (km)       10
Mag.              3.8
Station Code      HRSH10
Station Lat.      34.7471
Station Long.     132.3794
Station Height(m) 712
Record Time       2018/04/09 06:38:58
Sampling Freq(Hz) 100Hz
Duration Time(s)  120
Dir.              5
Scale Factor      7845(gal)/8223790
Max. Acc. (gal)   1.595
Last Correction   2018/04/09 06:38:43
Memo.             
[...]
    6381     6385     6385     6384     6385     6385     6384     6382 
    6382     6384     6385     6386     6385     6382     6385     6388 
    6385     6382     6385     6385     6385     6385     6382     6384 
    6388     6386     6382     6382     6382     6384     6386     6384 
    6384     6388     6388     6385     6382     6381     6385     6386 
    6385     6381     6382     6385     6385     6384     6384     6382 
    6381     6384     6384     6384     6386     6384     6380     6382 
    6385     6384     6384     6384     6385     6385     6385     6384 
    6384     6382     6384     6386     6388     6386     6385     6385 
    6385     6385     6385     6384     6382     6382     6382     6382 
    6385     6384     6384     6385     6382     6382     6384     6384 
    6382     6382     6382     6384     6384     6384     6385     6385 
    6384     6382     6384     6385     6385     6384     6382     6385 
    6385     6384     6384     6384     6385     6384     6382     6385 
    6386     6382     6382     6386     6384     6382     6386     6386 
    6382     6382     6386     6385     6382     6384     6385     6382 
    6381     6382     6384     6385     6385     6384     6384     6385 
    6385     6385     6382     6381     6385     6386     6381     6382 
    6386     6385     6382     6382     6381     6382     6382     6384 
    6384     6385     6386     6384     6384     6385     6382     6382 
    6384     6382     6382     6382     6384     6386     6385     6384 
    6385     6382     6380     6382     6384     6382     6385     6384 
    6382     6384     6385     6385     6385     6386     6385     6384 
    6384     6384     6384     6385     6385     6385     6386     6384 
    6384     6386     6386     6384     6385     6385     6384     6386 
    6385     6382     6384     6385     6386     6386     6385     6384 
    6382     6382     6385     6384     6384     6385     6385     6385 
    6385     6384     6384     6384     6382     6382     6382     6384 
    6384     6385     6386     6382     6380     6382     6385     6385 
    6385     6386     6386     6384     6381     6382     6384     6381 
    6381     6385     6385     6386     6385     6384     6384     6384 
    6382     6382     6381     6382     6385     6385     6384     6384 
    6386     6388     6381     6381     6384     6385     6384     6382 
    6382     6384     6385     6385     6382     6384     6386     6384 
    6384     6385     6385     6385     6382     6382     6384     6385 
    6384     6381     6381     6382     6384     6382     6381     6384 
    6384     6382     6384     6386     6386     6385     6382     6382 
    6382     6382     6384     6384     6384     6385     6385     6384 
    6382     6382     6385     6385     6385     6384     6382     6384 
    6385     6384     6382     6382     6385     6386     6384     6382 
    6384     6384     6382     6381     6381     6382     6385     6385 
    6384     6385     6385     6385     6386     6386     6384     6381 
    6382     6382     6384     6384     6382     6384     6385     6384 
    6382     6384     6386     6384     6380     6381     6382     6382 
    6382     6384     6385     6380     6381     6384     6381     6382 
    6386     6384     6382     6385     6384     6382     6384     6384 
    6384     6385     6385     6385     6384     6382     6382     6384 
    6385     6384     6382     6382     6384     6382     6382     6382 
    6382     6382     6384     6384     6385     6385     6384     6385 
    6386     6385     6384     6382     6381     6382     6382     6381 
    6384     6386     6385     6384     6384     6384     6384     6382 
    6384     6384     6382     6384     6385     6384     6382     6384 
    6382     6382     6384     6384     6382     6382     6382     6382 
    6381     6384     6384     6381     6381     6384     6385     6385 
    6384     6382     6384     6384     6382     6382     6382     6381 
    6385     6388     6385     6384     6385     6382     6381     6382 
    6384     6382     6382     6382     6384     6385     6385     6384 
    6382     6382     6384     6382     6384     6384     6381     6382 
    6385     6384     6381     6382     6382     6381     6382     6382 
    6384     6385     6385     6384     6382     6382     6382     6384 
    6384     6386     6386     6384     6382     6381     6384     6384 
    6382     6382     6385     6385     6381     6381     6382     6382 
    6382     6381     6381     6382     6384     6384     6384     6384 
    6382     6381     6382     6381     6381     6381     6380     6384 
    6385     6381     6381     6385     6386     6385     6382     6381 
    6382     6385     6386     6384     6380     6382     6385     6384 
    6381     6382     6384     6382     6381     6380     6381     6384 
    6385     6385     6386     6385     6385     6385     6382     6380 
    6382     6381     6380     6381     6382     6382     6382     6382 
    6384     6386     6384     6384     6385     6384     6381     6381 
    6381     6382     6384     6381     6380     6382     6385     6384 
    6381     6382     6382     6384     6386     6386     6384     6382 
    6381     6381     6382     6384     6384     6382     6380     6378 
    6381     6382     6384     6385     6385     6384     6384     6382 
    6378     6377     6380     6381     6380     6382     6382     6381 
    6384     6386     6384     6382     6384     6385     6382     6381 
    6382     6384     6382     6381     6381     6382     6382     6385 
    6384     6381     6381     6384     6386     6385     6382     6384 
    6381     6381     6382     6382     6382     6384     6384     6382 
    6384     6386     6386     6386     6385     6382     6382     6381 
    6381     6385     6386     6382     6381     6384     6385     6384 
    6384     6385     6385     6384     6384     6384     6384     6384 
    6382     6382     6385     6384     6382     6384     6384     6385 
    6386     6384     6384     6384     6384     6381     6382     6384 
    6381     6381     6382     6384     6385     6384     6382     6382 
    6382     6382     6384     6384     6382     6385     6386     6382 
    6382     6380     6378     6382     6384     6382     6384     6385 
    6385     6385     6385     6384     6385     6382     6380     6382 
    6384     6382     6384     6384     6382     6382     6384     6384 
    6385     6385     6385     6385     6382     6381     6385     6385 
    6384     6386     6384     6384     6385     6382     6381     6384 
    6384     6382     6384     6384     6384     6381     6382     6384 
    6382     6384     6388     6386     6382     6382     6382     6381 
    6381     6382     6384     6384     6382     6384     6385     6384 
    6384     6382     6382     6382     6382     6384     6385     6385 
    6384     6382     6381     6382     6385     6385     6385     6382 
    6381     6385     6384     6381     6384     6384     6384     6386 
    6385     6384     6384     6382     6384     6381     6380     6382 
    6384     6384     6385     6386     6384     6381     6381     6382 
    6382     6384     6385     6384     6385     6386     6385     6384 
    6385     6384     6382     6381     6382     6384     6385     6385 
    6384     6381     6382     6385     6386     6384     6381     6382 
    6385     6384     6384     6386     6386     6384     6380     6382 
    6385     6386     6385     6382     6382     6384     6382     6381 
    6382     6382     6382     6384     6384     6384     6385     6386 
    6385     6385     6384     6382     6382     6382     6381     6384 
    6386     6386     6384     6384     6385     6385     6382     6381 
    6385     6386     6385     6385     6384     6384     6385     6382 
    6382     6385     6384     6381     6384     6385     6384     6384 
    6384     6384     6386     6386     6385     6385     6385     6386 
    6388     6384     6382     6384     6384     6385     6386     6385 
    6384     6384     6382     6385     6385     6382     6382     6382 
    6382     6385     6388     6385     6384     6386     6385     6382 
    6385     6384     6382     6385     6386     6384     6384     6385 
    6385     6385     6386     6386     6385     6385     6386     6385 
    6382     6382     6384     6385     6386     6386     6385     6386 
    6388     6385     6384     6388     6388     6384     6382     6384 
    6382     6381     6385     6385     6382     6384     6385     6384 
    6384     6384     6382     6382     6385     6385     6384     6385 
    6384     6381     6385     6386     6384     6382     6384     6382 
    6382     6384     6384     6385     6384     6385     6385     6382 
    6381     6384     6384     6381     6381     6382     6382     6381 
    6382     6381     6381     6382     6384     6386     6386     6384 
    6384     6385     6384     6384     6384     6382     6385     6385 
    6382     6382     6385     6384     6380     6381     6385     6382 
    6381     6385     6385     6382     6382     6382     6385     6388 
    6384     6382     6385     6385     6385     6385     6384     6384 
    6384     6382     6384     6385     6384     6385     6385     6384 
    6382     6384     6385     6385     6385     6386     6386     6384 
    6382     6381     6382     6382     6384     6385     6385     6384 
    6385     6384     6384     6386     6384     6381     6384     6382 
    6384     6385     6381     6384     6388     6384     6382     6384 
    6384     6385     6386     6384     6381     6381     6382     6384 
    6382     6384     6385     6382     6382     6382     6381     6381 
    6384     6384     6382     6382     6384     6384     6382     6381 
    6382     6384     6382     6382     6382     6381     6382     6384 
    6384     6384     6382     6382     6382     6384     6382     6382 
    6384     6381     6381     6385     6384     6384     6386     6386 
    6381     6382     6385     6384     6381     6381     6381     6385 
    6385     6384     6384     6385     6384     6384     6384     6384 
    6385     6384     6384     6384     6384     6382     6382     6382 
    6385     6385     6382     6382     6384     6385     6385     6384 
    6384     6385     6386     6386     6384     6381     6381     6384 
    6382     6382     6384     6384     6384     6385     6384     6384 
    6382     6382     6384     6385     6385     6385     6382     6381 
    6384     6385     6384     6384     6385     6385     6385     6385 
    6385     6385     6382     6381     6381     6382     6385     6385 
    6384     6384     6385     6384     6382     6384     6385     6385 
    6385     6382     6382     6382     6382     6382     6382     6384 
    6386     6384     6382     6385     6386     6384     6385     6385 
    6381     6384     6384     6381     6382     6382     6382     6386 
    6386     6382     6384     6386     6384     6385     6386     6384 
    6384     6385     6382     6382     6385     6385     6384     6384 
    6384     6384     6385     6386     6388     6388     6386     6382 
    6382     6381     6378     6381     6386     6384     6381     6382 
    6386     6386     6384     6382     6384     6384     6385     6385 
    6384     6384     6385     6385     6382     6382     6385     6385 
    6386     6386     6385     6382     6382     6384     6385     6384 
    6382     6384     6386     6386     6384     6382     6385     6385 
    6385     6386     6385     6382     6382     6384     6381     6381 
    6385     6385     6384     6384     6381     6381     6385     6385 
    6382     6384     6382     6381     6382     6384     6384     6384 
    6384     6385     6385     6384     6382     6384     6385     6382 
    6384     6385     6382     6382     6384     6384     6385     6386 
    6385     6385     6385     6382     6384     6385     6382     6381 
    6385     6385     6384     6385     6386     6385     6385     6384 
    6381     6384     6388     6385     6382     6384     6385     6386 
    6385     6384     6385     6388     6385     6382     6385     6385 
    6385     6385     6385     6384     6381     6382     6385     6382 
    6384     6386     6385     6384     6384     6384     6382     6382 
    6384     6384     6384     6385     6385     6384     6385     6386 
    6385     6384     6384     6385     6384     6385     6386     6384 
    6382     6382     6381     6382     6385     6385     6385     6384 
    6384     6384     6384     6382     6381     6382     6382     6384 
    6384     6384     6386     6385     6382     6384     6386     6384 
    6380     6381     6385     6385     6385     6384     6382     6382 
    6384     6384     6385     6385     6385     6385     6385     6386 
    6385     6381     6380     6384     6385     6384     6382     6381 
    6382     6384     6382     6382     6384     6384     6381     6380 
    6382     6381     6378     6378     6377     6369     6361     6362 
    6378     6384     6362     6339     6357     6385     6361     6342 
    6411     6474     6421     6324     6292     6345     6382     6338 
    6370     6555     6621     6461     6378     6420     6342     6320 
    6484     6578     6542     6401     6345     6578     6660     6323 
    6218     6586     6523     5703     5287     5854     6459     6540 
    6822     7415     7164     6118     5454     5445     5863     6010 
    5706     6339     7754     8055     7133     6084     5580     5763 
    6015     6137     6523     7024     7530     7615     6627     5694 
    5904     6120     5703     5699     6567     7479     7156     5533 
    4781     6023     7184     6698     5668     5526     6130     6507 
    6648     6943     6793     6358     6654     6963     6319     5665 
    5875     6511     7055     7365     7350     6932     6280     5964 
    6156     6151     5768     5760     6288     6659     6721     6678 
    6130     5479     5667     6126     6262     6251     5962     5945 
    6515     6616     6424     6818     7044     6880     7080     7196 
    6848     6390     5800     5628     6363     6975     6910     6752 
    6392     5709     5512     5979     6389     6633     6903     6808 
    6223     5767     5780     5923     6000     6176     6507     6685 
    6342     5979     6301     6817     6921     6814     6770     6770 
    6520     6066     6084     6667     6912     6500     6153     6091 
    6120     6388     6590     6501     6517     6529     6243     5877 
    5780     6145     6471     6243     6003     6231     6589     6651 
    6431     6324     6426     6451     6400     6428     6582     6748 
    6697     6448     6232     6127     6173     6396     6555     6543 
    6608     6770     6654     6103     5807     6239     6559     6278 
    6119     6516     6939     6789     6296     5975     5921     5972 
    5892     5814     6120     6651     6903     6798     6601     6507 
    6597     6654     6448     6309     6498     6697     6629     6466 
    6349     6219     6184     6254     6296     6388     6450     6334 
    6219     6214     6224     6216     6153     6127     6285     6480 
    6561     6531     6381     6340     6473     6327     6019     6091 
    6335     6548     6874     7020     6883     6637     6208     5907 
    6066     6355     6610     6870     6952     6828     6385     5763 
    5618     5742     5725     6057     6520     6527     6583     6905 
    7003     6822     6466     6042     6006     6335     6380     6174 
    6300     6558     6405     6053     6029     6367     6694     6682 
    6488     6565     6891     6997     6798     6570     6373     6145 
    5869     5652     5671     5877     6039     6102     6258     6461 
    6519     6610     6787     6853     6783     6582     6366     6392 
    6597     6562     6288     6286     6469     6376     6156     6081 
    6135     6215     6208     6297     6693     6945     6698     6389 
    6376     6413     6246     5992     6033     6397     6548     6420 
    6438     6528     6455     6265     6201     6448     6567     6266 
    6099     6295     6478     6550     6536     6442     6440     6509 
    6527     6585     6624     6440     6115     6002     6222     6401 
    6285     6097     6096     6235     6312     6288     6307     6469 
    6693     6805     6783     6673     6386     6153     6301     6447 
    6280     6218     6358     6415     6509     6628     6521     6394 
    6332     6208     6176     6201     6309     6566     6384     5819 
    5827     6316     6574     6606     6586     6624     6777     6790 
    6556     6346     6301     6285     6193     6079     6053     6243 
    6554     6681     6619     6548     6490     6372     6138     6054 
    6388     6717     6521     6168     6232     6431     6354     6173 
    6110     6316     6605     6528     6354     6559     6810     6627 
    6253     6189     6345     6394     6247     6025     6087     6357 
    6361     6208     6265     6462     6457     6196     6162     6523 
    6812     6783     6675     6755     6885     6687     6315     6224 
    6388     6488     6369     6149     6083     6110     5996     5931 
    6169     6415     6401     6366     6407     6403     6412     6467 
    6521     6575     6478     6130     6008     6367     6507     6288 
    6470     6902     6997     6774     6369     6077     6112     6201 
    6222     6351     6643     6794     6501     6085     5914     5937 
    6168     6486     6637     6664     6604     6399     6210     6161 
    6210     6311     6285     6145     6238     6485     6639     6756 
    6664     6397     6419     6529     6396     6444     6682     6615 
    6431     6404     6295     6134     6184     6228     6135     6195 
    6273     6219     6355     6546     6440     6265     6207     6264 
    6466     6546     6457     6457     6434     6358     6343     6313 
    6343     6421     6462     6569     6625     6496     6427     6528 
    6589     6451     6184     6178     6567     6756     6532     6304 
    6114     5917     5837     5810     5956     6404     6741     6654 
    6457     6524     6650     6527     6465     6624     6627     6423 
    6243     6241     6450     6559     6416     6278     6207     6178 
    6264     6370     6436     6473     6407     6234     6157     6282 
    6439     6515     6469     6315     6266     6361     6384     6386 
    6516     6578     6498     6443     6421     6461     6493     6372 
    6299     6346     6349     6345     6323     6355     6596     6604 
    6181     5975     6154     6336     6424     6470     6540     6571 
    6467     6338     6280     6289     6295     6301     6304     6207 
    6291     6608     6602     6417     6532     6573     6335     6257 
    6416     6534     6547     6455     6297     6291     6358     6215 
    6060     6172     6380     6485     6536     6712     6882     6681 
    6363     6258     6092     6003     6180     6165     6110     6363 
    6482     6386     6401     6505     6565     6450     6301     6351 
    6467     6555     6582     6378     6088     6124     6386     6454 
    6434     6562     6690     6689     6693     6702     6427     5956 
    5690     5620     5640     5927     6517     7020     7149     7076 
