Origin Time       2018/04/09 06:38:00
Lat.              35.2
Long.             132.6
Depth. (km)       10
Mag.              3.8
Station Code      SMN007
Station Lat.      35.0807
Station Long.     132.5914
Station Height(m) 67
Record Time       2018/04/09 06:38:52
Sampling Freq(Hz) 100Hz
Duration Time(s)  60
Dir.              U-D
Scale Factor      7845(gal)/8223790
Max. Acc. (gal)   17.561
Last Correction   2018/04/09 06:38:52
Memo.             
[...]
   -9907    -9902    -9904    -9913    -9911    -9907    -9899    -9909 
   -9913    -9883    -9895    -9926    -9902    -9896    -9923    -9909 
   -9892    -9903    -9899    -9892    -9904    -9918    -9904    -9896 
   -9918    -9913    -9887    -9904    -9925    -9910    -9900    -9899 
   -9896    -9903    -9900    -9902    -9913    -9907    -9917    -9917 
   -9887    -9895    -9910    -9894    -9902    -9919    -9911    -9895 
   -9903    -9919    -9892    -9888    -9925    -9899    -9883    -9933 
   -9922    -9883    -9906    -9929    -9899    -9877    -9906    -9917 
   -9887    -9903    -9937    -9904    -9894    -9923    -9898    -9876 
   -9917    -9913    -9873    -9903    -9941    -9907    -9887    -9921 
   -9913    -9875    -9899    -9925    -9894    -9888    -9921    -9915 
   -9896    -9906    -9910    -9900    -9903    -9910    -9907    -9906 
   -9906    -9898    -9895    -9910    -9911    -9899    -9918    -9918 
   -9888    -9887    -9907    -9911    -9900    -9909    -9919    -9896 
   -9895    -9919    -9904    -9892    -9915    -9907    -9876    -9898 
   -9927    -9903    -9894    -9927    -9917    -9877    -9896    -9925 
   -9891    -9883    -9926    -9917    -9883    -9909    -9926    -9892 
   -9890    -9922    -9911    -9891    -9909    -9913    -9891    -9898 
   -9918    -9903    -9896    -9913    -9910    -9903    -9913    -9904 
   -9891    -9902    -9907    -9906    -9906    -9904    -9909    -9913 
   -9903    -9898    -9907    -9899    -9898    -9911    -9903    -9903 
   -9913    -9900    -9904    -9910    -9895    -9904    -9913    -9900 
   -9906    -9913    -9904    -9899    -9899    -9909    -9904    -9899 
   -9913    -9903    -9891    -9915    -9918    -9894    -9894    -9913 
   -9906    -9891    -9918    -9923    -9895    -9910    -9917    -9890 
   -9902    -9906    -9896    -9913    -9907    -9906    -9911    -9894 
   -9903    -9909    -9887    -9904    -9918    -9899    -9900    -9917 
   -9913    -9895    -9894    -9911    -9898    -9896    -9921    -9900 
   -9888    -9922    -9918    -9894    -9899    -9910    -9904    -9900 
   -9907    -9902    -9898    -9923    -9917    -9886    -9906    -9925 
   -9894    -9887    -9921    -9913    -9887    -9913    -9926    -9880 
   -9888    -9931    -9903    -9888    -9921    -9907    -9892    -9922 
   -9913    -9882    -9903    -9923    -9899    -9892    -9918    -9913 
   -9899    -9915    -9913    -9887    -9896    -9922    -9902    -9887 
   -9921    -9921    -9887    -9903    -9926    -9902    -9896    -9917 
   -9900    -9886    -9911    -9918    -9892    -9902    -9925    -9907 
   -9890    -9913    -9921    -9886    -9888    -9930    -9913    -9879 
   -9909    -9925    -9895    -9902    -9925    -9896    -9879    -9911 
   -9919    -9892    -9903    -9926    -9909    -9896    -9904    -9900 
   -9898    -9904    -9900    -9900    -9910    -9909    -9902    -9913 
   -9918    -9894    -9892    -9909    -9895    -9891    -9910    -9913 
   -9911    -9913    -9906    -9900    -9903    -9903    -9902    -9904 
   -9910    -9909    -9903    -9900    -9903    -9911    -9899    -9890 
   -9915    -9917    -9888    -9904    -9925    -9898    -9886    -9911 
   -9911    -9891    -9909    -9919    -9891    -9894    -9917    -9910 
   -9906    -9910    -9903    -9894    -9894    -9903    -9909    -9910 
   -9913    -9902    -9896    -9915    -9909    -9891    -9904    -9910 
   -9898    -9898    -9904    -9915    -9913    -9898    -9903    -9913 
   -9909    -9895    -9895    -9907    -9906    -9900    -9911    -9913 
   -9910    -9899    -9894    -9910    -9909    -9891    -9907    -9911 
   -9895    -9910    -9910    -9895    -9913    -9913    -9892    -9909 
   -9911    -9890    -9896    -9913    -9909    -9895    -9899    -9913 
   -9909    -9904    -9915    -9904    -9890    -9899    -9911    -9906 
   -9895    -9900    -9917    -9910    -9894    -9909    -9913    -9887 
   -9898    -9919    -9895    -9894    -9930    -9913    -9877    -9907 
   -9922    -9887    -9888    -9925    -9911    -9875    -9909    -9937 
   -9892    -9887    -9921    -9900    -9886    -9911    -9911    -9895 
   -9907    -9917    -9907    -9904    -9906    -9898    -9895    -9904 
   -9906    -9899    -9904    -9909    -9900    -9910    -9921    -9907 
   -9891    -9902    -9904    -9887    -9902    -9923    -9907    -9902 
   -9913    -9904    -9898    -9902    -9900    -9904    -9913    -9909 
   -9899    -9909    -9902    -9888    -9913    -9918    -9891    -9904 
   -9919    -9903    -9900    -9903    -9903    -9913    -9907    -9899 
   -9913    -9911    -9891    -9891    -9919    -9922    -9895    -9902 
   -9917    -9892    -9884    -9913    -9913    -9895    -9909    -9915 
   -9903    -9906    -9909    -9898    -9899    -9907    -9907    -9900 
   -9906    -9917    -9907    -9900    -9913    -9903    -9887    -9904 
   -9911    -9902    -9910    -9910    -9900    -9910    -9915    -9895 
   -9894    -9909    -9896    -9902    -9921    -9900    -9899    -9919 
   -9903    -9892    -9906    -9909    -9911    -9904    -9896    -9910 
   -9899    -9896    -9918    -9898    -9896    -9923    -9896    -9902 
   -9929    -9886    -9891    -9933    -9891    -9877    -9930    -9918 
   -9880    -9913    -9927    -9890    -9892    -9915    -9909    -9898 
   -9903    -9910    -9903    -9899    -9910    -9906    -9895    -9909 
   -9918    -9906    -9906    -9910    -9900    -9898    -9902    -9906 
   -9907    -9907    -9904    -9899    -9904    -9918    -9909    -9892 
   -9899    -9909    -9906    -9900    -9906    -9910    -9906    -9907 
   -9910    -9904    -9896    -9894    -9910    -9915    -9899    -9911 
   -9923    -9890    -9888    -9922    -9903    -9884    -9922    -9922 
   -9890    -9907    -9926    -9900    -9884    -9909    -9918    -9898 
   -9906    -9917    -9898    -9903    -9913    -9892    -9898    -9926 
   -9909    -9888    -9913    -9923    -9894    -9886    -9910    -9918 
   -9896    -9887    -9917    -9918    -9890    -9909    -9923    -9899 
   -9906    -9911    -9895    -9903    -9909    -9904    -9902    -9898 
   -9915    -9917    -9888    -9907    -9925    -9883    -9894    -9934 
   -9904    -9886    -9919    -9911    -9890    -9906    -9906    -9899 
   -9915    -9911    -9899    -9913    -9909    -9896    -9909    -9909 
   -9892    -9899    -9915    -9910    -9896    -9904    -9910    -9895 
   -9898    -9919    -9909    -9895    -9911    -9918    -9900    -9888 
   -9902    -9911    -9902    -9902    -9915    -9915    -9904    -9907 
   -9907    -9892    -9900    -9913    -9902    -9902    -9909    -9906 
   -9904    -9899    -9902    -9915    -9913    -9902    -9894    -9909 
   -9915    -9892    -9896    -9911    -9895    -9904    -9925    -9904 
   -9895    -9913    -9904    -9891    -9906    -9902    -9894    -9915 
   -9918    -9898    -9906    -9917    -9898    -9895    -9913    -9909 
   -9895    -9907    -9921    -9903    -9891    -9918    -9921    -9882 
   -9888    -9927    -9913    -9891    -9913    -9918    -9900    -9907 
   -9910    -9900    -9903    -9904    -9902    -9903    -9909    -9915 
   -9900    -9890    -9910    -9913    -9900    -9915    -9917    -9894 
   -9902    -9918    -9903    -9895    -9909    -9913    -9903    -9899 
   -9911    -9918    -9900    -9894    -9913    -9909    -9896    -9906 
   -9906    -9910    -9911    -9892    -9902    -9918    -9903    -9895 
   -9906    -9913    -9903    -9894    -9923    -9929    -9877    -9879 
   -9927    -9913    -9883    -9903    -9927    -9909    -9886    -9910 
   -9910    -9887    -9913    -9918    -9892    -9907    -9919    -9907 
   -9895    -9899    -9904    -9892    -9906    -9926    -9904    -9899 
   -9911    -9904    -9904    -9906    -9902    -9907    -9900    -9891 
   -9907    -9918    -9903    -9904    -9911    -9899    -9904    -9917 
   -9903    -9902    -9911    -9900    -9894    -9907    -9909    -9900 
   -9906    -9911    -9909    -9906    -9907    -9907    -9900    -9900 
   -9903    -9899    -9909    -9913    -9902    -9904    -9913    -9899 
   -9898    -9913    -9913    -9899    -9903    -9904    -9896    -9904 
   -9917    -9906    -9895    -9906    -9918    -9910    -9896    -9894 
   -9910    -9913    -9890    -9899    -9925    -9913    -9895    -9906 
   -9915    -9899    -9895    -9918    -9911    -9887    -9909    -9921 
   -9891    -9904    -9927    -9895    -9891    -9921    -9904    -9883 
   -9909    -9925    -9902    -9896    -9919    -9907    -9891    -9915 
   -9906    -9883    -9913    -9925    -9891    -9891    -9923    -9922 
   -9890    -9894    -9917    -9903    -9899    -9911    -9902    -9900 
   -9913    -9906    -9902    -9918    -9913    -9886    -9904    -9921 
   -9896    -9899    -9913    -9902    -9904    -9911    -9907    -9900 
   -9899    -9913    -9913    -9895    -9906    -9915    -9891    -9899 
   -9919    -9910    -9906    -9910    -9900    -9895    -9910    -9911 
   -9888    -9898    -9927    -9907    -9886    -9910    -9911    -9896 
   -9910    -9909    -9902    -9913    -9900    -9894    -9917    -9907 
   -9888    -9909    -9913    -9900    -9903    -9907    -9906    -9906 
   -9906    -9910    -9904    -9896    -9909    -9910    -9895    -9903 
   -9911    -9904    -9903    -9906    -9906    -9907    -9904    -9906 
   -9907    -9907    -9906    -9903    -9902    -9904    -9900    -9896 
   -9906    -9927    -9921    -9894    -9902    -9915    -9888    -9884 
   -9929    -9926    -9877    -9895    -9927    -9903    -9898    -9915 
   -9899    -9891    -9906    -9913    -9906    -9904    -9913    -9899 
   -9892    -9910    -9906    -9902    -9913    -9896    -9890    -9918 
   -9925    -9913    -9906    -9895    -9894    -9896    -9894    -9895 
   -9910    -9918    -9903    -9910    -9926    -9904    -9894    -9898 
   -9891    -9903    -9906    -9894    -9902    -9909    -9918    -9918 
   -9895    -9900    -9913    -9891    -9896    -9919    -9899    -9892 
   -9913    -9911    -9907    -9910    -9896    -9898    -9918    -9906 
   -9891    -9910    -9913    -9898    -9900    -9907    -9907    -9909 
   -9906    -9904    -9900    -9899    -9915    -9909    -9888    -9911 
   -9921    -9895    -9900    -9917    -9904    -9892    -9894    -9904 
   -9913    -9911    -9910    -9899    -9894    -9915    -9913    -9888 
   -9903    -9910    -9884    -9899    -9937    -9918    -9882    -9898 
   -9921    -9900    -9886    -9902    -9913    -9910    -9909    -9909 
   -9907    -9898    -9891    -9909    -9918    -9895    -9898    -9919 
   -9902    -9896    -9917    -9903    -9887    -9903    -9913    -9903 
   -9904    -9917    -9910    -9894    -9896    -9903    -9907    -9907 
   -9899    -9913    -9918    -9887    -9899    -9922    -9900    -9902 
   -9913    -9899    -9902    -9904    -9904    -9911    -9895    -9900 
   -9917    -9902    -9907    -9915    -9895    -9891    -9904    -9909 
   -9906    -9909    -9910    -9903    -9903    -9913    -9907    -9891 
   -9904    -9918    -9909    -9910    -9913    -9903    -9903    -9904 
   -9895    -9892    -9903    -9923    -9923    -9909    -9913    -9900 
   -9882    -9898    -9911    -9906    -9911    -9913    -9913    -9913 
   -9902    -9892    -9900    -9919    -9927    -9875    -9840    -9956 
   -9994    -9809    -9707    -9397    -8694    -9305   -12152   -12586 
   -5495     -513   -11881   -23946   -13520    -1360    -9898   -15626 
   -8408    -7458    -5983    -2776   -18341   -25166    -3927      -90 
  -10010    -6440   -14215   -14524     2548   -10863   -26604   -10436 
   -2894    -6166    -5051   -11052   -14571   -13466   -13240    -6536 
   -4858   -12070   -10272    -2953    -6330   -16258   -18355   -11847 
   -5649    -4008    -8540   -15210   -12642    -6057    -9788   -13925 
   -9263    -6790    -7565    -9593   -14828   -11430    -2267    -7079 
  -16860   -13324    -6436    -8243   -10924   -10099   -11236   -10698 
   -8322   -10963   -10721    -6624    -9553   -11672    -8970   -11445 
  -12752    -7747    -5964    -7979   -10512   -12691   -11792   -10558 
  -10293    -9705    -9292    -7707    -8244   -11691   -12029   -10143 
   -8900    -8487   -10203   -11198    -9919    -9412    -9616   -10763 
  -10921    -8031    -8939   -12289   -10057    -7971    -9832    -9639 
   -8787   -10488   -10584    -9286   -10343   -11261   -10426    -9589 
   -9016    -9765   -11616   -11353    -9278    -8538    -8326    -8387 
  -11010   -12461   -10277    -9310    -9216    -7739    -8337   -10218 
  -10608   -11647   -12104   -10674    -9826    -8256    -7931   -11639 
  -11871    -8013    -8391   -10409   -10710   -11148    -8926    -7006 
  -10085   -11848   -10457    -9898    -9104    -9273   -10971   -10801 
   -9741    -9953    -9761    -9085    -9930   -10157    -8579    -8675 
  -10530   -10735    -9655   -10435   -11658   -11236   -10423    -8793 
   -8128   -10154    -9954    -8027   -10006   -11091    -9082   -10677 
  -12043   -10048   -10162    -9374    -6435    -8523   -12943   -11680 
   -8467    -9742   -12122   -10451    -6646    -6762   -11569   -13432 
   -9547    -8206   -11183   -10651    -8513    -9137    -9051   -10257 
  -12692   -12208   -11921   -10482    -7214    -7307    -7319    -6828 
  -10890   -12553    -8212    -7504   -10200    -9721    -9008    -9612 
  -11813   -17589   -18573    -9269     -649    -2860   -15705   -25076 
  -15900     -572     5752     5189    -6770   -22142   -17467    -4938 
   -7674   -13586   -16299   -19010    -9246     4360     3038    -7917 
  -21374   -28313   -19408    -5733     1622      669    -9786   -17334 
  -13003    -7330    -4888    -5823   -14006   -19268   -13514    -6644 
   -2960     -546    -5800   -16949   -19429   -11537    -5630    -7177 
  -12006   -14712   -11877    -5224    -3090    -8005   -12614   -14843 
  -15287   -11639    -7842    -6477    -5944    -8830   -12172   -10123 
   -7543   -10249   -14532   -13483    -7188    -3813    -6789    -9539 
   -9915   -11672   -13416   -13778   -12363    -8726    -8094   -10260 
   -9312    -7497    -8070   -10467   -12694   -11315    -9945   -11396 
   -9847    -6277    -6309    -9120   -11836   -12738   -11441    -9640 
   -9250    -8761    -7670    -8743   -10566   -11163   -11064   -10292 
   -9790    -9632    -9572    -8999    -8820   -10883   -10358    -8257 
  -11368   -13134    -9504    -8179   -10160   -11304   -11076   -10644 
   -9964    -8834    -8588    -8565    -7807    -7581    -8754   -11039 
  -12727   -13113   -12237   -10474    -9956    -9822    -9084    -9306 
   -8892    -7915    -9258   -10669    -9509    -8509    -9864   -11574 
  -11461   -10127    -8823    -8376    -9435   -10265    -9583    -9478 
  -10006   -10586   -12001   -11188    -8294    -8309    -9637    -9603 
  -10295   -10929   -10455   -10851   -11149    -9937    -9053    -8799 
   -8635    -9803   -10901   -10179    -9903    -9346    -8143   -10170 
  -11296    -8861    -9472   -10670    -9018    -9717   -10578    -9184 
  -10470   -11781    -9645    -9539   -11649   -10821    -9135    -9904 
  -10212    -9274    -9590    -9734    -9676   -10663    -9865    -8181 
   -9107   -10619   -10635   -10943   -10808    -8592    -7869    -9008 
   -8915    -9675   -10689   -10035   -10485   -10835   -10353   -11452 
  -10658    -8380    -9965   -10929    -8781    -9046   -10022    -9728 
  -10343    -9856    -9080   -10570   -11140    -9783    -9790   -10243 
   -9216    -9190   -10147   -10161    -9972    -9884    -9882    -9810 
  -10203   -10808    -9261    -8376    -9937    -9703    -9301   -10385 
   -9917    -9837   -11280   -11479   -10210    -8966    -8752    -9327 
   -9853    -9938   -10149   -10513   -10039    -9740    -9720    -9267 
   -9931   -10440    -9670   -10142   -10802    -9972    -9718    -9942 
   -9495    -9096    -9085   -10010   -11099   -10966   -10265    -9413 
   -9180    -9347    -8404    -8499   -10594   -11479   -10679   -10021 
  -10080   -10580   -11060   -10975    -9882    -9223    -9468    -8862 
   -8321    -9004   -10116   -10828   -10477   -10447   -10072    -8083 
   -8776   -11327   -10951   -10200   -10261    -9871   -10010    -9240 
   -8290    -9410   -10432   -10359   -10374   -10621   -10228    -8954 
   -9175   -10563   -10516   -10095   -10049   -10354   -11207   -10552 
   -8691    -8136    -9078   -10785   -11132    -9236    -8206    -8749 
   -9547   -10975   -11557   -10046    -8814    -9263    -9807   -10246 
  -11466   -11485    -9821    -8896    -8811    -9593   -10788   -10517 
  -10093    -9909    -8991    -9281   -10153    -9895   -10039   -10527 
  -10334   -10147   -10135   -10041    -9578    -8579    -8619   -10100 
  -10901   -10308    -9005    -8893   -10650   -10720    -9302    -9774 
  -10665   -10941   -10704    -9477    -9697   -10706    -9532    -8156 
   -8688    -9976   -10839   -11049   -10251    -8599    -8039    -9277 
  -10409   -10849   -10916    -9965    -8895    -9332   -10812   -11438 
  -10528    -9849    -9822    -9355    -9421   -10130   -10335   -10154 
   -9594    -9134    -9440    -9931   -10130   -10227   -10616   -10801 
   -9799    -8721    -9173    -9941    -9705    -9556    -9819    -9840 
  -10199   -10451    -9840    -9479    -9418    -9447   -10245   -11018 
  -11132   -10588    -9610    -9252    -9271    -9104    -9617   -10760 
  -11346   -10686    -9355    -8487    -8181    -8733   -10066   -10523 
  -10685   -11861   -11923    -9971    -8463    -8598    -9479    -9977 
   -9703    -9475   -10235   -11279   -11029    -9680    -8827    -9120 
   -9490    -9190    -9499   -10831   -11169    -9849    -9271    -9981 
   -9576    -8904    -9949   -11016   -10890   -10342    -9837    -9818 
  -10037    -9541    -9003    -9632   -10427   -10420   -10338   -10096 
   -9821   -10274   -10237    -9364    -9159    -9297    -9562   -10234 
   -9938    -9211    -9570    -9927    -9876   -10025    -9915    -9736 
   -9864   -10110   -10527   -10438   -10030   -10197    -9864    -9294 
   -9131    -8878   -10206   -11453   -10060    -9103    -9536   -10191 
  -10774    -9804    -9197   -10552   -10539    -9339    -9645    -9979 
   -9836   -10447   -10382    -9566    -9979   -10465    -9612    -9248 
   -9541    -9320   -10002   -11126   -10374    -9563    -9995    -9343 
   -9055   -10651   -10357    -8866    -9729   -10496   -10093   -10187 
   -9560    -8806    -9589   -10320   -10534   -10886   -10168    -9297 
   -9680    -9703   -10017   -11007   -10141    -9032    -9590   -10031 
  -10057    -9607    -9030    -9757   -10382    -9941    -9668    -9856 
  -10305   -10164    -9563    -9759    -9960   -10073   -10514    -9725 
   -8837    -9732   -10477   -10361   -10517   -10311    -9676    -9509 
   -9633    -9765    -9737    -9699   -10226   -10783   -10571    -9740 
   -8883    -8946   -10222   -10947    -9929    -9158    -9680    -9933 
   -9778    -9952   -10203   -10197    -9994   -10081    -9944    -9410 
   -9933   -10388    -9614    -9606    -9896    -9478    -9904   -10492 
   -9957    -9401    -9610   -10062   -10126   -10048    -9957    -9860 
  -10129    -9880    -9228    -9715   -10701   -10770   -10008    -9364 
   -9348    -9694   -10083   -10189   -10041    -9769    -9420    -9757 
  -10516   -10296    -9693    -9958   -10319    -9757    -9170    -9688 
  -10216    -9768    -9475    -9985   -10482   -10115    -9591   -10035 
  -10031    -9207    -9471   -10025   -10038   -10428   -10481   -10126 
