Origin Time       2018/04/09 06:38:00
Lat.              35.2
Long.             132.6
Depth. (km)       10
Mag.              3.8
Station Code      SMN007
Station Lat.      35.0807
Station Long.     132.5914
Station Height(m) 67
Record Time       2018/04/09 06:38:52
Sampling Freq(Hz) 100Hz
Duration Time(s)  60
Dir.              N-S
Scale Factor      7845(gal)/8223790
Max. Acc. (gal)   21.391
Last Correction   2018/04/09 06:38:52
Memo.             
[...]
    3696     3708     3703     3704     3719     3719     3701     3700 
    3712     3700     3690     3708     3713     3703     3707     3724 
    3719     3700     3699     3701     3696     3697     3694     3692 
    3709     3719     3707     3711     3719     3700     3693     3707 
    3712     3701     3694     3707     3715     3703     3701     3711 
    3696     3692     3712     3709     3701     3711     3713     3703 
    3708     3719     3699     3689     3707     3701     3703     3712 
    3704     3708     3713     3712     3717     3708     3693     3697 
    3693     3688     3699     3704     3704     3715     3719     3723 
    3717     3696     3696     3708     3699     3689     3697     3707 
    3704     3711     3727     3713     3697     3707     3703     3696 
    3707     3700     3696     3707     3708     3721     3723     3697 
    3705     3715     3688     3693     3709     3693     3701     3711 
    3704     3723     3721     3701     3713     3709     3685     3690 
    3707     3716     3717     3711     3713     3708     3684     3694 
    3719     3704     3699     3721     3716     3699     3704     3713 
    3709     3704     3707     3701     3689     3699     3711     3705 
    3712     3717     3697     3693     3723     3723     3690     3693 
    3711     3696     3688     3711     3721     3701     3697     3719 
    3711     3699     3716     3704     3688     3705     3697     3692 
    3716     3712     3708     3723     3712     3701     3704     3697 
    3704     3712     3699     3700     3708     3699     3707     3719 
    3703     3701     3708     3693     3700     3711     3693     3703 
    3721     3703     3708     3730     3708     3690     3699     3697 
    3699     3693     3694     3724     3715     3689     3719     3717 
    3686     3711     3715     3693     3707     3709     3703     3709 
    3712     3709     3704     3707     3705     3690     3693     3705 
    3704     3703     3717     3731     3709     3689     3709     3704 
    3682     3707     3711     3689     3700     3719     3715     3704 
    3715     3713     3694     3711     3716     3688     3696     3705 
    3693     3708     3711     3705     3716     3709     3704     3701 
    3701     3711     3693     3689     3717     3707     3692     3716 
    3719     3704     3707     3709     3703     3694     3699     3701 
    3693     3699     3715     3715     3707     3705     3712     3703 
    3688     3707     3707     3694     3719     3715     3688     3705 
    3713     3701     3703     3701     3701     3701     3699     3715 
    3716     3703     3708     3707     3697     3699     3697     3697 
    3711     3715     3703     3708     3721     3704     3690     3705 
    3705     3688     3700     3721     3711     3697     3715     3717 
    3697     3707     3723     3704     3689     3699     3700     3696 
    3703     3715     3715     3705     3707     3707     3697     3696 
    3705     3705     3699     3705     3709     3697     3708     3719 
    3703     3701     3708     3703     3697     3707     3716     3701 
    3699     3713     3703     3697     3709     3700     3700     3713 
    3703     3701     3715     3703     3693     3715     3715     3693 
    3703     3719     3703     3693     3711     3712     3697     3700 
    3709     3705     3703     3707     3708     3708     3705     3703 
    3709     3704     3694     3704     3709     3708     3709     3694 
    3699     3717     3704     3692     3713     3711     3689     3700 
    3719     3713     3701     3704     3708     3696     3694     3711 
    3705     3701     3713     3711     3708     3712     3707     3697 
    3705     3709     3685     3693     3719     3703     3697     3721 
    3715     3703     3708     3701     3694     3699     3699     3703 
    3703     3707     3719     3713     3705     3719     3709     3688 
    3705     3712     3686     3694     3719     3708     3699     3719 
    3724     3699     3699     3716     3699     3688     3711     3712 
    3696     3712     3719     3700     3704     3709     3697     3701 
    3709     3711     3709     3703     3699     3705     3709     3705 
    3711     3715     3703     3703     3715     3701     3688     3707 
    3708     3692     3713     3719     3697     3709     3716     3715 
    3727     3703     3685     3701     3690     3684     3711     3721 
    3711     3705     3724     3726     3696     3699     3713     3688 
    3684     3709     3707     3694     3709     3719     3708     3711 
    3717     3699     3696     3709     3701     3696     3705     3708 
    3705     3708     3712     3709     3694     3697     3715     3703 
    3699     3719     3712     3701     3711     3704     3690     3693 
    3703     3705     3703     3715     3712     3693     3709     3717 
    3694     3705     3717     3693     3700     3716     3700     3696 
    3704     3708     3709     3704     3705     3708     3700     3703 
    3705     3700     3713     3713     3697     3711     3713     3693 
    3701     3711     3703     3708     3711     3700     3699     3701 
    3707     3713     3705     3701     3713     3704     3690     3705 
    3715     3697     3697     3712     3699     3697     3713     3708 
    3712     3713     3701     3707     3700     3703     3715     3686 
    3697     3732     3692     3689     3740     3709     3680     3723 
    3713     3677     3703     3716     3696     3700     3712     3713 
    3707     3711     3719     3701     3701     3719     3700     3696 
    3715     3689     3677     3711     3715     3692     3709     3732 
    3708     3701     3724     3709     3686     3697     3703     3696 
    3704     3715     3709     3699     3711     3716     3692     3703 
    3719     3693     3694     3727     3707     3681     3717     3730 
    3694     3693     3712     3701     3686     3707     3735     3711 
    3693     3715     3697     3685     3719     3715     3694     3709 
    3716     3703     3700     3704     3704     3705     3707     3704 
    3704     3704     3704     3705     3709     3713     3701     3684 
    3704     3721     3694     3699     3727     3705     3694     3721 
    3715     3690     3694     3709     3701     3690     3711     3713 
    3692     3713     3730     3704     3708     3724     3700     3694 
    3712     3700     3681     3696     3711     3700     3703     3731 
    3727     3703     3713     3717     3688     3685     3703     3696 
    3692     3705     3708     3708     3719     3728     3713     3700 
    3700     3696     3690     3697     3700     3697     3709     3719 
    3712     3708     3711     3712     3704     3694     3707     3700 
    3676     3705     3719     3688     3704     3728     3707     3704 
    3721     3705     3688     3705     3704     3685     3700     3704 
    3699     3707     3701     3712     3721     3693     3705     3727 
    3686     3694     3724     3690     3694     3728     3701     3690 
    3715     3711     3705     3712     3701     3693     3703     3712 
    3704     3696     3708     3715     3690     3697     3717     3699 
    3697     3717     3709     3701     3707     3707     3700     3697 
    3708     3708     3696     3708     3711     3697     3712     3719 
    3704     3699     3701     3697     3686     3694     3713     3713 
    3707     3703     3709     3707     3692     3709     3712     3697 
    3704     3704     3701     3708     3705     3705     3711     3705 
    3699     3707     3715     3700     3694     3719     3712     3694 
    3711     3711     3697     3703     3699     3700     3711     3703 
    3704     3715     3707     3709     3716     3699     3700     3705 
    3696     3704     3709     3704     3701     3701     3708     3699 
    3694     3723     3724     3694     3704     3719     3693     3694 
    3712     3692     3694     3712     3697     3703     3727     3713 
    3707     3724     3711     3689     3703     3704     3688     3701 
    3719     3703     3689     3703     3713     3700     3704     3723 
    3712     3694     3708     3712     3689     3694     3716     3704 
    3694     3707     3707     3703     3707     3709     3708     3705 
    3708     3703     3699     3708     3711     3707     3709     3709 
    3700     3692     3711     3719     3694     3703     3719     3697 
    3696     3721     3705     3688     3708     3712     3696     3705 
    3719     3704     3688     3697     3716     3712     3694     3712 
    3719     3692     3711     3726     3688     3696     3726     3696 
    3680     3711     3709     3692     3713     3731     3707     3704 
    3719     3707     3697     3707     3701     3690     3699     3708 
    3700     3700     3721     3715     3690     3713     3724     3693 
    3701     3724     3692     3680     3726     3717     3673     3712 
    3735     3688     3694     3719     3703     3694     3701     3711 
    3699     3685     3708     3712     3703     3719     3713     3696 
    3716     3711     3688     3699     3705     3693     3694     3716 
    3713     3692     3705     3727     3700     3682     3712     3717 
    3690     3705     3723     3701     3689     3701     3709     3701 
    3697     3709     3713     3712     3717     3707     3696     3708 
    3696     3680     3715     3721     3685     3707     3728     3697 
    3697     3715     3701     3703     3708     3700     3703     3704 
    3705     3713     3708     3694     3699     3704     3708     3715 
    3703     3694     3707     3707     3694     3696     3712     3715 
    3704     3709     3721     3707     3700     3712     3694     3684 
    3708     3705     3692     3717     3724     3701     3705     3712 
    3696     3703     3721     3700     3689     3715     3709     3692 
    3701     3707     3701     3701     3709     3712     3713     3719 
    3709     3694     3697     3700     3704     3705     3694     3704 
    3712     3708     3713     3701     3701     3721     3701     3692 
    3717     3709     3697     3705     3703     3703     3699     3692 
    3701     3704     3703     3715     3716     3708     3716     3716 
    3694     3690     3700     3697     3689     3699     3715     3705 
    3708     3727     3715     3711     3708     3677     3684     3709 
    3701     3697     3711     3719     3715     3703     3712     3708 
    3681     3694     3717     3694     3690     3712     3709     3707 
    3721     3719     3700     3692     3708     3713     3700     3699 
    3703     3696     3700     3711     3704     3696     3704     3711 
    3709     3723     3719     3689     3701     3727     3699     3684 
    3708     3696     3689     3711     3707     3703     3712     3712 
    3713     3709     3705     3700     3696     3711     3708     3690 
    3704     3713     3703     3703     3707     3704     3699     3703 
    3713     3705     3694     3707     3711     3703     3705     3713 
    3709     3694     3689     3707     3716     3700     3701     3707 
    3700     3716     3715     3696     3711     3705     3690     3700 
    3703     3701     3707     3724     3726     3689     3693     3716 
    3685     3684     3719     3703     3684     3716     3724     3708 
    3713     3712     3699     3694     3699     3694     3688     3704 
    3721     3713     3712     3721     3699     3689     3717     3699 
    3667     3697     3707     3696     3730     3736     3561     3273 
    3636     4530     3673     1216     1566     5169     6489     3067 
    -718      708     6156     8380     6309     6049     6058     3090 
    4887     6644    -1551    -1837     8127     6412     1350     1890 
      58     2830     5506     -201      375     4200      901     2326 
    8000     8614     9373    10420     7209     3094     -364    -1362 
    2563     5267     4567     3984      795    -2857     -901     3488 
    5670     4347     2266     4382     7069     5490     2880     3774 
    8548    10758     6216     1300      923     2305     3141     3566 
    2979     1312     -288     -747     1694     6272     8190     6285 
    4579     3815     2076     2212     4765     4914     4291     5292 
    3677      702     2257     5574     4704     2648     3879     5308 
    3716     1343     1329     3939     6408     5895     3430     1933 
    2405     3904     4931     4954     4044     3231     3707     4132 
    3655     3497     3526     3075     3098     3177     1910     1787 
    4017     4986     4271     4109     4572     5051     5044     4766 
    4689     4868     4564     2771      769      105     1318     4541 
    6492     4942     3210     2398     1642     3011     4754     3584 
    2567     3885     5188     5757     5541     4642     4781     4936 
    3591     2497     2215     2652     3944     4247     3539     3173 
    3021     3003     2361     1254     1883     3604     4099     4854 
    6380     6447     6326     6033     3604     1603     1470     1729 
    2242     2660     3245     4419     5016     5302     5763     5296 
    4124     3049     2866     3424     2647     1456     1830     2573 
    3788     5313     4253     2199     3232     5401     5661     5000 
    4596     4810     5038     4375     3821     3495     2016      598 
    1547     2351      594       16     1652     3503     6120     8066 
    7342     2104    -7819   -10471     3392    18388    20892    17323 
   10849     8000    15466    11546    -9987   -18719   -13020    -7241 
    5995    14139     5694     1753     4698     3381     3854     4225 
    -334      777     7595     9718    11179    10644     1921    -3107 
   -2263    -5155    -5660    -1942        9     6168    15075    17265 
   18176    19259    12037     2355    -3774   -11445   -17289   -16252 
   -9938     3538    19712    25246    17397     5590     -907    -1077 
   -1601    -3847     -672     8621    14932    14407    13005    11958 
    4706    -6601   -11983    -9652    -4036      851     2876     5335 
   10272    11962     7628     3554     2952     2394     2498     5459 
    7695     7426     6350     3399      321      560      270    -2633 
   -1448     4657     7481     6303     5425     3850     1975     2235 
    5254    10384    13257    10347     3855    -2245    -4587    -3202 
   -1298     1833     6453     8158     6880     5109     2546     -461 
   -2290     -946     3774     9402    12306    10677     8166     6498 
    3650     1872      714    -3115    -6039    -5134    -2209     1918 
    6444     9390    10149    10640    11290    10174     7681     5155 
    2674      367     -977     -761       32      749     1355     1629 
    1968     1587     1030     3086     6471     8089     8753     9522 
    9113     7248     4777     2128      394      376      649     -240 
    -712      422     1551     2394     3483     4855     6555     7072 
    6366     5999     6031     5857     5062     4580     4482     3434 
    2617     2027      392      -76     1011     2204     4220     5605 
    5506     6259     7067     5831     3364     1297      737      920 
     321      566     3177     5815     6945     7028     6146     5483 
    5964     5913     4838     4375     3393     1035     -279      -91 
     929     2263     2577     2502     3026     3821     4502     4892 
    5351     6008     6844     7944     8526     7600     5167     2300 
     599      -27    -1181    -1351      585     1946     2828     3885 
    4040     4491     4689     4104     4733     5321     4897     5157 
    5302     5090     5968     5933     4133     3304     2806     1474 
    1347     2818     4153     4333     4066     3937     3210     2619 
    2691     2308     2072     2342     2818     4360     5358     4153 
    3175     3912     4762     4685     4571     5246     5568     4649 
    3510     3418     4463     4710     3366     2400     2471     2814 
    2651     2515     3991     5111     4140     3007     2120     1574 
    1761     2023     3451     5806     6484     5875     5760     5718 
    4849     3415     2764     2974     2192     1213     2150     3352 
    3784     4630     4827     4434     4729     4467     4220     4970 
    4603     3241     2357     1871     2238     2636     2532     3554 
    4600     3997     3376     3547     4036     4378     3774     3234 
    3681     4314     4585     4258     3866     3503     2700     2768 
    4426     5815     5765     4600     2600     1459     2282     3697 
    4799     4699     3669     3554     3960     4168     4378     4345 
    3944     2308     -166     -496     1927     3897     4433     5119 
    5082     4291     4649     5481     5552     4473     3129     3491 
    4696     5368     5390     3942     2234     2073     2332     1992 
    1737     1764     2101     3522     5202     5540     5310     5066 
    4307     3863     3937     3736     3308     2967     3262     4149 
    4475     4550     4869     4556     3873     3349     3476     4336 
    3932     2319     1636     1796     2304     3122     3632     3541 
    3183     3361     4039     4573     5216     5603     4671     3423 
    3450     3836     3659     3418     3316     3302     3487     4238 
    4795     4135     3071     2253     2231     3572     5055     5888 
    6061     5150     3809     2492     1316     1679     3391     4407 
    4275     3746     3300     3277     3133     2293     2023     3173 
    4040     3690     3889     5462     6804     6025     3585     2667 
    3669     3704     3092     3191     2940     2655     2896     2787 
    3306     4765     5147     4720     4811     4615     3555     2686 
    3115     4109     4291     3996     3480     2529     1949     1872 
    1833     2370     3746     5027     5566     5703     5613     4973 
    3989     3261     2902     3065     3866     4509     4660     4657 
    4074     2937     1922     1417     1918     3036     3518     3365 
    3561     4126     4862     5725     5464     4097     3568     3684 
    3532     3807     3959     3295     2736     2663     3404     4333 
    4078     3805     3839     3400     3508     3636     3600     4602 
    4846     3639     3225     3140     2469     2254     2312     2771 
    3894     4502     5238     6299     5985     5120     4305     2971 
    2539     2956     3199     4013     4953     4594     3141     2016 
    1956     2307     2579     2930     3071     2941     3277     4140 
    4849     5074     4698     4187     4185     4136     3622     3327 
    3584     3923     4074     4298     4271     3948     4215     4225 
    3125     2683     3355     3807     4155     4200     3231     2367 
    2227     2396     3422     4727     5026     4737     4077     3279 
    3248     3176     2535     2635     3439     4021     4251     4248 
    4653     4996     4326     3932     4197     3554     2555     2906 
    3732     3744     4069     4795     4360     3563     3731     3740 
    2918     2640     3125     3235     3241     3708     4374     4791 
    4437     3800     3396     2967     2947     3411     3670     3770 
    4145     4327     3854     3577     3604     3257     3079     3095 
    2983     3399     4159     4645     4868     4892     4774     3929 
    2811     3121     3786     3276     3057     3874     4706     4702 
