Origin Time       2018/04/09 06:38:00
Lat.              35.2
Long.             132.6
Depth. (km)       10
Mag.              3.8
Station Code      SMN007
Station Lat.      35.0807
Station Long.     132.5914
Station Height(m) 67
Record Time       2018/04/09 06:38:52
Sampling Freq(Hz) 100Hz
Duration Time(s)  60
Dir.              E-W
Scale Factor      7845(gal)/8223790
Max. Acc. (gal)   47.766
Last Correction   2018/04/09 06:38:52
Memo.             
[...]
    -999    -1000    -1024    -1021    -1013    -1021    -1021    -1024 
   -1016    -1003    -1017    -1017    -1003    -1011    -1013    -1017 
   -1031    -1026    -1019    -1028    -1023     -997    -1000    -1016 
   -1008    -1015    -1038    -1024    -1017    -1031    -1013    -1000 
   -1015    -1011    -1000    -1008    -1021    -1019    -1013    -1032 
   -1039    -1005    -1013    -1039     -994     -982    -1026    -1021 
   -1008    -1026    -1021    -1013    -1028    -1026    -1013    -1015 
   -1015    -1016    -1020    -1011    -1005    -1015    -1020    -1008 
   -1000    -1012    -1026    -1019    -1013    -1023    -1026    -1023 
   -1011    -1013    -1024    -1005    -1003    -1023    -1009    -1004 
   -1021    -1009    -1003    -1023    -1035    -1017    -1008    -1028 
   -1023    -1008    -1011    -1013    -1016    -1009    -1005    -1012 
   -1013    -1020    -1030    -1024    -1024    -1028    -1012    -1004 
   -1012    -1003    -1000    -1019    -1016    -1012    -1034    -1036 
   -1020    -1019    -1028    -1012     -982     -999    -1019    -1003 
   -1012    -1042    -1032    -1024    -1039    -1016     -996    -1020 
   -1020    -1003    -1007    -1021    -1012     -997    -1023    -1030 
   -1008    -1020    -1026    -1019    -1011     -997    -1017    -1020 
   -1000    -1024    -1023    -1007    -1034    -1026    -1000    -1011 
   -1011    -1011    -1013    -1013    -1026    -1017    -1016    -1023 
   -1004    -1013    -1034    -1009    -1000    -1026    -1021    -1003 
   -1023    -1031    -1015    -1026    -1026    -1005    -1011    -1019 
   -1008    -1000    -1013    -1028    -1012    -1004    -1034    -1032 
   -1005    -1020    -1026     -999    -1008    -1019    -1004    -1020 
   -1034    -1017    -1023    -1026    -1008    -1003    -1003    -1004 
   -1011    -1009    -1023    -1036    -1015    -1021    -1042    -1008 
    -997    -1026    -1013     -994    -1013    -1019    -1012    -1019 
   -1030    -1015    -1009    -1030    -1021    -1003    -1005    -1016 
   -1011    -1005    -1031    -1030    -1004    -1024    -1028    -1008 
   -1026    -1015     -992    -1026    -1013     -997    -1030    -1015 
   -1013    -1042    -1020    -1016    -1030    -1009    -1009    -1016 
   -1008    -1012    -1016    -1015    -1013    -1026    -1024    -1008 
   -1019    -1021    -1004    -1007    -1011    -1017    -1017    -1012 
   -1031    -1028    -1009    -1026    -1019     -996    -1015    -1016 
    -997    -1004    -1020    -1026    -1021    -1028    -1035    -1011 
   -1005    -1023    -1009    -1007    -1020    -1008    -1011    -1030 
   -1026    -1008    -1011    -1026    -1011    -1003    -1021    -1016 
   -1004    -1030    -1032     -999    -1008    -1034    -1011    -1000 
   -1035    -1026    -1000    -1019    -1026    -1013    -1009    -1011 
   -1016    -1013    -1008    -1011    -1012    -1017    -1023    -1017 
   -1011    -1024    -1031    -1005     -997    -1023    -1019    -1000 
   -1019    -1030    -1020    -1026    -1026    -1011    -1015    -1019 
   -1000    -1005    -1020    -1015    -1012    -1024    -1023    -1020 
   -1026    -1017    -1009    -1013    -1031    -1026     -992    -1008 
   -1043    -1007     -993    -1026    -1016    -1008    -1026    -1013 
   -1011    -1024    -1015    -1016    -1017    -1007    -1016    -1015 
   -1003    -1021    -1034    -1008    -1005    -1031    -1013     -996 
   -1020    -1021    -1012    -1023    -1020    -1007    -1015    -1026 
   -1012    -1004    -1019    -1020    -1015    -1023    -1013    -1004 
   -1023    -1024    -1012    -1016    -1017    -1009    -1011    -1024 
   -1023    -1012    -1023    -1020    -1007    -1016    -1017    -1007 
   -1009    -1020    -1016    -1016    -1026    -1020    -1016    -1013 
   -1015    -1019    -1011    -1012    -1021    -1012    -1009    -1026 
   -1030    -1008    -1007    -1019    -1012    -1011    -1017    -1008 
   -1016    -1031    -1021    -1023    -1026    -1020    -1021    -1016 
   -1008    -1007    -1000    -1003    -1026    -1026    -1016    -1034 
   -1028    -1015    -1015    -1000    -1005    -1009    -1003    -1019 
   -1019    -1013    -1038    -1038    -1012    -1017    -1026    -1003 
    -989    -1012    -1007     -990    -1032    -1042    -1008    -1034 
   -1044    -1004    -1004    -1017    -1003    -1005    -1008    -1007 
   -1024    -1038    -1017    -1008    -1032    -1021    -1000    -1020 
   -1012     -999    -1011    -1015    -1017    -1015    -1012    -1036 
   -1031    -1012    -1020    -1016    -1009    -1012    -1007    -1011 
   -1013    -1011    -1016    -1015    -1013    -1026    -1016    -1009 
   -1031    -1016     -997    -1017    -1015    -1000    -1017    -1026 
   -1011    -1019    -1032    -1011    -1005    -1019    -1012    -1009 
   -1012    -1017    -1026    -1019    -1013    -1019    -1013    -1012 
   -1023    -1023    -1015    -1015    -1016    -1011    -1009    -1016 
   -1019    -1009    -1011    -1021    -1017    -1016    -1023    -1016 
   -1013    -1023    -1015    -1005    -1012    -1011    -1005    -1012 
   -1024    -1023    -1020    -1032    -1026    -1007    -1013    -1017 
    -993    -1000    -1024    -1009    -1009    -1028    -1017    -1017 
   -1026    -1024    -1011    -1004    -1017    -1015     -996    -1016 
   -1028    -1008    -1023    -1026    -1008    -1017    -1023    -1012 
   -1007    -1012    -1012    -1004    -1024    -1035    -1011    -1012 
   -1031    -1017    -1008    -1016    -1011    -1005    -1015    -1021 
   -1011    -1013    -1028    -1015    -1009    -1021    -1020    -1013 
   -1008    -1004    -1008    -1012    -1016    -1024    -1019    -1013 
   -1020    -1023    -1009    -1000    -1016    -1016    -1009    -1024 
   -1023    -1012    -1015    -1015    -1013    -1020    -1021    -1008 
   -1011    -1026    -1012    -1000    -1020    -1024    -1008    -1020 
   -1026    -1015    -1019    -1013    -1007    -1019    -1013    -1007 
   -1028    -1020    -1000    -1019    -1020    -1003    -1015    -1021 
   -1016    -1024    -1024    -1019    -1019    -1016    -1011    -1016 
   -1017    -1004    -1011    -1024    -1012    -1012    -1026    -1021 
   -1015    -1017    -1016    -1015    -1012    -1013    -1017    -1013 
   -1011    -1012    -1020    -1030    -1021    -1016    -1020    -1015 
   -1009    -1003    -1005    -1017    -1008    -1015    -1031    -1009 
   -1016    -1039    -1015    -1005    -1028    -1011     -996    -1019 
   -1020    -1007    -1013    -1020    -1016    -1031    -1026    -1013 
   -1031    -1016     -990    -1013    -1011     -994    -1020    -1019 
   -1003    -1026    -1032    -1021    -1034    -1026    -1004    -1005 
   -1004    -1000    -1012    -1016    -1011    -1026    -1036    -1024 
   -1021    -1021    -1009    -1012    -1011    -1000    -1003    -1015 
   -1019    -1012    -1020    -1024    -1008    -1026    -1036    -1005 
   -1012    -1023    -1007    -1017    -1017    -1007    -1011    -1015 
   -1021    -1009    -1005    -1026    -1020    -1017    -1031    -1013 
   -1008    -1028    -1013     -997    -1020    -1017     -989    -1017 
   -1039    -1011    -1020    -1036    -1009    -1009    -1016    -1007 
   -1009    -1005    -1019    -1035    -1000    -1004    -1043    -1021 
    -996    -1026    -1026     -997    -1015    -1019     -996    -1023 
   -1030    -1007    -1023    -1032    -1020    -1019    -1016    -1013 
   -1008     -999    -1015    -1020    -1005    -1026    -1031    -1020 
   -1026    -1012    -1000    -1008    -1011    -1005    -1003    -1019 
   -1028    -1021    -1024    -1026    -1017    -1017    -1019    -1012 
   -1003    -1004    -1017    -1007    -1003    -1026    -1026    -1020 
   -1028    -1024    -1007    -1007    -1017    -1011    -1000    -1005 
   -1017    -1020    -1017    -1028    -1030    -1017    -1023    -1026 
   -1003     -994    -1024    -1021     -997    -1012    -1021    -1019 
   -1032    -1015    -1011    -1028    -1008    -1011    -1026    -1012 
   -1003    -1005    -1024    -1032    -1008    -1007    -1031    -1017 
   -1000    -1021    -1017    -1007    -1024    -1023    -1012    -1020 
   -1013    -1000    -1013    -1016    -1005    -1021    -1031    -1021 
   -1020    -1012    -1016    -1026    -1008    -1007    -1015    -1012 
   -1021    -1015    -1000    -1012    -1023    -1024    -1021    -1019 
   -1023    -1020    -1011    -1017    -1011     -999    -1008    -1011 
   -1013    -1026    -1020    -1016    -1026    -1026    -1021    -1004 
    -997    -1024    -1021     -996    -1019    -1036    -1015    -1015 
   -1031    -1019    -1005    -1016    -1015    -1004    -1019    -1019 
   -1000    -1016    -1028    -1020    -1023    -1020    -1019    -1023 
   -1013    -1012    -1012    -1007    -1017    -1015    -1005    -1030 
   -1031    -1000    -1021    -1035    -1004    -1007    -1026    -1012 
   -1005    -1016    -1020    -1012    -1019    -1026    -1020    -1019 
   -1016    -1011    -1000    -1007    -1021    -1005    -1011    -1035 
   -1020    -1023    -1028    -1003    -1003    -1016    -1019    -1013 
    -999    -1013    -1031    -1015    -1020    -1036    -1020    -1012 
   -1026    -1015     -994    -1012    -1019     -996    -1013    -1035 
   -1012    -1013    -1038    -1028    -1012    -1012    -1011    -1011 
   -1015    -1015    -1008    -1009    -1017    -1009    -1015    -1031 
   -1021    -1008    -1015    -1026    -1017    -1008    -1012    -1011 
   -1013    -1026    -1017    -1000    -1009    -1024    -1020    -1003 
   -1013    -1039    -1026    -1016    -1028     -999     -982    -1012 
   -1023    -1016    -1013    -1012    -1019    -1028    -1035    -1024 
   -1000    -1016    -1043    -1013     -978     -999    -1012    -1003 
   -1026    -1034    -1004    -1020    -1053    -1016    -1000    -1021 
    -999    -1000    -1026    -1007    -1008    -1030    -1026    -1031 
   -1028    -1011    -1012    -1011    -1009    -1009    -1004    -1017 
   -1024    -1020    -1019    -1007    -1004    -1016    -1039    -1039 
   -1013    -1015    -1008    -1005    -1023    -1019    -1019    -1020 
   -1000    -1011    -1016    -1004    -1011    -1016    -1026    -1036 
   -1030    -1024    -1011    -1005    -1003     -994    -1009    -1016 
   -1007    -1023    -1039    -1034    -1032    -1019    -1007    -1005 
    -990     -993    -1004     -996    -1012    -1036    -1039    -1038 
   -1026    -1020    -1023    -1011    -1003    -1000     -993    -1012 
   -1028    -1013    -1016    -1021    -1026    -1026    -1000    -1000 
   -1020    -1011    -1011    -1013    -1005    -1026    -1034    -1012 
   -1028    -1039    -1012    -1013    -1028    -1005     -992    -1004 
    -999    -1011    -1038    -1020    -1026    -1053    -1026    -1007 
   -1019    -1007     -990     -997    -1008    -1012    -1017    -1035 
   -1035    -1015    -1028    -1039    -1012     -997    -1004    -1008 
   -1009    -1000    -1016    -1038    -1023    -1016    -1028    -1020 
   -1005    -1013    -1019    -1000    -1012    -1031    -1013    -1011 
   -1020    -1021    -1030    -1020    -1009    -1026    -1026    -1004 
    -996    -1012    -1019    -1005    -1009    -1019    -1012    -1016 
   -1030    -1028    -1031    -1028    -1007    -1012    -1028    -1004 
    -999    -1019    -1019    -1019    -1009    -1003    -1013    -1021 
   -1026    -1015    -1005    -1026    -1026    -1012    -1021    -1015 
   -1000    -1012    -1011    -1007    -1024    -1028    -1016    -1026 
   -1031    -1016    -1007     -997     -999    -1011    -1007    -1017 
   -1038    -1030    -1042    -1080    -1046     -947     -918    -1205 
   -1448     -784     -333    -1355    -1399       94     -375    -2188 
   -2381     -174     3883     2386    -7604    -8942     2952     3757 
   -4668     -531      372    -4340     5648     3306   -13602    -6724 
    2386      126     8490     5157    -8773    -3759      781    -3457 
   -1421    -1613    -2857     2417     4495     1927    -1170    -5863 
   -4885     1142    -1818    -7017     -418     4550    -1783    -4762 
    -222     2502     2542    -1152    -9093    -7159     6044     7423 
   -3403    -4677     1215     1798      444    -1699    -6243    -5589 
     -39     2057     2300     1042    -4553    -5620      126      804 
   -2282    -1123      -97     -240      820     -939    -2095      685 
     310    -2810    -3415    -2056      333      866    -1667    -2771 
    -822     1013     -770    -4475    -4368     -459     2893     2471 
    -770    -1480     -552    -1638    -1742    -1690    -3665    -2770 
     419      972      562     -237    -2470    -2664    -1667    -2774 
   -1984     1485     2355     1188     -338    -2899    -3538    -1884 
   -1414    -1192     -275     -615     -542      472     -967    -3024 
   -2527    -1830    -1350       29     -125    -1219     -683     -888 
   -1831       36     1896      363    -2110    -2960     -459     2578 
     386    -3366    -3942    -4110    -2624     -256    -2370    -3678 
    -402     1166     1158     1518     -851    -2658     -355      987 
    -340    -1787    -2856    -1327     1830     1588     -807    -1898 
   -2712    -3028    -1370     -468    -2037    -2575    -1798    -2137 
    -959      814    -1464    -2907     -305      289      -22     1386 
    -249    -2161      -18      391    -1348     -796    -1790    -4564 
   -2126     2563     1545    -3188    -5678    -3180     1229     -770 
   -7094    -7963    -6550    -6858    -7298   -13050   -16754    -1958 
   25222    47329    49056    21069   -17165   -31703   -17799    -1123 
   -1594   -11465   -10918     7852    28551    19558   -20115   -48340 
  -44968   -26680     4066    32763    22254    -4735      399    19415 
   21852    10763   -10821   -25220   -12449     5001     7723     8152 
    3875    -9246   -12598    -4263    -1449    -7989   -16180   -16005 
   -2921    14134    26176    27784    12526    -7484   -10590     -136 
    5927    -1753   -20943   -31961   -18852     -831    -1210   -11099 
  -12839    -2200    14242    22504    16183     6859     5543     8866 
   12021    14071     9243    -4072   -15173   -18466   -18758   -17991 
  -15056    -9290     -957     6183     7200     1945    -2889    -2458 
    -533     -654      348     4839     8305     6616     3322     2313 
     607    -4180    -7257    -5081    -2204    -1972    -2423    -4122 
   -6840    -6921    -4855    -3119    -1133     2322     6087     7735 
    6095     1998    -1236    -1677    -1512    -3433    -6376    -5300 
    -533      881    -2371    -5437    -5402    -2184     3316     7931 
    7129     2733      514     -638    -3960    -7032    -6822    -4812 
   -2740      118     1050    -1763    -3634    -3121    -2097     -400 
    1362     3446     5282     3719     -425    -3227    -3858    -3719 
   -2705    -1329    -2521    -4949    -3705     -306      425     -747 
    -841      665     2405     2215     -301    -2762    -2421     -159 
     437    -1227    -2744    -1925      136     -135    -2172    -2889 
   -2829    -3395    -3123    -1318      451     1826     1857     -218 
   -1861    -2257    -1952     -221      989     1100     2355     2057 
   -1081    -2621    -3092    -3780    -2385    -2010    -3631    -2840 
   -2020    -3148    -2949    -2628    -1831     2166     4727     2673 
     781      920       44     -951     -317     -666    -1826    -2304 
   -3899    -4884    -3006    -1637    -1954    -1397     -766     -970 
    -155      453     -523     -751     -432     -874    -1007    -1431 
   -1233      807      486    -1216      174      297    -1494     -337 
     287    -1155     -675     -916    -3380    -4088    -3601    -2848 
    -650       94     -638     1081     2504      841      139      599 
   -1433    -4382    -4590    -3067    -2887    -2092      557      548 
   -1425    -1784    -1891    -1668    -1065    -1625    -1370      313 
     711      160      102     -495     -760      117     -175     -649 
      90     -310    -1277    -1489    -1672    -1676    -2651    -3577 
   -2107    -1485    -2419    -1559     -194      718     1638     1053 
       4     -246     -237     -333    -2092    -4167    -3855    -3219 
   -3154    -2126    -1135     -514      449      922     1405     2278 
    1605      657     1074     -184    -2952    -4017    -4159    -4568 
   -4850    -3865    -1048      220     -360      662      731     -754 
     144     1093      511      549        8     -280      923      448 
   -1972    -3192    -2560    -1803    -1549    -1287    -1941    -3237 
   -2844    -1737    -2404    -3291    -1833      940     1649       64 
    -666     -287      -52     -108     -429      -52     -170    -2089 
   -3038    -2018    -1198    -1269    -1220    -1174    -1826    -1135 
    1190     2188     1757      479    -1368    -2385    -2983    -3262 
   -3388    -3991    -2668      493     1598      486     -398     -661 
    -653     -378     -664    -1927    -2803    -2020     -955    -1718 
   -2571    -1561     -562       63      464    -1055    -1822      843 
    2884     1919      348    -1035    -2133    -2385    -3430    -5456 
   -5238    -2721    -1242     -951     -425     -259     -396      171 
    1008     1336     1030      151     -564     -454      -70     -271 
    -890     -966     -504     -728    -1918    -3379    -4725    -4918 
   -3561    -1911     -425      468      212     -301     -896    -1799 
   -1641     -195     1544     3573     4270     1898    -1486    -3796 
   -5019    -4598    -2641     -788      268      -81    -2542    -4519 
   -3190     -425       62    -2119    -2718      579     3518     3026 
     926     -899    -1668    -1711    -1806    -1883    -2234    -2034 
    -532     -288    -1547    -1975    -2250    -2450    -1849    -1632 
   -1414     -415      144      263      819     1142      379    -1109 
   -1709    -1228    -1648    -2331    -1992    -2025    -2163    -1327 
    -311      464      596     -199     -877    -1440    -2428    -2419 
   -1270     -905     -303     1364      642    -2296    -3079    -1783 
    -493     -454    -2461    -3194    -1246     -383     -360       93 
    -679     -911       99      -82     -616    -1212    -2174    -1669 
   -1000    -1244     -911     -500      -25      328     -793    -2006 
   -2188    -1958     -803      533      340     -436     -907    -1792 
   -2633    -3146    -3357    -2461    -1305     -522      328      261 
     212     1209      440    -1799    -2114    -1382    -1135     -646 
    -881    -1987    -2038    -1706    -1648     -611      -75     -928 
    -777     -265     -912     -741     -172     -953     -846      403 
    -291    -1811    -1927    -2057    -1922     -899    -1004    -1347 
    -409      -32     -959    -2505    -3495    -2312     -461      -40 
    -288     -522     -611     -702    -1104    -1250    -1382     -965 
     558      461     -877     -558     -336    -1097    -1364    -2100 
   -3240    -3067    -1737     -255      535       78     -922    -1294 
   -1101    -1310    -2332    -2747     -940      618     -136     -270 
     232    -1019    -1799     -953    -1071    -2524    -2786     -950 
     395      112      -22     -178     -749    -1024    -1752    -2203 
   -1402    -1300    -1308      162      440     -816    -1059    -1217 
   -1898    -1781    -1468    -1489    -1391    -1347     -585      807 
