Origin Time       2018/04/09 06:38:00
Lat.              35.2
Long.             132.6
Depth. (km)       10
Mag.              3.8
Station Code      OKYH09
Station Lat.      35.1809
Station Long.     133.6765
Station Height(m) 405
Record Time       2018/04/09 06:39:17
Sampling Freq(Hz) 100Hz
Duration Time(s)  120
Dir.              6
Scale Factor      7845(gal)/8223790
Max. Acc. (gal)   0.444
Last Correction   2018/04/09 06:39:02
Memo.             
[...]
   33525    33524    33523    33523    33525    33527    33524    33525 
   33525    33523    33525    33525    33521    33524    33525    33524 
   33525    33524    33524    33525    33524    33524    33525    33525 
   33524    33525    33528    33527    33521    33523    33527    33525 
   33524    33527    33527    33525    33523    33523    33528    33525 
   33521    33525    33527    33520    33520    33527    33525    33521 
   33525    33527    33524    33521    33523    33525    33525    33523 
   33523    33525    33525    33524    33527    33524    33520    33523 
   33525    33525    33525    33527    33525    33525    33524    33524 
   33525    33523    33525    33528    33525    33521    33525    33531 
   33524    33521    33527    33525    33523    33525    33525    33525 
   33527    33525    33521    33523    33527    33525    33524    33524 
   33524    33524    33525    33527    33524    33523    33525    33528 
   33525    33524    33525    33525    33525    33525    33525    33524 
   33523    33523    33525    33525    33521    33523    33527    33525 
   33523    33527    33525    33524    33527    33524    33523    33524 
   33524    33524    33524    33524    33524    33524    33525    33525 
   33525    33525    33525    33525    33527    33524    33523    33527 
   33525    33521    33521    33524    33525    33524    33524    33527 
   33527    33523    33523    33525    33524    33524    33525    33527 
   33525    33524    33524    33525    33527    33524    33523    33523 
   33523    33525    33528    33524    33523    33527    33525    33524 
   33524    33525    33527    33525    33524    33524    33524    33525 
   33525    33523    33523    33527    33529    33525    33521    33524 
   33527    33523    33521    33524    33525    33525    33525    33528 
   33525    33523    33524    33525    33524    33524    33524    33527 
   33525    33524    33524    33524    33527    33527    33525    33525 
   33524    33523    33524    33527    33525    33525    33523    33524 
   33527    33525    33523    33525    33525    33524    33524    33523 
   33524    33525    33527    33525    33521    33519    33520    33516 
   33512    33504    33492    33489    33488    33482    33481    33490 
   33498    33500    33515    33562    33625    33669    33682    33666 
   33636    33624    33637    33637    33581    33453    33338    33367 
   33477    33466    33376    33428    33597    33594    33374    33291 
   33502    33694    33629    33462    33389    33453    33569    33648 
   33694    33637    33435    33377    33621    33787    33609    33355 
   33336    33507    33597    33524    33477    33532    33575    33546 
   33473    33436    33498    33579    33563    33489    33474    33513 
   33535    33523    33519    33556    33601    33601    33547    33496 
   33531    33596    33559    33489    33516    33556    33509    33455 
   33508    33604    33538    33396    33480    33625    33497    33351 
   33469    33566    33477    33431    33531    33616    33527    33412 
   33540    33706    33598    33444    33520    33635    33567    33458 
   33524    33650    33589    33450    33465    33538    33521    33523 
   33588    33555    33454    33465    33540    33548    33519    33502 
   33494    33502    33524    33529    33540    33574    33532    33424 
   33436    33543    33554    33511    33524    33561    33567    33566 
   33596    33632    33617    33536    33424    33423    33579    33616 
   33457    33423    33540    33539    33451    33461    33513    33504 
   33492    33544    33596    33582    33550    33543    33535    33509 
   33478    33469    33512    33556    33546    33515    33492    33480 
   33485    33474    33448    33492    33617    33686    33598    33469 
   33471    33577    33590    33501    33500    33578    33586    33563 
   33565    33542    33517    33500    33463    33462    33490    33508 
   33551    33575    33508    33446    33461    33484    33489    33511 
   33548    33562    33540    33520    33511    33513    33547    33566 
   33531    33508    33546    33600    33604    33534    33473    33535 
   33602    33527    33474    33554    33573    33493    33475    33525 
   33554    33529    33482    33465    33469    33469    33496    33520 
   33513    33539    33566    33527    33500    33527    33550    33559 
   33562    33561    33593    33608    33528    33463    33513    33548 
   33505    33500    33534    33521    33524    33569    33546    33438 
   33400    33496    33594    33575    33474    33451    33550    33602 
   33548    33520    33534    33490    33446    33525    33609    33531 
   33448    33517    33563    33500    33471    33531    33556    33509 
   33531    33624    33593    33467    33488    33600    33543    33415 
   33480    33620    33579    33461    33485    33569    33542    33477 
   33528    33608    33563    33484    33515    33571    33531    33471 
   33502    33555    33525    33454    33473    33565    33574    33517 
   33513    33519    33489    33494    33536    33524    33494    33527 
   33569    33546    33520    33536    33538    33521    33538    33565 
   33575    33554    33505    33500    33515    33470    33450    33524 
   33579    33559    33528    33528    33562    33571    33513    33473 
   33493    33498    33480    33480    33531    33585    33551    33496 
   33538    33581    33517    33451    33498    33594    33566    33434 
   33426    33566    33623    33528    33465    33524    33577    33520 
   33473    33536    33582    33542    33538    33577    33552    33504 
   33496    33485    33466    33493    33558    33594    33561    33498 
   33490    33534    33520    33461    33482    33538    33534    33542 
   33578    33552    33496    33505    33535    33509    33484    33517 
   33561    33538    33500    33524    33559    33544    33517    33500 
   33505    33542    33559    33547    33550    33558    33543    33517 
   33497    33492    33508    33521    33507    33494    33528    33554 
   33521    33496    33527    33528    33471    33471    33554    33590 
   33532    33485    33525    33585    33577    33523    33484    33497 
   33538    33543    33497    33457    33477    33539    33579    33565 
   33519    33509    33562    33604    33583    33547    33516    33508 
   33547    33554    33475    33419    33474    33565    33561    33488 
   33470    33511    33536    33540    33535    33527    33535    33531 
   33516    33535    33552    33524    33521    33556    33555    33517 
   33502    33513    33525    33519    33494    33505    33567    33592 
   33536    33467    33482    33559    33551    33466    33471    33532 
   33516    33480    33505    33559    33552    33488    33492    33566 
   33555    33474    33485    33586    33610    33531    33513    33575 
   33574    33515    33474    33489    33551    33563    33528    33538 
   33542    33502    33502    33524    33498    33447    33453    33554 
   33627    33555    33481    33539    33593    33529    33458    33482 
   33535    33521    33498    33536    33567    33534    33527    33561 
   33519    33442    33466    33551    33594    33573    33524    33513 
   33528    33519    33517    33523    33490    33465    33504    33571 
   33582    33539    33521    33524    33515    33519    33512    33470 
   33489    33589    33608    33497    33461    33561    33558    33430 
   33438    33566    33592    33532    33509    33536    33559    33535 
   33509    33535    33550    33512    33489    33523    33558    33538 
   33509    33536    33552    33507    33498    33561    33563    33494 
   33471    33508    33525    33498    33492    33540    33562    33513 
   33500    33556    33583    33531    33477    33515    33573    33542 
   33508    33548    33554    33502    33502    33547    33544    33496 
   33493    33554    33562    33497    33494    33542    33523    33497 
   33531    33538    33513    33529    33551    33517    33475    33493 
   33531    33529    33524    33558    33575    33542    33521    33543 
   33534    33488    33488    33532    33527    33482    33505    33579 
   33579    33504    33477    33542    33577    33513    33478    33531 
   33542    33489    33516    33592    33562    33474    33465    33517 
   33544    33515    33490    33543    33570    33517    33509    33558 
   33562    33525    33507    33513    33516    33509    33529    33562 
   33554    33516    33497    33516    33538    33502    33451    33470 
   33528    33556    33558    33547    33527    33523    33547    33570 
   33570    33548    33515    33497    33511    33524    33521    33517 
   33511    33515    33539    33546    33521    33507    33527    33534 
   33500    33494    33534    33524    33485    33516    33579    33565 
   33505    33511    33569    33567    33516    33484    33481    33523 
   33565    33520    33493    33570    33594    33501    33459    33528 
   33559    33492    33463    33538    33592    33561    33512    33512 
   33535    33511    33466    33500    33550    33511    33484    33550 
   33583    33513    33475    33532    33563    33524    33507    33528 
   33548    33559    33529    33471    33477    33543    33571    33521 
   33478    33546    33619    33551    33459    33490    33550    33521 
   33470    33500    33569    33563    33513    33527    33552    33511 
   33482    33540    33592    33532    33454    33511    33592    33527 
   33439    33471    33532    33538    33531    33550    33536    33480 
   33507    33604    33578    33459    33473    33586    33593    33489 
   33439    33509    33569    33508    33467    33552    33593    33509 
   33485    33566    33581    33497    33492    33577    33579    33496 
   33482    33534    33542    33504    33498    33531    33531    33505 
   33517    33563    33569    33519    33486    33515    33543    33528 
   33502    33501    33512    33520    33531    33527    33489    33493 
   33565    33581    33532    33520    33527    33515    33509    33529 
   33550    33534    33494    33496    33528    33536    33527    33539 
   33548    33529    33505    33516    33542    33520    33466    33480 
   33559    33574    33516    33511    33563    33569    33512    33481 
   33521    33565    33538    33486    33500    33540    33523    33488 
   33505    33551    33558    33527    33529    33571    33563    33497 
   33470    33507    33535    33519    33492    33498    33536    33536 
   33500    33519    33567    33547    33508    33538    33579    33543 
   33465    33465    33543    33558    33513    33516    33547    33555 
   33531    33504    33520    33544    33505    33467    33512    33575 
   33548    33480    33501    33582    33581    33519    33504    33531 
   33546    33515    33492    33527    33535    33494    33509    33555 
   33520    33467    33512    33590    33566    33485    33485    33551 
   33563    33507    33470    33509    33566    33569    33538    33521 
   33500    33475    33520    33573    33517    33435    33469    33577 
   33601    33516    33486    33570    33585    33492    33486    33562 
   33551    33492    33500    33552    33559    33492    33457    33532 
   33585    33509    33453    33539    33620    33534    33431    33490 
   33573    33536    33482    33532    33610    33567    33467    33485 
   33565    33547    33482    33486    33520    33529    33524    33525 
   33536    33534    33509    33509    33536    33544    33542    33540 
   33544    33559    33531    33457    33453    33529    33546    33508 
   33517    33547    33535    33519    33540    33555    33524    33517 
   33552    33527    33465    33515    33617    33581    33440    33428 
   33561    33588    33471    33465    33586    33593    33490    33480 
   33548    33539    33481    33529    33608    33535    33443    33498 
   33570    33525    33480    33524    33567    33532    33485    33493 
   33516    33516    33531    33565    33562    33529    33523    33546 
   33546    33494    33466    33523    33575    33531    33481    33529 
   33577    33512    33444    33516    33632    33609    33493    33455 
   33498    33542    33547    33523    33513    33523    33520    33521 
   33538    33521    33492    33536    33602    33571    33471    33435 
   33512    33573    33507    33443    33516    33590    33531    33471 
   33542    33596    33520    33477    33555    33581    33494    33453 
   33546    33628    33551    33447    33498    33579    33525    33439 
   33465    33544    33556    33524    33536    33551    33536    33558 
   33585    33562    33527    33486    33471    33519    33547    33520 
   33504    33515    33512    33488    33489    33540    33570    33544 
   33538    33547    33508    33470    33497    33543    33543    33502 
   33519    33586    33565    33482    33470    33509    33547    33559 
   33554    33552    33494    33448    33551    33598    33459    33424 
   33577    33644    33540    33439    33493    33612    33550    33381 
   33404    33540    33561    33547    33602    33620    33528    33430 
   33471    33604    33583    33448    33513    33693    33664    33516 
   33500    33592    33602    33488    33401    33381    33350    33390 
   33494    33500    33480    33559    33643    33632    33562    33546 
   33610    33628    33588    33586    33546    33403    33282    33270 
   33295    33315    33400    33615    33820    33786    33636    33621 
   33635    33539    33477    33536    33628    33670    33639    33583 
   33548    33470    33300    33164    33219    33490    33839    33990 
   33866    33683    33538    33380    33292    33297    33285    33301 
   33485    33741    33785    33546    33369    33453    33531    33475 
   33480    33534    33492    33447    33544    33679    33720    33678 
   33548    33384    33323    33338    33367    33439    33523    33608 
   33678    33609    33473    33488    33578    33538    33450    33555 
   33751    33717    33539    33494    33512    33467    33426    33451 
   33532    33566    33573    33690    33704    33388    33166    33349 
   33589    33624    33569    33585    33713    33732    33529    33397 
   33454    33455    33385    33428    33548    33605    33593    33575 
   33551    33463    33388    33470    33601    33592    33538    33585 
   33636    33592    33550    33539    33436    33289    33291    33440 
   33561    33617    33706    33779    33678    33443    33305    33343 
   33424    33439    33435    33475    33525    33552    33604    33646 
   33582    33496    33531    33648    33704    33639    33550    33520 
   33525    33574    33658    33646    33507    33424    33473    33471 
   33397    33419    33473    33450    33469    33540    33538    33505 
   33565    33635    33544    33392    33461    33644    33573    33378 
   33459    33667    33673    33593    33582    33540    33463    33420 
   33399    33428    33486    33492    33536    33643    33633    33539 
   33539    33565    33481    33432    33528    33570    33474    33450 
   33540    33547    33485    33509    33539    33488    33502    33575 
   33544    33501    33582    33623    33525    33457    33493    33543 
   33538    33507    33521    33567    33598    33617    33592    33528 
   33523    33517    33451    33428    33470    33520    33608    33709 
   33677    33509    33419    33459    33450    33394    33490    33691 
   33720    33547    33431    33431    33385    33322    33386    33543 
   33679    33706    33597    33481    33446    33450    33501    33538 
   33458    33423    33585    33714    33589    33409    33419    33509 
   33515    33485    33486    33492    33539    33628    33654    33592 
   33480    33394    33447    33554    33534    33454    33504    33679 
   33764    33637    33494    33512    33554    33543    33592    33648 
   33600    33515    33482    33457    33427    33443    33450    33424 
   33521    33669    33592    33389    33372    33516    33570    33455 
   33419    33616    33758    33620    33442    33474    33594    33585 
   33493    33480    33496    33471    33521    33654    33615    33386 
   33332    33502    33567    33512    33540    33600    33582    33527 
   33489    33500    33546    33566    33539    33496    33471    33498 
   33554    33552    33470    33432    33528    33610    33535    33451 
   33520    33601    33538    33462    33527    33592    33523    33473 
   33515    33494    33428    33453    33509    33535    33566    33600 
   33623    33615    33556    33486    33465    33494    33547    33605 
   33631    33582    33544    33575    33578    33511    33434    33428 
   33516    33543    33463    33481    33604    33585    33448    33439 
   33543    33577    33535    33501    33480    33478    33512    33502 
   33439    33462    33570    33573    33481    33469    33500    33471 
   33467    33556    33602    33509    33469    33624    33728    33585 
   33455    33552    33660    33593    33501    33534    33605    33583 
   33525    33511    33461    33403    33480    33593    33593    33525 
   33471    33490    33515    33443    33405    33490    33562    33569 
   33558    33550    33551    33511    33444    33440    33454    33448 
   33509    33609    33639    33615    33582    33536    33478    33430 
   33443    33496    33512    33531    33617    33647    33523    33424 
   33477    33521    33493    33543    33646    33650    33577    33531 
   33523    33485    33467    33567    33639    33532    33426    33453 
   33511    33528    33485    33443    33523    33637    33593    33478 
   33496    33589    33597    33529    33469    33436    33438    33493 
   33551    33554    33539    33525    33516    33552    33571    33532 
   33543    33597    33563    33480    33474    33529    33548    33517 
   33489    33494    33517    33538    33547    33538    33508    33475 
   33474    33523    33562    33535    33497    33515    33534    33494 
   33467    33507    33544    33525    33508    33535    33551    33525 
   33519    33558    33571    33523    33494    33559    33612    33561 
   33513    33527    33523    33493    33500    33544    33555    33523 
   33538    33567    33529    33509    33524    33490    33485    33536 
   33535    33490    33486    33512    33507    33465    33462    33527 
   33575    33551    33507    33528    33585    33569    33511    33519 
   33554    33524    33465    33469    33515    33515    33497    33540 
   33585    33546    33488    33507    33558    33563    33552    33585 
   33604    33544    33505    33543    33540    33492    33505    33531 
   33493    33481    33524    33551    33531    33494    33497    33527 
   33497    33453    33508    33581    33550    33490    33512    33561 
   33544    33500    33497    33521    33532    33542    33556    33540 
   33501    33511    33563    33575    33524    33494    33535    33593 
   33578    33500    33448    33465    33524    33570    33543    33494 
   33521    33566    33535    33485    33484    33516    33554    33556 
   33515    33496    33515    33527    33524    33515    33523    33554 
   33556    33538    33536    33511    33496    33552    33588    33528 
   33478    33504    33536    33532    33538    33565    33556    33520 
   33516    33521    33498    33502    33542    33542    33507    33509 
   33547    33554    33517    33477    33462    33474    33504    33520 
