Origin Time       2018/04/09 06:38:00
Lat.              35.2
Long.             132.6
Depth. (km)       10
Mag.              3.8
Station Code      OKYH09
Station Lat.      35.1809
Station Long.     133.6765
Station Height(m) 305
Record Time       2018/04/09 06:39:17
Sampling Freq(Hz) 100Hz
Duration Time(s)  120
Dir.              3
Scale Factor      2942(gal)/8224139
Max. Acc. (gal)   0.105
Last Correction   2018/04/09 06:39:02
Memo.             
[...]
  -57299   -57298   -57300   -57302   -57300   -57300   -57302   -57300 
  -57299   -57302   -57304   -57302   -57299   -57302   -57303   -57302 
  -57302   -57302   -57300   -57300   -57302   -57302   -57302   -57300 
  -57299   -57300   -57300   -57300   -57302   -57300   -57302   -57302 
  -57298   -57298   -57298   -57300   -57302   -57300   -57299   -57298 
  -57299   -57302   -57300   -57298   -57299   -57300   -57302   -57300 
  -57300   -57302   -57302   -57300   -57299   -57300   -57300   -57299 
  -57299   -57299   -57298   -57300   -57303   -57302   -57300   -57300 
  -57300   -57300   -57303   -57302   -57302   -57302   -57300   -57299 
  -57299   -57300   -57302   -57303   -57302   -57302   -57302   -57299 
  -57300   -57300   -57298   -57298   -57298   -57296   -57298   -57300 
  -57300   -57300   -57300   -57300   -57302   -57300   -57302   -57300 
  -57300   -57303   -57303   -57300   -57300   -57300   -57299   -57300 
  -57300   -57300   -57299   -57300   -57302   -57300   -57299   -57303 
  -57303   -57300   -57299   -57299   -57298   -57298   -57300   -57300 
  -57299   -57298   -57300   -57300   -57299   -57296   -57298   -57300 
  -57302   -57299   -57296   -57298   -57299   -57299   -57300   -57299 
  -57298   -57299   -57299   -57299   -57298   -57298   -57298   -57299 
  -57298   -57299   -57300   -57298   -57296   -57298   -57300   -57299 
  -57298   -57299   -57299   -57295   -57296   -57300   -57300   -57299 
  -57300   -57299   -57299   -57299   -57298   -57299   -57302   -57299 
  -57299   -57298   -57298   -57299   -57300   -57300   -57302   -57299 
  -57296   -57296   -57298   -57300   -57299   -57296   -57298   -57302 
  -57299   -57296   -57302   -57302   -57299   -57300   -57300   -57298 
  -57298   -57299   -57300   -57299   -57298   -57300   -57302   -57302 
  -57302   -57300   -57299   -57302   -57302   -57300   -57300   -57300 
  -57300   -57300   -57299   -57302   -57302   -57300   -57300   -57300 
  -57300   -57302   -57302   -57300   -57302   -57300   -57300   -57303 
  -57303   -57300   -57300   -57302   -57302   -57299   -57299   -57300 
  -57298   -57299   -57302   -57300   -57300   -57303   -57302   -57300 
  -57302   -57300   -57299   -57302   -57300   -57299   -57302   -57302 
  -57300   -57304   -57307   -57310   -57314   -57318   -57322   -57330 
  -57339   -57349   -57357   -57366   -57373   -57373   -57372   -57366 
  -57343   -57298   -57244   -57196   -57160   -57133   -57111   -57087 
  -57063   -57067   -57126   -57218   -57273   -57285   -57329   -57406 
  -57420   -57369   -57387   -57504   -57559   -57473   -57376   -57364 
  -57379   -57381   -57380   -57356   -57296   -57203   -57148   -57217 
  -57318   -57287   -57190   -57184   -57246   -57277   -57280   -57285 
  -57302   -57343   -57364   -57306   -57258   -57327   -57406   -57368 
  -57298   -57298   -57329   -57333   -57312   -57298   -57298   -57296 
  -57299   -57310   -57294   -57261   -57268   -57267   -57223   -57219 
  -57260   -57256   -57222   -57230   -57258   -57258   -57258   -57322 
  -57410   -57393   -57316   -57353   -57437   -57412   -57368   -57389 
  -57400   -57360   -57330   -57339   -57342   -57314   -57285   -57271 
  -57260   -57229   -57180   -57192   -57261   -57262   -57191   -57191 
  -57283   -57339   -57311   -57273   -57276   -57285   -57298   -57314 
  -57323   -57339   -57339   -57294   -57252   -57285   -57346   -57348 
  -57321   -57323   -57314   -57300   -57343   -57387   -57373   -57337 
  -57308   -57279   -57240   -57215   -57241   -57273   -57253   -57202 
  -57194   -57261   -57306   -57257   -57227   -57300   -57372   -57368 
  -57346   -57357   -57362   -57335   -57325   -57334   -57318   -57299 
  -57300   -57291   -57273   -57269   -57269   -57291   -57335   -57341 
  -57311   -57308   -57341   -57372   -57372   -57345   -57342   -57360 
  -57339   -57289   -57272   -57280   -57281   -57271   -57250   -57219 
  -57203   -57218   -57235   -57253   -57271   -57267   -57262   -57273 
  -57294   -57321   -57326   -57325   -57339   -57338   -57316   -57307 
  -57318   -57348   -57375   -57376   -57360   -57356   -57365   -57348 
  -57327   -57331   -57316   -57273   -57254   -57275   -57294   -57269 
  -57219   -57208   -57245   -57267   -57233   -57204   -57246   -57291 
  -57275   -57252   -57280   -57316   -57311   -57298   -57323   -57356 
  -57369   -57369   -57354   -57350   -57368   -57362   -57326   -57330 
  -57379   -57372   -57289   -57227   -57226   -57230   -57217   -57222 
  -57262   -57300   -57296   -57268   -57256   -57260   -57269   -57292 
  -57321   -57321   -57300   -57307   -57338   -57343   -57325   -57314 
  -57322   -57334   -57312   -57283   -57308   -57334   -57307   -57281 
  -57303   -57323   -57292   -57271   -57316   -57361   -57339   -57311 
  -57321   -57319   -57283   -57279   -57314   -57312   -57277   -57280 
  -57303   -57268   -57221   -57269   -57345   -57323   -57264   -57269 
  -57319   -57321   -57283   -57281   -57303   -57296   -57267   -57252 
  -57267   -57292   -57295   -57287   -57306   -57327   -57312   -57284 
  -57298   -57339   -57343   -57316   -57316   -57333   -57337   -57334 
  -57315   -57294   -57307   -57334   -57319   -57285   -57281   -57292 
  -57292   -57294   -57294   -57284   -57261   -57234   -57241   -57275 
  -57285   -57280   -57289   -57298   -57303   -57307   -57304   -57308 
  -57319   -57302   -57272   -57289   -57325   -57325   -57318   -57335 
  -57342   -57300   -57271   -57296   -57323   -57323   -57321   -57319 
  -57322   -57316   -57287   -57281   -57322   -57342   -57308   -57289 
  -57319   -57325   -57285   -57272   -57303   -57318   -57288   -57253 
  -57253   -57277   -57288   -57277   -57264   -57279   -57316   -57334 
  -57321   -57304   -57288   -57280   -57298   -57311   -57303   -57311 
  -57334   -57330   -57311   -57310   -57319   -57315   -57310   -57314 
  -57310   -57304   -57304   -57302   -57294   -57289   -57294   -57300 
  -57294   -57288   -57299   -57314   -57321   -57302   -57271   -57273 
  -57292   -57281   -57265   -57276   -57288   -57288   -57287   -57287 
  -57308   -57337   -57327   -57302   -57315   -57338   -57323   -57299 
  -57304   -57326   -57329   -57314   -57307   -57314   -57321   -57307 
  -57273   -57262   -57281   -57296   -57289   -57284   -57296   -57314 
  -57329   -57327   -57302   -57279   -57288   -57310   -57308   -57279 
  -57258   -57258   -57262   -57267   -57273   -57272   -57269   -57285 
  -57312   -57318   -57312   -57325   -57330   -57329   -57342   -57345 
  -57331   -57326   -57316   -57299   -57291   -57299   -57300   -57298 
  -57296   -57283   -57279   -57284   -57269   -57268   -57292   -57276 
  -57248   -57283   -57335   -57323   -57280   -57285   -57323   -57326 
  -57299   -57312   -57350   -57349   -57325   -57318   -57339   -57353 
  -57322   -57295   -57319   -57343   -57326   -57302   -57299   -57300 
  -57280   -57245   -57235   -57256   -57271   -57264   -57264   -57289 
  -57299   -57272   -57252   -57265   -57294   -57307   -57303   -57308 
  -57316   -57318   -57343   -57361   -57314   -57262   -57283   -57318 
  -57303   -57281   -57310   -57337   -57308   -57277   -57289   -57306 
  -57292   -57280   -57296   -57310   -57296   -57295   -57321   -57330 
  -57310   -57289   -57285   -57292   -57304   -57312   -57300   -57289 
  -57303   -57315   -57315   -57316   -57311   -57294   -57273   -57275 
  -57302   -57311   -57294   -57296   -57303   -57285   -57264   -57281 
  -57325   -57327   -57295   -57302   -57337   -57331   -57307   -57307 
  -57319   -57318   -57295   -57285   -57306   -57306   -57272   -57256 
  -57276   -57299   -57284   -57260   -57280   -57315   -57311   -57288 
  -57289   -57296   -57277   -57269   -57302   -57337   -57342   -57322 
  -57311   -57323   -57310   -57284   -57310   -57346   -57316   -57269 
  -57277   -57302   -57289   -57268   -57271   -57283   -57292   -57299 
  -57292   -57279   -57275   -57283   -57300   -57303   -57276   -57273 
  -57315   -57329   -57307   -57318   -57333   -57312   -57306   -57321 
  -57312   -57304   -57312   -57308   -57298   -57306   -57323   -57318 
  -57285   -57272   -57289   -57289   -57271   -57277   -57310   -57319 
  -57296   -57294   -57311   -57302   -57279   -57287   -57311   -57316 
  -57302   -57291   -57303   -57315   -57303   -57300   -57315   -57311 
  -57289   -57289   -57310   -57314   -57292   -57283   -57304   -57321 
  -57312   -57300   -57296   -57299   -57308   -57296   -57272   -57271 
  -57295   -57316   -57316   -57300   -57291   -57287   -57289   -57303 
  -57308   -57296   -57303   -57334   -57348   -57335   -57319   -57306 
  -57306   -57303   -57292   -57283   -57281   -57268   -57249   -57257 
  -57281   -57288   -57283   -57277   -57276   -57281   -57296   -57312 
  -57316   -57318   -57323   -57311   -57303   -57316   -57321   -57316 
  -57329   -57339   -57321   -57291   -57284   -57296   -57298   -57288 
  -57288   -57291   -57295   -57310   -57296   -57269   -57287   -57318 
  -57302   -57283   -57308   -57319   -57287   -57272   -57298   -57318 
  -57304   -57281   -57283   -57308   -57316   -57302   -57300   -57318 
  -57323   -57315   -57329   -57342   -57316   -57294   -57303   -57303 
  -57287   -57295   -57306   -57291   -57283   -57288   -57288   -57295 
  -57318   -57322   -57289   -57273   -57315   -57346   -57298   -57248 
  -57279   -57326   -57304   -57264   -57280   -57321   -57321   -57294 
  -57280   -57289   -57307   -57303   -57284   -57280   -57296   -57306 
  -57311   -57312   -57303   -57298   -57307   -57311   -57310   -57316 
  -57335   -57329   -57298   -57302   -57330   -57315   -57273   -57279 
  -57322   -57327   -57287   -57267   -57295   -57319   -57302   -57284 
  -57300   -57323   -57310   -57283   -57288   -57289   -57258   -57260 
  -57299   -57308   -57287   -57273   -57273   -57279   -57291   -57303 
  -57303   -57306   -57321   -57330   -57316   -57298   -57291   -57292 
  -57296   -57307   -57316   -57303   -57289   -57312   -57339   -57326 
  -57295   -57287   -57308   -57341   -57342   -57307   -57289   -57299 
  -57298   -57285   -57288   -57292   -57279   -57265   -57280   -57303 
  -57306   -57287   -57273   -57287   -57300   -57294   -57304   -57330 
  -57327   -57299   -57294   -57318   -57323   -57302   -57296   -57312 
  -57312   -57281   -57261   -57281   -57304   -57295   -57276   -57289 
  -57322   -57321   -57288   -57281   -57308   -57334   -57326   -57303 
  -57304   -57318   -57292   -57253   -57268   -57310   -57316   -57302 
  -57300   -57315   -57327   -57325   -57316   -57319   -57310   -57288 
  -57295   -57311   -57296   -57276   -57287   -57311   -57308   -57289 
  -57289   -57307   -57318   -57292   -57254   -57269   -57314   -57312 
  -57273   -57277   -57334   -57346   -57284   -57265   -57326   -57343 
  -57288   -57265   -57296   -57318   -57289   -57260   -57275   -57292 
  -57285   -57291   -57304   -57311   -57315   -57326   -57337   -57315 
  -57283   -57288   -57310   -57315   -57308   -57289   -57283   -57307 
  -57318   -57287   -57267   -57287   -57302   -57299   -57314   -57325 
  -57308   -57295   -57307   -57323   -57311   -57288   -57299   -57318 
  -57295   -57267   -57280   -57288   -57264   -57268   -57311   -57323 
  -57289   -57280   -57321   -57345   -57311   -57271   -57283   -57329 
  -57334   -57291   -57287   -57327   -57329   -57292   -57289   -57300 
  -57280   -57258   -57276   -57312   -57319   -57291   -57275   -57298 
  -57319   -57318   -57311   -57316   -57326   -57311   -57283   -57283 
  -57303   -57314   -57299   -57272   -57267   -57287   -57300   -57303 
  -57315   -57316   -57300   -57299   -57315   -57312   -57303   -57325 
  -57339   -57303   -57271   -57287   -57288   -57265   -57285   -57310 
  -57272   -57238   -57276   -57338   -57339   -57296   -57294   -57322 
  -57310   -57289   -57308   -57318   -57292   -57281   -57296   -57306 
  -57295   -57279   -57294   -57310   -57291   -57281   -57306   -57319 
  -57321   -57326   -57318   -57303   -57321   -57342   -57325   -57298 
  -57298   -57303   -57288   -57280   -57289   -57289   -57288   -57306 
  -57310   -57284   -57283   -57314   -57314   -57285   -57281   -57310 
  -57322   -57295   -57269   -57271   -57283   -57292   -57284   -57279 
  -57296   -57314   -57318   -57308   -57294   -57295   -57315   -57330 
  -57310   -57269   -57264   -57308   -57342   -57310   -57273   -57311 
  -57365   -57333   -57277   -57306   -57354   -57315   -57260   -57283 
  -57319   -57300   -57280   -57294   -57306   -57292   -57268   -57257 
  -57281   -57318   -57319   -57299   -57314   -57341   -57325   -57295 
  -57294   -57312   -57322   -57298   -57267   -57268   -57269   -57253 
  -57264   -57291   -57291   -57275   -57296   -57341   -57326   -57294 
  -57316   -57339   -57329   -57329   -57333   -57315   -57295   -57285 
  -57283   -57289   -57292   -57298   -57312   -57291   -57252   -57279 
  -57333   -57329   -57298   -57289   -57291   -57281   -57280   -57329 
  -57373   -57327   -57273   -57299   -57321   -57277   -57248   -57287 
  -57346   -57346   -57292   -57276   -57327   -57365   -57356   -57337 
  -57325   -57316   -57296   -57264   -57267   -57281   -57249   -57225 
  -57238   -57195   -57102   -57091   -57186   -57275   -57307   -57337 
  -57384   -57410   -57439   -57495   -57497   -57426   -57370   -57364 
  -57333   -57241   -57195   -57262   -57316   -57273   -57241   -57296 
  -57393   -57437   -57338   -57163   -57088   -57177   -57326   -57443 
  -57524   -57558   -57505   -57349   -57138   -57006   -57042   -57179 
  -57285   -57343   -57365   -57334   -57264   -57146   -57011   -57017 
  -57191   -57373   -57433   -57364   -57300   -57308   -57303   -57280 
  -57291   -57300   -57308   -57354   -57391   -57392   -57387   -57361 
  -57319   -57308   -57356   -57424   -57460   -57424   -57338   -57234 
  -57127   -57086   -57184   -57345   -57420   -57360   -57258   -57231 
  -57248   -57272   -57365   -57492   -57515   -57441   -57365   -57307 
  -57257   -57252   -57307   -57345   -57279   -57167   -57117   -57142 
  -57218   -57289   -57327   -57360   -57343   -57267   -57254   -57303 
  -57302   -57271   -57265   -57298   -57342   -57337   -57288   -57295 
  -57343   -57334   -57288   -57302   -57339   -57294   -57190   -57171 
  -57237   -57256   -57217   -57206   -57260   -57354   -57418   -57420 
  -57416   -57419   -57396   -57346   -57279   -57248   -57304   -57329 
  -57244   -57195   -57257   -57285   -57240   -57261   -57348   -57375 
  -57319   -57261   -57273   -57360   -57433   -57447   -57439   -57445 
  -57443   -57416   -57385   -57358   -57299   -57226   -57200   -57210 
  -57214   -57207   -57173   -57118   -57107   -57153   -57180   -57157 
  -57149   -57188   -57211   -57217   -57276   -57346   -57369   -57366 
  -57348   -57335   -57361   -57395   -57411   -57407   -57389   -57393 
  -57395   -57335   -57294   -57348   -57381   -57326   -57280   -57281 
  -57273   -57253   -57269   -57287   -57275   -57308   -57381   -57392 
  -57343   -57300   -57295   -57306   -57296   -57287   -57303   -57321 
  -57289   -57242   -57268   -57331   -57311   -57245   -57279   -57362 
  -57346   -57273   -57257   -57295   -57345   -57385   -57362   -57277 
  -57248   -57315   -57343   -57279   -57241   -57281   -57291   -57235 
  -57207   -57233   -57265   -57265   -57229   -57214   -57242   -57264 
  -57273   -57267   -57231   -57223   -57246   -57292   -57381   -57435 
  -57380   -57322   -57334   -57334   -57299   -57311   -57377   -57402 
  -57342   -57279   -57295   -57354   -57376   -57343   -57319   -57329 
  -57334   -57327   -57319   -57319   -57348   -57376   -57368   -57327 
  -57276   -57269   -57321   -57352   -57335   -57327   -57353   -57364 
  -57325   -57267   -57242   -57261   -57291   -57294   -57265   -57235 
  -57206   -57181   -57200   -57230   -57235   -57257   -57272   -57242 
  -57208   -57207   -57223   -57221   -57213   -57258   -57310   -57295 
  -57284   -57337   -57381   -57380   -57361   -57334   -57335   -57375 
  -57395   -57385   -57362   -57362   -57399   -57372   -57271   -57242 
  -57316   -57370   -57303   -57200   -57207   -57271   -57277   -57256 
  -57262   -57300   -57330   -57321   -57295   -57288   -57294   -57296 
  -57291   -57279   -57283   -57322   -57353   -57335   -57292   -57269 
  -57294   -57316   -57298   -57294   -57299   -57256   -57214   -57250 
  -57310   -57342   -57368   -57402   -57414   -57376   -57321   -57330 
  -57381   -57376   -57330   -57349   -57402   -57391   -57349   -57329 
  -57280   -57208   -57203   -57254   -57267   -57250   -57248   -57229 
  -57221   -57231   -57217   -57208   -57233   -57249   -57273   -57311 
  -57310   -57252   -57221   -57254   -57272   -57260   -57283   -57321 
  -57337   -57352   -57362   -57346   -57312   -57279   -57275   -57310 
  -57357   -57375   -57356   -57353   -57387   -57389   -57337   -57315 
  -57365   -57406   -57383   -57350   -57364   -57385   -57354   -57307 
  -57318   -57339   -57307   -57244   -57192   -57183   -57203   -57200 
  -57160   -57140   -57165   -57176   -57165   -57175   -57208   -57264 
  -57304   -57298   -57299   -57334   -57356   -57339   -57329   -57369 
  -57411   -57392   -57352   -57341   -57356   -57368   -57358   -57349 
  -57352   -57338   -57321   -57334   -57352   -57348   -57341   -57341 
  -57335   -57318   -57299   -57291   -57302   -57327   -57339   -57330 
  -57318   -57302   -57269   -57250   -57250   -57245   -57234   -57222 
  -57204   -57214   -57253   -57262   -57238   -57244   -57279   -57283 
  -57256   -57248   -57262   -57292   -57337   -57353   -57327   -57323 
  -57354   -57349   -57292   -57261   -57294   -57338   -57337   -57307 
  -57322   -57354   -57322   -57273   -57291   -57338   -57348   -57321 
  -57298   -57294   -57291   -57291   -57273   -57235   -57223   -57248 
  -57268   -57268   -57273   -57291   -57306   -57319   -57343   -57370 
  -57389   -57393   -57357   -57314   -57306   -57316   -57325   -57312 
  -57281   -57267   -57285   -57327   -57341   -57302   -57269   -57294 
  -57341   -57354   -57330   -57312   -57325   -57337   -57329   -57294 
  -57257   -57261   -57269   -57244   -57222   -57229   -57233   -57223 
  -57229   -57257   -57265   -57260   -57279   -57296   -57292   -57289 
  -57299   -57330   -57370   -57366   -57335   -57333   -57353   -57365 
  -57361   -57356   -57349   -57338   -57330   -57330   -57335   -57326 
  -57295   -57281   -57289   -57306   -57316   -57304   -57287   -57284 
  -57280   -57284   -57303   -57312   -57296   -57291   -57316   -57323 
  -57287   -57253   -57244   -57242   -57250   -57258   -57258   -57252 
  -57250   -57267   -57280   -57277   -57285   -57311   -57319   -57314 
  -57331   -57361   -57362   -57341   -57321   -57314   -57326   -57335 
  -57327   -57327   -57335   -57333   -57326   -57316   -57308   -57321 
  -57325   -57289   -57269   -57287   -57292   -57269   -57258   -57261 
  -57256   -57256   -57265   -57269   -57275   -57285   -57296   -57306 
  -57312   -57318   -57327   -57330   -57325   -57322   -57308   -57291 
  -57288   -57314   -57333   -57323   -57322   -57341   -57333   -57291 
  -57267   -57279   -57306   -57321   -57318   -57300   -57275   -57262 
  -57273   -57283   -57283   -57287   -57289   -57272   -57252   -57268 
  -57299   -57299   -57275   -57264   -57280   -57298   -57292   -57281 
