Origin Time       2018/04/09 06:38:00
Lat.              35.2
Long.             132.6
Depth. (km)       10
Mag.              3.8
Station Code      OKYH09
Station Lat.      35.1809
Station Long.     133.6765
Station Height(m) 405
Record Time       2018/04/09 06:39:17
Sampling Freq(Hz) 100Hz
Duration Time(s)  120
Dir.              5
Scale Factor      7845(gal)/8223790
Max. Acc. (gal)   2.147
Last Correction   2018/04/09 06:39:02
Memo.             
[...]
    2484     2481     2484     2486     2485     2484     2484     2484 
    2485     2486     2488     2486     2485     2484     2482     2482 
    2482     2485     2485     2484     2482     2481     2482     2486 
    2484     2486     2489     2481     2478     2484     2485     2488 
    2490     2484     2478     2484     2492     2488     2481     2482 
    2484     2489     2486     2477     2479     2486     2485     2484 
    2486     2479     2478     2486     2484     2478     2488     2490 
    2481     2481     2484     2479     2484     2489     2485     2478 
    2481     2486     2492     2488     2482     2484     2481     2479 
    2485     2484     2484     2489     2482     2481     2484     2482 
    2486     2485     2477     2484     2488     2484     2486     2484 
    2473     2482     2493     2485     2479     2481     2482     2488 
    2492     2484     2477     2481     2488     2485     2481     2486 
    2489     2488     2484     2481     2481     2484     2484     2484 
    2484     2488     2488     2482     2481     2482     2482     2482 
    2484     2486     2488     2488     2484     2481     2482     2482 
    2481     2482     2486     2488     2488     2488     2485     2481 
    2479     2482     2484     2484     2485     2489     2486     2482 
    2482     2486     2488     2484     2479     2481     2485     2486 
    2484     2482     2486     2488     2482     2481     2485     2485 
    2482     2484     2484     2485     2485     2485     2479     2477 
    2484     2486     2484     2484     2486     2485     2484     2484 
    2485     2488     2488     2481     2479     2484     2484     2485 
    2488     2486     2481     2478     2481     2481     2479     2479 
    2479     2474     2470     2467     2458     2448     2443     2438 
    2439     2440     2443     2457     2484     2512     2542     2583 
    2625     2654     2666     2652     2614     2562     2498     2431 
    2369     2317     2300     2330     2381     2443     2521     2563 
    2527     2459     2424     2413     2390     2394     2461     2512 
    2525     2574     2637     2691     2717     2600     2393     2305 
    2284     2239     2335     2570     2679     2582     2440     2401 
    2484     2573     2524     2412     2424     2500     2469     2434 
    2540     2652     2594     2435     2340     2385     2509     2613 
    2656     2613     2465     2331     2339     2394     2416     2486 
    2571     2565     2513     2455     2393     2411     2500     2529 
    2474     2430     2463     2508     2490     2517     2612     2577 
    2404     2285     2312     2482     2664     2671     2551     2501 
    2515     2463     2382     2404     2493     2497     2430     2442 
    2551     2610     2559     2486     2448     2431     2427     2431 
    2466     2519     2509     2475     2508     2524     2443     2400 
    2490     2555     2451     2332     2394     2574     2679     2628 
    2512     2478     2488     2384     2246     2320     2589     2758 
    2697     2546     2419     2354     2358     2342     2303     2400 
    2614     2722     2660     2535     2447     2436     2467     2469 
    2423     2398     2444     2540     2636     2671     2581     2392 
    2223     2181     2290     2488     2623     2613     2581     2624 
    2619     2497     2411     2431     2461     2452     2444     2471 
    2542     2612     2616     2532     2421     2381     2384     2351 
    2361     2463     2539     2555     2546     2477     2407     2424 
    2474     2497     2494     2466     2470     2570     2647     2597 
    2539     2540     2481     2361     2323     2371     2423     2475 
    2529     2570     2624     2620     2486     2390     2423     2432 
    2444     2555     2614     2562     2515     2438     2316     2282 
    2373     2486     2555     2558     2504     2457     2482     2520 
    2479     2440     2523     2624     2586     2488     2470     2479 
    2443     2398     2384     2432     2536     2600     2585     2566 
    2527     2377     2216     2259     2482     2682     2733     2601 
    2436     2444     2465     2344     2326     2473     2556     2565 
    2556     2462     2366     2415     2485     2463     2485     2573 
    2592     2565     2560     2525     2451     2385     2336     2351 
    2475     2602     2621     2562     2493     2465     2465     2420 
    2359     2394     2504     2571     2590     2602     2585     2548 
    2500     2394     2281     2282     2385     2489     2567     2628 
    2631     2548     2436     2381     2397     2428     2435     2435 
    2470     2555     2651     2670     2594     2515     2439     2315 
    2242     2332     2494     2627     2695     2623     2440     2312 
    2297     2363     2479     2567     2590     2608     2641     2646 
    2589     2465     2330     2270     2309     2412     2527     2612 
    2627     2546     2440     2392     2365     2334     2373     2494 
    2602     2629     2612     2600     2558     2463     2377     2358 
    2404     2475     2535     2565     2560     2500     2408     2394 
    2471     2509     2469     2454     2515     2586     2562     2428 
    2349     2409     2462     2457     2536     2639     2600     2475 
    2373     2335     2401     2516     2570     2586     2633     2624 
    2500     2385     2367     2398     2428     2431     2432     2478 
    2555     2610     2594     2498     2382     2305     2316     2438 
    2583     2651     2648     2594     2484     2367     2313     2346 
    2457     2586     2663     2640     2524     2390     2335     2397 
    2489     2492     2447     2482     2559     2579     2544     2502 
    2466     2451     2470     2481     2450     2435     2482     2505 
    2459     2431     2459     2484     2511     2573     2597     2521 
    2430     2388     2376     2411     2496     2563     2581     2558 
    2492     2424     2439     2515     2548     2515     2471     2440 
    2424     2446     2478     2467     2469     2524     2554     2538 
    2523     2506     2475     2439     2394     2386     2461     2558 
    2605     2586     2511     2447     2454     2454     2392     2347 
    2388     2505     2617     2623     2532     2438     2404     2427 
    2446     2470     2529     2547     2506     2517     2574     2558 
    2459     2403     2412     2412     2427     2488     2562     2620 
    2577     2448     2411     2467     2473     2440     2431     2435 
    2458     2506     2563     2596     2566     2501     2435     2377 
    2357     2400     2500     2601     2617     2539     2447     2403 
    2412     2444     2451     2439     2485     2574     2587     2532 
    2496     2466     2443     2470     2482     2461     2479     2521 
    2516     2494     2501     2497     2462     2439     2438     2447 
    2504     2575     2560     2484     2442     2443     2434     2432 
    2469     2498     2521     2562     2532     2425     2400     2463 
    2482     2474     2478     2455     2446     2493     2527     2542 
    2571     2542     2439     2385     2432     2509     2556     2581 
    2585     2528     2423     2369     2419     2496     2490     2431 
    2440     2511     2544     2531     2493     2459     2474     2478 
    2413     2376     2439     2554     2628     2597     2515     2458 
    2425     2415     2430     2448     2493     2540     2521     2481 
    2488     2484     2475     2506     2506     2465     2455     2438 
    2415     2485     2589     2581     2512     2493     2497     2486 
    2469     2430     2396     2430     2488     2500     2500     2531 
    2560     2565     2520     2427     2381     2436     2490     2489 
    2475     2457     2458     2500     2519     2521     2555     2547 
    2478     2434     2409     2393     2424     2489     2551     2589 
    2562     2496     2462     2458     2450     2446     2466     2501 
    2520     2505     2477     2473     2493     2500     2490     2492 
    2470     2416     2403     2440     2458     2479     2528     2554 
    2571     2593     2538     2430     2390     2396     2396     2448 
    2527     2540     2531     2560     2563     2505     2458     2436 
    2411     2407     2428     2450     2486     2521     2516     2513 
    2536     2525     2479     2444     2435     2465     2513     2532 
    2506     2467     2458     2478     2498     2540     2579     2532 
    2438     2417     2446     2434     2431     2484     2506     2485 
    2508     2548     2527     2488     2452     2415     2440     2505 
    2497     2458     2467     2475     2478     2527     2560     2529 
    2501     2488     2442     2439     2501     2477     2400     2457 
    2570     2573     2528     2484     2411     2363     2386     2448 
    2536     2609     2597     2521     2457     2432     2438     2444 
    2443     2447     2481     2531     2562     2567     2512     2400 
    2378     2481     2525     2482     2489     2535     2533     2484 
    2415     2390     2447     2496     2493     2521     2582     2582 
    2502     2427     2411     2413     2421     2481     2555     2575 
    2544     2475     2407     2411     2461     2454     2421     2467 
    2556     2577     2540     2519     2488     2424     2382     2403 
    2470     2542     2567     2543     2517     2500     2463     2424 
    2431     2474     2493     2469     2447     2474     2527     2555 
    2562     2550     2494     2432     2396     2407     2485     2540 
    2515     2504     2527     2501     2434     2388     2381     2415 
    2474     2542     2612     2655     2601     2457     2342     2332 
    2362     2400     2502     2629     2654     2577     2492     2444 
    2440     2444     2416     2403     2467     2556     2587     2569 
    2521     2450     2394     2386     2417     2481     2542     2554 
    2519     2474     2451     2474     2523     2524     2470     2436 
    2447     2463     2462     2475     2529     2567     2529     2463 
    2443     2446     2430     2425     2467     2539     2579     2548 
    2482     2469     2535     2554     2452     2388     2439     2466 
    2434     2438     2466     2471     2501     2563     2577     2543 
    2539     2525     2454     2393     2380     2398     2471     2543 
    2555     2569     2585     2519     2400     2332     2343     2407 
    2479     2515     2538     2593     2608     2520     2459     2500 
    2501     2425     2409     2470     2521     2540     2516     2462 
    2443     2448     2430     2440     2512     2581     2601     2547 
    2434     2374     2420     2469     2485     2511     2515     2501 
    2511     2506     2467     2455     2478     2469     2430     2427 
    2475     2543     2586     2554     2457     2394     2419     2471 
    2490     2500     2547     2577     2506     2413     2432     2513 
    2544     2509     2430     2376     2412     2492     2540     2551 
    2546     2525     2470     2423     2458     2512     2488     2439 
    2438     2465     2520     2566     2539     2488     2465     2432 
    2403     2434     2494     2508     2493     2520     2563     2547 
    2475     2408     2396     2440     2481     2519     2579     2589 
    2527     2486     2455     2394     2377     2425     2458     2455 
    2486     2573     2648     2627     2490     2336     2297     2384 
    2490     2533     2531     2547     2582     2558     2489     2477 
    2489     2432     2355     2350     2420     2525     2623     2647 
    2577     2488     2436     2401     2384     2423     2493     2532 
    2540     2540     2525     2497     2470     2427     2366     2367 
    2448     2513     2532     2552     2567     2544     2501     2470 
    2440     2411     2421     2471     2504     2497     2489     2527 
    2565     2524     2458     2455     2490     2501     2473     2431 
    2428     2481     2516     2494     2486     2498     2484     2485 
    2502     2474     2439     2463     2502     2502     2474     2463 
    2485     2520     2544     2542     2536     2527     2435     2336 
    2407     2525     2504     2459     2500     2498     2440     2446 
    2504     2554     2567     2497     2384     2378     2484     2527 
    2486     2498     2574     2619     2582     2446     2319     2327 
    2404     2504     2628     2658     2577     2474     2358     2293 
    2332     2430     2570     2683     2664     2582     2527     2473 
    2416     2358     2311     2359     2497     2610     2668     2678 
    2613     2494     2374     2278     2236     2255     2324     2440 
    2513     2423     2276     2304     2500     2667     2775     2909 
    2994     2920     2747     2558     2353     2157     1960     1775 
    1786     2056     2438     2906     3370     3476     3107     2605 
    2323     2301     2320     2154     1838     1687     2015     2729 
    3310     3362     2922     2257     1753     1756     2208     2727 
    2974     2816     2427     2228     2405     2721     2913     2863 
    2504     1988     1653     1702     2204     3015     3570     3419 
    2813     2259     1965     1989     2317     2623     2562     2373 
    2473     2722     2740     2447     1948     1576     1815     2578 
    3267     3605     3558     2922     1871     1129     1156     1817 
    2728     3480     3870     3882     3253     1894      615      359 
    1171     2552     3969     4735     4318     3030     1726      980 
     992     1644     2525     3299     3696     3462     2795     2087 
    1494     1260     1505     1987     2694     3596     4145     3989 
    3306     2349     1449     1017     1198     1826     2566     3059 
    3176     2997     2660     2377     2293     2342     2390     2390 
    2347     2327     2417     2643     2916     3009     2739     2214 
    1707     1495     1856     2770     3686     3967     3447     2477 
    1553     1039     1171     1954     2944     3646     3939     3761 
    3022     1957     1051      731     1161     2133     3172     3797 
    3835     3466     2878     2220     1757     1664     1833     2012 
    2147     2386     2660     2798     2910     2971     2727     2303 
    2081     2192     2432     2569     2690     2906     2984     2845 
    2663     2394     2123     2153     2303     2296     2335     2440 
    2470     2604     2766     2631     2415     2382     2336     2327 
    2521     2597     2386     2247     2295     2397     2605     2801 
    2679     2328     2145     2272     2506     2596     2475     2326 
    2408     2763     3044     2961     2713     2517     2254     1968 
    2026     2531     3079     3149     2731     2342     2277     2300 
    2185     2016     2002     2246     2614     2871     2926     2813 
    2554     2203     1925     1906     2219     2693     2971     2913 
    2771     2731     2678     2523     2320     2187     2224     2339 
    2405     2547     2790     2849     2570     2151     1939     2034 
    2286     2664     3057     3123     2893     2617     2208     1810 
    1910     2382     2687     2752     2736     2650     2608     2716 
    2721     2442     2130     2056     2224     2430     2458     2419 
    2521     2617     2539     2416     2359     2358     2398     2427 
    2471     2619     2709     2558     2373     2420     2558     2600 
    2655     2748     2722     2643     2617     2538     2397     2285 
    2196     2189     2326     2538     2745     2779     2474     2076 
    2042     2398     2779     2938     2857     2602     2308     2145 
    2230     2488     2682     2735     2708     2573     2373     2242 
    2170     2089     2029     2076     2297     2636     2916     2978 
    2852     2659     2384     2093     2101     2447     2798     3014 
    3076     2856     2465     2250     2273     2286     2274     2381 
    2423     2273     2290     2581     2754     2743     2739     2614 
    2309     2092     2138     2343     2502     2463     2312     2338 
    2643     2983     3083     2848     2388     1991     1840     1923 
    2353     3013     3315     3090     2717     2293     1823     1648 
    1915     2370     2803     3144     3213     2874     2408     2199 
    2223     2308     2428     2538     2601     2646     2632     2532 
    2384     2239     2177     2168     2189     2405     2781     2938 
    2744     2436     2161     2025     2236     2716     3033     2937 
    2628     2421     2376     2377     2390     2400     2415     2477 
    2493     2427     2412     2434     2407     2424     2543     2686 
    2783     2782     2674     2508     2320     2180     2200     2339 
    2454     2532     2620     2660     2602     2524     2496     2419 
    2272     2204     2238     2349     2589     2818     2833     2735 
    2670     2520     2216     1964     1972     2223     2540     2739 
    2751     2644     2563     2562     2544     2462     2394     2394 
    2461     2585     2705     2744     2731     2664     2519     2393 
    2323     2157     1968     2079     2494     2845     2911     2764 
    2516     2309     2243     2222     2223     2407     2677     2754 
    2685     2658     2636     2538     2389     2192     2056     2191 
    2535     2782     2754     2544     2382     2358     2382     2428 
    2536     2691     2829     2830     2614     2320     2168     2231 
    2404     2531     2586     2605     2562     2488     2394     2268 
    2224     2326     2457     2567     2697     2820     2843     2691 
    2420     2207     2124     2162     2365     2654     2790     2691 
    2473     2266     2193     2296     2420     2435     2471     2624 
    2767     2828     2820     2685     2409     2114     1948     2052 
    2417     2782     2930     2909     2779     2532     2262     2108 
    2119     2309     2604     2817     2837     2702     2517     2358 
    2218     2100     2095     2280     2573     2775     2803     2708 
    2501     2254     2170     2300     2475     2587     2632     2662 
    2743     2794     2652     2373     2173     2124     2209     2436 
    2697     2825     2781     2597     2344     2195     2243     2389 
    2502     2555     2558     2533     2516     2520     2533     2524 
    2489     2496     2543     2519     2398     2326     2385     2497 
    2575     2616     2589     2454     2320     2307     2384     2501 
    2639     2708     2644     2527     2435     2367     2342     2380 
    2444     2496     2501     2474     2492     2527     2505     2492 
    2508     2471     2431     2457     2475     2484     2529     2563 
    2566     2567     2511     2396     2346     2353     2331     2362 
    2500     2612     2636     2639     2612     2524     2454     2440 
    2428     2432     2486     2531     2532     2523     2513     2524 
    2556     2516     2389     2338     2431     2523     2533     2542 
    2560     2508     2363     2232     2241     2377     2515     2569 
    2563     2562     2560     2525     2492     2500     2517     2505 
    2458     2448     2533     2652     2708     2647     2481     2307 
    2212     2223     2334     2493     2619     2662     2635     2560 
    2454     2342     2290     2344     2454     2558     2658     2729 
