Origin Time       2018/04/09 06:38:00
Lat.              35.2
Long.             132.6
Depth. (km)       10
Mag.              3.8
Station Code      OKYH09
Station Lat.      35.1809
Station Long.     133.6765
Station Height(m) 405
Record Time       2018/04/09 06:39:17
Sampling Freq(Hz) 100Hz
Duration Time(s)  120
Dir.              4
Scale Factor      7845(gal)/8223790
Max. Acc. (gal)   1.625
Last Correction   2018/04/09 06:39:02
Memo.             
[...]
    4333     4329     4332     4337     4340     4336     4328     4328 
    4336     4336     4332     4333     4330     4328     4334     4338 
    4334     4329     4326     4329     4334     4336     4334     4330 
    4330     4340     4334     4324     4332     4336     4333     4334 
    4330     4332     4338     4337     4326     4326     4334     4336 
    4334     4336     4334     4333     4332     4332     4334     4334 
    4329     4332     4336     4336     4333     4333     4333     4332 
    4329     4330     4332     4332     4333     4334     4333     4332 
    4330     4330     4333     4334     4333     4332     4333     4333 
    4332     4333     4330     4325     4326     4333     4338     4336 
    4332     4326     4326     4334     4340     4333     4328     4332 
    4336     4337     4334     4328     4328     4336     4337     4330 
    4329     4333     4336     4334     4330     4330     4336     4337 
    4334     4332     4328     4329     4334     4334     4329     4329 
    4333     4334     4333     4332     4332     4333     4332     4333 
    4334     4333     4333     4336     4332     4328     4333     4337 
    4333     4332     4334     4330     4326     4332     4340     4334 
    4326     4329     4334     4332     4329     4329     4322     4322 
    4330     4334     4336     4338     4341     4348     4359     4374 
    4386     4376     4355     4337     4318     4297     4275     4249 
    4225     4229     4263     4310     4342     4365     4428     4504 
    4468     4318     4217     4249     4334     4333     4257     4252 
    4341     4453     4540     4482     4333     4356     4414     4251 
    4071     4058     4167     4409     4550     4398     4284     4425 
    4521     4434     4317     4205     4124     4189     4338     4407 
    4387     4329     4297     4368     4438     4333     4190     4241 
    4379     4395     4336     4322     4396     4509     4440     4230 
    4230     4360     4334     4295     4334     4317     4284     4276 
    4253     4297     4357     4321     4286     4294     4357     4523 
    4560     4386     4341     4425     4365     4264     4259     4249 
    4248     4291     4282     4236     4288     4374     4359     4298 
    4266     4226     4237     4365     4472     4457     4430     4440 
    4380     4318     4384     4442     4353     4244     4198     4210 
    4318     4450     4448     4325     4237     4203     4194     4317 
    4487     4442     4278     4251     4342     4394     4315     4191 
    4206     4349     4442     4392     4307     4369     4490     4434 
    4264     4171     4201     4360     4549     4530     4324     4261 
    4401     4410     4221     4095     4110     4221     4450     4611 
    4506     4334     4271     4202     4155     4272     4422     4433 
    4402     4421     4433     4396     4270     4089     4052     4180 
    4318     4445     4560     4572     4461     4284     4148     4140 
    4197     4270     4394     4515     4561     4517     4407     4324 
    4260     4145     4086     4194     4356     4449     4473     4459 
    4409     4334     4264     4222     4228     4309     4426     4457 
    4402     4367     4322     4241     4209     4198     4183     4228 
    4286     4367     4534     4569     4395     4297     4294     4234 
    4259     4423     4479     4386     4368     4417     4355     4207 
    4143     4207     4293     4291     4282     4380     4495     4490 
    4380     4260     4229     4306     4394     4430     4399     4337 
    4344     4369     4270     4140     4171     4256     4251     4287 
    4395     4428     4413     4392     4342     4328     4320     4306 
    4392     4502     4480     4382     4307     4252     4228     4287 
    4326     4222     4178     4364     4517     4440     4303     4255 
    4276     4294     4294     4372     4500     4464     4298     4275 
    4355     4310     4234     4239     4205     4212     4382     4495 
    4409     4299     4255     4243     4276     4320     4367     4487 
    4584     4498     4324     4239     4243     4253     4245     4249 
    4298     4367     4417     4445     4434     4341     4229     4194 
    4224     4298     4410     4455     4411     4394     4361     4261 
    4218     4256     4268     4280     4344     4411     4434     4384 
    4309     4297     4305     4280     4274     4299     4379     4507 
    4510     4333     4193     4249     4384     4399     4310     4256 
    4267     4328     4399     4359     4266     4284     4332     4320 
    4337     4352     4306     4324     4401     4380     4318     4352 
    4395     4333     4260     4295     4338     4257     4183     4294 
    4469     4494     4399     4329     4303     4303     4298     4260 
    4271     4351     4384     4386     4419     4406     4342     4301 
    4228     4172     4295     4441     4396     4336     4390     4418 
    4364     4275     4202     4210     4299     4383     4392     4360 
    4388     4453     4423     4276     4132     4122     4245     4356 
    4384     4405     4453     4468     4428     4378     4307     4209 
    4164     4241     4356     4407     4411     4399     4372     4356 
    4348     4310     4245     4218     4276     4348     4345     4330 
    4367     4395     4356     4298     4299     4355     4376     4321 
    4280     4332     4382     4338     4291     4311     4341     4352 
    4336     4286     4275     4355     4426     4401     4326     4278 
    4278     4337     4403     4376     4293     4287     4328     4324 
    4337     4356     4302     4280     4344     4360     4332     4349 
    4338     4288     4309     4328     4284     4336     4436     4409 
    4330     4306     4302     4313     4351     4365     4318     4279 
    4351     4441     4406     4297     4237     4271     4332     4344 
    4371     4426     4410     4318     4229     4212     4249     4244 
    4261     4379     4457     4448     4442     4411     4309     4171 
    4079     4158     4371     4495     4468     4446     4487     4460 
    4303     4151     4102     4136     4240     4398     4513     4529 
    4490     4440     4341     4185     4093     4174     4329     4360 
    4338     4441     4533     4452     4309     4197     4145     4213 
    4310     4348     4398     4483     4507     4432     4324     4225 
    4163     4189     4261     4332     4417     4448     4394     4368 
    4359     4284     4213     4240     4332     4372     4363     4409 
    4440     4351     4299     4332     4275     4214     4326     4450 
    4419     4328     4299     4336     4368     4299     4186     4221 
    4387     4460     4382     4320     4342     4325     4251     4266 
    4338     4355     4355     4379     4391     4376     4328     4283 
    4291     4317     4313     4311     4361     4422     4419     4365 
    4287     4180     4172     4348     4484     4432     4337     4293 
    4310     4363     4321     4222     4234     4294     4336     4438 
    4490     4395     4334     4334     4257     4207     4293     4345 
    4337     4413     4465     4374     4299     4318     4318     4297 
    4278     4237     4272     4418     4494     4432     4333     4229 
    4205     4295     4329     4272     4291     4379     4422     4418 
    4371     4305     4275     4243     4216     4299     4423     4456 
    4449     4436     4361     4267     4225     4232     4257     4287 
    4326     4380     4417     4401     4367     4365     4347     4270 
    4230     4280     4352     4415     4430     4348     4283     4321 
    4345     4321     4324     4310     4266     4290     4360     4390 
    4387     4356     4306     4301     4309     4278     4290     4357 
    4375     4357     4386     4396     4353     4334     4322     4247 
    4220     4298     4340     4348     4405     4402     4328     4322 
    4334     4290     4276     4326     4361     4344     4345     4407 
    4409     4321     4274     4276     4268     4302     4368     4378 
    4351     4352     4345     4303     4299     4341     4338     4315 
    4345     4369     4360     4355     4314     4259     4286     4341 
    4317     4294     4368     4418     4367     4317     4288     4255 
    4305     4382     4349     4317     4369     4388     4360     4332 
    4293     4271     4283     4297     4336     4396     4403     4357 
    4334     4324     4290     4286     4311     4274     4259     4365 
    4432     4384     4349     4334     4334     4349     4279     4224 
    4341     4434     4337     4270     4353     4395     4328     4302 
    4345     4333     4288     4320     4365     4355     4364     4405 
    4374     4280     4236     4276     4336     4325     4282     4332 
    4415     4379     4306     4341     4386     4307     4221     4259 
    4349     4402     4405     4378     4357     4324     4264     4260 
    4330     4355     4309     4284     4317     4376     4433     4415 
    4313     4267     4320     4352     4344     4306     4245     4279 
    4379     4395     4376     4375     4341     4322     4351     4321 
    4236     4237     4337     4396     4378     4348     4322     4303 
    4313     4328     4324     4330     4348     4364     4391     4399 
    4330     4245     4239     4288     4347     4390     4383     4344 
    4338     4356     4336     4305     4301     4294     4301     4333 
    4344     4347     4369     4356     4305     4294     4337     4387 
    4384     4307     4260     4320     4384     4376     4348     4329 
    4321     4342     4337     4291     4293     4324     4313     4314 
    4376     4409     4345     4288     4320     4340     4307     4303 
    4324     4340     4375     4387     4349     4321     4311     4305 
    4294     4286     4291     4306     4363     4430     4388     4286 
    4287     4364     4376     4298     4248     4328     4426     4401 
    4332     4364     4425     4348     4197     4166     4259     4352 
    4405     4398     4348     4341     4365     4333     4288     4267 
    4229     4282     4440     4450     4324     4340     4428     4353 
    4233     4224     4276     4333     4372     4399     4415     4361 
    4271     4266     4305     4298     4306     4363     4380     4355 
    4351     4345     4328     4318     4266     4233     4347     4453 
    4413     4384     4394     4303     4213     4252     4314     4328 
    4337     4356     4386     4387     4332     4298     4318     4311 
    4272     4291     4365     4399     4367     4321     4290     4298 
    4351     4379     4341     4325     4368     4367     4315     4305 
    4301     4270     4301     4375     4361     4307     4352     4429 
    4375     4244     4206     4266     4333     4369     4368     4365 
    4374     4361     4369     4375     4305     4255     4298     4325 
    4303     4329     4387     4392     4351     4334     4353     4341 
    4279     4257     4317     4348     4306     4294     4337     4371 
    4369     4352     4330     4311     4307     4330     4361     4371 
    4348     4325     4342     4363     4321     4280     4322     4349 
    4314     4305     4309     4283     4294     4361     4386     4324 
    4297     4379     4417     4310     4221     4283     4384     4406 
    4376     4342     4338     4367     4341     4241     4201     4284 
    4396     4434     4401     4375     4376     4342     4279     4244 
    4224     4218     4311     4446     4444     4379     4403     4382 
    4264     4212     4253     4303     4324     4324     4367     4459 
    4472     4356     4248     4264     4290     4241     4264     4367 
    4388     4361     4351     4320     4336     4372     4310     4257 
    4333     4391     4355     4355     4384     4340     4276     4275 
    4291     4329     4413     4436     4369     4318     4247     4167 
    4209     4286     4329     4426     4456     4383     4390     4391 
    4287     4209     4206     4295     4448     4456     4360     4383 
    4401     4270     4143     4149     4276     4428     4459     4407 
    4417     4440     4436     4433     4317     4156     4230     4456 
    4585     4615     4610     4568     4394     4027     3739     3789 
    3991     4116     4228     4448     4695     4843     4903     4714 
    4125     3620     3673     3947     4051     4182     4596     5059 
    5028     4461     3947     3829     3946     4109     4149     4020 
    4066     4550     5090     5096     4492     3886     3994     4722 
    5205     5003     4534     4209     3979     3775     3709     3898 
    4239     4415     4399     4517     4769     4731     4270     3789 
    3754     4085     4352     4473     4563     4596     4711     4927 
    4833     4329     3840     3569     3492     3750     4357     4903 
    5031     4850     4619     4405     4193     4075     4071     3946 
    3786     4207     5111     5424     4760     3937     3704     3856 
    3848     3820     4243     4904     5267     5121     4511     3797 
    3528     3856     4360     4526     4415     4480     4711     4726 
    4411     3959     3739     3915     4207     4523     4918     5028 
    4664     4129     3682     3566     3923     4379     4622     4768 
    4816     4719     4654     4517     4020     3434     3281     3597 
    4201     5016     5680     5667     5009     4229     3666     3314 
    3184     3468     4199     4976     5385     5530     5564     5146 
    4155     3148     2628     2739     3558     4737     5437     5360 
    5057     4842     4392     3639     3146     3387     4112     4634 
    4719     4780     4908     4734     4356     4101     3916     3927 
    4333     4648     4514     4386     4544     4646     4428     4128 
    4101     4214     4236     4344     4544     4492     4205     4027 
    4039     4110     4251     4514     4673     4513     4313     4414 
    4544     4325     3956     3832     4043     4471     4788     4692 
    4473     4523     4519     4159     3828     3824     4029     4345 
    4638     4715     4592     4414     4293     4320     4406     4317 
    4082     4006     4221     4504     4626     4629     4556     4336 
    4168     4248     4267     4055     3996     4194     4334     4364 
    4410     4472     4540     4542     4307     3927     3869     4353 
    4916     5015     4684     4302     4112     4077     4029     3954 
    4006     4272     4573     4611     4455     4411     4415     4260 
    4101     4133     4267     4455     4780     5030     4804     4288 
    4054     4045     3939     3937     4224     4514     4592     4558 
    4537     4460     4209     3913     3846     4054     4342     4537 
    4604     4575     4426     4185     3939     3793     3894     4230 
    4545     4672     4639     4519     4433     4411     4322     4151 
    4095     4318     4688     4880     4791     4565     4280     4016 
    3950     4062     4141     4197     4448     4716     4561     4210 
    4186     4318     4264     4125     4097     4310     4687     4839 
    4607     4217     3893     3827     4122     4465     4453     4245 
    4190     4228     4244     4338     4433     4342     4203     4267 
    4484     4680     4774     4642     4299     4098     4234     4441 
    4472     4428     4442     4492     4479     4328     4163     4160 
    4168     3975     3809     3942     4222     4482     4661     4600 
    4413     4456     4590     4402     4068     4002     4179     4388 
    4527     4585     4622     4585     4407     4251     4220     4129 
    3967     3990     4153     4257     4410     4606     4592     4372 
    4113     4008     4275     4726     4843     4536     4221     4197 
    4314     4361     4376     4361     4252     4189     4255     4271 
    4209     4272     4471     4534     4383     4272     4356     4477 
    4446     4202     3909     3944     4338     4596     4514     4421 
    4450     4395     4191     4055     4126     4270     4360     4499 
    4679     4687     4519     4348     4185     4058     4074     4220 
    4402     4486     4463     4533     4610     4364     3937     3775 
    3990     4333     4540     4599     4653     4665     4526     4275 
    4009     3843     3882     4105     4384     4585     4657     4639 
    4534     4349     4187     4094     4077     4172     4372     4603 
    4737     4644     4382     4207     4234     4260     4226     4334 
    4471     4410     4347     4334     4152     4020     4218     4429 
    4376     4270     4325     4469     4480     4252     4006     4055 
    4340     4530     4490     4376     4341     4371     4406     4382 
    4297     4278     4363     4392     4345     4360     4432     4440 
    4334     4178     4106     4195     4361     4456     4406     4295 
    4257     4295     4364     4413     4357     4244     4245     4364 
    4473     4500     4409     4234     4183     4360     4510     4421 
    4299     4340     4392     4334     4247     4189     4189     4264 
    4332     4321     4287     4320     4403     4401     4293     4252 
    4307     4324     4290     4276     4326     4426     4461     4407 
    4352     4314     4314     4356     4369     4340     4321     4347 
    4352     4253     4186     4288     4425     4469     4428     4318 
    4264     4376     4506     4465     4293     4148     4125     4237 
    4375     4395     4336     4318     4347     4371     4361     4305 
    4252     4279     4367     4418     4374     4303     4310     4382 
    4399     4325     4251     4268     4359     4411     4357     4286 
    4291     4290     4237     4267     4401     4503     4471     4341 
    4267     4291     4298     4272     4282     4288     4282     4348 
    4479     4536     4419     4236     4189     4275     4290     4221 
    4241     4347     4413     4432     4425     4353     4255     4233 
    4305     4371     4364     4328     4322     4320     4309     4348 
    4425     4421     4321     4266     4320     4353     4301     4297 
    4355     4344     4314     4340     4351     4356     4387     4352 
    4290     4303     4318     4291     4282     4286     4325     4396 
    4391     4324     4320     4387     4433     4371     4213     4153 
    4284     4413     4445     4468     4434     4295     4214     4268 
    4313     4305     4318     4322     4305     4317     4303     4276 
    4345     4409     4330     4293     4429     4544     4473     4322 
    4256     4249     4217     4240     4364     4429     4349     4283 
    4329     4361     4305     4240     4221     4251     4310     4352 
    4368     4374     4341     4276     4263     4334     4413     4415 
    4383     4364     4342     4357     4396     4347     4241     4234 
    4328     4417     4425     4347     4270     4271     4305     4311 
    4298     4294     4320     4378     4403     4359     4337     4375 
    4365     4256     4166     4225     4361     4401     4380     4411 
    4425     4387     4364     4314     4209     4159     4237     4386 
    4449     4347     4257     4340     4423     4348     4261     4268 
    4284     4305     4365     4403     4391     4395     4409     4372 
    4322     4307     4294     4261     4240     4257     4326     4409 
    4453     4456     4406     4313     4240     4213     4237     4310 
