Origin Time       2018/04/09 06:38:00
Lat.              35.2
Long.             132.6
Depth. (km)       10
Mag.              3.8
Station Code      OKYH09
Station Lat.      35.1809
Station Long.     133.6765
Station Height(m) 305
Record Time       2018/04/09 06:39:17
Sampling Freq(Hz) 100Hz
Duration Time(s)  120
Dir.              1
Scale Factor      2942(gal)/8224139
Max. Acc. (gal)   0.187
Last Correction   2018/04/09 06:39:02
Memo.             
[...]
  -21716   -21713   -21712   -21713   -21712   -21714   -21716   -21710 
  -21710   -21713   -21712   -21712   -21714   -21713   -21713   -21716 
  -21713   -21710   -21713   -21714   -21712   -21712   -21713   -21714 
  -21713   -21713   -21714   -21716   -21714   -21714   -21714   -21714 
  -21713   -21712   -21712   -21713   -21714   -21714   -21713   -21713 
  -21713   -21712   -21713   -21716   -21713   -21709   -21710   -21714 
  -21713   -21712   -21713   -21714   -21714   -21713   -21714   -21716 
  -21714   -21714   -21716   -21713   -21710   -21714   -21713   -21709 
  -21710   -21714   -21713   -21712   -21713   -21714   -21712   -21712 
  -21713   -21714   -21716   -21714   -21713   -21713   -21710   -21713 
  -21716   -21713   -21713   -21716   -21716   -21713   -21712   -21710 
  -21712   -21714   -21714   -21714   -21714   -21713   -21714   -21714 
  -21713   -21713   -21716   -21716   -21712   -21710   -21712   -21712 
  -21712   -21713   -21714   -21712   -21713   -21714   -21714   -21716 
  -21714   -21709   -21710   -21714   -21713   -21710   -21714   -21713 
  -21712   -21713   -21712   -21712   -21714   -21714   -21713   -21713 
  -21713   -21712   -21713   -21714   -21714   -21713   -21713   -21713 
  -21713   -21713   -21710   -21710   -21712   -21712   -21710   -21713 
  -21714   -21712   -21709   -21712   -21713   -21713   -21713   -21710 
  -21712   -21714   -21714   -21712   -21710   -21712   -21716   -21713 
  -21712   -21714   -21714   -21712   -21713   -21714   -21712   -21712 
  -21713   -21712   -21712   -21710   -21710   -21712   -21712   -21712 
  -21712   -21712   -21712   -21714   -21714   -21712   -21710   -21713 
  -21716   -21714   -21710   -21712   -21714   -21713   -21713   -21714 
  -21716   -21713   -21713   -21714   -21713   -21714   -21714   -21712 
  -21713   -21714   -21713   -21713   -21713   -21710   -21712   -21714 
  -21714   -21713   -21713   -21712   -21714   -21714   -21713   -21714 
  -21716   -21713   -21713   -21714   -21714   -21716   -21714   -21714 
  -21714   -21714   -21714   -21716   -21714   -21713   -21713   -21712 
  -21712   -21713   -21713   -21713   -21713   -21713   -21713   -21716 
  -21717   -21714   -21714   -21717   -21716   -21716   -21717   -21718 
  -21720   -21724   -21721   -21714   -21710   -21708   -21703   -21701 
  -21695   -21683   -21662   -21649   -21664   -21705   -21748   -21764 
  -21752   -21733   -21737   -21770   -21794   -21759   -21681   -21641 
  -21668   -21683   -21654   -21676   -21797   -21882   -21814   -21671 
  -21622   -21702   -21787   -21764   -21674   -21629   -21637   -21660 
  -21708   -21747   -21716   -21658   -21662   -21720   -21760   -21759 
  -21726   -21660   -21598   -21628   -21736   -21803   -21803   -21807 
  -21799   -21751   -21706   -21682   -21668   -21697   -21737   -21713 
  -21690   -21740   -21745   -21666   -21628   -21659   -21691   -21730 
  -21756   -21729   -21718   -21744   -21713   -21652   -21685   -21749 
  -21762   -21778   -21766   -21655   -21591   -21670   -21745   -21736 
  -21709   -21701   -21702   -21676   -21632   -21668   -21790   -21805 
  -21702   -21699   -21791   -21772   -21690   -21694   -21716   -21681 
  -21663   -21709   -21779   -21816   -21757   -21635   -21593   -21668 
  -21740   -21762   -21780   -21776   -21721   -21651   -21633   -21687 
  -21743   -21737   -21713   -21718   -21709   -21668   -21656   -21681 
  -21697   -21683   -21649   -21644   -21702   -21780   -21805   -21772 
  -21747   -21756   -21776   -21786   -21768   -21722   -21710   -21748 
  -21745   -21689   -21676   -21690   -21659   -21645   -21676   -21695 
  -21722   -21735   -21697   -21689   -21708   -21654   -21613   -21691 
  -21762   -21737   -21693   -21667   -21666   -21712   -21745   -21728 
  -21721   -21720   -21679   -21695   -21790   -21810   -21753   -21751 
  -21749   -21705   -21705   -21744   -21764   -21775   -21749   -21682 
  -21672   -21735   -21772   -21736   -21668   -21640   -21667   -21693 
  -21685   -21676   -21691   -21705   -21709   -21690   -21658   -21659 
  -21686   -21689   -21693   -21718   -21717   -21690   -21682   -21699 
  -21733   -21764   -21757   -21733   -21755   -21813   -21820   -21751 
  -21690   -21697   -21728   -21728   -21702   -21675   -21664   -21681 
  -21695   -21687   -21678   -21679   -21691   -21716   -21733   -21722 
  -21728   -21760   -21764   -21740   -21728   -21714   -21697   -21708 
  -21736   -21741   -21718   -21686   -21649   -21624   -21654   -21716 
  -21722   -21698   -21732   -21756   -21710   -21703   -21744   -21744 
  -21745   -21770   -21747   -21725   -21757   -21770   -21743   -21717 
  -21685   -21670   -21695   -21712   -21714   -21729   -21710   -21672 
  -21676   -21681   -21644   -21632   -21682   -21739   -21759   -21725 
  -21675   -21679   -21714   -21709   -21705   -21752   -21787   -21759 
  -21699   -21663   -21676   -21713   -21722   -21708   -21722   -21766 
  -21776   -21740   -21724   -21744   -21744   -21726   -21726   -21721 
  -21701   -21705   -21718   -21695   -21675   -21685   -21697   -21712 
  -21721   -21702   -21683   -21685   -21690   -21702   -21716   -21699 
  -21689   -21713   -21721   -21708   -21739   -21774   -21732   -21678 
  -21689   -21716   -21726   -21739   -21729   -21706   -21706   -21709 
  -21708   -21724   -21736   -21733   -21735   -21735   -21709   -21691 
  -21710   -21720   -21691   -21672   -21686   -21709   -21732   -21739 
  -21708   -21679   -21687   -21712   -21724   -21724   -21717   -21712 
  -21714   -21721   -21720   -21713   -21708   -21691   -21671   -21671 
  -21699   -21740   -21764   -21752   -21735   -21739   -21747   -21737 
  -21717   -21695   -21689   -21701   -21702   -21689   -21695   -21712 
  -21720   -21714   -21690   -21691   -21729   -21721   -21689   -21717 
  -21757   -21744   -21722   -21705   -21683   -21695   -21716   -21702 
  -21702   -21729   -21729   -21702   -21697   -21729   -21745   -21713 
  -21683   -21686   -21695   -21712   -21730   -21735   -21725   -21716 
  -21709   -21710   -21718   -21712   -21679   -21674   -21710   -21732 
  -21730   -21741   -21743   -21709   -21687   -21695   -21702   -21709 
  -21721   -21705   -21687   -21708   -21725   -21702   -21697   -21735 
  -21743   -21714   -21714   -21724   -21693   -21681   -21717   -21741 
  -21740   -21737   -21726   -21720   -21730   -21720   -21697   -21709 
  -21724   -21712   -21698   -21674   -21656   -21691   -21726   -21722 
  -21721   -21720   -21702   -21703   -21716   -21712   -21714   -21717 
  -21714   -21725   -21725   -21705   -21695   -21685   -21691   -21739 
  -21757   -21720   -21708   -21737   -21737   -21709   -21702   -21722 
  -21755   -21774   -21748   -21702   -21676   -21672   -21664   -21655 
  -21670   -21721   -21756   -21728   -21683   -21676   -21691   -21697 
  -21682   -21671   -21710   -21755   -21736   -21718   -21751   -21760 
  -21728   -21702   -21687   -21698   -21733   -21733   -21717   -21739 
  -21764   -21747   -21706   -21697   -21717   -21724   -21703   -21683 
  -21702   -21740   -21743   -21722   -21722   -21721   -21698   -21686 
  -21691   -21681   -21676   -21691   -21695   -21706   -21728   -21732 
  -21730   -21722   -21697   -21698   -21728   -21722   -21710   -21730 
  -21728   -21699   -21695   -21693   -21683   -21702   -21728   -21720 
  -21701   -21705   -21726   -21735   -21729   -21730   -21722   -21709 
  -21714   -21724   -21714   -21717   -21740   -21725   -21690   -21689 
  -21703   -21712   -21732   -21740   -21713   -21697   -21716   -21725 
  -21705   -21702   -21724   -21708   -21664   -21675   -21720   -21722 
  -21699   -21699   -21720   -21737   -21732   -21708   -21705   -21728 
  -21741   -21722   -21699   -21712   -21737   -21733   -21718   -21706 
  -21682   -21679   -21713   -21725   -21717   -21725   -21709   -21681 
  -21697   -21721   -21712   -21702   -21703   -21699   -21716   -21744 
  -21741   -21708   -21693   -21729   -21759   -21729   -21689   -21690 
  -21702   -21705   -21708   -21702   -21703   -21729   -21740   -21710 
  -21685   -21689   -21705   -21726   -21744   -21735   -21702   -21687 
  -21687   -21686   -21687   -21686   -21678   -21693   -21721   -21733 
  -21740   -21741   -21722   -21709   -21714   -21728   -21740   -21733 
  -21709   -21709   -21730   -21730   -21717   -21718   -21725   -21721 
  -21705   -21705   -21730   -21729   -21694   -21698   -21736   -21736 
  -21713   -21717   -21728   -21720   -21699   -21671   -21660   -21693 
  -21726   -21726   -21718   -21718   -21713   -21698   -21686   -21693 
  -21716   -21721   -21710   -21729   -21755   -21733   -21703   -21702 
  -21709   -21712   -21710   -21701   -21703   -21718   -21714   -21702 
  -21706   -21712   -21716   -21720   -21722   -21729   -21737   -21725 
  -21710   -21714   -21717   -21714   -21712   -21705   -21706   -21714 
  -21708   -21697   -21699   -21705   -21703   -21705   -21709   -21709 
  -21699   -21701   -21721   -21744   -21740   -21717   -21708   -21713 
  -21710   -21701   -21698   -21695   -21716   -21744   -21728   -21687 
  -21689   -21712   -21710   -21703   -21710   -21724   -21730   -21728 
  -21724   -21717   -21714   -21718   -21714   -21702   -21699   -21714 
  -21726   -21720   -21713   -21712   -21695   -21691   -21718   -21736 
  -21729   -21728   -21726   -21717   -21701   -21685   -21695   -21728 
  -21725   -21690   -21683   -21709   -21725   -21728   -21722   -21706 
  -21716   -21744   -21726   -21675   -21675   -21728   -21759   -21733 
  -21698   -21705   -21729   -21716   -21678   -21683   -21725   -21737 
  -21709   -21686   -21694   -21712   -21712   -21691   -21679   -21694 
  -21716   -21713   -21697   -21705   -21739   -21748   -21718   -21702 
  -21724   -21744   -21737   -21714   -21693   -21694   -21718   -21729 
  -21712   -21703   -21714   -21712   -21710   -21724   -21722   -21712 
  -21712   -21713   -21730   -21759   -21732   -21678   -21681   -21705 
  -21693   -21683   -21690   -21691   -21712   -21732   -21724   -21720 
  -21717   -21701   -21716   -21752   -21749   -21713   -21693   -21691 
  -21701   -21718   -21722   -21697   -21698   -21741   -21753   -21713 
  -21705   -21726   -21708   -21683   -21699   -21718   -21718   -21725 
  -21722   -21716   -21718   -21713   -21706   -21722   -21730   -21709 
  -21701   -21712   -21703   -21682   -21683   -21710   -21744   -21756 
  -21726   -21690   -21698   -21721   -21713   -21705   -21725   -21732 
  -21712   -21699   -21708   -21706   -21676   -21667   -21712   -21745 
  -21733   -21725   -21717   -21694   -21698   -21718   -21717   -21718 
  -21736   -21722   -21687   -21683   -21691   -21689   -21698   -21724 
  -21744   -21748   -21733   -21701   -21683   -21691   -21709   -21726 
  -21743   -21749   -21733   -21702   -21693   -21706   -21714   -21712 
  -21722   -21736   -21724   -21708   -21710   -21703   -21698   -21720 
  -21724   -21699   -21702   -21726   -21729   -21721   -21709   -21690 
  -21691   -21701   -21685   -21685   -21745   -21779   -21730   -21694 
  -21698   -21679   -21678   -21712   -21717   -21714   -21735   -21729 
  -21705   -21717   -21741   -21736   -21709   -21686   -21699   -21744 
  -21755   -21714   -21672   -21660   -21682   -21722   -21729   -21708 
  -21721   -21739   -21706   -21687   -21724   -21741   -21714   -21698 
  -21717   -21729   -21703   -21678   -21698   -21726   -21714   -21695 
  -21705   -21724   -21726   -21714   -21702   -21703   -21706   -21698 
  -21693   -21712   -21741   -21745   -21729   -21721   -21725   -21724 
  -21713   -21702   -21708   -21712   -21695   -21687   -21701   -21693 
  -21689   -21729   -21752   -21730   -21713   -21702   -21693   -21705 
  -21717   -21705   -21701   -21720   -21740   -21756   -21756   -21724 
  -21705   -21708   -21691   -21682   -21709   -21736   -21736   -21720 
  -21694   -21697   -21724   -21699   -21655   -21685   -21736   -21729 
  -21698   -21697   -21713   -21726   -21721   -21708   -21718   -21744 
  -21741   -21718   -21705   -21695   -21695   -21720   -21730   -21716 
  -21721   -21730   -21695   -21652   -21649   -21683   -21735   -21766 
  -21745   -21709   -21710   -21729   -21709   -21691   -21736   -21774 
  -21741   -21706   -21714   -21716   -21712   -21725   -21710   -21681 
  -21706   -21739   -21701   -21668   -21710   -21755   -21753   -21724 
  -21683   -21666   -21681   -21671   -21662   -21705   -21744   -21730 
  -21710   -21698   -21694   -21718   -21736   -21735   -21741   -21732 
  -21699   -21691   -21706   -21713   -21717   -21721   -21721   -21724 
  -21714   -21703   -21716   -21713   -21690   -21698   -21725   -21736 
  -21747   -21756   -21743   -21720   -21685   -21645   -21666   -21736 
  -21755   -21709   -21690   -21713   -21716   -21699   -21708   -21728 
  -21724   -21702   -21682   -21675   -21701   -21756   -21786   -21755 
  -21709   -21709   -21737   -21725   -21678   -21678   -21721   -21735 
  -21729   -21724   -21701   -21698   -21709   -21676   -21659   -21724 
  -21789   -21775   -21729   -21724   -21729   -21687   -21639   -21649 
  -21678   -21681   -21674   -21656   -21643   -21674   -21698   -21651 
  -21594   -21591   -21616   -21655   -21714   -21778   -21837   -21864 
  -21817   -21708   -21605   -21562   -21536   -21483   -21490   -21624 
  -21771   -21843   -21910   -22011   -22081   -22041   -21892   -21751 
  -21725   -21807   -21907   -21924   -21814   -21671   -21616   -21658 
  -21755   -21855   -21911   -21934   -21919   -21768   -21467   -21213 
  -21189   -21335   -21539   -21752   -21880   -21843   -21689   -21532 
  -21481   -21567   -21670   -21695   -21728   -21859   -21969   -21913 
  -21791   -21748   -21705   -21627   -21604   -21637   -21706   -21766 
  -21693   -21564   -21613   -21798   -21864   -21766   -21690   -21756 
  -21843   -21802   -21721   -21713   -21660   -21543   -21585   -21794 
  -21855   -21654   -21482   -21579   -21784   -21805   -21672   -21637 
  -21721   -21752   -21690   -21629   -21649   -21757   -21853   -21834 
  -21737   -21679   -21699   -21760   -21810   -21798   -21729   -21675 
  -21654   -21635   -21628   -21604   -21577   -21654   -21763   -21726 
  -21679   -21828   -21973   -21882   -21718   -21694   -21747   -21747 
  -21693   -21636   -21598   -21595   -21647   -21757   -21882   -21913 
  -21787   -21617   -21535   -21527   -21586   -21740   -21895   -21914 
  -21775   -21616   -21595   -21649   -21597   -21479   -21478   -21577 
  -21628   -21651   -21732   -21822   -21852   -21829   -21793   -21798 
  -21826   -21790   -21720   -21691   -21679   -21689   -21762   -21825 
  -21814   -21787   -21745   -21651   -21621   -21695   -21733   -21795 
  -21955   -21951   -21691   -21532   -21645   -21772   -21722   -21613 
  -21587   -21620   -21637   -21625   -21608   -21637   -21717   -21756 
  -21728   -21702   -21714   -21733   -21722   -21721   -21787   -21851 
  -21818   -21759   -21747   -21733   -21699   -21690   -21690   -21660 
  -21627   -21617   -21617   -21641   -21698   -21757   -21821   -21865 
  -21826   -21755   -21733   -21725   -21713   -21726   -21732   -21724 
  -21749   -21790   -21790   -21720   -21614   -21550   -21546   -21582 
  -21660   -21741   -21757   -21725   -21702   -21697   -21714   -21764 
  -21807   -21825   -21822   -21793   -21748   -21712   -21679   -21652 
  -21631   -21614   -21663   -21741   -21739   -21705   -21718   -21697 
  -21635   -21648   -21687   -21690   -21744   -21816   -21799   -21764 
  -21744   -21695   -21670   -21652   -21590   -21602   -21702   -21712 
  -21648   -21649   -21651   -21613   -21649   -21710   -21676   -21625 
  -21629   -21644   -21668   -21697   -21699   -21695   -21710   -21755 
  -21832   -21864   -21826   -21855   -21971   -22003   -21921   -21870 
  -21871   -21860   -21825   -21787   -21763   -21741   -21689   -21609 
  -21585   -21654   -21691   -21598   -21524   -21575   -21595   -21524 
  -21527   -21652   -21718   -21635   -21571   -21662   -21757   -21709 
  -21614   -21629   -21733   -21795   -21770   -21741   -21744   -21733 
  -21725   -21733   -21726   -21745   -21813   -21855   -21856   -21841 
  -21807   -21780   -21768   -21728   -21709   -21776   -21816   -21740 
  -21671   -21674   -21679   -21683   -21709   -21699   -21667   -21647 
  -21601   -21577   -21614   -21614   -21551   -21520   -21548   -21644 
  -21768   -21798   -21763   -21772   -21764   -21721   -21747   -21756 
  -21656   -21602   -21676   -21747   -21776   -21799   -21801   -21818 
  -21832   -21759   -21712   -21783   -21818   -21768   -21745   -21705 
  -21664   -21766   -21847   -21730   -21627   -21636   -21598   -21550 
  -21606   -21667   -21672   -21703   -21772   -21814   -21780   -21725 
  -21755   -21810   -21756   -21672   -21690   -21716   -21666   -21640 
  -21656   -21631   -21581   -21555   -21587   -21682   -21722   -21694 
  -21736   -21799   -21762   -21747   -21820   -21834   -21809   -21841 
  -21864   -21840   -21795   -21702   -21632   -21667   -21705   -21672 
  -21628   -21622   -21655   -21675   -21664   -21694   -21768   -21772 
  -21716   -21685   -21662   -21639   -21685   -21743   -21722   -21678 
  -21670   -21645   -21605   -21616   -21672   -21736   -21803   -21833 
  -21810   -21802   -21817   -21795   -21763   -21776   -21798   -21782 
  -21741   -21702   -21679   -21670   -21667   -21671   -21687   -21717 
  -21745   -21708   -21598   -21544   -21593   -21629   -21627   -21648 
  -21660   -21633   -21637   -21681   -21718   -21753   -21775   -21768 
  -21763   -21764   -21756   -21747   -21770   -21826   -21852   -21793 
  -21729   -21751   -21799   -21789   -21737   -21713   -21724   -21712 
  -21666   -21659   -21676   -21663   -21658   -21670   -21640   -21625 
  -21678   -21714   -21718   -21753   -21774   -21743   -21729   -21726 
  -21685   -21671   -21718   -21747   -21740   -21726   -21679   -21635 
  -21659   -21701   -21708   -21702   -21666   -21609   -21621   -21697 
  -21729   -21708   -21716   -21763   -21784   -21764   -21744   -21749 
  -21749   -21690   -21629   -21662   -21736   -21745   -21732   -21747 
  -21744   -21745   -21787   -21795   -21771   -21784   -21782   -21739 
  -21730   -21736   -21709   -21714   -21741   -21706   -21658   -21674 
  -21706   -21697   -21679   -21663   -21633   -21621   -21633   -21647 
  -21679   -21728   -21736   -21701   -21671   -21654   -21651   -21693 
  -21756   -21759   -21718   -21708   -21716   -21705   -21691   -21706 
  -21730   -21729   -21736   -21770   -21776   -21757   -21749   -21740 
  -21728   -21714   -21682   -21672   -21712   -21726   -21697   -21694 
  -21724   -21740   -21729   -21698   -21671   -21664   -21668   -21686 
  -21718   -21744   -21756   -21748   -21721   -21729   -21751   -21702 
  -21649   -21686   -21725   -21702   -21691   -21721   -21748   -21748 
  -21721   -21713   -21749   -21753   -21702   -21672   -21685   -21689 
  -21699   -21729   -21741   -21747   -21757   -21744   -21717   -21712 
  -21725   -21739   -21739   -21726   -21721   -21720   -21705   -21685 
  -21687   -21705   -21706   -21672   -21649   -21675   -21691   -21663 
  -21667   -21717   -21744   -21739   -21722   -21702   -21714   -21745 
  -21749   -21744   -21749   -21748   -21740   -21722   -21691   -21681 
  -21699   -21708   -21703   -21709   -21705   -21690   -21701   -21717 
  -21694   -21679   -21724   -21770   -21763   -21745   -21737   -21718 
