Origin Time       2018/04/09 06:38:00
Lat.              35.2
Long.             132.6
Depth. (km)       10
Mag.              3.8
Station Code      OKYH09
Station Lat.      35.1809
Station Long.     133.6765
Station Height(m) 305
Record Time       2018/04/09 06:39:17
Sampling Freq(Hz) 100Hz
Duration Time(s)  120
Dir.              2
Scale Factor      2942(gal)/8224139
Max. Acc. (gal)   0.160
Last Correction   2018/04/09 06:39:02
Memo.             
[...]
  -72107   -72107   -72107   -72104   -72103   -72106   -72106   -72106 
  -72106   -72107   -72107   -72106   -72107   -72108   -72107   -72108 
  -72108   -72107   -72106   -72106   -72107   -72106   -72106   -72107 
  -72107   -72106   -72106   -72106   -72104   -72104   -72106   -72106 
  -72104   -72106   -72107   -72106   -72106   -72106   -72104   -72104 
  -72106   -72106   -72104   -72107   -72108   -72106   -72106   -72108 
  -72108   -72106   -72104   -72106   -72106   -72107   -72107   -72104 
  -72104   -72107   -72108   -72107   -72107   -72107   -72107   -72107 
  -72107   -72107   -72106   -72103   -72103   -72106   -72107   -72106 
  -72106   -72106   -72104   -72102   -72103   -72104   -72106   -72106 
  -72104   -72106   -72108   -72106   -72104   -72107   -72107   -72104 
  -72106   -72108   -72107   -72107   -72106   -72104   -72107   -72108 
  -72104   -72103   -72108   -72106   -72103   -72104   -72107   -72110 
  -72106   -72103   -72106   -72108   -72106   -72104   -72107   -72106 
  -72103   -72103   -72104   -72103   -72104   -72108   -72107   -72106 
  -72107   -72106   -72104   -72104   -72106   -72104   -72103   -72106 
  -72107   -72106   -72106   -72107   -72108   -72106   -72102   -72103 
  -72106   -72106   -72106   -72107   -72107   -72106   -72104   -72106 
  -72108   -72108   -72107   -72106   -72107   -72107   -72106   -72106 
  -72107   -72107   -72104   -72104   -72107   -72106   -72103   -72104 
  -72104   -72103   -72104   -72106   -72107   -72107   -72104   -72104 
  -72108   -72108   -72106   -72104   -72104   -72104   -72107   -72107 
  -72106   -72106   -72108   -72108   -72106   -72104   -72107   -72108 
  -72108   -72108   -72110   -72108   -72106   -72106   -72108   -72107 
  -72107   -72107   -72108   -72108   -72106   -72108   -72108   -72107 
  -72107   -72108   -72110   -72110   -72107   -72107   -72110   -72108 
  -72106   -72104   -72104   -72104   -72104   -72108   -72111   -72107 
  -72106   -72107   -72106   -72106   -72110   -72107   -72106   -72108 
  -72110   -72108   -72107   -72107   -72107   -72106   -72107   -72110 
  -72106   -72106   -72108   -72107   -72104   -72107   -72110   -72111 
  -72112   -72111   -72111   -72115   -72119   -72123   -72127   -72135 
  -72145   -72152   -72156   -72161   -72164   -72162   -72161   -72158 
  -72148   -72108   -72049   -72002   -71990   -72004   -72030   -72040 
  -72017   -71982   -71980   -72042   -72111   -72114   -72083   -72081 
  -72075   -72031   -72031   -72152   -72318   -72373   -72277   -72123 
  -72021   -72050   -72166   -72223   -72173   -72080   -71995   -71992 
  -72094   -72179   -72180   -72134   -72050   -72002   -72088   -72207 
  -72198   -72104   -72065   -72084   -72092   -72088   -72110   -72156 
  -72187   -72157   -72079   -72041   -72088   -72141   -72127   -72084 
  -72076   -72084   -72061   -72037   -72064   -72107   -72098   -72053 
  -72046   -72092   -72146   -72172   -72152   -72114   -72091   -72099 
  -72161   -72223   -72203   -72146   -72107   -72037   -72002   -72106 
  -72223   -72200   -72094   -72050   -72114   -72179   -72126   -72026 
  -72048   -72139   -72125   -72044   -72046   -72106   -72108   -72073 
  -72076   -72117   -72162   -72164   -72106   -72069   -72085   -72080 
  -72050   -72099   -72171   -72117   -72023   -72038   -72094   -72123 
  -72168   -72191   -72146   -72106   -72103   -72088   -72075   -72110 
  -72149   -72137   -72088   -72053   -72080   -72137   -72134   -72094 
  -72081   -72088   -72114   -72141   -72112   -72075   -72092   -72090 
  -72061   -72102   -72152   -72104   -72058   -72084   -72098   -72100 
  -72135   -72137   -72095   -72095   -72114   -72090   -72071   -72087 
  -72117   -72145   -72142   -72102   -72090   -72133   -72173   -72173 
  -72134   -72091   -72094   -72135   -72148   -72123   -72104   -72079 
  -72044   -72046   -72065   -72057   -72058   -72094   -72114   -72115 
  -72122   -72126   -72127   -72139   -72139   -72121   -72121   -72139 
  -72131   -72115   -72133   -72149   -72127   -72102   -72096   -72099 
  -72117   -72150   -72161   -72126   -72080   -72063   -72084   -72115 
  -72114   -72075   -72041   -72053   -72075   -72068   -72077   -72099 
  -72075   -72069   -72133   -72161   -72092   -72030   -72053   -72112 
  -72148   -72158   -72156   -72139   -72127   -72121   -72104   -72108 
  -72148   -72161   -72112   -72075   -72092   -72112   -72117   -72126 
  -72119   -72095   -72095   -72088   -72056   -72060   -72098   -72102 
  -72095   -72106   -72104   -72090   -72098   -72131   -72166   -72156 
  -72094   -72050   -72068   -72114   -72139   -72108   -72069   -72098 
  -72161   -72169   -72131   -72112   -72126   -72123   -72087   -72065 
  -72088   -72103   -72088   -72096   -72141   -72150   -72103   -72065 
  -72092   -72133   -72127   -72102   -72096   -72102   -72117   -72125 
  -72103   -72088   -72098   -72079   -72053   -72073   -72085   -72077 
  -72123   -72157   -72100   -72075   -72127   -72117   -72069   -72118 
  -72176   -72134   -72096   -72121   -72135   -72123   -72112   -72094 
  -72084   -72099   -72108   -72108   -72114   -72108   -72096   -72096 
  -72098   -72100   -72118   -72122   -72100   -72094   -72111   -72119 
  -72118   -72119   -72118   -72103   -72073   -72052   -72069   -72108 
  -72121   -72110   -72096   -72076   -72065   -72088   -72134   -72154 
  -72130   -72103   -72106   -72111   -72111   -72129   -72144   -72138 
  -72141   -72144   -72117   -72094   -72099   -72096   -72080   -72079 
  -72096   -72103   -72096   -72110   -72138   -72133   -72099   -72079 
  -72071   -72072   -72094   -72115   -72121   -72108   -72096   -72111 
  -72129   -72115   -72095   -72088   -72077   -72096   -72156   -72168 
  -72122   -72103   -72117   -72107   -72096   -72104   -72098   -72077 
  -72073   -72088   -72114   -72126   -72103   -72080   -72094   -72117 
  -72119   -72115   -72118   -72118   -72123   -72139   -72144   -72131 
  -72131   -72135   -72100   -72054   -72063   -72102   -72114   -72099 
  -72102   -72117   -72111   -72099   -72104   -72100   -72091   -72104 
  -72130   -72148   -72142   -72114   -72092   -72081   -72071   -72064 
  -72073   -72091   -72100   -72104   -72121   -72135   -72125   -72111 
  -72118   -72126   -72118   -72100   -72085   -72095   -72123   -72133 
  -72119   -72110   -72098   -72080   -72090   -72112   -72112   -72114 
  -72133   -72114   -72065   -72071   -72111   -72106   -72080   -72102 
  -72150   -72156   -72118   -72096   -72110   -72112   -72088   -72077 
  -72087   -72094   -72104   -72117   -72103   -72091   -72108   -72107 
  -72076   -72098   -72165   -72148   -72065   -72053   -72107   -72129 
  -72114   -72100   -72099   -72110   -72108   -72088   -72092   -72131 
  -72152   -72135   -72122   -72125   -72133   -72125   -72099   -72090 
  -72095   -72085   -72072   -72079   -72098   -72114   -72107   -72091 
  -72098   -72102   -72095   -72106   -72114   -72106   -72121   -72135 
  -72112   -72079   -72076   -72099   -72114   -72100   -72094   -72110 
  -72117   -72102   -72098   -72112   -72118   -72107   -72100   -72104 
  -72112   -72123   -72138   -72129   -72092   -72085   -72122   -72135 
  -72111   -72092   -72090   -72103   -72127   -72135   -72126   -72112 
  -72090   -72075   -72091   -72111   -72114   -72112   -72088   -72050 
  -72061   -72104   -72117   -72114   -72119   -72102   -72077   -72092 
  -72127   -72134   -72110   -72088   -72099   -72129   -72142   -72126 
  -72117   -72133   -72137   -72110   -72106   -72133   -72131   -72099 
  -72095   -72122   -72125   -72103   -72106   -72112   -72076   -72042 
  -72061   -72091   -72094   -72088   -72087   -72087   -72102   -72114 
  -72103   -72104   -72115   -72098   -72085   -72111   -72130   -72139 
  -72153   -72137   -72100   -72103   -72123   -72114   -72096   -72100 
  -72111   -72115   -72111   -72102   -72099   -72104   -72100   -72096 
  -72117   -72127   -72110   -72100   -72094   -72081   -72106   -72141 
  -72117   -72081   -72107   -72129   -72095   -72080   -72104   -72107 
  -72095   -72091   -72088   -72104   -72137   -72138   -72119   -72112 
  -72096   -72077   -72087   -72108   -72103   -72096   -72110   -72125 
  -72127   -72115   -72100   -72106   -72114   -72092   -72077   -72102 
  -72121   -72114   -72104   -72106   -72118   -72129   -72110   -72081 
  -72091   -72114   -72117   -72111   -72103   -72094   -72095   -72104 
  -72108   -72112   -72122   -72114   -72088   -72079   -72084   -72088 
  -72099   -72125   -72141   -72142   -72137   -72127   -72115   -72106 
  -72090   -72077   -72107   -72145   -72129   -72088   -72090   -72114 
  -72121   -72121   -72110   -72084   -72081   -72099   -72092   -72081 
  -72095   -72115   -72134   -72148   -72133   -72110   -72122   -72137 
  -72111   -72088   -72100   -72103   -72080   -72087   -72118   -72123 
  -72122   -72130   -72111   -72087   -72094   -72094   -72077   -72095 
  -72108   -72077   -72069   -72106   -72108   -72091   -72125   -72162 
  -72133   -72076   -72065   -72091   -72099   -72096   -72123   -72158 
  -72150   -72108   -72098   -72126   -72121   -72087   -72087   -72107 
  -72092   -72080   -72112   -72127   -72104   -72108   -72121   -72094 
  -72079   -72117   -72138   -72102   -72073   -72094   -72114   -72104 
  -72103   -72111   -72103   -72099   -72115   -72126   -72119   -72114 
  -72106   -72090   -72090   -72117   -72135   -72119   -72103   -72112 
  -72119   -72112   -72096   -72073   -72079   -72103   -72095   -72095 
  -72149   -72168   -72114   -72085   -72098   -72084   -72071   -72094 
  -72111   -72106   -72110   -72112   -72104   -72104   -72100   -72098 
  -72125   -72139   -72108   -72083   -72098   -72125   -72131   -72112 
  -72103   -72127   -72137   -72103   -72098   -72130   -72117   -72077 
  -72099   -72135   -72115   -72084   -72085   -72095   -72104   -72111 
  -72106   -72107   -72127   -72133   -72117   -72115   -72121   -72104 
  -72076   -72071   -72087   -72100   -72090   -72068   -72084   -72111 
  -72083   -72054   -72094   -72150   -72161   -72129   -72090   -72088 
  -72121   -72122   -72083   -72076   -72107   -72114   -72100   -72110 
  -72138   -72154   -72145   -72111   -72092   -72110   -72117   -72094 
  -72088   -72096   -72091   -72094   -72115   -72129   -72126   -72110 
  -72088   -72087   -72108   -72118   -72108   -72107   -72111   -72099 
  -72090   -72099   -72112   -72107   -72095   -72099   -72114   -72118 
  -72110   -72102   -72103   -72108   -72106   -72106   -72112   -72110 
  -72107   -72123   -72127   -72104   -72094   -72112   -72135   -72135 
  -72106   -72068   -72060   -72077   -72095   -72106   -72117   -72131 
  -72145   -72139   -72125   -72119   -72100   -72083   -72100   -72107 
  -72080   -72081   -72121   -72133   -72118   -72112   -72110   -72099 
  -72092   -72094   -72094   -72094   -72099   -72119   -72137   -72119 
  -72098   -72127   -72154   -72126   -72099   -72107   -72103   -72092 
  -72094   -72083   -72073   -72096   -72110   -72103   -72114   -72117 
  -72095   -72099   -72118   -72098   -72071   -72084   -72108   -72114 
  -72102   -72096   -72119   -72139   -72110   -72073   -72084   -72108 
  -72117   -72111   -72092   -72092   -72121   -72118   -72091   -72107 
  -72130   -72115   -72118   -72131   -72095   -72068   -72107   -72141 
  -72137   -72121   -72085   -72075   -72123   -72146   -72104   -72083 
  -72095   -72094   -72103   -72131   -72123   -72095   -72098   -72100 
  -72079   -72080   -72110   -72118   -72111   -72110   -72099   -72095 
  -72126   -72146   -72123   -72098   -72103   -72103   -72083   -72094 
  -72126   -72121   -72096   -72106   -72112   -72090   -72094   -72133 
  -72139   -72102   -72080   -72100   -72126   -72115   -72087   -72088 
  -72104   -72099   -72099   -72122   -72130   -72111   -72102   -72107 
  -72114   -72114   -72092   -72072   -72094   -72134   -72141   -72131 
  -72133   -72122   -72092   -72083   -72094   -72104   -72114   -72111 
  -72096   -72094   -72098   -72104   -72125   -72125   -72098   -72096 
  -72111   -72098   -72090   -72098   -72083   -72083   -72119   -72130 
  -72118   -72118   -72099   -72056   -72052   -72119   -72173   -72154 
  -72119   -72126   -72125   -72081   -72069   -72108   -72122   -72110 
  -72110   -72098   -72088   -72117   -72138   -72123   -72107   -72106 
  -72108   -72096   -72076   -72072   -72095   -72108   -72111   -72134 
  -72142   -72108   -72088   -72100   -72110   -72118   -72122   -72102 
  -72090   -72111   -72115   -72094   -72103   -72126   -72117   -72107 
  -72115   -72108   -72096   -72102   -72104   -72096   -72083   -72069 
  -72087   -72138   -72156   -72122   -72099   -72095   -72084   -72088 
  -72115   -72139   -72153   -72156   -72118   -72058   -72048   -72085 
  -72107   -72111   -72129   -72144   -72131   -72095   -72034   -72017 
  -72094   -72168   -72158   -72133   -72123   -72083   -72037   -72065 
  -72146   -72169   -72129   -72100   -72071   -72029   -72041   -72087 
  -72107   -72144   -72172   -72121   -72058   -72058   -72073   -72072 
  -72076   -72079   -72077   -72102   -72160   -72219   -72238   -72227 
  -72235   -72273   -72312   -72307   -72230   -72127   -72041   -71949 
  -71865   -71836   -71853   -71917   -72036   -72153   -72237   -72280 
  -72257   -72208   -72180   -72114   -72013   -72006   -72098   -72099 
  -71914   -71710   -71721   -71956   -72211   -72318   -72274   -72183 
  -72114   -72034   -71948   -72003   -72235   -72458   -72522   -72459 
  -72368   -72316   -72210   -71921   -71659   -71744   -72042   -72176 
  -72081   -71973   -72021   -72181   -72264   -72216   -72172   -72146 
  -72057   -71953   -71946   -72014   -72081   -72112   -72108   -72087 
  -72064   -72040   -72045   -72112   -72185   -72173   -72108   -72107 
  -72161   -72164   -72126   -72169   -72274   -72295   -72200   -72075 
  -72015   -72071   -72111   -72026   -71972   -72090   -72210   -72188 
  -72146   -72149   -72108   -72040   -72038   -72098   -72160   -72207 
  -72196   -72098   -71990   -71964   -72010   -72056   -72060   -72063 
  -72127   -72195   -72180   -72092   -72015   -72026   -72092   -72103 
  -72069   -72092   -72161   -72187   -72130   -72037   -72004   -72037 
  -72036   -72034   -72141   -72225   -72148   -72063   -72085   -72130 
  -72188   -72303   -72389   -72365   -72262   -72139   -72041   -72007 
  -72045   -72099   -72080   -71982   -71934   -72013   -72091   -72094 
  -72149   -72291   -72287   -72085   -71964   -72011   -72002   -71928 
  -72003   -72177   -72239   -72161   -72056   -72072   -72223   -72256 
  -72063   -71918   -71977   -72076   -72099   -72094   -72096   -72148 
  -72229   -72222   -72148   -72154   -72203   -72162   -72068   -72036 
  -72107   -72218   -72238   -72144   -72054   -72049   -72079   -72080 
  -72040   -71990   -71955   -71946   -71980   -72033   -72081   -72131 
  -72150   -72083   -71973   -71957   -72081   -72231   -72233   -72121 
  -72103   -72184   -72191   -72160   -72219   -72296   -72257   -72108 
  -71975   -72013   -72211   -72350   -72308   -72198   -72153   -72168 
  -72130   -72030   -72036   -72173   -72216   -72056   -71898   -71933 
  -72027   -71979   -71886   -71921   -71995   -71999   -72044   -72168 
  -72193   -72112   -72099   -72131   -72103   -72084   -72126   -72153 
  -72144   -72153   -72206   -72258   -72252   -72189   -72153   -72172 
  -72183   -72157   -72107   -72023   -71950   -71957   -72015   -72027 
  -71998   -72019   -72119   -72243   -72311   -72250   -72130   -72117 
  -72177   -72131   -72019   -72000   -72021   -72004   -72026   -72072 
  -72081   -72096   -72125   -72112   -72095   -72107   -72098   -72069 
  -72091   -72141   -72146   -72095   -72033   -72052   -72173   -72268 
  -72238   -72185   -72198   -72227   -72222   -72164   -72096   -72137 
  -72246   -72258   -72200   -72187   -72154   -72061   -72022   -72034 
  -71990   -71934   -71979   -72042   -71983   -71879   -71895   -71992 
  -72054   -72106   -72177   -72177   -72129   -72175   -72242   -72173 
  -72072   -72067   -72069   -72037   -72014   -72023   -72075   -72094 
  -72002   -71961   -72111   -72247   -72198   -72123   -72141   -72137 
  -72130   -72216   -72241   -72122   -72099   -72207   -72225   -72185 
  -72231   -72260   -72191   -72108   -72075   -72099   -72153   -72153 
  -72087   -72030   -71988   -71948   -71984   -72110   -72175   -72106 
  -72064   -72112   -72076   -71930   -71895   -71987   -72017   -72015 
  -72108   -72203   -72208   -72199   -72189   -72169   -72212   -72272 
  -72208   -72083   -72049   -72073   -72067   -72092   -72188   -72216 
  -72110   -72025   -72054   -72073   -72030   -72044   -72152   -72229 
  -72198   -72122   -72068   -72048   -72075   -72107   -72053   -71953 
  -71949   -72036   -72081   -72052   -72041   -72100   -72172   -72180 
  -72122   -72081   -72129   -72225   -72249   -72176   -72141   -72202 
  -72222   -72161   -72149   -72198   -72208   -72146   -72067   -72049 
  -72090   -72102   -72077   -72072   -72069   -72042   -72023   -72031 
  -72071   -72138   -72154   -72095   -72067   -72080   -72054   -72021 
  -72030   -72044   -72083   -72161   -72183   -72125   -72072   -72044 
  -72036   -72076   -72127   -72127   -72106   -72117   -72131   -72107 
  -72099   -72166   -72246   -72215   -72108   -72069   -72099   -72087 
  -72034   -72045   -72146   -72233   -72216   -72164   -72183   -72226 
  -72187   -72104   -72072   -72088   -72134   -72162   -72123   -72071 
  -72042   -71994   -71973   -72050   -72099   -72040   -72002   -72060 
  -72131   -72164   -72153   -72110   -72083   -72085   -72090   -72080 
  -72056   -72045   -72085   -72135   -72127   -72102   -72127   -72165 
  -72146   -72095   -72087   -72127   -72153   -72148   -72156   -72189 
  -72193   -72157   -72115   -72084   -72087   -72123   -72122   -72083 
  -72069   -72068   -72060   -72096   -72166   -72172   -72088   -72021 
  -72060   -72125   -72083   -71994   -72011   -72106   -72133   -72100 
  -72098   -72119   -72135   -72135   -72091   -72046   -72075   -72144 
  -72175   -72149   -72111   -72115   -72148   -72149   -72131   -72152 
  -72191   -72199   -72175   -72121   -72041   -72011   -72063   -72100 
  -72099   -72118   -72117   -72079   -72090   -72160   -72200   -72169 
  -72106   -72079   -72091   -72069   -72030   -72052   -72081   -72053 
  -72030   -72052   -72050   -72027   -72054   -72096   -72096   -72092 
  -72127   -72169   -72161   -72125   -72134   -72183   -72192   -72165 
  -72173   -72204   -72189   -72142   -72119   -72114   -72103   -72094 
  -72080   -72060   -72056   -72068   -72079   -72103   -72127   -72118 
  -72087   -72072   -72064   -72044   -72040   -72084   -72123   -72112 
  -72084   -72080   -72095   -72118   -72137   -72119   -72085   -72096 
  -72133   -72130   -72100   -72095   -72112   -72129   -72127   -72092 
  -72056   -72081   -72135   -72135   -72096   -72083   -72110   -72129 
  -72091   -72048   -72073   -72141   -72166   -72144   -72129   -72142 
  -72131   -72099   -72110   -72145   -72117   -72064   -72084   -72130 
  -72114   -72077   -72088   -72112   -72103   -72088   -72106   -72123 
  -72106   -72100   -72130   -72145   -72139   -72164   -72181   -72145 
  -72106   -72100   -72092   -72071   -72067   -72080   -72102   -72126 
  -72133   -72115   -72099   -72104   -72114   -72100   -72067   -72054 
