Origin Time       2018/04/09 06:38:00
Lat.              35.2
Long.             132.6
Depth. (km)       10
Mag.              3.8
Station Code      SMNH16
Station Lat.      35.3422
Station Long.     132.8989
Station Height(m) -53.5
Record Time       2018/04/09 06:38:59
Sampling Freq(Hz) 100Hz
Duration Time(s)  120
Dir.              1
Scale Factor      2940(gal)/6170270
Max. Acc. (gal)   0.838
Last Correction   2018/04/09 06:38:44
Memo.             
[...]
  271968   271971   271974   271974   271970   271966   271969   271972 
  271967   271965   271972   271975   271969   271966   271966   271965 
  271968   271968   271967   271968   271968   271967   271970   271970 
  271968   271965   271966   271967   271968   271968   271966   271966 
  271967   271964   271965   271968   271970   271968   271965   271966 
  271969   271969   271969   271968   271970   271971   271970   271972 
  271972   271970   271974   271975   271972   271975   271975   271972 
  271973   271974   271971   271970   271969   271969   271971   271972 
  271973   271974   271971   271969   271975   271976   271972   271972 
  271974   271974   271975   271976   271976   271973   271974   271975 
  271974   271974   271970   271969   271976   271974   271969   271975 
  271977   271972   271971   271974   271972   271968   271970   271972 
  271968   271967   271973   271973   271970   271975   271978   271971 
  271969   271970   271969   271969   271970   271968   271968   271968 
  271966   271968   271971   271971   271969   271969   271969   271969 
  271971   271974   271973   271970   271970   271971   271972   271971 
  271968   271971   271976   271976   271977   271974   271968   271969 
  271975   271973   271970   271973   271973   271972   271974   271973 
  271970   271971   271972   271970   271973   271978   271975   271971 
  271974   271976   271972   271970   271972   271972   271971   271970 
  271970   271971   271971   271972   271972   271969   271967   271972 
  271974   271971   271973   271972   271973   271976   271975   271973 
  271976   271979   271976   271970   271973   271978   271974   271968 
  271972   271975   271968   271966   271975   271979   271975   271973 
  271970   271968   271971   271970   271966   271970   271973   271970 
  271969   271972   271974   271972   271971   271973   271974   271974 
  271971   271968   271972   271977   271975   271974   271977   271978 
  271977   271978   271978   271973   271974   271980   271974   271968 
  271972   271975   271973   271973   271977   271976   271971   271972 
  271977   271973   271969   271970   271968   271969   271972   271972 
  271973   271976   271975   271975   271974   271973   271974   271974 
  271975   271973   271972   271974   271975   271974   271977   271975 
  271977   271979   271973   271971   271977   271977   271975   271975 
  271974   271973   271973   271973   271972   271971   271972   271973 
  271971   271969   271972   271978   271977   271974   271973   271973 
  271973   271972   271971   271969   271971   271974   271972   271973 
  271977   271977   271974   271974   271977   271975   271970   271971 
  271974   271972   271971   271975   271976   271975   271975   271976 
  271975   271974   271974   271974   271974   271973   271973   271975 
  271975   271974   271973   271971   271969   271971   271974   271973 
  271972   271972   271970   271972   271975   271974   271975   271975 
  271972   271974   271976   271973   271971   271973   271972   271967 
  271968   271975   271973   271968   271970   271975   271975   271974 
  271973   271972   271970   271969   271970   271975   271976   271976 
  271979   271978   271975   271979   271981   271976   271971   271972 
  271973   271975   271977   271975   271971   271971   271972   271972 
  271972   271975   271976   271973   271972   271971   271969   271969 
  271972   271973   271975   271975   271973   271973   271973   271974 
  271972   271973   271975   271973   271970   271971   271972   271973 
  271974   271975   271976   271971   271970   271975   271972   271971 
  271976   271973   271966   271970   271975   271972   271969   271973 
  271971   271968   271969   271970   271970   271971   271971   271973 
  271976   271974   271972   271973   271971   271973   271978   271976 
  271971   271971   271973   271974   271974   271974   271972   271970 
  271971   271972   271974   271979   271977   271975   271978   271977 
  271975   271976   271977   271978   271977   271978   271979   271977 
  271974   271974   271975   271973   271973   271978   271977   271971 
  271973   271976   271974   271975   271978   271977   271976   271978 
  271979   271977   271977   271978   271978   271976   271975   271977 
  271980   271979   271977   271972   271971   271978   271983   271980 
  271978   271980   271978   271975   271974   271975   271978   271978 
  271977   271976   271974   271975   271977   271974   271975   271976 
  271973   271973   271976   271977   271975   271972   271974   271977 
  271977   271975   271972   271974   271977   271976   271974   271977 
  271978   271976   271978   271978   271975   271976   271977   271977 
  271981   271982   271979   271977   271976   271975   271979   271979 
  271976   271980   271980   271975   271977   271977   271973   271975 
  271978   271976   271973   271973   271975   271976   271976   271976 
  271977   271979   271975   271972   271974   271974   271974   271977 
  271976   271973   271975   271977   271977   271976   271974   271974 
  271973   271973   271974   271974   271974   271975   271977   271980 
  271980   271977   271977   271980   271982   271981   271976   271972 
  271974   271976   271974   271978   271980   271973   271972   271974 
  271973   271974   271976   271975   271974   271974   271975   271976 
  271977   271976   271973   271973   271973   271971   271971   271974 
  271978   271977   271973   271970   271971   271975   271975   271974 
  271978   271978   271975   271978   271979   271976   271977   271981 
  271980   271974   271974   271978   271979   271981   271980   271977 
  271976   271975   271975   271976   271977   271976   271973   271971 
  271973   271972   271971   271974   271975   271974   271972   271972 
  271977   271979   271975   271974   271974   271970   271971   271975 
  271976   271974   271970   271969   271972   271974   271975   271973 
  271971   271973   271974   271975   271978   271977   271975   271975 
  271974   271975   271977   271978   271977   271976   271978   271975 
  271971   271975   271975   271972   271974   271973   271970   271972 
  271975   271973   271974   271977   271975   271973   271973   271974 
  271976   271977   271974   271972   271975   271976   271975   271974 
  271972   271970   271968   271970   271974   271973   271971   271971 
  271972   271970   271967   271969   271971   271969   271968   271969 
  271968   271972   271973   271971   271972   271972   271971   271972 
  271975   271976   271976   271976   271973   271970   271972   271972 
  271971   271970   271971   271971   271971   271973   271973   271972 
  271974   271976   271974   271973   271973   271972   271973   271972 
  271969   271968   271969   271970   271970   271969   271970   271970 
  271970   271971   271971   271973   271974   271972   271972   271970 
  271968   271970   271970   271968   271967   271969   271970   271974 
  271977   271970   271967   271971   271969   271968   271971   271969 
  271970   271972   271966   271965   271968   271970   271970   271968 
  271969   271972   271969   271966   271968   271968   271967   271968 
  271967   271966   271968   271970   271967   271968   271970   271967 
  271965   271968   271968   271967   271969   271969   271966   271967 
  271969   271967   271967   271970   271968   271967   271969   271969 
  271969   271974   271976   271971   271969   271972   271975   271978 
  271975   271973   271974   271973   271971   271972   271972   271970 
  271969   271971   271970   271970   271972   271971   271969   271967 
  271968   271973   271971   271968   271969   271966   271965   271969 
  271970   271969   271970   271972   271971   271972   271975   271973 
  271969   271969   271968   271967   271971   271974   271971   271967 
  271971   271975   271973   271973   271974   271970   271968   271968 
  271968   271970   271969   271971   271975   271972   271969   271970 
  271972   271974   271973   271969   271969   271971   271971   271972 
  271971   271969   271971   271972   271972   271971   271971   271972 
  271970   271965   271970   271975   271969   271966   271969   271970 
  271972   271975   271972   271969   271974   271974   271971   271970 
  271973   271973   271970   271967   271965   271968   271971   271968 
  271967   271971   271972   271970   271974   271974   271969   271968 
  271970   271971   271972   271971   271966   271968   271971   271968 
  271969   271970   271966   271969   271972   271967   271966   271971 
  271973   271971   271971   271969   271968   271969   271970   271972 
  271974   271973   271972   271973   271971   271968   271970   271975 
  271974   271971   271973   271975   271972   271973   271974   271972 
  271974   271977   271976   271976   271975   271974   271976   271978 
  271978   271979   271978   271977   271979   271978   271976   271974 
  271973   271974   271974   271973   271973   271973   271973   271972 
  271971   271973   271975   271972   271968   271968   271970   271971 
  271973   271974   271972   271973   271977   271976   271971   271969 
  271971   271972   271970   271971   271972   271973   271973   271971 
  271972   271973   271973   271976   271977   271974   271973   271976 
  271977   271975   271976   271978   271975   271971   271974   271970 
  271968   271973   271975   271974   271975   271974   271974   271970 
  271968   271977   271976   271968   271972   271976   271973   271974 
  271973   271970   271974   271977   271974   271974   271977   271975 
  271976   271978   271976   271973   271976   271981   271983   271970 
  271950   271962   272006   272041   272042   272016   271966   271899 
  271849   271821   271815   271913   272074   272126   272106   272077 
  271881   271694   271917   272167   271983   271894   272066   272013 
  271959   272022   271912   271904   272046   271989   271833   271891 
  272079   272063   271946   271975   271966   271913   272006   272019 
  271922   271973   272061   272058   271963   271861   271958   272049 
  271998   272007   271946   271856   271997   272069   271958   271943 
  271862   271795   271971   272031   272020   272108   271979   271875 
  272003   272026   272010   272032   271970   271950   271948   271877 
  271873   271954   272043   272052   271959   271902   271938   272039 
  272096   271975   271905   272023   272004   271889   271979   272031 
  271914   271958   272091   272008   271860   271881   271982   271971 
  271902   272008   272136   271979   271848   272031   272040   271803 
  271872   272076   272013   271901   271997   272125   272006   271860 
  271899   271962   272079   272090   271897   271919   272060   272034 
  271952   271827   271860   272079   272113   272004   271931   271958 
  272105   272070   271831   271861   272075   271977   271792   271944 
  272095   271912   271772   271950   272065   271945   271970   272144 
  272073   271853   271886   272056   272001   271890   271969   272044 
  272005   271966   271923   271906   272001   272020   271913   271959 
  272053   271976   271941   271991   271946   271892   271969   272058 
  271991   271936   272025   272017   271893   271898   272016   272015 
  271905   271897   271974   271979   271909   271889   271994   272082 
  271995   271861   271889   271982   272006   272030   271976   271823 
  271856   272045   272055   271985   272078   272114   271924   271823 
  271931   271985   272006   272070   271945   271768   271886   272078 
  272071   271963   271888   271956   272083   272058   271930   271891 
  271961   271971   271925   271988   272038   271960   271901   271919 
  271941   271968   272030   271993   271883   271984   272098   271966 
  271907   271958   271873   271857   272031   272115   272003   271900 
  271941   272000   272010   271998   271946   271969   272018   271957 
  271938   271958   271947   272008   272029   271929   271910   271995 
  272004   271951   271934   271951   271984   271935   271894   272056 
  272070   271852   271916   272050   271893   271813   271994   272154 
  272050   271863   271878   271969   272010   271975   271887   271966 
  272127   272123   272033   271929   271900   272009   271991   271917 
  272054   272081   271901   271881   271986   272037   271983   271847 
  271848   271971   272011   272012   272031   272006   271975   271967 
  271953   271959   271921   271855   271966   272075   271971   271958 
  272090   272008   271827   271895   272025   272005   271993   271999 
  271933   271878   271891   271958   272082   272072   271860   271827 
  271971   271989   272030   272096   271992   271895   271952   272014 
  272005   271956   271892   271912   271983   271941   271893   272000 
  272083   271987   271908   271955   271995   272006   271995   271946 
  271932   271910   271935   272078   272047   271877   271926   272043 
  271957   271828   271926   272095   272022   271898   271912   271973 
  272107   272135   271979   271946   272011   271945   271846   271924 
  272054   271972   271885   271942   271939   271968   272013   271948 
  271992   272081   272057   271994   271827   271781   271984   271976 
  271886   272058   272032   271790   271884   272126   272165   272044 
  271866   271845   271895   271841   271916   272118   272203   272039 
  271719   271833   272275   272227   271984   272084   272216   272230 
  272402   272943   273390   273072   272429   272190   272206   272151 
  271978   271753   271444   270845   270211   270284   271055   271608 
  271525   271240   271160   271538   272273   272728   272880   272887 
  272022   270809   270670   271176   271704   272481   273076   273073 
  272788   272439   271877   271507   271945   272237   271417   270625 
  270831   271442   271933   272499   273290   273505   272727   272264 
  272515   272488   272256   272075   271647   271208   271157   271566 
  271899   271645   271526   271854   271854   271879   272300   272362 
  272362   272381   271492   270829   271488   271923   271700   271892 
  272245   272334   272247   272054   272220   272714   272824   272378 
  271764   271405   271616   272214   272482   272298   272125   271984 
  271887   271916   271800   271587   271578   271720   271923   272123 
  272013   271692   271672   271837   271900   272085   272184   271826 
  271629   272023   272373   272314   272106   271918   271736   271594 
  271754   272147   272174   271870   271813   271969   272139   272189 
  271925   271849   272094   271992   271828   272006   272097   272125 
  272296   272379   272318   272250   272200   272134   272003   271980 
  272047   271738   271453   271739   271888   271776   271932   272035 
  271910   271842   271924   272059   272020   271911   271890   271685 
  271413   271636   272073   271953   271574   271639   271936   271940 
  271749   271903   272299   272326   272083   271986   271995   271931 
  271759   271688   271943   272253   272211   272015   272030   272228 
  272259   271954   271715   271724   271828   272036   272060   271871 
  271929   272099   272170   272231   272133   272052   272156   272093 
  272013   272072   271919   271885   272160   272080   271725   271771 
  272181   272435   272230   271845   271824   272051   271950   271757 
  271925   271880   271480   271595   272004   271861   271702   272133 
  272349   271955   271909   272341   272192   271670   271849   272202 
  271869   271625   271941   272118   271946   271712   271718   272023 
  272148   272044   272035   271906   271707   271826   271980   271936 
  271952   271980   271920   271961   272125   272248   272173   271899 
  271669   271750   271990   271936   271736   271910   272176   272073 
  272022   272263   272332   272198   272072   271852   271672   271714 
  271853   271983   271970   271863   271974   272133   271946   271694 
  271824   272177   272294   272016   271745   271839   271921   271797 
  271778   271927   272244   272348   271916   271720   272035   272135 
  271976   271905   271942   272131   272307   272169   271964   271984 
  271960   271785   271773   271925   272058   272140   272006   271786 
  271842   271966   271952   271919   271873   271872   271812   271714 
  271873   271872   271624   271785   272055   271950   271823   272113 
  272481   272117   271746   272271   272411   271706   271569   272179 
  272491   272156   271747   271858   272092   271857   271727   272178 
  272432   271976   271499   271604   271912   271993   271890   271801 
  271953   272123   271995   271864   271950   272163   272293   272169 
  272106   272110   271826   271652   271881   271990   271896   271996 
  272237   272291   272002   271718   271916   272240   272126   271864 
  271931   272019   271815   271810   272017   271851   271736   272037 
  272051   271854   271991   272048   271856   271866   272009   271987 
  271915   271976   272002   271890   271945   272082   271928   271813 
  272024   272198   272121   271892   271710   271769   271944   272013 
  272004   271967   271882   271789   271795   271945   272036   272012 
  272025   271931   271914   272205   272185   271908   272085   272209 
  271883   271774   271879   271850   271874   271919   271921   271993 
  271989   271915   271961   271991   271909   271998   272199   272168 
  272021   271934   271932   272076   272187   272100   271962   271986 
  272152   272158   271968   271908   271969   271959   271903   271877 
  271921   271952   271886   271797   271796   271911   271934   271742 
  271713   271983   272095   271991   272033   272075   271869   271739 
  271891   272039   272071   272020   271889   271902   272038   272038 
  272045   272172   272144   271895   271749   271951   272111   271872 
  271843   272215   272244   271986   271926   271920   271932   272077 
  272119   271988   271933   271960   271940   271928   271970   271998 
  271913   271777   271860   272087   272069   271866   271809   271908 
  271947   271826   271767   271905   271924   271783   271856   272126 
  272149   271849   271697   271845   271935   271942   272083   272226 
  272138   271957   271994   272125   272013   271816   271843   272025 
  272129   272058   271977   271928   271826   271900   272088   272058 
  272000   272019   271946   271926   271974   271960   272012   272061 
  271966   271951   271996   271891   271904   272130   272163   272023 
  272036   272107   272036   271912   271864   271853   271884   271936 
  271909   271949   272021   271915   271910   272063   271988   271870 
  271993   272016   271844   271848   271954   271890   271885   271985 
  271928   271893   272008   272058   272019   271976   271967   271978 
  271954   271942   271968   271981   271956   271932   271920   271903 
  271980   272085   272058   272014   272006   272000   272002   271943 
  271854   271874   271992   272016   271910   271877   271912   271917 
  271966   271984   271946   271996   272072   272107   272073   271981 
  272019   272074   271991   271994   272077   272068   271975   271849 
  271841   271986   272024   271873   271857   272017   271946   271779 
  271925   272085   272017   271994   272003   271876   271802   271860 
  271884   271924   271986   271864   271749   271921   272056   271903 
  271787   271952   272177   272124   271881   271863   272041   272050 
