Origin Time       2018/04/09 06:38:00
Lat.              35.2
Long.             132.6
Depth. (km)       10
Mag.              3.8
Station Code      SMNH16
Station Lat.      35.3422
Station Long.     132.8989
Station Height(m) -53.5
Record Time       2018/04/09 06:38:59
Sampling Freq(Hz) 100Hz
Duration Time(s)  120
Dir.              2
Scale Factor      2940(gal)/6170270
Max. Acc. (gal)   0.884
Last Correction   2018/04/09 06:38:44
Memo.             
[...]
  228226   228224   228224   228226   228225   228225   228227   228228 
  228226   228226   228227   228226   228226   228227   228225   228222 
  228223   228226   228225   228223   228227   228234   228229   228220 
  228223   228230   228228   228229   228230   228228   228226   228228 
  228231   228231   228230   228235   228236   228231   228230   228230 
  228228   228228   228229   228227   228227   228228   228226   228228 
  228227   228225   228230   228228   228225   228228   228225   228221 
  228225   228226   228221   228222   228225   228225   228226   228227 
  228227   228226   228225   228227   228231   228230   228227   228230 
  228230   228226   228226   228227   228227   228227   228228   228231 
  228228   228223   228224   228225   228224   228225   228227   228230 
  228233   228231   228229   228232   228232   228230   228229   228229 
  228230   228227   228226   228226   228229   228232   228230   228228 
  228231   228231   228228   228228   228228   228224   228225   228230 
  228231   228230   228228   228223   228225   228228   228225   228224 
  228223   228224   228228   228232   228234   228233   228228   228226 
  228228   228230   228230   228229   228230   228229   228223   228222 
  228229   228232   228231   228230   228230   228233   228237   228234 
  228231   228232   228232   228230   228226   228224   228225   228226 
  228224   228224   228228   228230   228226   228223   228226   228227 
  228228   228227   228224   228223   228224   228228   228232   228229 
  228224   228225   228227   228222   228220   228223   228223   228223 
  228224   228222   228223   228227   228227   228225   228225   228223 
  228222   228226   228230   228228   228226   228226   228225   228225 
  228224   228227   228229   228222   228220   228225   228225   228221 
  228219   228224   228229   228226   228225   228227   228223   228221 
  228224   228223   228220   228223   228225   228227   228229   228226 
  228223   228227   228229   228225   228225   228230   228232   228228 
  228227   228229   228227   228227   228228   228226   228228   228228 
  228226   228228   228232   228232   228229   228227   228227   228229 
  228230   228227   228227   228229   228230   228229   228228   228226 
  228224   228225   228227   228226   228229   228231   228224   228224 
  228231   228231   228230   228232   228231   228226   228224   228226 
  228232   228234   228232   228231   228230   228227   228225   228226 
  228228   228228   228228   228228   228226   228225   228227   228227 
  228226   228226   228226   228229   228230   228224   228221   228225 
  228227   228227   228229   228227   228226   228228   228229   228229 
  228228   228226   228229   228225   228223   228225   228222   228221 
  228227   228228   228226   228223   228224   228227   228225   228225 
  228228   228228   228227   228227   228227   228228   228232   228232 
  228227   228225   228227   228225   228226   228230   228234   228238 
  228235   228228   228230   228231   228229   228230   228228   228224 
  228225   228229   228228   228224   228226   228228   228224   228224 
  228227   228227   228226   228226   228227   228226   228226   228226 
  228226   228225   228222   228220   228224   228226   228222   228224 
  228229   228227   228223   228226   228226   228223   228224   228225 
  228225   228226   228228   228228   228228   228229   228228   228225 
  228226   228228   228226   228224   228229   228233   228229   228226 
  228227   228225   228226   228228   228228   228227   228226   228226 
  228229   228228   228224   228225   228227   228225   228226   228225 
  228222   228226   228227   228227   228231   228232   228230   228229 
  228225   228224   228229   228226   228224   228230   228231   228225 
  228223   228229   228233   228231   228231   228231   228229   228228 
  228229   228229   228228   228227   228224   228225   228228   228228 
  228229   228232   228228   228224   228228   228229   228226   228229 
  228230   228228   228230   228231   228230   228228   228225   228230 
  228235   228232   228229   228224   228223   228226   228225   228226 
  228229   228228   228229   228228   228228   228231   228229   228225 
  228230   228231   228228   228229   228233   228229   228225   228227 
  228229   228228   228230   228233   228230   228228   228227   228227 
  228226   228225   228228   228227   228225   228227   228226   228225 
  228225   228223   228224   228230   228230   228228   228227   228226 
  228227   228226   228226   228229   228230   228228   228228   228227 
  228227   228229   228232   228231   228229   228228   228231   228228 
  228226   228231   228229   228225   228227   228227   228224   228225 
  228227   228226   228227   228227   228225   228225   228225   228227 
  228230   228231   228228   228225   228225   228223   228222   228225 
  228226   228223   228223   228225   228225   228225   228227   228227 
  228224   228225   228228   228229   228227   228225   228230   228232 
  228228   228226   228227   228227   228225   228225   228229   228228 
  228223   228227   228230   228225   228226   228230   228227   228226 
  228228   228221   228218   228223   228224   228223   228227   228229 
  228225   228226   228228   228225   228223   228225   228227   228225 
  228223   228225   228226   228226   228227   228226   228225   228227 
  228227   228226   228224   228226   228230   228229   228223   228225 
  228230   228227   228223   228225   228228   228231   228227   228223 
  228227   228229   228228   228228   228225   228225   228227   228222 
  228221   228222   228222   228221   228222   228226   228228   228228 
  228232   228235   228229   228219   228221   228230   228229   228224 
  228224   228226   228227   228225   228224   228225   228223   228222 
  228224   228224   228227   228228   228224   228222   228224   228225 
  228224   228224   228228   228231   228229   228228   228225   228220 
  228226   228229   228224   228227   228230   228226   228225   228227 
  228228   228228   228227   228225   228224   228224   228225   228226 
  228224   228225   228225   228221   228220   228223   228223   228225 
  228225   228222   228223   228225   228224   228226   228228   228227 
  228226   228226   228224   228225   228227   228227   228225   228224 
  228224   228221   228220   228223   228221   228219   228221   228221 
  228221   228221   228225   228228   228223   228218   228222   228225 
  228225   228224   228224   228223   228224   228224   228223   228225 
  228226   228223   228226   228228   228226   228224   228223   228222 
  228224   228227   228227   228223   228221   228223   228225   228228 
  228230   228230   228228   228224   228225   228227   228224   228229 
  228230   228224   228225   228228   228227   228229   228226   228222 
  228223   228222   228219   228222   228222   228222   228225   228223 
  228221   228223   228222   228221   228222   228221   228221   228224 
  228224   228221   228222   228224   228222   228219   228219   228220 
  228222   228226   228227   228223   228221   228223   228226   228226 
  228222   228221   228222   228222   228222   228221   228220   228221 
  228218   228218   228222   228221   228220   228220   228217   228221 
  228225   228224   228226   228226   228224   228224   228229   228230 
  228226   228225   228227   228223   228220   228223   228227   228226 
  228225   228224   228223   228222   228223   228224   228227   228230 
  228228   228224   228225   228227   228226   228225   228228   228225 
  228221   228225   228231   228227   228224   228226   228225   228224 
  228226   228226   228221   228219   228221   228224   228224   228222 
  228223   228226   228225   228225   228225   228221   228224   228226 
  228222   228226   228232   228229   228226   228224   228219   228217 
  228222   228222   228221   228227   228226   228221   228221   228222 
  228224   228228   228229   228225   228222   228224   228229   228229 
  228226   228224   228225   228227   228226   228221   228220   228220 
  228222   228223   228220   228221   228225   228226   228229   228227 
  228219   228221   228223   228222   228222   228218   228217   228222 
  228221   228219   228222   228224   228221   228222   228228   228230 
  228223   228220   228223   228223   228222   228222   228222   228222 
  228221   228221   228226   228226   228220   228219   228224   228225 
  228227   228230   228230   228227   228225   228228   228230   228228 
  228227   228229   228230   228229   228228   228229   228228   228224 
  228224   228227   228227   228224   228222   228222   228223   228226 
  228227   228226   228225   228224   228220   228220   228223   228225 
  228225   228225   228227   228228   228224   228225   228228   228228 
  228227   228228   228230   228231   228226   228222   228226   228227 
  228223   228224   228231   228231   228227   228225   228225   228224 
  228221   228222   228224   228221   228226   228230   228224   228225 
  228229   228230   228226   228221   228222   228228   228232   228231 
  228223   228224   228231   228229   228225   228221   228219   228222 
  228223   228222   228224   228222   228226   228236   228242   228234 
  228217   228215   228249   228299   228326   228318   228280   228229 
  228174   228088   228049   228171   228267   228204   228230   228372 
  228390   228291   228078   227818   227972   228443   228460   228257 
  228406   228290   227928   228113   228262   228101   228360   228459 
  228027   228098   228469   228281   228066   228263   228294   228019 
  228067   228390   228309   228160   228355   228206   227911   228211 
  228471   228267   228122   228175   228353   228442   228127   227959 
  228428   228597   228071   227935   228157   228168   228332   228261 
  228001   228288   228364   228232   228484   228289   227952   228122 
  228207   228194   228137   228183   228503   228353   228031   228164 
  228266   228302   228223   228080   228281   228316   228177   228244 
  228135   228150   228374   228300   228225   228244   228208   228205 
  228155   228243   228348   228230   228203   228173   228131   228250 
  228177   228163   228356   228226   228094   228226   228281   228309 
  228256   228119   228122   228243   228373   228297   228119   228209 
  228455   228448   228034   227921   228363   228285   227935   228199 
  228398   228262   228154   228134   228360   228375   228072   228127 
  228334   228338   228271   228197   228253   228247   228113   228159 
  228197   228164   228248   228290   228302   228307   228229   228175 
  228096   228076   228302   228460   228256   227974   228120   228448 
  228312   228159   228358   228245   228030   228171   228156   228115 
  228332   228285   228201   228419   228325   228054   228173   228293 
  228234   228267   228253   228181   228200   228243   228281   228206 
  228041   228132   228394   228382   228190   228221   228319   228204 
  228154   228147   228006   228171   228429   228243   228194   228455 
  228351   228065   228104   228251   228288   228333   228289   228119 
  228119   228193   228124   228206   228427   228436   228206   227964 
  228042   228317   228402   228392   228266   228084   228249   228356 
  228119   228157   228350   228224   228080   228137   228294   228406 
  228325   228257   228287   228156   228047   228201   228324   228297 
  228258   228204   228203   228181   228075   228166   228317   228263 
  228264   228292   228231   228250   228193   228118   228264   228378 
  228304   228110   228056   228261   228298   228247   228318   228237 
  228257   228278   228042   228206   228434   228146   228089   228292 
  228298   228206   228007   228076   228450   228435   228150   228060 
  228163   228247   228166   228228   228393   228329   228248   228098 
  227981   228275   228387   228130   228159   228310   228275   228222 
  228203   228247   228277   228175   228081   228140   228256   228334 
  228388   228273   228057   228094   228210   228188   228237   228229 
  228164   228347   228408   228101   228051   228382   228406   228029 
  228000   228438   228475   228127   228132   228263   228272   228292 
  228165   228140   228246   228160   228219   228304   228123   228182 
  228362   228298   228234   228150   228111   228280   228273   228037 
  228127   228439   228341   228083   228159   228258   228265   228292 
  228193   228162   228193   228139   228297   228391   228139   228140 
  228405   228403   228219   228164   228244   228187   227984   228022 
  228349   228520   228227   227967   228271   228459   228062   227850 
  228117   228276   228232   228444   228554   228081   228019   228398 
  228021   227753   228242   228435   228426   228364   228164   228423 
  228518   228103   228006   228023   228083   228377   228414   228373 
  228350   228161   228269   228382   228023   227864   228274   228702 
  228581   228085   228025   228315   228127   227728   227845   228222 
  228068   227415   227359   227922   227926   227683   227921   228111 
  228257   228803   229501   229855   229430   228533   227781   227430 
  227916   228772   228884   228133   226954   226725   228216   229591 
  229941   229688   228603   227887   228278   228443   228435   228754 
  228595   227972   227788   228102   227940   227144   226682   226760 
  227381   228269   228445   228856   230024   229674   228006   227300 
  227474   227955   228241   227794   227487   227391   227214   227973 
  229292   230082   230013   228576   227180   227518   227968   227693 
  228036   228473   228284   228351   228605   228334   227903   228137 
  228744   228471   227791   228268   229161   228737   227488   227385 
  228360   228420   227762   227763   228123   228616   228836   228209 
  227982   228426   228362   228101   228007   228061   228389   228390 
  228228   228210   228114   228406   228442   228108   228748   228926 
  227845   227838   228722   228961   228717   228105   227672   228093 
  228557   228229   228000   228482   228266   227651   228268   228698 
  227976   227304   227045   227583   228525   228717   228560   228385 
  228260   228322   228102   228072   228322   228112   227948   228009 
  228103   228552   228798   228579   228295   227888   227673   227877 
  228181   228455   228501   228249   228063   228303   228744   228703 
  228368   228396   228552   228409   228090   228128   228488   228361 
  227918   227833   228020   228334   228460   228309   228249   228151 
  228041   228106   228212   228284   228107   228028   228179   227903 
  227967   228515   228151   227860   228577   228897   228608   228235 
  227937   228227   228562   228386   228266   228208   228116   228083 
  227875   227871   228269   228412   228020   227660   228008   228441 
  228235   228180   228372   228302   228322   228273   228070   228003 
  227921   228237   228721   228571   228323   228157   228027   228311 
  228267   228013   228407   228678   228438   228121   227940   228396 
  228984   228684   228142   228170   228082   227574   227602   228133 
  228358   228354   228123   227943   228315   228407   228228   228560 
  228394   227764   228102   228670   228383   227952   227995   228266 
  228351   228150   228127   228461   228334   227725   228008   228745 
  228353   227884   228402   228499   227962   228047   228472   228596 
  228622   228490   228367   228439   228144   227836   228161   228335 
  228157   228198   228220   228173   228153   228079   228280   228479 
  228253   228127   228251   228218   228033   227921   228026   228181 
  228081   227946   228168   228413   228229   227929   227862   228056 
  228438   228527   228151   227970   228253   228395   228154   228097 
  228336   228512   228578   228292   227967   228283   228627   228609 
  228570   228374   228182   228087   228052   228234   228079   227724 
  227932   228394   228611   228176   227760   228374   228520   227844 
  228101   228521   228386   228504   228421   228308   228527   228103 
  227705   228318   228689   228260   228043   228234   228242   228138 
  228325   228379   228088   228262   228612   228205   227997   228522 
  228429   227847   228012   228439   228367   228133   228062   228145 
  228221   228054   227824   227908   228136   228233   228259   228104 
  227955   228242   228533   228335   227993   228066   228420   228194 
  227877   228385   228529   228182   228471   228525   228154   228094 
  227988   228177   228423   228157   228296   228463   228230   228418 
  228402   228109   228160   228076   228296   228761   228435   228011 
  228055   228098   228214   228361   228298   228074   227913   227988 
  228150   228293   228333   228361   228517   228275   227945   228250 
  228375   228035   227888   227990   228372   228557   228268   228271 
  228427   228317   228190   228010   227982   228221   228445   228584 
  228446   228187   228167   228254   228243   228046   228104   228480 
  228358   228056   228114   228140   228186   228223   228238   228385 
  228200   228079   228307   228199   228221   228427   228195   228128 
  228211   228180   228347   228273   228102   228202   228174   228145 
  228152   228205   228397   228232   227992   228056   228250   228613 
  228415   227810   228094   228504   228213   228079   228235   228320 
  228339   228229   228122   228121   228177   228338   228404   228215 
  228136   228270   228356   228393   228280   228130   228236   228156 
  227936   228187   228468   228382   228176   227968   228045   228357 
  228386   228122   228040   228292   228396   228232   228220   228243 
  228143   228140   228244   228320   228186   228041   228194   228249 
  228200   228301   228236   228242   228332   228136   228256   228516 
  228256   228147   228258   228118   228218   228532   228433   228145 
  228203   228388   228322   228218   228201   228352   228548   228199 
  227912   228301   228423   228151   228020   228054   228253   228215 
  228063   228163   228184   228328   228389   228005   228023   228310 
  228282   228264   228099   228009   228343   228436   228183   228035 
  228137   228255   228174   228314   228459   228263   228338   228377 
  228098   228086   228039   228015   228328   228373   228286   228380 
  228282   228101   228099   228227   228295   228308   228432   228287 
  228012   228159   228181   228021   228200   228283   228233   228274 
  228132   228156   228394   228292   228147   228229   228239   228221 
  228243   228192   228126   228172   228300   228275   228202   228285 
  228222   228128   228326   228433   228397   228342   228115   228153 
  228385   228200   228029   228180   228314   228411   228332   228087 
  228025   228196   228365   228224   228059   228266   228315   228114 
  228128   228201   228292   228384   228256   228111   228086   228203 
  228373   228310   228277   228318   228110   228079   228338   228367 
  228143   227985   228156   228435   228381   228152   227965   227982 
  228275   228402   228327   228266   228089   228043   228209   228296 
  228331   228265   228167   228216   228221   228199   228268   228251 
  228117   228107   228338   228441   228280   228294   228419   228353 
  228269   228205   228165   228253   228269   228193   228223   228253 
  228211   228231   228277   228259   228261   228253   228194   228250 
