Origin Time       2018/04/09 06:38:00
Lat.              35.2
Long.             132.6
Depth. (km)       10
Mag.              3.8
Station Code      SMNH16
Station Lat.      35.3422
Station Long.     132.8989
Station Height(m) 46.5
Record Time       2018/04/09 06:38:59
Sampling Freq(Hz) 100Hz
Duration Time(s)  120
Dir.              5
Scale Factor      3920(gal)/6170801
Max. Acc. (gal)   9.788
Last Correction   2018/04/09 06:38:44
Memo.             
[...]
   -3137    -3136    -3137    -3139    -3137    -3132    -3132    -3134 
   -3135    -3136    -3136    -3134    -3133    -3135    -3136    -3136 
   -3132    -3131    -3134    -3135    -3135    -3138    -3138    -3135 
   -3136    -3138    -3138    -3138    -3139    -3140    -3139    -3137 
   -3137    -3138    -3138    -3137    -3137    -3136    -3137    -3137 
   -3135    -3135    -3136    -3134    -3134    -3135    -3135    -3136 
   -3138    -3136    -3133    -3134    -3137    -3134    -3130    -3132 
   -3135    -3135    -3137    -3139    -3137    -3136    -3139    -3138 
   -3136    -3139    -3138    -3134    -3137    -3140    -3137    -3135 
   -3137    -3138    -3135    -3137    -3137    -3135    -3135    -3136 
   -3134    -3132    -3132    -3133    -3133    -3132    -3135    -3138 
   -3135    -3134    -3135    -3131    -3130    -3135    -3136    -3136 
   -3137    -3137    -3138    -3139    -3135    -3136    -3139    -3138 
   -3138    -3139    -3138    -3137    -3136    -3136    -3137    -3136 
   -3134    -3135    -3134    -3135    -3137    -3133    -3131    -3134 
   -3135    -3135    -3136    -3135    -3136    -3135    -3133    -3137 
   -3139    -3137    -3137    -3137    -3136    -3138    -3137    -3136 
   -3139    -3137    -3133    -3137    -3138    -3133    -3134    -3139 
   -3137    -3133    -3135    -3136    -3134    -3135    -3136    -3134 
   -3137    -3139    -3136    -3137    -3138    -3136    -3136    -3137 
   -3137    -3137    -3137    -3136    -3135    -3135    -3135    -3137 
   -3138    -3137    -3136    -3136    -3137    -3137    -3138    -3137 
   -3137    -3138    -3136    -3135    -3136    -3136    -3134    -3136 
   -3138    -3133    -3133    -3138    -3136    -3132    -3135    -3136 
   -3133    -3133    -3136    -3136    -3133    -3134    -3137    -3137 
   -3139    -3141    -3140    -3139    -3139    -3137    -3136    -3135 
   -3135    -3135    -3133    -3134    -3137    -3136    -3136    -3135 
   -3133    -3132    -3134    -3134    -3134    -3134    -3135    -3136 
   -3134    -3134    -3135    -3134    -3136    -3137    -3135    -3136 
   -3137    -3137    -3138    -3137    -3137    -3138    -3139    -3138 
   -3137    -3139    -3139    -3139    -3137    -3134    -3134    -3135 
   -3134    -3136    -3136    -3133    -3132    -3135    -3134    -3133 
   -3135    -3134    -3133    -3136    -3139    -3139    -3138    -3137 
   -3136    -3135    -3137    -3137    -3136    -3137    -3140    -3140 
   -3136    -3135    -3138    -3138    -3135    -3136    -3137    -3134 
   -3134    -3135    -3136    -3137    -3138    -3135    -3133    -3136 
   -3138    -3138    -3137    -3137    -3136    -3134    -3132    -3135 
   -3138    -3138    -3136    -3136    -3137    -3138    -3137    -3136 
   -3137    -3138    -3139    -3139    -3138    -3137    -3137    -3135 
   -3135    -3138    -3138    -3137    -3138    -3136    -3135    -3139 
   -3138    -3136    -3137    -3137    -3135    -3137    -3138    -3136 
   -3136    -3135    -3136    -3136    -3135    -3135    -3133    -3135 
   -3138    -3136    -3133    -3136    -3137    -3136    -3136    -3136 
   -3134    -3135    -3137    -3136    -3137    -3138    -3137    -3136 
   -3136    -3137    -3137    -3135    -3133    -3135    -3136    -3135 
   -3134    -3134    -3135    -3134    -3133    -3135    -3136    -3135 
   -3135    -3135    -3134    -3136    -3136    -3135    -3135    -3136 
   -3137    -3138    -3138    -3137    -3136    -3136    -3137    -3137 
   -3137    -3137    -3137    -3138    -3138    -3136    -3134    -3133 
   -3133    -3136    -3135    -3132    -3131    -3135    -3137    -3135 
   -3137    -3138    -3134    -3134    -3136    -3137    -3138    -3139 
   -3137    -3134    -3137    -3140    -3137    -3135    -3138    -3136 
   -3134    -3133    -3135    -3136    -3136    -3135    -3133    -3133 
   -3135    -3137    -3136    -3136    -3137    -3134    -3132    -3133 
   -3134    -3136    -3137    -3136    -3134    -3134    -3134    -3134 
   -3136    -3137    -3135    -3134    -3135    -3134    -3137    -3141 
   -3138    -3136    -3139    -3136    -3134    -3136    -3137    -3135 
   -3134    -3133    -3133    -3134    -3135    -3133    -3133    -3134 
   -3134    -3134    -3134    -3135    -3136    -3136    -3135    -3135 
   -3135    -3135    -3135    -3136    -3136    -3135    -3136    -3138 
   -3137    -3136    -3137    -3137    -3136    -3136    -3136    -3135 
   -3135    -3136    -3137    -3138    -3136    -3134    -3134    -3135 
   -3135    -3134    -3133    -3135    -3138    -3137    -3135    -3137 
   -3137    -3136    -3136    -3136    -3136    -3137    -3139    -3140 
   -3137    -3135    -3137    -3138    -3136    -3136    -3137    -3136 
   -3138    -3138    -3136    -3136    -3138    -3137    -3135    -3134 
   -3136    -3137    -3136    -3136    -3135    -3133    -3136    -3138 
   -3135    -3134    -3134    -3136    -3137    -3135    -3133    -3134 
   -3135    -3135    -3135    -3135    -3135    -3136    -3135    -3135 
   -3136    -3137    -3137    -3136    -3135    -3138    -3138    -3135 
   -3136    -3137    -3137    -3135    -3135    -3135    -3135    -3135 
   -3136    -3136    -3135    -3135    -3135    -3136    -3137    -3136 
   -3137    -3136    -3132    -3133    -3138    -3135    -3133    -3136 
   -3135    -3134    -3137    -3138    -3137    -3137    -3135    -3134 
   -3138    -3139    -3136    -3135    -3135    -3136    -3136    -3134 
   -3135    -3137    -3138    -3136    -3137    -3137    -3134    -3136 
   -3139    -3137    -3137    -3136    -3134    -3134    -3137    -3137 
   -3136    -3137    -3137    -3137    -3137    -3137    -3136    -3134 
   -3134    -3137    -3138    -3137    -3137    -3136    -3136    -3138 
   -3137    -3135    -3135    -3136    -3136    -3136    -3135    -3135 
   -3136    -3135    -3135    -3137    -3135    -3135    -3137    -3136 
   -3134    -3135    -3137    -3135    -3133    -3136    -3139    -3138 
   -3136    -3136    -3136    -3134    -3134    -3136    -3136    -3135 
   -3135    -3134    -3135    -3139    -3138    -3135    -3135    -3136 
   -3134    -3135    -3139    -3140    -3138    -3140    -3136    -3132 
   -3136    -3139    -3137    -3137    -3137    -3136    -3136    -3136 
   -3136    -3137    -3137    -3137    -3137    -3137    -3137    -3135 
   -3132    -3136    -3138    -3136    -3136    -3135    -3135    -3137 
   -3137    -3133    -3135    -3138    -3135    -3135    -3137    -3136 
   -3134    -3138    -3138    -3136    -3138    -3139    -3135    -3134 
   -3137    -3137    -3136    -3137    -3138    -3137    -3136    -3134 
   -3135    -3138    -3137    -3135    -3135    -3134    -3134    -3137 
   -3137    -3135    -3134    -3134    -3136    -3137    -3135    -3135 
   -3136    -3134    -3133    -3134    -3135    -3135    -3137    -3138 
   -3135    -3136    -3136    -3134    -3135    -3137    -3136    -3133 
   -3135    -3139    -3139    -3138    -3139    -3138    -3135    -3138 
   -3140    -3135    -3132    -3135    -3136    -3133    -3133    -3136 
   -3136    -3134    -3133    -3134    -3135    -3134    -3133    -3135 
   -3135    -3135    -3138    -3137    -3136    -3135    -3133    -3133 
   -3135    -3135    -3134    -3134    -3133    -3135    -3138    -3136 
   -3134    -3135    -3135    -3135    -3135    -3135    -3135    -3136 
   -3136    -3135    -3136    -3135    -3134    -3134    -3134    -3135 
   -3135    -3134    -3133    -3135    -3136    -3136    -3136    -3135 
   -3136    -3137    -3136    -3133    -3133    -3136    -3135    -3133 
   -3134    -3137    -3137    -3134    -3135    -3136    -3133    -3133 
   -3136    -3137    -3138    -3137    -3135    -3135    -3135    -3134 
   -3133    -3136    -3138    -3136    -3135    -3135    -3134    -3135 
   -3135    -3135    -3137    -3138    -3135    -3134    -3135    -3135 
   -3135    -3137    -3138    -3137    -3136    -3136    -3136    -3136 
   -3138    -3138    -3137    -3137    -3135    -3135    -3136    -3136 
   -3135    -3135    -3137    -3138    -3134    -3135    -3139    -3137 
   -3135    -3137    -3138    -3137    -3138    -3140    -3139    -3137 
   -3134    -3135    -3136    -3134    -3134    -3137    -3138    -3136 
   -3135    -3134    -3131    -3134    -3138    -3136    -3133    -3136 
   -3138    -3135    -3136    -3137    -3135    -3135    -3137    -3137 
   -3136    -3136    -3137    -3136    -3136    -3136    -3136    -3136 
   -3136    -3136    -3137    -3137    -3135    -3134    -3136    -3135 
   -3132    -3134    -3137    -3135    -3134    -3137    -3136    -3135 
   -3136    -3136    -3137    -3137    -3137    -3136    -3136    -3137 
   -3136    -3135    -3136    -3136    -3136    -3136    -3136    -3137 
   -3136    -3136    -3134    -3132    -3135    -3138    -3140    -3136 
   -3119    -3099    -3094    -3123    -3178    -3202    -3150    -3049 
   -2966    -2953    -3018    -3095    -3157    -3226    -3235    -3144 
   -3090    -3115    -3080    -3031    -3148    -3359    -3539    -3647 
   -3481    -3217    -3232    -3108    -2799    -2989    -3253    -3099 
   -3226    -3429    -2955    -2649    -3029    -2974    -2463    -2688 
   -3318    -3328    -3115    -3234    -3218    -2985    -3030    -3175 
   -3142    -3225    -3451    -3587    -3644    -3584    -3287    -2825 
   -2482    -2546    -2843    -2990    -3116    -3410    -3674    -3688 
   -3202    -2543    -2677    -3303    -3428    -3335    -3461    -3534 
   -3250    -2697    -2608    -3080    -3179    -2917    -2889    -2852 
   -2778    -3070    -3499    -3650    -3574    -3444    -3331    -3250 
   -3190    -3013    -2587    -2287    -2483    -2870    -3164    -3486 
   -3858    -4009    -3619    -2855    -2407    -2600    -3130    -3591 
   -3676    -3410    -3169    -3016    -2835    -2756    -2837    -3033 
   -3315    -3600    -3839    -3844    -3499    -3089    -2731    -2349 
   -2226    -2649    -3234    -3244    -2777    -2721    -3114    -3261 
   -3149    -3150    -3337    -3514    -3473    -3450    -3603    -3461 
   -3008    -2804    -2892    -3109    -3324    -3264    -3162    -3272 
   -3189    -2933    -2947    -3175    -3384    -3348    -3007    -2783 
   -2792    -2775    -2817    -2981    -3116    -3200    -3232    -3311 
   -3554    -3642    -3314    -2943    -2953    -3287    -3535    -3391 
   -2995    -2574    -2236    -2348    -3123    -3932    -4033    -3567 
   -3105    -2898    -2934    -3109    -3208    -3193    -3234    -3212 
   -2958    -2692    -2687    -3001    -3310    -3223    -3072    -3273 
   -3577    -3751    -3696    -3231    -2679    -2507    -2571    -2749 
   -3148    -3468    -3441    -3288    -3214    -3213    -3188    -3068 
   -2920    -2891    -3117    -3426    -3463    -3323    -3198    -2896 
   -2580    -2777    -3345    -3637    -3432    -3051    -2897    -3067 
   -3309    -3288    -3006    -2931    -3134    -3056    -2764    -2921 
   -3425    -3573    -3347    -3241    -3164    -2834    -2520    -2545 
   -2880    -3203    -3254    -3268    -3502    -3742    -3657    -3231 
   -2902    -3019    -3277    -3338    -3380    -3414    -3104    -2613 
   -2531    -3051    -3680    -3718    -3200    -2788    -2745    -2860 
   -2895    -2849    -2892    -2955    -3034    -3363    -3676    -3537 
   -3115    -2714    -2441    -2444    -2791    -3410    -4019    -4096 
   -3547    -3042    -3069    -3304    -3337    -3257    -3237    -3230 
   -3155    -3023    -2924    -2949    -2960    -2878    -3083    -3625 
   -3827    -3405    -2830    -2514    -2569    -2999    -3502    -3530 
   -3014    -2486    -2277    -2378    -2790    -3240    -3361    -3294 
   -3324    -3509    -3828    -3966    -3642    -3208    -3074    -3159 
   -3159    -3076    -3204    -3320    -3003    -2618    -2525    -2653 
   -3057    -3458    -3558    -3633    -3507    -2796    -2153    -2362 
   -3075    -3533    -3623    -3611    -3467    -3094    -2834    -2939 
   -3096    -3133    -3196    -3205    -3187    -3296    -3357    -3324 
   -3269    -2942    -2525    -2554    -2869    -3132    -3287    -3185 
   -3088    -3304    -3392    -3197    -3188    -3402    -3484    -3295 
   -2955    -2859    -3188    -3363    -3019    -2783    -3032    -3243 
   -3199    -3364    -3770    -3708    -3032    -2532    -2588    -2999 
   -3471    -3362    -2804    -2801    -3133    -3102    -3114    -3351 
   -3435    -3252    -2892    -2792    -3118    -3285    -3087    -2829 
   -2754    -2990    -3125    -3053    -3364    -3518    -2782    -2309 
   -2935    -3665    -3593    -2989    -2798    -3185    -3307    -3167 
   -3290    -3499    -3643    -3628    -3425    -3433    -3616    -3845 
   -4565    -5617    -6336    -6614    -6303    -5297    -4230    -3536 
   -3059    -2316     -240     3211     5691     5157     2243     -794 
   -1733     -279     1126       -1    -3624    -7352    -7861    -4214 
     163     1198    -1805    -6636   -10199   -10594    -8510    -6161 
   -5113    -5198    -5599    -6479    -8121    -9525    -9325    -7298 
   -4439    -2148    -1383    -1767    -1558      306     2704     3861 
    3334     1849      504      414     1977     4037     4222     1321 
   -2936    -6174    -8012    -8603    -7441    -5210    -3371    -1849 
    -273      371     -564    -2511    -4892    -7488   -10053   -12259 
  -14009   -15201   -14791   -11693    -6855    -2629     -427      694 
    2813     5849     7719     7144     3914     -903    -5051    -7328 
   -7197    -4173     -329     1676     2947     5593     8810    10400 
    8755     3665    -3401   -10522   -15994   -18545   -18123   -15656 
  -12417    -9261    -6161    -3305    -1560    -1265    -1705    -2185 
   -3121    -4905    -6321    -6252    -5228    -3569    -1251      410 
     345     -960    -2580    -2983     -934     2181     3951     3866 
    2880     1915     1229      538     -528    -2173    -4131    -5774 
   -6567    -6196    -5156    -4928    -6224    -8092    -9214    -8771 
   -6853    -4686    -3491    -3518    -4229    -4741    -4646    -4551 
   -5204    -6221    -6514    -5684    -3933    -1611      440     1661 
    2433     2971     3280     3652     3624     2440      604    -1006 
   -2354    -3585    -4388    -4675    -5050    -5709    -6096    -6058 
   -5758    -5284    -5335    -6318    -7203    -7165    -6879    -7063 
   -7289    -6671    -5068    -3485    -2856    -2759    -2558    -2444 
   -2186    -1325     -418      192      893     1408     1453     1532 
    1592      971     -183    -1129    -1778    -2510    -3220    -3652 
   -4131    -4856    -5249    -5177    -5601    -6764    -7662    -7776 
   -7313    -6392    -5178    -4294    -4482    -5237    -4948    -3370 
   -1960    -1819    -2899    -4101    -4037    -2537     -508     1225 
    2206     2434     2327     2137     1685      784     -557    -2464 
   -5055    -7630    -8948    -8651    -7624    -6912    -6624    -6106 
   -5121    -3934    -2649    -1694    -1690    -2173    -2146    -1649 
   -1509    -2035    -2712    -3158    -3465    -3402    -2695    -1993 
   -2157    -2880    -3312    -3476    -3540    -2980    -1817    -1024 
   -1137    -1905    -3009    -4079    -4711    -5014    -5162    -4901 
   -4453    -4340    -4180    -3586    -3139    -3259    -3643    -3921 
   -3983    -3797    -3175    -2234    -1662    -1827    -2395    -2849 
   -2677    -1888    -1405    -1729    -2205    -2328    -2090    -1635 
   -1705    -2795    -4239    -5276    -5512    -4839    -3850    -3042 
   -2391    -2163    -2526    -2988    -3223    -3662    -4696    -5782 
   -5974    -5040    -3624    -2535    -2019    -1947    -2353    -3066 
   -3380    -2996    -2614    -2728    -2798    -2371    -1963    -2103 
   -2202    -1597    -1050    -1303    -1729    -2065    -2807    -3639 
   -3948    -3984    -4399    -5215    -5715    -5638    -5223    -4246 
   -3010    -2574    -2821    -2941    -3007    -3289    -3665    -3932 
   -3852    -3601    -3667    -3766    -3247    -2414    -1927    -1787 
   -1772    -1694    -1696    -2562    -3999    -4410    -3735    -3191 
   -2752    -2075    -1764    -1938    -2013    -1911    -1912    -2317 
   -3222    -4017    -4241    -4355    -4576    -4318    -3368    -2360 
   -2045    -2766    -4169    -5206    -5042    -4035    -3319    -3430 
   -4026    -4580    -4534    -3751    -3048    -3015    -3178    -3011 
   -2355    -1346     -630     -678    -1379    -2485    -3414    -3369 
   -2561    -2140    -2548    -3118    -3244    -2855    -2159    -1714 
   -2107    -3193    -4248    -4665    -4367    -3914    -3825    -3964 
   -4120    -4389    -4741    -5078    -5331    -5100    -4225    -3439 
   -3367    -3568    -3189    -2130    -1205     -999    -1101    -1048 
    -989    -1069    -1273    -1626    -2080    -2673    -3313    -3586 
   -3562    -3612    -3467    -3061    -3140    -3872    -4550    -4907 
   -5090    -4875    -4312    -4139    -4526    -4742    -4299    -3417 
   -2664    -2330    -2140    -1868    -1788    -2148    -2612    -2751 
   -2742    -2792    -2663    -2450    -2480    -2604    -2828    -3403 
   -3809    -3319    -2291    -1675    -1886    -2705    -3713    -4534 
   -4789    -4288    -3488    -3122    -3282    -3433    -3268    -3040 
   -3087    -3429    -3817    -4000    -3987    -3854    -3453    -2865 
   -2474    -2257    -2053    -2049    -2363    -2857    -3240    -3220 
   -2958    -2835    -2930    -3218    -3685    -4032    -3938    -3587 
   -3285    -2927    -2472    -2202    -2112    -2081    -2402    -3016 
   -3263    -3088    -3035    -3195    -3298    -3192    -3017    -3109 
   -3486    -3840    -4002    -4124    -4377    -4353    -3685    -2963 
   -2846    -3294    -3927    -4216    -3906    -3412    -3153    -2938 
   -2507    -2194    -2385    -2614    -2367    -2125    -2292    -2459 
   -2413    -2317    -2075    -1772    -1957    -2688    -3305    -3552 
   -3632    -3571    -3604    -3944    -4209    -4239    -4183    -3854 
   -3493    -3623    -3854    -3750    -3650    -3687    -3759    -3992 
   -4164    -3873    -3288    -2718    -2282    -2224    -2425    -2265 
   -1719    -1364    -1424    -1876    -2606    -3226    -3463    -3319 
   -2895    -2532    -2597    -2967    -3219    -3257    -3263    -3368 
   -3653    -3948    -3972    -3890    -4023    -4286    -4275    -3763 
   -3165    -3087    -3485    -3885    -3935    -3537    -3083    -2967 
   -2885    -2547    -2237    -2148    -2122    -2059    -2169    -2590 
   -2951    -2909    -2630    -2367    -2326    -2758    -3438    -3675 
   -3317    -2889    -2760    -2959    -3405    -3792    -3916    -4086 
   -4479    -4627    -4189    -3517    -3185    -3414    -3936    -4258 
   -4052    -3454    -3013    -3018    -3189    -3188    -2943    -2510 
   -2072    -1894    -1954    -1989    -1929    -1816    -1723    -1846 
   -2130    -2340    -2465    -2494    -2500    -2775    -3248    -3599 
   -3898    -4231    -4433    -4578    -4880    -5168    -5156    -4866 
   -4402    -3755    -3066    -2735    -2972    -3456    -3681    -3434 
   -2879    -2370    -2146    -2200    -2462    -2782    -2856    -2598 
   -2225    -1895    -1744    -1922    -2276    -2510    -2603    -2714 
   -2915    -3181    -3441    -3698    -3929    -3962    -3911    -4134 
   -4464    -4466    -4143    -3685    -3342    -3439    -3740    -3709 
   -3401    -3092    -2735    -2382    -2348    -2729    -3123    -3028 
