Origin Time       2018/04/09 06:38:00
Lat.              35.2
Long.             132.6
Depth. (km)       10
Mag.              3.8
Station Code      SMNH16
Station Lat.      35.3422
Station Long.     132.8989
Station Height(m) 46.5
Record Time       2018/04/09 06:38:59
Sampling Freq(Hz) 100Hz
Duration Time(s)  120
Dir.              6
Scale Factor      3920(gal)/6170801
Max. Acc. (gal)   5.748
Last Correction   2018/04/09 06:38:44
Memo.             
[...]
   17343    17344    17345    17346    17343    17341    17342    17344 
   17343    17341    17342    17343    17342    17341    17342    17344 
   17343    17343    17347    17348    17344    17341    17343    17345 
   17344    17342    17345    17345    17340    17340    17344    17343 
   17342    17344    17342    17341    17341    17339    17342    17347 
   17347    17342    17339    17340    17342    17342    17341    17343 
   17345    17343    17343    17344    17342    17340    17342    17344 
   17344    17346    17343    17341    17342    17343    17344    17346 
   17345    17344    17344    17341    17341    17345    17345    17341 
   17342    17343    17342    17344    17345    17342    17342    17344 
   17343    17343    17345    17344    17343    17345    17344    17342 
   17344    17344    17343    17344    17344    17342    17342    17345 
   17344    17344    17345    17343    17341    17343    17343    17342 
   17342    17343    17343    17342    17343    17345    17341    17340 
   17345    17346    17343    17341    17341    17343    17344    17343 
   17342    17342    17344    17345    17344    17343    17344    17343 
   17343    17344    17343    17343    17343    17342    17342    17343 
   17343    17344    17343    17344    17344    17341    17342    17345 
   17344    17343    17344    17342    17343    17344    17342    17343 
   17346    17344    17342    17343    17342    17342    17344    17343 
   17343    17342    17340    17341    17342    17342    17344    17343 
   17343    17345    17342    17341    17344    17343    17341    17343 
   17344    17342    17341    17339    17338    17343    17346    17342 
   17342    17342    17340    17343    17344    17344    17345    17345 
   17342    17341    17343    17343    17342    17340    17342    17345 
   17344    17343    17343    17342    17341    17341    17342    17343 
   17341    17340    17342    17343    17340    17340    17344    17342 
   17339    17341    17341    17340    17343    17344    17341    17340 
   17342    17342    17341    17342    17345    17345    17344    17341 
   17340    17343    17343    17343    17345    17343    17341    17341 
   17341    17344    17345    17343    17343    17341    17341    17342 
   17340    17341    17345    17346    17344    17345    17344    17340 
   17340    17342    17344    17346    17344    17342    17342    17341 
   17340    17341    17341    17344    17345    17342    17342    17343 
   17342    17341    17341    17341    17340    17341    17344    17345 
   17343    17339    17338    17343    17345    17343    17343    17341 
   17340    17342    17340    17339    17345    17344    17338    17340 
   17347    17345    17341    17340    17341    17343    17342    17341 
   17343    17345    17344    17342    17340    17341    17344    17343 
   17344    17345    17344    17342    17341    17344    17345    17341 
   17342    17346    17342    17341    17346    17345    17342    17343 
   17344    17346    17346    17342    17342    17346    17344    17342 
   17344    17346    17343    17341    17342    17342    17343    17345 
   17344    17343    17344    17344    17342    17343    17345    17344 
   17342    17342    17343    17343    17344    17344    17342    17342 
   17344    17343    17342    17343    17342    17341    17342    17343 
   17345    17345    17343    17342    17344    17343    17342    17344 
   17345    17344    17343    17343    17345    17343    17340    17344 
   17346    17342    17344    17347    17344    17344    17346    17344 
   17342    17343    17343    17344    17343    17342    17342    17342 
   17340    17342    17344    17343    17342    17343    17342    17343 
   17343    17342    17342    17345    17345    17343    17342    17343 
   17341    17341    17343    17342    17343    17342    17339    17343 
   17344    17341    17343    17344    17343    17345    17345    17342 
   17341    17341    17341    17344    17344    17340    17343    17345 
   17341    17341    17344    17344    17341    17341    17343    17344 
   17342    17341    17342    17342    17341    17344    17345    17343 
   17343    17344    17342    17341    17343    17345    17345    17343 
   17343    17344    17346    17344    17341    17342    17344    17344 
   17343    17341    17340    17341    17344    17346    17343    17341 
   17341    17340    17342    17346    17346    17343    17342    17342 
   17343    17343    17344    17344    17344    17344    17342    17342 
   17342    17341    17343    17345    17343    17341    17344    17344 
   17341    17344    17344    17340    17343    17344    17342    17343 
   17343    17340    17341    17342    17343    17345    17344    17342 
   17344    17344    17341    17342    17344    17344    17345    17344 
   17343    17342    17341    17341    17345    17346    17343    17341 
   17342    17344    17342    17341    17342    17341    17340    17341 
   17343    17343    17342    17344    17342    17341    17342    17342 
   17341    17343    17344    17342    17341    17342    17343    17342 
   17342    17341    17341    17342    17344    17344    17342    17341 
   17342    17341    17341    17341    17340    17343    17345    17341 
   17341    17343    17339    17340    17342    17341    17342    17343 
   17341    17341    17342    17342    17343    17343    17341    17340 
   17338    17341    17341    17341    17345    17345    17341    17343 
   17344    17343    17342    17341    17341    17341    17340    17341 
   17341    17341    17343    17343    17342    17343    17343    17343 
   17343    17341    17340    17341    17345    17346    17343    17342 
   17343    17341    17339    17341    17342    17343    17342    17343 
   17345    17342    17340    17342    17342    17342    17344    17343 
   17340    17341    17342    17341    17344    17346    17343    17342 
   17342    17341    17341    17341    17341    17341    17342    17343 
   17342    17342    17343    17341    17338    17340    17345    17345 
   17342    17343    17345    17343    17341    17343    17344    17342 
   17342    17343    17344    17345    17343    17342    17344    17340 
   17339    17344    17345    17343    17342    17341    17340    17341 
   17343    17343    17345    17343    17341    17343    17344    17341 
   17341    17343    17343    17342    17341    17340    17342    17343 
   17342    17341    17341    17341    17342    17340    17340    17342 
   17342    17342    17342    17342    17342    17343    17343    17343 
   17344    17344    17342    17342    17343    17344    17344    17343 
   17343    17344    17343    17342    17340    17340    17342    17344 
   17344    17344    17343    17342    17342    17343    17344    17343 
   17342    17342    17342    17342    17342    17343    17343    17344 
   17344    17343    17343    17344    17343    17341    17343    17344 
   17344    17344    17343    17342    17342    17341    17344    17346 
   17343    17343    17344    17343    17342    17342    17342    17343 
   17342    17342    17344    17344    17342    17343    17343    17341 
   17343    17345    17343    17342    17342    17342    17345    17346 
   17343    17342    17343    17342    17344    17343    17342    17341 
   17342    17343    17342    17342    17342    17343    17342    17343 
   17344    17344    17343    17342    17340    17341    17344    17343 
   17340    17341    17343    17344    17344    17343    17343    17342 
   17342    17343    17344    17343    17344    17344    17342    17341 
   17341    17342    17342    17341    17341    17342    17342    17342 
   17343    17341    17340    17343    17344    17342    17342    17344 
   17344    17344    17342    17340    17342    17343    17343    17342 
   17343    17344    17342    17341    17343    17342    17341    17343 
   17342    17341    17343    17343    17342    17343    17344    17342 
   17341    17342    17342    17343    17344    17343    17342    17342 
   17342    17340    17342    17343    17341    17343    17344    17341 
   17339    17341    17345    17345    17343    17343    17342    17340 
   17341    17343    17345    17346    17343    17341    17341    17342 
   17342    17340    17342    17344    17341    17340    17343    17343 
   17341    17342    17343    17343    17345    17345    17340    17340 
   17345    17345    17344    17344    17345    17344    17342    17343 
   17343    17343    17344    17344    17342    17339    17339    17343 
   17343    17343    17344    17345    17342    17340    17341    17343 
   17344    17344    17343    17344    17342    17339    17341    17345 
   17343    17340    17342    17342    17342    17344    17344    17342 
   17342    17343    17342    17343    17344    17342    17342    17342 
   17340    17341    17344    17343    17342    17343    17343    17344 
   17344    17341    17338    17342    17344    17340    17340    17343 
   17342    17341    17342    17344    17344    17343    17343    17345 
   17351    17369    17409    17432    17364    17222    17204    17464 
   17832    17988    17785    17267    16630    16140    16047    16608 
   17627    18269    18284    18262    18138    17286    16077    15648 
   16402    17981    19342    19033    17940    17319    15872    15183 
   17010    17563    16915    18710    19357    16070    15325    18763 
   18450    15504    17364    19210    16352    15879    18916    18633 
   16534    17228    17769    16208    16116    18098    18732    17416 
   16952    17808    17316    15881    16766    18521    17839    16851 
   17346    17365    17148    17522    17487    17319    17445    17441 
   17467    17500    17273    16802    16441    16767    17432    18013 
   18781    18694    16914    15568    16279    17356    17495    17701 
   18340    18354    17548    16863    16408    16062    16813    18290 
   18623    17790    17112    16873    16772    17144    17937    18094 
   17232    16376    16607    17323    17511    17629    17719    17329 
   16997    17208    17788    17927    17655    17855    17412    16051 
   16129    17420    17767    17514    18262    19213    17661    15160 
   15821    17729    17569    17146    17745    17715    16747    16741 
   18140    18496    17012    16491    17695    17899    17180    17430 
   17502    16840    16682    16942    17305    17713    17994    18123 
   17733    16907    16179    15970    16902    18322    18738    18386 
   17710    16581    16157    17047    17898    17926    17778    17547 
   16729    16047    16354    17240    18195    18458    17802    17396 
   17332    17009    17066    17724    17684    16758    16880    17741 
   17387    17033    17721    17723    16521    16001    17314    18441 
   17975    17734    17766    16661    16147    17394    18044    17549 
   17588    17575    17146    17503    17688    16638    15940    16666 
   17979    19152    19351    17373    15033    15552    17338    17750 
   18281    19084    17857    15656    15308    16611    18013    19072 
   19083    17581    16119    16202    16973    17363    17844    18201 
   17485    16415    16630    17862    18209    17752    17575    16964 
   16074    16195    17346    18508    18437    17570    17298    17278 
   16899    16568    16769    17459    18161    18318    17476    16466 
   16444    16922    17590    18445    18565    17678    16650    16516 
   17028    17125    17197    17505    17472    17307    16951    16840 
   17748    18291    17611    17282    17853    17719    16517    16212 
   17278    18116    18082    17419    16675    16430    16609    17417 
   18527    18492    17465    16811    16337    16088    17377    18880 
   18299    17198    17198    17186    17164    17637    17493    16488 
   16286    17490    18130    17639    17875    18097    16929    16214 
   16686    17355    18206    18373    17383    16848    17110    16999 
   16679    17241    18223    17754    16610    17131    17760    17310 
   17770    18102    17203    16993    17030    16795    17660    18391 
   17653    16942    16802    16253    15929    17239    18878    18395 
   16945    17031    17493    16685    16542    18152    18929    18018 
   17231    16629    16344    17259    17912    17556    17163    16803 
   17106    17841    17388    16877    17854    18464    17230    16299 
   17323    18194    17473    16339    15904    17020    18692    18788 
   17948    17167    15977    15159    16025    18029    19244    19382 
   18814    16430    14738    16912    18748    17468    16815    17328 
   17235    17853    19091    18788    16985    15338    14833    15383 
   16967    19473    20795    19323    16724    14716    14681    17690 
   19759    17821    16373    17632    18397    17801    17387    17597 
   16714    15114    16665    19881    19834    17657    16156    15534 
   15767    16382    17354    18224    16951    14958    15672    17126 
   16814    17401    19331    19434    18215    17728    17699    18291 
   19287    19195    18052    16596    15812    16424    16523    15802 
   17096    19372    18896    16871    16236    15212    13488    15490 
   20451    23145    23097    20650    14932    10239    11176    15770 
   19594    19312    14979    11689    13257    18075    22576    23757 
   21515    18685    17078    16613    16797    17660    19157    19478 
   18089    17395    16812    13801    11356    13163    16034    16996 
   18550    20505    19129    16396    17165    19986    21217    21532 
   21854    20130    15130     9751     8295    11127    15501    19199 
   20422    19057    17361    16520    16673    18512    20829    21130 
   19685    18457    17742    16947    16464    16711    17403    18139 
   18262    17808    17322    16343    15010    14257    14149    14580 
   15621    16845    17388    17766    19325    20904    21507    22139 
   21579    18699    15968    14914    14524    14407    15284    16958 
   17225    15721    15215    15464    15081    16549    19602    20457 
   19299    18133    17203    16949    18192    20547    21449    19281 
   16241    14447    14222    15158    15787    16265    17347    17254 
   15848    16151    18911    21253    21331    20104    18423    16696 
   15646    15255    15508    16337    16724    16848    17822    18512 
   18199    18392    17864    15376    14381    15343    14991    14831 
   16685    18022    18520    19772    20898    21065    20708    20229 
   19840    18726    16455    14538    13253    11789    11668    13761 
   16136    17532    18269    18982    20167    21494    22279    21970 
   20007    17570    16387    15378    14137    14815    16346    15579 
   14235    15388    16817    16552    17156    18633    18506    18427 
   19754    19931    18785    18573    18579    17084    15921    17382 
   18850    17520    15520    15140    16019    16537    15869    15752 
   16477    16647    17763    19967    20125    18439    17858    18457 
   18457    17803    17305    17028    16585    15617    15127    16354 
   17747    17510    16892    16825    16185    15818    17328    18533 
   17951    17755    18052    17792    18194    18740    18452    19021 
   19380    17321    15678    16265    16670    16398    16587    17163 
   17632    17324    16544    16385    16570    16995    18094    18263 
   16812    16272    17189    17389    16956    17240    17628    17545 
   17837    18316    18000    17569    17875    18035    17546    17379 
   17958    18457    17821    16583    16556    17104    16632    16262 
   16497    16256    16189    17055    18150    18870    18689    17838 
   17465    17323    17159    17746    17908    16733    15738    15423 
   15942    17852    19273    18349    16768    16774    17661    17774 
   17624    18218    18417    17582    17535    18034    17041    16007 
   16592    17520    18195    18227    16950    15803    15627    15475 
   16150    18122    18742    17417    16868    17258    17016    17284 
   19154    20257    18961    17484    17003    16252    15857    16785 
   17757    17815    17214    16766    17128    17378    17041    17382 
   18153    18041    17629    17369    16614    16054    16327    16632 
   16969    17922    19141    19424    17908    16116    15962    16735 
   17609    18625    18748    17429    15954    15722    16311    16784 
   18025    19430    18474    16618    16554    17142    17364    17721 
   18016    18133    17912    17055    16089    15779    16472    17625 
   18331    18429    17776    16898    16983    17281    16841    16724 
   17190    17132    16723    17210    18239    18133    17240    17105 
   17233    17199    18247    19634    19002    17069    16084    15981 
   16295    17174    17667    17317    17018    16909    16544    16406 
   17257    18427    18723    18574    18479    17775    16978    17044 
   17003    16370    16360    16769    16459    16285    17275    18549 
   19014    18230    16813    16457    17260    17985    18520    18569 
   17508    16106    15617    16449    17913    18763    18124    16639 
   16082    16441    16782    17572    18047    17169    16797    17700 
   18166    17937    17682    17488    17346    17099    17016    17396 
   17837    17945    17453    16697    16459    16702    17359    18201 
   17924    16717    16717    17833    18054    17632    17574    17044 
   16335    16952    17797    17360    16784    16903    17106    17291 
   17651    17788    17203    16503    16835    17766    18187    18427 
   18746    18195    17151    16983    17165    17122    17398    17384 
   16796    16670    17113    17565    17539    16968    16500    16205 
   16256    17366    18765    19069    18285    17157    16375    16519 
   17500    18541    18839    18105    17058    16456    16240    16634 
   17380    17386    16919    16980    17505    17711    17411    17359 
   17376    17097    17484    17968    17348    17075    17739    17564 
   16797    17180    17893    17340    16700    17045    16968    16487 
   17180    18206    17995    17331    17295    17279    16862    16937 
   17630    18104    18533    18647    17429    16187    16308    16635 
   16977    17795    17917    17495    17621    17471    16720    16643 
   17279    17606    17551    17504    17556    17730    17644    16971 
   16458    16726    17227    17631    18063    18022    17289    16805 
   17055    17274    17199    17421    17654    17257    16919    17524 
   18443    18316    17252    16701    16827    16868    17122    17798 
   18149    17673    16939    16709    16741    16974    17817    18245 
   17345    16609    17172    17649    17185    16988    17396    17369 
   17108    17483    17893    17472    16890    17073    17514    17443 
   17367    17705    17840    17731    17847    17812    17275    16662 
   16421    16698    17250    17632    17757    17737    17397    16758 
   16529    17009    17533    17803    17963    17757    17165    16532 
   16204    16852    18243    18860    18358    17463    16413    15871 
   16589    17934    18616    18163    17286    16801    16714    16976 
   17693    18148    17729    17222    17296    17405    17232    17182 
   17269    17124    16899    17044    17373    17389    17291    17278 
   17083    17102    17591    17884    18032    18199    17694    16804 
   16390    16415    16907    17807    18126    17512    16932    16883 
