Origin Time       2018/04/09 06:38:00
Lat.              35.2
Long.             132.6
Depth. (km)       10
Mag.              3.8
Station Code      SMNH16
Station Lat.      35.3422
Station Long.     132.8989
Station Height(m) 46.5
Record Time       2018/04/09 06:38:59
Sampling Freq(Hz) 100Hz
Duration Time(s)  120
Dir.              4
Scale Factor      3920(gal)/6170801
Max. Acc. (gal)   7.215
Last Correction   2018/04/09 06:38:44
Memo.             
[...]
   14914    14918    14920    14918    14917    14919    14918    14918 
   14920    14920    14917    14917    14919    14918    14917    14918 
   14919    14918    14917    14918    14918    14917    14916    14918 
   14918    14916    14918    14919    14915    14917    14919    14919 
   14920    14915    14912    14915    14917    14918    14918    14916 
   14916    14917    14917    14916    14918    14919    14919    14920 
   14918    14916    14918    14920    14919    14917    14916    14917 
   14916    14916    14919    14917    14915    14914    14914    14918 
   14918    14915    14915    14917    14918    14916    14916    14918 
   14919    14917    14916    14918    14917    14916    14915    14915 
   14916    14918    14916    14915    14917    14920    14919    14915 
   14915    14920    14919    14917    14917    14918    14919    14918 
   14915    14914    14916    14916    14914    14914    14917    14918 
   14916    14917    14917    14915    14915    14916    14916    14916 
   14917    14916    14917    14918    14916    14915    14917    14919 
   14917    14916    14918    14918    14916    14914    14917    14919 
   14918    14917    14918    14916    14914    14916    14919    14918 
   14916    14917    14918    14916    14916    14917    14917    14916 
   14918    14920    14919    14917    14916    14917    14917    14916 
   14915    14915    14915    14915    14915    14916    14916    14915 
   14914    14914    14916    14917    14917    14918    14918    14917 
   14916    14916    14918    14918    14917    14918    14920    14919 
   14918    14917    14917    14919    14917    14914    14917    14920 
   14918    14914    14915    14916    14916    14916    14918    14918 
   14918    14917    14916    14916    14917    14917    14917    14918 
   14918    14914    14912    14916    14918    14916    14915    14916 
   14917    14918    14920    14919    14916    14917    14918    14917 
   14916    14915    14915    14915    14915    14918    14917    14913 
   14915    14917    14917    14916    14914    14916    14918    14918 
   14916    14915    14917    14917    14913    14915    14919    14918 
   14914    14913    14915    14917    14916    14915    14916    14918 
   14917    14915    14917    14917    14914    14914    14916    14917 
   14917    14917    14916    14917    14918    14916    14914    14916 
   14918    14916    14916    14918    14916    14913    14915    14917 
   14917    14916    14916    14917    14916    14914    14915    14917 
   14916    14914    14917    14920    14918    14916    14915    14916 
   14918    14916    14915    14918    14919    14917    14916    14916 
   14917    14918    14914    14913    14918    14918    14915    14916 
   14918    14918    14917    14914    14913    14915    14916    14916 
   14916    14915    14916    14918    14918    14918    14919    14918 
   14916    14917    14919    14919    14916    14915    14918    14919 
   14917    14917    14918    14917    14918    14917    14917    14918 
   14917    14916    14918    14918    14916    14917    14917    14914 
   14918    14920    14918    14917    14917    14918    14919    14918 
   14917    14917    14917    14919    14918    14915    14916    14919 
   14917    14916    14918    14918    14916    14915    14916    14917 
   14916    14915    14915    14916    14918    14918    14918    14918 
   14915    14914    14918    14918    14918    14920    14919    14916 
   14919    14921    14919    14918    14919    14919    14917    14915 
   14917    14919    14918    14916    14918    14920    14919    14918 
   14920    14920    14917    14916    14917    14918    14917    14915 
   14915    14916    14916    14916    14917    14918    14916    14916 
   14918    14918    14918    14919    14919    14918    14919    14918 
   14915    14915    14919    14918    14916    14917    14920    14919 
   14917    14917    14917    14915    14914    14916    14919    14918 
   14917    14917    14917    14917    14917    14917    14917    14916 
   14915    14915    14917    14919    14918    14917    14916    14916 
   14917    14915    14915    14917    14918    14915    14916    14917 
   14915    14915    14916    14915    14913    14914    14918    14918 
   14915    14915    14917    14917    14916    14917    14918    14918 
   14918    14918    14917    14915    14915    14917    14918    14916 
   14914    14917    14918    14917    14918    14918    14916    14915 
   14915    14916    14919    14919    14916    14916    14916    14915 
   14916    14917    14916    14918    14919    14918    14917    14918 
   14918    14915    14914    14916    14918    14918    14916    14916 
   14918    14919    14916    14916    14917    14917    14916    14917 
   14918    14918    14918    14917    14917    14917    14916    14915 
   14916    14916    14916    14917    14916    14915    14916    14917 
   14917    14916    14916    14916    14915    14916    14919    14918 
   14916    14917    14918    14918    14918    14917    14919    14921 
   14919    14917    14918    14918    14917    14917    14921    14920 
   14918    14918    14918    14920    14920    14916    14916    14919 
   14917    14916    14918    14918    14916    14916    14917    14917 
   14916    14916    14918    14917    14916    14918    14917    14915 
   14918    14920    14917    14916    14917    14916    14916    14918 
   14918    14918    14917    14916    14917    14918    14915    14912 
   14916    14919    14917    14917    14919    14919    14918    14917 
   14915    14917    14917    14916    14916    14916    14916    14916 
   14916    14917    14916    14915    14916    14916    14915    14914 
   14916    14919    14917    14914    14916    14918    14918    14917 
   14916    14918    14917    14916    14916    14917    14917    14916 
   14915    14917    14919    14916    14916    14918    14917    14916 
   14915    14915    14915    14915    14915    14917    14916    14913 
   14914    14918    14917    14914    14914    14916    14918    14917 
   14916    14915    14914    14915    14918    14919    14918    14917 
   14918    14917    14915    14917    14919    14917    14916    14917 
   14916    14915    14915    14916    14917    14917    14915    14916 
   14918    14916    14915    14917    14918    14916    14915    14917 
   14918    14918    14916    14917    14919    14921    14921    14921 
   14919    14917    14917    14918    14917    14918    14919    14917 
   14915    14917    14918    14915    14915    14916    14916    14917 
   14914    14912    14916    14918    14917    14917    14918    14919 
   14919    14917    14917    14919    14919    14916    14915    14915 
   14917    14916    14914    14913    14915    14917    14918    14917 
   14918    14919    14919    14916    14916    14917    14916    14914 
   14916    14914    14913    14918    14919    14915    14914    14916 
   14918    14917    14916    14917    14919    14919    14918    14917 
   14918    14917    14917    14917    14918    14918    14919    14920 
   14917    14914    14917    14918    14915    14917    14919    14917 
   14916    14919    14920    14919    14916    14914    14917    14919 
   14916    14916    14919    14919    14918    14917    14916    14916 
   14916    14913    14915    14920    14918    14916    14918    14919 
   14918    14919    14918    14917    14918    14918    14917    14918 
   14918    14917    14916    14914    14917    14919    14915    14916 
   14920    14918    14915    14915    14917    14920    14919    14914 
   14916    14917    14915    14915    14917    14917    14918    14918 
   14916    14916    14914    14914    14918    14919    14918    14917 
   14916    14915    14916    14917    14915    14916    14919    14917 
   14915    14917    14918    14917    14916    14914    14916    14918 
   14917    14916    14915    14915    14916    14917    14917    14915 
   14916    14919    14917    14915    14916    14918    14918    14916 
   14915    14916    14918    14917    14916    14918    14918    14918 
   14917    14916    14917    14918    14917    14918    14917    14915 
   14917    14918    14918    14919    14917    14914    14915    14918 
   14919    14917    14917    14917    14916    14916    14915    14916 
   14917    14916    14916    14918    14917    14916    14917    14917 
   14917    14918    14917    14915    14917    14917    14916    14918 
   14920    14919    14918    14918    14917    14916    14917    14915 
   14914    14918    14921    14925    14935    14928    14899    14880 
   14906    14978    15054    15071    14993    14840    14685    14623 
   14736    15005    15270    15373    15277    15007    14641    14318 
   14149    14260    14725    15291    15613    15568    15101    14493 
   14340    14643    14900    15212    15717    15631    15018    14850 
   14762    14492    14663    14858    14607    14470    14678    14806 
   14935    15390    15638    15328    14986    15094    15467    15351 
   14760    14574    14696    14412    14141    14550    15052    15127 
   15092    14761    14095    14125    14879    15202    15263    15648 
   15790    15454    14930    14316    13978    14170    14689    15376 
   16013    16174    15661    14713    13955    13837    14168    14721 
   15428    15911    15812    15262    14736    14515    14466    14523 
   14751    14934    14935    14915    14861    14803    14943    15109 
   15008    14677    14331    14279    14697    15167    15303    15362 
   15384    15097    14637    14389    14609    15052    15315    15326 
   15066    14813    14932    15220    15408    15391    15177    14907 
   14504    14129    14238    14763    15350    15600    15243    14669 
   14277    14087    14232    14732    15295    15618    15685    15569 
   15167    14607    14254    14291    14575    14908    15184    15176 
   14978    14854    14646    14514    14784    15088    15119    15090 
   15093    15021    14821    14693    14933    15263    15299    15255 
   15237    15111    14920    14800    14878    15039    15019    14837 
   14713    14698    14700    14720    14676    14565    14705    15063 
   15262    15151    14955    14974    14950    14567    14146    14099 
   14451    14909    15366    15606    15163    14592    14605    14821 
   14990    15203    15354    15573    15864    15679    15030    14676 
   14697    14809    15120    15368    15131    14602    14193    14107 
   14444    15117    15565    15292    14638    14157    14010    14338 
   14978    15330    15213    14902    14603    14516    14769    15110 
   15334    15458    15233    14747    14643    14953    15234    15290 
   15023    14639    14614    14918    15206    15434    15553    15370 
   14871    14459    14590    14856    14776    14855    15330    15596 
   15240    14541    14053    13997    14339    14824    15061    15068 
   14892    14491    14307    14617    15104    15444    15488    15147 
   14609    14403    14691    15148    15616    15800    15433    14973 
   14764    14635    14685    15074    15491    15447    14902    14434 
   14524    14883    14990    14906    14811    14574    14393    14620 
   15071    15429    15579    15302    14651    14209    14185    14303 
   14634    15199    15545    15531    15333    14971    14576    14270 
   14143    14442    15107    15719    15839    15415    15003    14847 
   14755    14818    15036    15177    15120    14903    14756    14788 
   14872    14914    14754    14404    14308    14561    14862    15177 
   15347    15264    15160    14895    14539    14649    15036    15148 
   15018    14839    14708    14612    14554    14841    15440    15723 
   15505    15077    14541    14195    14466    15024    15350    15487 
   15378    15005    14643    14319    14202    14474    14803    15070 
   15292    15314    15267    15143    14816    14601    14616    14654 
   14778    15048    15147    14920    14787    14939    15104    15275 
   15447    15346    14865    14365    14456    14965    15154    14967 
   14630    14370    14514    14847    15148    15414    15206    14651 
   14610    15059    15484    15711    15408    14570    13771    13512 
   14065    15083    15777    15833    15364    14708    14538    14959 
   15141    14739    14483    15084    16030    16068    15281    14611 
   14142    13933    14267    14990    15792    16007    15329    14713 
   14862    15775    17464    18934    18808    17295    15526    14483 
   14528    14540    13441    11781    10004     8477     8634    10562 
   12424    13053    12696    12732    14219    16429    18513    19934 
   19426    16895    14176    12668    12245    12584    13913    15893 
   17811    19413    19899    18706    17311    17071    17215    16837 
   16218    16296    17755    19703    20352    18850    15719    12601 
   10678     9630     9002     8604     8340     8624     9443    10071 
   10156     9947    10100    11095    12283    12692    12969    14976 
   19144    23469    25529    24734    22404    20061    18336    17585 
   18010    18779    18165    15253    11620     9945    10956    13579 
   16557    18515    18654    17850    17142    16066    14348    13082 
   12720    12204    10784     9305     8827     8997     9239     9443 
    9106     8262     8172    10054    13652    17452    20434    22028 
   21869    20700    19137    17022    14656    12891    12485    13703 
   16505    20467    24175    26195    26274    24829    22703    20785 
   18544    15313    12241     9980     7949     6633     6572     6940 
    6916     6398     5719     5462     6091     7608     9766    12593 
   15543    17173    17466    17990    19057    19840    20392    20835 
   20216    18460    17272    17607    18584    19370    20012    20427 
   20276    19742    19157    18311    16811    14788    12595    10117 
    7629     6416     7263     9332    11157    12377    13505    14212 
   13842    12889    12136    11715    11579    11661    12112    13422 
   15399    17112    18089    18504    18803    19102    18691    17675 
   17380    17782    18035    18351    18579    18172    17645    17385 
   16926    16072    14869    13658    13219    13294    12969    12457 
   12385    12769    13270    13372    12871    12219    11622    10878 
   10251     9930     9675     9861    11048    12828    14642    16534 
   18382    19727    20437    20809    20802    20107    19286    18826 
   18063    16751    15705    15470    15441    14849    14225    14315 
   14789    15102    15128    14867    14060    12716    11578    11229 
   11631    12229    12314    12128    12515    13377    13981    14333 
   14711    14714    14143    13613    13522    13820    14875    16670 
   17895    17922    17667    17860    18541    19145    18886    18049 
   17553    17304    16364    14732    13652    13630    13845    13633 
   13007    12319    12109    12429    12697    12880    13430    14117 
   14330    14014    13729    13774    13766    13647    13854    14308 
   14665    15007    15598    16456    17073    17195    17547    18047 
   17412    15829    14923    15118    15615    15987    16029    15561 
   14944    14519    14317    14310    14404    14621    14557    13665 
   12773    12940    13596    13922    14143    14480    14682    14536 
   14251    14313    14779    15386    15681    15233    14617    14467 
   14568    14973    15791    16603    16966    16666    15958    15326 
   14823    14307    14133    14641    15476    16225    16676    16724 
   16543    16151    15602    14957    14057    13519    13753    13757 
   13236    12962    12924    12768    12608    12770    13378    13900 
   14119    14827    15908    16202    15991    16277    16665    16454 
   15864    15547    15927    16651    16852    16177    15184    14820 
   15345    15851    15654    15239    14941    14433    13891    13824 
   13836    13396    13212    13627    13733    13499    13642    13977 
   14179    14479    14825    14759    14365    14432    15244    16062 
   16336    16526    16958    17022    16500    15984    15664    15424 
   15207    14861    14610    14686    14792    14777    14721    14537 
   14272    14054    13911    14023    14395    14645    14528    14204 
   14137    14466    14720    14796    15106    15522    15388    14735 
   14451    14798    15282    15805    16275    16340    16100    15826 
   15561    15323    15064    14684    14292    14174    14335    14512 
   14734    15098    15273    14898    14329    14251    14485    14298 
   13753    13616    14041    14392    14423    14338    14228    14445 
   15127    15691    15849    15870    15735    15306    14938    15143 
   15873    16463    16483    16124    15536    14962    14924    15421 
   16057    16463    16208    15356    14471    13879    13686    13855 
   13920    13516    13043    13016    13320    13671    13974    14044 
   13914    14028    14519    14995    15230    15460    15710    15705 
   15567    15392    15095    15072    15443    15735    15938    16238 
   16226    15731    15447    15667    15880    16041    16329    16195 
   15300    14390    14152    14239    14120    13872    13728    13758 
   13800    13581    13391    13734    14268    14382    14324    14483 
   14577    14607    15049    15678    15889    15715    15526    15411 
   15284    15129    14863    14607    14783    15329    15767    15901 
   15851    15801    15697    15572    15751    16025    15911    15482 
   15009    14725    14685    14607    14448    14330    14045    13546 
   13229    13252    13354    13505    13722    13652    13409    13593 
   14042    14343    14763    15402    15907    16107    16008    15799 
   15822    16171    16492    16454    16339    16478    16478    16054 
   15857    16354    16760    16294    15447    14930    14592    13998 
   13289    13022    13286    13574    13441    12946    12513    12292 
   12184    12451    13194    13985    14735    15517    15946    16079 
   16350    16464    16238    16197    16438    16616    16787    17178 
   17468    17102    16287    15541    14956    14607    14519    14585 
   14743    14785    14650    14414    13855    12985    12327    12269 
   12709    13286    13626    13550    13367    13435    13581    13711 
   14101    14789    15619    16416    16957    17333    17694    17788 
   17431    16836    16350    16168    16253    16472    16490    15924 
   14977    14320    14319    14617    14637    14461    14331    13938 
   13285    12919    12981    13206    13397    13362    13018    12679 
   12763    13281    14000    14732    15301    15584    15611    15525 
   15457    15560    15873    16095    16089    16176    16477    16715 
   16716    16580    16430    16233    15970    15798    15827    15832 
   15589    15235    14978    14895    14834    14412    13684    13142 
   12939    12867    12771    12766    12995    13192    13082    12959 
   13272    13902    14451    14869    15226    15507    15832    16186 
   16352    16419    16572    16562    16238    16059    16321    16617 
   16530    16211    16000    15879    15636    15366    15153    14793 
   14381    14179    14123    14146    14177    14000    13657    13364 
   13154    13142    13499    13996    14253    14152    13832    13674 
