Origin Time       2018/04/09 06:38:00
Lat.              35.2
Long.             132.6
Depth. (km)       10
Mag.              3.8
Station Code      SMNH16
Station Lat.      35.3422
Station Long.     132.8989
Station Height(m) -53.5
Record Time       2018/04/09 06:38:59
Sampling Freq(Hz) 100Hz
Duration Time(s)  120
Dir.              3
Scale Factor      2940(gal)/6170270
Max. Acc. (gal)   1.033
Last Correction   2018/04/09 06:38:44
Memo.             
[...]
   11050    11051    11048    11048    11049    11049    11048    11049 
   11050    11050    11050    11049    11049    11050    11049    11048 
   11048    11047    11048    11049    11048    11048    11048    11047 
   11048    11048    11047    11048    11049    11050    11050    11048 
   11046    11046    11048    11048    11047    11048    11047    11046 
   11047    11047    11045    11046    11048    11049    11048    11048 
   11048    11050    11050    11047    11048    11049    11046    11044 
   11047    11050    11050    11049    11049    11048    11047    11049 
   11048    11046    11047    11048    11047    11047    11048    11047 
   11045    11046    11048    11048    11047    11048    11048    11048 
   11049    11048    11046    11047    11048    11048    11046    11046 
   11047    11047    11049    11050    11048    11047    11048    11049 
   11048    11047    11047    11047    11047    11047    11047    11047 
   11046    11047    11046    11044    11045    11047    11047    11047 
   11047    11046    11047    11050    11049    11047    11047    11049 
   11047    11047    11047    11047    11048    11049    11048    11047 
   11047    11047    11047    11048    11049    11048    11048    11050 
   11050    11049    11049    11049    11047    11047    11049    11049 
   11048    11046    11047    11050    11048    11047    11050    11050 
   11049    11048    11046    11045    11047    11048    11048    11046 
   11047    11048    11048    11048    11047    11045    11045    11046 
   11049    11049    11048    11048    11047    11046    11048    11047 
   11046    11046    11046    11048    11049    11048    11048    11048 
   11046    11047    11048    11048    11047    11047    11047    11049 
   11048    11046    11048    11050    11048    11046    11047    11048 
   11048    11048    11048    11047    11046    11046    11048    11050 
   11049    11047    11047    11045    11047    11050    11049    11046 
   11046    11046    11046    11047    11046    11046    11047    11047 
   11046    11046    11047    11044    11044    11047    11046    11046 
   11048    11049    11048    11047    11046    11045    11046    11046 
   11045    11044    11046    11046    11046    11047    11047    11048 
   11046    11046    11047    11047    11046    11046    11045    11046 
   11046    11045    11044    11045    11045    11044    11042    11043 
   11046    11047    11045    11045    11046    11046    11046    11046 
   11044    11044    11046    11047    11047    11047    11046    11045 
   11046    11047    11046    11045    11046    11047    11047    11046 
   11047    11047    11047    11049    11048    11046    11046    11045 
   11045    11046    11045    11046    11046    11046    11045    11046 
   11047    11047    11046    11046    11046    11047    11047    11046 
   11045    11046    11049    11048    11047    11048    11048    11046 
   11045    11046    11047    11049    11046    11043    11044    11046 
   11046    11045    11044    11044    11046    11047    11047    11046 
   11045    11045    11046    11047    11046    11044    11043    11044 
   11045    11047    11047    11047    11047    11047    11048    11047 
   11046    11047    11048    11049    11049    11047    11048    11048 
   11046    11045    11046    11047    11047    11046    11046    11047 
   11048    11048    11047    11045    11045    11048    11048    11047 
   11047    11048    11048    11047    11048    11047    11048    11048 
   11045    11044    11045    11046    11050    11048    11046    11049 
   11047    11047    11049    11046    11044    11046    11047    11045 
   11046    11047    11047    11047    11046    11046    11047    11046 
   11045    11047    11048    11048    11048    11048    11044    11045 
   11048    11047    11045    11046    11046    11046    11047    11047 
   11046    11048    11049    11047    11047    11048    11049    11048 
   11046    11047    11047    11047    11047    11047    11046    11047 
   11047    11047    11046    11045    11044    11046    11048    11046 
   11046    11047    11048    11048    11047    11046    11048    11048 
   11047    11049    11050    11048    11049    11049    11047    11047 
   11047    11046    11047    11050    11047    11045    11047    11047 
   11045    11046    11049    11048    11047    11047    11047    11048 
   11048    11047    11047    11047    11046    11044    11044    11046 
   11047    11047    11050    11048    11045    11045    11047    11047 
   11047    11047    11046    11048    11049    11046    11046    11045 
   11045    11046    11047    11046    11046    11045    11046    11048 
   11047    11047    11047    11046    11045    11046    11046    11045 
   11046    11047    11046    11045    11045    11045    11046    11047 
   11045    11045    11047    11045    11044    11047    11046    11046 
   11048    11047    11045    11046    11046    11045    11046    11046 
   11046    11044    11044    11045    11046    11045    11044    11047 
   11047    11046    11045    11044    11044    11044    11043    11044 
   11046    11046    11045    11045    11045    11045    11046    11046 
   11044    11046    11049    11048    11046    11046    11047    11047 
   11047    11047    11046    11046    11046    11047    11048    11047 
   11047    11047    11046    11047    11049    11048    11048    11049 
   11045    11045    11047    11046    11046    11047    11048    11049 
   11048    11047    11049    11048    11047    11047    11048    11049 
   11048    11049    11049    11046    11047    11050    11050    11048 
   11048    11049    11049    11049    11049    11048    11048    11048 
   11046    11045    11045    11047    11047    11046    11046    11047 
   11046    11046    11046    11046    11046    11047    11046    11045 
   11047    11049    11048    11046    11047    11047    11046    11047 
   11046    11046    11047    11047    11048    11047    11046    11046 
   11047    11047    11046    11048    11049    11047    11046    11046 
   11045    11046    11048    11047    11047    11047    11046    11047 
   11049    11047    11045    11046    11046    11046    11046    11044 
   11045    11046    11047    11048    11047    11046    11045    11046 
   11046    11045    11046    11048    11047    11045    11045    11046 
   11048    11048    11046    11046    11047    11046    11045    11047 
   11049    11049    11047    11047    11047    11046    11046    11045 
   11045    11047    11048    11047    11049    11048    11047    11048 
   11049    11047    11048    11049    11048    11047    11047    11047 
   11047    11049    11048    11047    11048    11048    11047    11047 
   11047    11047    11046    11047    11050    11050    11048    11048 
   11049    11049    11048    11047    11047    11048    11049    11048 
   11047    11047    11047    11046    11046    11047    11047    11047 
   11046    11047    11048    11046    11045    11046    11048    11048 
   11047    11047    11049    11051    11050    11046    11045    11047 
   11048    11048    11047    11047    11047    11048    11046    11044 
   11046    11047    11047    11048    11046    11046    11049    11048 
   11046    11046    11047    11046    11046    11046    11048    11047 
   11046    11047    11048    11049    11049    11049    11048    11047 
   11047    11047    11047    11047    11047    11048    11047    11045 
   11046    11047    11047    11047    11047    11047    11048    11049 
   11047    11046    11048    11048    11047    11047    11049    11049 
   11047    11045    11046    11046    11047    11046    11046    11046 
   11046    11047    11047    11046    11046    11048    11048    11046 
   11044    11045    11047    11049    11048    11046    11047    11047 
   11046    11044    11047    11048    11045    11046    11047    11047 
   11047    11046    11045    11046    11046    11045    11045    11047 
   11048    11048    11048    11048    11048    11047    11048    11048 
   11046    11048    11049    11047    11046    11046    11047    11045 
   11044    11046    11047    11046    11047    11047    11047    11047 
   11047    11047    11047    11044    11045    11046    11045    11045 
   11047    11047    11046    11048    11048    11047    11048    11048 
   11048    11046    11047    11049    11047    11047    11048    11047 
   11048    11047    11045    11047    11049    11047    11047    11047 
   11047    11048    11049    11046    11046    11047    11045    11045 
   11047    11047    11045    11046    11047    11046    11046    11047 
   11046    11046    11046    11047    11047    11047    11047    11046 
   11046    11047    11049    11047    11045    11046    11046    11047 
   11046    11046    11047    11046    11045    11047    11048    11048 
   11047    11048    11049    11046    11046    11049    11048    11045 
   11046    11048    11047    11045    11047    11049    11048    11048 
   11049    11048    11046    11047    11048    11047    11048    11050 
   11049    11046    11045    11045    11046    11046    11046    11046 
   11048    11049    11047    11045    11047    11050    11049    11046 
   11049    11050    11047    11046    11046    11048    11050    11049 
   11048    11048    11047    11046    11047    11049    11048    11047 
   11047    11047    11049    11050    11052    11063    11070    11058 
   11036    11047    11106    11165    11177    11153    11114    11061 
   10997    10918    10867    10910    10961    10921    10928    11024 
   11003    10903    10970    11103    11199    11282    11133    11036 
   11244    11167    11006    11099    10854    10809    11290    11075 
   10619    11064    11319    10857    10840    11210    11169    11052 
   11090    10972    11016    11243    11055    10844    11093    11220 
   11125    11065    10912    11021    11332    11060    10731    11101 
   11238    10933    11013    11049    10996    11264    11080    10737 
   10994    11137    11049    11100    11053    11022    11078    11028 
   10975    11006    11083    11086    10998    10992    11001    10997 
   11102    11134    11016    11021    11168    11189    11095    11011 
   10938    11016    11177    11119    10932    10921    11040    11074 
   11061    11079    11041    10932    10960    11146    11132    10975 
   10975    11006    11053    11086    11044    11094    11069    11038 
   11196    11109    10889    11019    11150    10995    10893    11109 
   11344    11121    10834    11028    11251    11147    10922    10834 
   11030    11168    10999    10907    11022    11040    11023    11079 
   11116    11183    11073    10880    11081    11232    10992    10895 
   10995    11065    11125    11069    10984    11005    10986    11015 
   11122    11106    11082    11061    10985    11074    11199    11089 
   10973    11049    11104    11046    11014    10985    10988    11060 
   10984    10880    11039    11203    11124    11012    11027    11082 
   11133    11179    11073    10952    11040    11091    11005    10863 
   10829    11108    11220    10980    10964    11089    11084    11162 
   11142    10920    10958    11087    11005    11102    11201    10977 
   10894    11010    11069    11221    11307    11061    10824    10969 
   11205    11128    10965    10977    11021    11007    10986    10943 
   10918    11077    11195    10998    10912    11146    11297    11155 
   10951    11012    11152    11030    10914    11055    11111    10991 
   11025    11088    11076    11113    11051    11039    11142    11059 
   10944    11003    11131    11147    10942    10797    10973    11199 
   11164    11001    10947    11004    11099    11117    11052    11091 
   11165    11115    11068    11053    11023    10987    10950    11045 
   11099    10935    10959    11126    11036    10939    11053    11160 
   11148    11044    10903    10942    11238    11311    10981    10849 
   11034    11131    11115    11007    10945    11096    11120    10907 
   10879    11102    11139    10961    10953    11075    11141    11165 
   11092    10959    10967    11128    11170    11034    10944    10986 
   11096    11171    11108    10978    11047    11184    11013    10894 
   11120    11191    10980    10861    10943    11093    11120    11018 
   10997    11058    11146    11161    10994    11023    11196    11044 
   10997    11247    11186    10946    10941    10989    11023    11056 
   11026    11049    11004    10845    10928    11085    10981    10927 
   11025    11057    11151    11164    10919    11011    11357    11188 
   10947    11030    11035    11097    11116    10909    10989    11204 
   11076    10932    11061    11224    11230    11090    10780    10699 
   11148    11342    10982    10831    10966    11003    10992    11010 
   11004    11022    11100    10988    10816    11153    11452    11097 
   10885    11008    10991    11187    11432    11195    11022    11109 
   11002    10941    10991    10950    11076    11146    10994    10948 
   10858    10999    11439    11262    10804    10910    11223    11384 
   11212    10873    10943    11136    11143    11345    11531    11447 
   11270    10855    10630    10968    11077    10955    10911    10336 
    9776    10014    10354    10721    11312    11250    10649    10433 
   10660    11392    12245    12198    11605    11000    10407    10839 
   11907    12043    11943    12198    11702    10660    10215    10378 
   10728    11000    11067    11073    11123    11459    11968    11917 
   11443    11124    10826    10301     9409     8880     9652    10648 
   10840    10865    10881    11066    11842    12243    11804    11485 
   11431    11099    10684    10919    11519    11357    10818    10853 
   10972    10969    11506    11968    11437    10924    11202    11506 
   11555    11415    11080    11067    11159    10575     9884     9855 
   10128    10456    10639    10329    10190    10679    10918    10822 
   11144    11473    11423    11395    11520    11922    12257    11973 
   11589    11569    11510    11202    10972    10920    10948    11112 
   11141    10864    10711    10912    11051    10902    10873    10944 
   10756    10665    10895    11006    10942    10925    10883    10951 
   11180    11139    10861    10810    10995    11141    11098    11174 
   11432    11171    10682    10769    11036    11144    11119    10897 
   10752    10836    11123    11245    11048    11173    11362    11200 
   11371    11620    11315    10996    10962    10989    11049    10987 
   10764    10734    11001    11151    10949    10832    11147    11390 
   11238    11048    10964    11065    11151    10842    10768    11115 
   10941    10543    10741    10956    10930    11052    10963    10802 
   11111    11362    11250    11162    11140    11237    11293    10946 
   10800    11124    11185    11116    11183    10963    10794    11058 
   11171    11040    11039    10942    10800    10936    11049    10932 
   10891    10938    10935    11148    11378    11164    11032    11240 
   11133    10988    11330    11445    11224    11334    11441    11135 
   10802    10956    11385    11230    10649    10458    10672    10974 
   10955    10695    10813    10958    10915    11260    11416    11024 
   11067    11390    11267    11063    11008    11142    11461    11369 
   10901    10841    11153    11247    11135    11007    10786    10755 
   11016    11014    10813    10905    11007    10922    10925    10842 
   10684    10908    11163    10944    10745    10954    11231    11350 
   11259    11118    11259    11415    11253    11088    11112    11182 
   11321    11350    10987    10774    11015    11079    10904    10802 
   10824    11048    11155    10987    10874    10770    10798    11154 
   11243    10995    10964    11034    11045    10968    10747    10809 
   11224    11344    11073    10971    11176    11284    11177    11187 
   11235    11070    11174    11525    11263    10867    11238    11549 
   11187    10908    10984    11046    10983    10837    10761    10762 
   10718    10869    11039    10827    10782    11068    11092    10952 
   10886    10949    11090    10952    10861    11081    10964    10741 
   11054    11254    10989    10979    11210    11218    11238    11311 
   11155    10935    11021    11386    11456    11139    11040    11096 
   10943    10924    11196    11270    11028    10957    11103    11064 
   10925    10949    10943    10808    10865    11083    11036    10915 
   11005    11035    11125    11231    11060    11157    11374    11087 
   10915    11081    11153    11247    11170    10870    10879    11077 
   11121    11030    10930    11072    11149    10922    10993    11244 
   11091    10851    10869    11088    11255    11121    10937    10941 
   11043    11081    10918    10907    11146    11097    10954    11001 
   10883    10792    10903    10882    10939    11136    11079    10997 
   11149    11285    11214    10974    10956    11257    11291    11087 
   11150    11235    11098    11018    11064    11148    11207    11191 
   11159    11026    10911    11024    11045    10981    11070    10974 
   10817    11049    11144    10818    10791    11024    11026    11029 
   11001    10876    11058    11238    11014    10824    10927    11191 
   11354    11122    10901    11054    11118    11078    11171    11132 
   11081    11133    11124    11127    11046    10964    11073    11059 
   10907    10901    10937    11012    11106    10960    10871    11160 
   11283    10954    10747    10963    11151    11040    10962    11035 
   11061    11061    11093    11106    11119    11196    11208    11063 
   11037    11190    11220    11059    10924    10998    11100    10947 
   10807    10958    11098    11047    11021    11035    10976    10960 
   10984    10932    10995    11116    11057    11038    11091    11121 
   11243    11190    10935    10929    11093    11183    11164    11010 
   10992    11118    11039    10956    11084    11158    11179    11220 
   11124    11077    11169    11093    11024    11190    11209    10964 
   10870    11081    11232    11053    10819    10836    10990    11040 
   10909    10815    10926    10989    10954    11029    11036    10961 
   11077    11145    10969    10906    11081    11164    11073    11046 
   11016    10945    11054    11163    11112    11110    11089    10989 
   10996    11047    11005    10935    11071    11307    11149    10909 
   11092    11138    10991    11128    11133    10991    11131    11184 
   11036    11006    10985    10958    11039    11038    10962    11059 
   11141    10986    10917    11031    11057    11038    11043    11015 
   11012    11035    11096    11136    10980    10886    11113    11210 
   10966    10897    11163    11269    11043    10938    11107    11164 
   11032    10940    10988    11138    11123    10970    11018    11091 
   11070    11149    11088    10885    10993    11258    11234    11022 
   10961    11062    11108    11099    11104    11023    10957    11025 
   11083    11014    10888    10930    11071    11042    11011    11092 
   11130    11111    11024    11020    11170    11163    11013    10942 
   10937    10997    11041    11006    10953    10904    10961    11116 
   11153    11065    11010    11033    11114    11148    11071    11043 
   11096    11092    11041    11027    11103    11164    11063    10959 
