Origin Time       2018/04/09 06:38:00
Lat.              35.2
Long.             132.6
Depth. (km)       10
Mag.              3.8
Station Code      HRS005
Station Lat.      34.7770
Station Long.     133.2807
Station Height(m) 480
Record Time       2018/04/09 06:39:12
Sampling Freq(Hz) 100Hz
Duration Time(s)  60
Dir.              N-S
Scale Factor      7845(gal)/8223790
Max. Acc. (gal)   2.503
Last Correction   2018/04/09 06:39:12
Memo.             
[...]
   -7045    -7047    -7044    -7042    -7049    -7048    -7042    -7047 
   -7045    -7042    -7045    -7048    -7047    -7047    -7045    -7045 
   -7045    -7042    -7044    -7047    -7045    -7047    -7049    -7047 
   -7045    -7047    -7045    -7042    -7045    -7048    -7045    -7042 
   -7044    -7044    -7045    -7045    -7042    -7045    -7047    -7044 
   -7045    -7048    -7045    -7042    -7044    -7044    -7044    -7044 
   -7044    -7045    -7042    -7042    -7045    -7044    -7042    -7045 
   -7047    -7045    -7045    -7044    -7045    -7047    -7047    -7045 
   -7045    -7045    -7045    -7044    -7044    -7045    -7047    -7045 
   -7044    -7044    -7044    -7045    -7045    -7042    -7044    -7047 
   -7045    -7044    -7047    -7048    -7044    -7042    -7044    -7044 
   -7044    -7045    -7044    -7040    -7042    -7045    -7042    -7041 
   -7045    -7047    -7045    -7045    -7045    -7044    -7042    -7045 
   -7044    -7041    -7044    -7045    -7044    -7045    -7045    -7041 
   -7044    -7047    -7045    -7044    -7045    -7042    -7042    -7049 
   -7049    -7045    -7045    -7045    -7044    -7044    -7044    -7044 
   -7044    -7045    -7048    -7047    -7044    -7042    -7044    -7044 
   -7047    -7045    -7042    -7044    -7044    -7044    -7044    -7042 
   -7042    -7045    -7045    -7045    -7045    -7044    -7042    -7044 
   -7045    -7044    -7041    -7041    -7042    -7044    -7045    -7045 
   -7044    -7045    -7045    -7045    -7047    -7047    -7048    -7045 
   -7042    -7045    -7047    -7045    -7045    -7045    -7044    -7045 
   -7047    -7044    -7044    -7044    -7045    -7047    -7047    -7047 
   -7045    -7042    -7042    -7045    -7045    -7042    -7045    -7047 
   -7044    -7045    -7048    -7044    -7045    -7047    -7044    -7041 
   -7044    -7047    -7045    -7045    -7047    -7045    -7045    -7045 
   -7047    -7049    -7047    -7042    -7045    -7047    -7044    -7044 
   -7047    -7047    -7045    -7047    -7045    -7042    -7044    -7045 
   -7044    -7042    -7045    -7045    -7042    -7044    -7047    -7047 
   -7044    -7044    -7047    -7045    -7044    -7045    -7044    -7044 
   -7045    -7044    -7044    -7045    -7047    -7047    -7047    -7045 
   -7045    -7047    -7045    -7044    -7047    -7048    -7047    -7045 
   -7045    -7047    -7045    -7044    -7042    -7044    -7044    -7044 
   -7047    -7047    -7045    -7045    -7045    -7045    -7048    -7045 
   -7042    -7044    -7045    -7044    -7044    -7045    -7047    -7047 
   -7045    -7045    -7045    -7047    -7048    -7045    -7042    -7044 
   -7045    -7045    -7048    -7047    -7045    -7047    -7047    -7045 
   -7045    -7045    -7047    -7044    -7042    -7042    -7044    -7047 
   -7045    -7044    -7044    -7045    -7045    -7045    -7047    -7047 
   -7047    -7045    -7044    -7048    -7048    -7044    -7045    -7047 
   -7045    -7045    -7047    -7044    -7044    -7045    -7044    -7045 
   -7051    -7049    -7044    -7045    -7048    -7045    -7044    -7045 
   -7042    -7040    -7044    -7047    -7044    -7044    -7045    -7045 
   -7042    -7044    -7047    -7044    -7042    -7045    -7044    -7044 
   -7047    -7045    -7044    -7045    -7047    -7047    -7042    -7042 
   -7047    -7045    -7044    -7047    -7047    -7044    -7049    -7049 
   -7044    -7045    -7047    -7045    -7045    -7047    -7042    -7042 
   -7047    -7047    -7045    -7047    -7045    -7042    -7044    -7044 
   -7042    -7047    -7049    -7042    -7044    -7044    -7041    -7047 
   -7049    -7042    -7044    -7048    -7044    -7044    -7047    -7042 
   -7042    -7045    -7042    -7045    -7047    -7042    -7044    -7047 
   -7041    -7042    -7045    -7041    -7042    -7047    -7044    -7042 
   -7044    -7045    -7042    -7041    -7045    -7045    -7044    -7045 
   -7044    -7045    -7045    -7042    -7044    -7045    -7041    -7045 
   -7049    -7044    -7042    -7044    -7042    -7048    -7047    -7038 
   -7042    -7047    -7042    -7047    -7049    -7044    -7042    -7045 
   -7045    -7047    -7045    -7044    -7045    -7047    -7042    -7042 
   -7041    -7042    -7044    -7042    -7041    -7044    -7045    -7045 
   -7045    -7045    -7044    -7040    -7042    -7045    -7042    -7045 
   -7048    -7047    -7047    -7047    -7044    -7040    -7038    -7042 
   -7038    -7025    -7018    -7010    -6993    -6984    -6976    -6967 
   -6968    -6975    -7001    -7064    -7142    -7200    -7258    -7354 
   -7357    -7110    -6858    -6990    -7272    -7165    -6940    -7179 
   -7389    -6786    -6048    -6259    -6956    -7215    -7327    -7604 
   -7345    -6508    -6423    -7209    -7310    -6914    -7577    -8444 
   -7584    -5800    -5564    -6987    -7774    -7410    -7280    -7236 
   -6663    -6315    -6542    -6787    -7187    -8203    -8733    -7539 
   -6014    -5892    -6307    -6361    -7080    -8262    -8078    -6825 
   -6407    -6708    -6480    -6332    -7312    -8297    -8035    -7285 
   -6872    -6588    -6384    -6686    -7466    -7844    -7352    -6561 
   -6250    -6592    -6936    -6898    -6881    -7045    -7244    -7507 
   -7780    -7663    -6976    -6399    -6616    -7272    -7654    -7560 
   -7055    -6470    -6346    -6732    -7171    -7188    -6777    -6612 
   -6990    -7275    -7117    -7018    -7373    -7612    -7196    -6777 
   -6871    -7180    -7399    -7210    -6758    -6659    -6918    -7196 
   -7337    -7260    -7028    -6840    -6866    -6868    -6705    -6943 
   -7560    -7618    -7082    -6758    -6735    -6748    -6917    -7194 
   -7175    -6921    -7049    -7344    -7053    -6631    -6767    -7086 
   -7240    -7349    -7331    -7087    -6951    -7064    -6952    -6748 
   -7102    -7474    -7163    -6848    -7119    -7366    -6959    -6419 
   -6640    -7215    -7256    -7052    -7203    -7435    -7207    -6750 
   -6720    -6947    -6941    -6952    -7072    -7011    -6939    -7056 
   -7182    -7107    -7032    -7169    -7196    -7130    -7331    -7425 
   -7045    -6639    -6663    -6878    -6918    -7052    -7380    -7322 
   -6860    -6732    -7084    -7207    -6889    -6937    -7461    -7416 
   -6735    -6569    -7087    -7179    -6714    -6764    -7258    -7256 
   -6971    -7114    -7406    -7256    -6918    -6975    -7236    -7169 
   -6901    -6868    -6974    -6897    -6886    -7180    -7246    -6872 
   -6760    -7132    -7285    -7009    -6956    -7253    -7318    -7061 
   -6809    -6774    -7013    -7207    -7042    -6802    -6913    -7148 
   -7080    -6929    -7026    -7190    -7173    -7076    -7130    -7260 
   -7284    -7236    -7094    -6906    -6851    -6860    -6806    -6798 
   -6955    -7084    -7009    -6979    -7101    -7159    -7217    -7272 
   -7160    -7078    -7148    -7096    -6832    -6700    -6934    -7086 
   -6866    -6843    -7226    -7433    -7225    -7013    -7082    -7067 
   -6836    -6951    -7276    -7152    -6809    -6799    -7052    -7184 
   -7084    -6988    -6967    -7010    -7150    -7159    -6997    -6922 
   -6975    -7080    -7214    -7298    -7240    -7138    -7103    -6926 
   -6673    -6824    -7217    -7273    -7061    -6948    -6956    -6952 
   -6914    -6929    -6987    -6934    -6894    -7080    -7229    -7165 
   -7188    -7302    -7209    -6990    -7020    -7236    -7191    -6872 
   -6682    -6768    -6963    -7083    -7056    -7005    -7117    -7254 
   -7132    -6858    -6831    -7064    -7182    -7180    -7321    -7476 
   -7291    -6754    -6435    -6656    -6897    -6841    -6886    -7279 
   -7623    -7439    -6998    -6840    -6999    -7196    -7146    -6943 
   -6909    -7007    -7071    -6974    -6764    -6893    -7269    -7317 
   -7136    -7096    -7156    -7094    -6905    -6891    -7034    -7036 
   -6933    -6895    -6949    -6982    -6976    -7125    -7275    -7119 
   -6940    -7029    -7223    -7368    -7283    -6952    -6824    -7010 
   -7099    -6922    -6756    -6901    -7109    -6985    -6906    -7200 
   -7415    -7248    -6964    -6944    -7160    -7160    -6864    -6706 
   -6919    -7190    -7152    -6995    -7055    -7157    -7007    -6840 
   -6980    -7172    -7172    -7096    -7044    -7025    -6934    -6852 
   -7032    -7244    -7188    -7056    -7060    -7119    -7072    -6926 
   -6910    -7119    -7296    -7233    -7076    -6984    -6902    -6798 
   -6729    -6794    -7053    -7267    -7219    -7083    -7026    -7044 
   -7092    -7109    -7157    -7213    -7118    -7009    -7042    -7049 
   -6940    -6897    -7022    -7123    -7045    -6866    -6751    -6870 
   -7110    -7177    -7138    -7190    -7295    -7344    -7190    -6867 
   -6787    -6988    -7018    -6940    -7020    -7056    -6897    -6770 
   -6998    -7334    -7295    -7125    -7171    -7211    -7045    -6872 
   -6905    -6994    -7003    -7009    -6943    -6894    -7038    -7194 
   -7202    -7075    -6998    -7140    -7195    -6997    -6864    -6982 
   -7179    -7102    -6828    -6891    -7200    -7190    -6922    -6858 
   -7075    -7233    -7140    -7033    -7071    -7105    -7001    -6876 
   -6945    -7075    -7017    -6909    -6995    -7129    -7052    -6999 
   -7214    -7348    -7211    -7079    -7063    -7060    -6983    -6876 
   -6921    -7105    -7122    -6932    -6825    -6847    -6822    -6859 
   -7117    -7360    -7408    -7354    -7160    -6914    -6880    -6947 
   -6895    -6966    -7250    -7290    -6949    -6754    -6937    -7149 
   -7088    -6967    -7113    -7264    -7084    -6856    -6889    -7098 
   -7190    -7042    -6993    -7142    -7132    -6982    -6990    -7123 
   -7168    -7075    -7006    -6978    -6839    -6763    -6941    -7127 
   -7141    -7121    -7169    -7188    -7049    -6851    -6894    -7227 
   -7371    -7053    -6841    -7078    -7188    -6879    -6777    -7179 
   -7329    -6913    -6786    -7213    -7312    -6863    -6664    -7059 
   -7381    -7071    -6686    -6924    -7375    -7362    -7003    -6853 
   -7080    -7260    -7041    -6751    -6831    -7087    -7145    -7047 
   -7001    -7036    -7053    -7021    -7060    -7238    -7354    -7254 
   -7075    -6943    -6851    -6814    -6852    -6932    -6968    -6940 
   -7052    -7317    -7356    -7110    -6937    -6952    -6993    -7003 
   -7022    -7109    -7182    -7059    -6875    -6937    -7231    -7317 
   -6987    -6862    -7172    -7169    -6772    -6760    -7192    -7283 
   -6894    -6806    -7127    -7157    -6862    -6870    -7263    -7381 
   -7099    -6990    -7098    -7010    -6810    -6901    -7236    -7368 
   -7169    -6951    -6929    -6912    -6804    -6919    -7165    -7084 
   -6886    -7040    -7273    -7138    -6912    -7040    -7284    -7240 
   -7056    -6997    -6961    -6868    -6826    -6975    -7277    -7319 
   -6985    -6818    -6959    -7030    -7015    -7040    -7060    -7121 
   -7194    -7155    -7106    -7084    -6886    -6750    -6990    -7210 
   -7094    -6955    -7038    -7156    -7102    -7042    -7110    -7146 
   -7052    -6875    -6863    -7114    -7248    -7130    -7052    -7028 
   -6933    -6909    -7009    -7018    -6936    -6948    -7022    -7101 
   -7225    -7264    -7125    -7002    -6970    -6960    -7025    -7102 
   -7102    -7096    -7089    -7065    -6964    -6815    -6914    -7144 
   -7048    -6845    -7026    -7323    -7217    -6925    -6963    -7209 
   -7298    -7234    -7069    -6866    -6786    -6859    -6999    -7018 
   -6875    -6922    -7210    -7302    -7122    -7010    -7059    -7065 
   -7091    -7171    -7003    -6793    -6957    -7233    -7164    -6890 
   -7020    -7431    -7283    -6721    -6609    -6970    -7184    -7102 
   -7111    -7180    -7044    -6943    -6994    -7030    -7056    -7022 
   -6988    -7029    -7017    -7038    -7149    -7188    -7132    -7026 
   -6972    -6988    -6932    -6840    -6856    -7065    -7361    -7406 
   -7195    -7067    -7094    -7025    -6781    -6736    -7026    -7230 
   -7132    -6971    -6964    -7051    -7033    -6960    -7034    -7149 
   -7106    -7040    -7110    -7176    -7106    -6984    -6947    -6990 
   -6998    -6943    -6961    -7123    -7200    -7082    -7030    -7101 
   -7056    -6886    -6809    -6934    -7202    -7398    -7211    -6886 
   -6930    -7075    -6939    -6839    -7082    -7408    -7307    -6852 
   -6777    -7188    -7260    -6853    -6853    -7271    -7182    -6812 
   -6916    -7092    -6952    -6883    -7113    -7322    -7138    -6914 
   -7028    -7061    -6899    -6943    -7159    -7213    -7096    -7063 
   -7061    -6937    -6956    -7165    -7219    -7087    -6916    -6829 
   -6906    -6980    -6976    -6975    -7060    -7249    -7327    -7264 
   -7150    -6940    -6820    -6885    -7002    -7129    -7159    -7092 
   -7069    -7074    -7020    -6894    -6924    -7148    -7117    -6856 
   -6886    -7175    -7148    -6766    -6781    -7310    -7522    -7253 
   -7075    -7114    -6987    -6733    -6903    -7245    -7082    -6782 
   -6813    -6957    -7083    -7157    -7250    -7357    -7191    -6907 
   -6862    -6980    -7044    -6949    -6863    -6951    -7126    -7360 
   -7431    -7088    -6801    -6930    -7094    -7175    -7331    -7368 
   -7105    -6790    -6899    -7296    -7263    -6848    -6694    -6604 
   -6252    -6210    -6771    -7236    -6899    -6255    -6534    -7651 
   -8309    -8050    -7562    -7537    -7713    -7577    -7466    -7441 
   -6767    -5683    -5664    -7006    -7809    -6974    -5976    -6106 
   -6774    -7033    -6814    -6574    -6648    -7190    -8004    -8761 
   -9232    -8883    -7717    -6871    -6940    -6843    -5559    -4421 
   -5007    -6165    -6612    -6921    -7430    -7793    -7776    -7381 
   -7330    -8271    -9077    -8212    -6640    -6107    -6118    -5977 
   -6384    -7349    -7676    -7017    -6574    -6822    -6889    -6685 
   -6748    -7022    -7211    -7302    -7646    -8111    -7971    -7353 
   -6886    -6304    -5629    -5771    -6538    -6872    -7011    -7652 
   -8228    -8168    -8001    -7770    -6919    -5962    -5830    -6367 
   -6817    -7034    -7497    -7998    -7821    -7167    -6629    -6300 
   -6168    -6389    -7020    -7500    -7437    -7285    -7191    -7102 
   -7279    -7311    -6881    -6683    -6945    -7142    -7236    -7369 
   -7179    -6844    -7048    -7385    -7134    -6782    -6902    -7084 
   -7026    -7045    -7099    -6844    -6430    -6393    -6872    -7129 
   -6782    -6700    -7244    -7651    -7674    -7840    -8124    -7674 
   -6604    -6400    -7064    -6909    -5983    -5925    -6743    -7115 
   -6990    -7122    -7384    -7395    -7389    -7628    -7825    -7641 
   -7101    -6582    -6523    -6756    -6805    -6716    -6694    -6694 
   -7029    -7796    -7885    -6912    -6211    -6511    -7079    -7096 
   -6855    -7130    -7614    -7616    -7406    -7387    -7144    -6615 
   -6662    -7169    -7113    -6767    -6832    -6918    -6818    -6894 
   -7051    -7068    -7088    -7176    -7165    -6961    -6918    -7191 
   -7257    -7086    -7145    -7429    -7473    -6924    -6457    -6858 
   -7280    -6932    -6581    -6747    -6961    -7034    -7182    -7362 
   -7446    -7337    -6997    -6883    -7179    -7114    -6671    -6913 
   -7522    -7292    -6779    -7022    -7369    -7096    -6748    -6785 
   -6906    -6714    -6427    -6724    -7344    -7285    -6934    -7358 
   -7943    -7601    -7006    -7037    -7240    -7032    -6652    -6612 
   -6804    -6721    -6355    -6397    -7190    -7712    -7236    -6878 
   -7371    -7688    -7342    -7230    -7541    -7348    -6697    -6664 
   -7118    -7030    -6512    -6457    -6881    -7038    -6798    -6682 
   -6910    -7378    -7654    -7460    -7403    -7623    -7323    -6671 
   -6581    -6874    -6782    -6505    -6664    -7126    -7384    -7302 
   -7214    -7295    -7273    -7078    -7045    -7327    -7449    -6918 
   -6234    -6308    -6999    -7275    -6959    -6951    -7349    -7307 
   -6870    -6782    -7056    -7229    -7091    -6868    -7020    -7461 
   -7449    -6916    -6766    -7102    -7111    -6872    -6925    -7041 
   -7032    -7159    -7307    -7191    -7032    -7065    -7067    -6902 
   -6771    -6787    -6829    -6930    -7236    -7345    -6940    -6735 
   -7182    -7491    -7186    -6937    -7023    -6905    -6782    -7146 
   -7439    -7211    -6903    -6851    -6959    -7042    -7029    -6968 
   -6933    -6974    -7006    -7001    -7127    -7399    -7489    -7129 
   -6794    -7067    -7345    -7029    -6743    -6909    -7040    -6874 
   -6841    -7141    -7175    -6777    -6781    -7377    -7654    -7168 
   -6624    -6720    -7094    -7005    -6717    -7013    -7528    -7288 
   -6763    -7056    -7600    -7292    -6650    -6685    -7138    -7107 
   -6666    -6711    -7311    -7514    -6978    -6656    -7149    -7523 
   -7159    -6867    -7119    -7218    -6832    -6625    -6913    -7191 
   -7115    -6932    -6972    -7223    -7460    -7391    -6945    -6602 
   -6689    -6970    -7129    -7049    -6987    -7121    -7191    -7163 
   -7184    -7203    -7132    -6997    -6951    -6917    -6781    -6848 
   -7110    -7121    -6928    -6937    -7214    -7391    -7260    -7056 
   -6932    -6847    -6825    -6855    -6937    -7045    -7094    -7141 
   -7217    -7381    -7565    -7279    -6689    -6601    -6916    -7003 
   -6870    -6879    -7076    -7157    -6990    -6810    -6872    -7126 
   -7319    -7340    -7223    -7032    -6994    -7213    -7411    -7350 
   -7102    -6839    -6675    -6664    -6771    -6859    -6817    -6704 
   -6847    -7340    -7720    -7638    -7302    -7065    -6917    -6809 
   -6964    -7061    -6731    -6625    -7048    -7340    -7283    -7152 
   -7156    -7249    -7123    -6835    -6755    -6777    -6724    -6837 
   -7137    -7337    -7414    -7415    -7245    -7018    -6960    -6951 
   -6764    -6704    -7087    -7381    -7088    -6724    -6795    -6964 
   -7051    -7256    -7271    -7002    -7084    -7393    -7180    -6817 
   -7007    -7227    -7033    -6902    -6934    -6844    -6782    -6912 
   -7071    -7152    -7123    -7005    -6987    -7098    -7101    -7036 
   -7103    -7149    -7055    -7132    -7435    -7454    -7138    -6995 
   -6984    -6785    -6643    -6786    -6980    -7041    -7041    -7028 
   -6963    -6974    -7109    -7122    -7060    -7175    -7357    -7391 
   -7184    -6862    -6758    -6839    -6848    -6828    -6876    -7036 
   -7264    -7430    -7500    -7410    -7123    -6810    -6640    -6750 
   -6870    -6528    -6354    -7076    -7730    -7420    -7005    -7376 
   -7893    -7515    -6625    -6378    -6731    -6918    -6939    -7059 
   -7172    -7142    -7069    -7256    -7458    -7056    -6527    -6633 
   -6907    -6872    -6975    -7380    -7497    -7195    -7118    -7306 
   -7150    -6799    -6768    -6960    -7059    -6997    -7013    -7242 
   -7210    -6763    -6605    -6885    -6976    -6912    -7126    -7357 
   -7225    -6957    -6947    -7280    -7543    -7295    -6876    -6956 
   -7369    -7273    -6739    -6577    -6763    -6964    -7111    -7044 
   -6948    -7025    -7082    -7089    -7125    -7127    -7045    -6948 
   -6963    -7089    -7211    -7169    -7044    -7132    -7260    -7078 
   -6875    -6956    -6937    -6660    -6677    -7005    -7015    -6872 
   -7145    -7553    -7581    -7387    -7248    -7059    -6855    -6858 
   -6937    -6881    -6825    -6961    -7126    -7061    -6944    -7091 
