Origin Time       2018/04/09 06:38:00
Lat.              35.2
Long.             132.6
Depth. (km)       10
Mag.              3.8
Station Code      HRS005
Station Lat.      34.7770
Station Long.     133.2807
Station Height(m) 480
Record Time       2018/04/09 06:39:12
Sampling Freq(Hz) 100Hz
Duration Time(s)  60
Dir.              E-W
Scale Factor      7845(gal)/8223790
Max. Acc. (gal)   1.666
Last Correction   2018/04/09 06:39:12
Memo.             
[...]
    -885     -884     -885     -882     -885     -889     -885     -884 
    -885     -882     -886     -888     -880     -884     -890     -886 
    -881     -882     -881     -881     -886     -884     -882     -886 
    -888     -885     -882     -884     -885     -886     -886     -886 
    -886     -885     -885     -884     -882     -885     -886     -885 
    -885     -884     -882     -882     -882     -884     -885     -885 
    -886     -888     -885     -882     -885     -886     -882     -884 
    -885     -884     -884     -882     -885     -886     -884     -882 
    -884     -884     -885     -889     -888     -884     -881     -884 
    -886     -881     -881     -888     -886     -882     -882     -886 
    -885     -884     -885     -886     -885     -884     -884     -882 
    -885     -886     -885     -882     -885     -886     -885     -884 
    -886     -885     -884     -884     -885     -885     -882     -882 
    -884     -884     -884     -884     -882     -882     -884     -884 
    -884     -885     -885     -884     -885     -886     -885     -885 
    -885     -885     -886     -888     -885     -881     -884     -884 
    -884     -884     -884     -884     -882     -884     -885     -885 
    -885     -884     -884     -885     -882     -882     -886     -886 
    -884     -884     -882     -882     -886     -888     -884     -884 
    -884     -882     -882     -885     -886     -884     -881     -882 
    -884     -884     -884     -885     -886     -885     -882     -882 
    -885     -886     -885     -884     -884     -882     -884     -888 
    -888     -888     -888     -888     -886     -886     -886     -886 
    -884     -881     -885     -888     -884     -884     -888     -885 
    -882     -885     -886     -885     -882     -881     -885     -888 
    -886     -885     -884     -884     -885     -884     -882     -885 
    -885     -881     -881     -885     -885     -885     -884     -880 
    -880     -884     -886     -886     -884     -882     -885     -888 
    -886     -881     -882     -888     -885     -882     -885     -884 
    -881     -882     -885     -885     -886     -888     -888     -885 
    -880     -882     -885     -882     -882     -885     -886     -888 
    -886     -882     -886     -889     -884     -882     -886     -885 
    -884     -886     -885     -880     -881     -888     -888     -884 
    -884     -885     -881     -882     -885     -885     -885     -885 
    -885     -885     -885     -884     -884     -884     -884     -884 
    -885     -885     -885     -884     -884     -884     -885     -886 
    -886     -886     -885     -884     -884     -884     -885     -884 
    -881     -882     -885     -885     -882     -885     -888     -885 
    -884     -885     -884     -885     -886     -885     -882     -886 
    -888     -884     -881     -884     -885     -884     -881     -882 
    -885     -886     -886     -886     -885     -885     -885     -882 
    -884     -885     -882     -884     -885     -882     -882     -885 
    -884     -884     -886     -885     -884     -886     -886     -884 
    -884     -885     -888     -885     -880     -882     -888     -885 
    -881     -885     -886     -884     -881     -884     -886     -884 
    -884     -888     -885     -882     -886     -885     -880     -884 
    -889     -886     -882     -881     -885     -885     -882     -885 
    -885     -881     -882     -885     -884     -885     -885     -884 
    -886     -888     -882     -885     -889     -884     -882     -886 
    -885     -885     -886     -886     -888     -885     -881     -884 
    -886     -885     -886     -885     -882     -882     -886     -886 
    -884     -886     -886     -884     -884     -885     -884     -884 
    -885     -885     -882     -885     -888     -884     -884     -886 
    -881     -884     -889     -886     -884     -884     -885     -885 
    -885     -885     -884     -882     -886     -885     -882     -886 
    -886     -884     -885     -884     -885     -889     -888     -892 
    -900     -908     -919     -935     -954     -978     -990     -985 
    -965     -949     -951     -922     -792     -575     -421     -480 
    -646     -684     -664     -853    -1112    -1015     -710     -796 
   -1266    -1632    -1721    -1460     -743      -74     -297    -1098 
   -1293     -924     -899     -986     -552       22      137     -321 
   -1278    -2285    -2385    -1329     -303     -238     -626     -929 
   -1209    -1202     -708     -292     -383     -565     -530     -642 
   -1124    -1642    -1723    -1264     -638     -370     -638    -1088 
   -1327    -1215     -832     -495     -430     -673    -1074    -1167 
    -765     -375     -440     -858    -1336    -1428     -846     -364 
    -818    -1466    -1478    -1301    -1100     -575     -259     -553 
    -864     -805     -760    -1012    -1144     -812     -515     -633 
    -826     -807     -737     -920    -1356    -1763    -1800    -1181 
    -355     -270     -815     -990     -599     -338     -464     -596 
    -592     -564     -669    -1209    -1878    -1858    -1285     -974 
    -928     -749     -625     -695     -522     -156     -383    -1069 
   -1192     -884     -920    -1012     -750     -711    -1221    -1525 
   -1251     -990     -929     -892     -942     -893     -587     -338 
    -518    -1047    -1323    -1048     -743     -710     -661     -637 
    -847    -1100    -1124     -934     -761     -824     -994     -946 
    -737     -778    -1065    -1185     -996     -641     -441     -604 
    -812     -864    -1065    -1336    -1301    -1094    -1017    -1036 
    -929     -653     -479     -608     -828     -818     -650     -622 
    -738     -834     -943    -1135    -1254    -1252    -1246    -1183 
    -996     -773     -579     -434     -433     -630     -869     -977 
    -985     -984     -980     -896     -774     -874    -1113    -1112 
   -1028    -1107    -1039     -774     -630     -575     -503     -643 
   -1032    -1270    -1125     -822     -783    -1051    -1163     -953 
    -699     -550     -585     -901    -1175    -1039     -807     -858 
    -961     -870     -828     -992    -1080     -892     -623     -627 
    -970    -1156     -876     -646     -826     -993     -942     -920 
    -885     -718     -683     -874     -976     -862     -835    -1008 
   -1053     -931    -1015    -1152     -919     -689     -851     -877 
    -576     -602     -953    -1004     -888    -1007    -1090     -919 
    -735     -722     -847     -993    -1080    -1026     -787     -643 
    -850    -1075     -958     -692     -672     -841     -846     -846 
   -1097    -1202     -934     -708     -801    -1023    -1069     -955 
    -846     -710     -648     -781     -869     -853     -911     -927 
    -858     -846     -846     -858     -881     -769     -730    -1007 
   -1250    -1129     -912     -897     -984    -1051    -1004     -689 
    -418     -550     -792     -903     -940     -888     -915    -1067 
   -1039     -907    -1039    -1300    -1170     -665     -444     -683 
    -807     -700     -812    -1077    -1075     -818     -633     -702 
    -932    -1067    -1020    -1003    -1053    -1021     -977     -859 
    -643     -677     -888     -801     -591     -731    -1034    -1074 
    -970     -996    -1080    -1053     -868     -673     -722     -828 
    -789     -962    -1197     -976     -751     -965    -1080     -822 
    -634     -662     -696     -778     -976    -1026     -843     -810 
   -1015    -1043     -841     -816    -1020    -1075     -868     -733 
    -897    -1067     -890     -633     -688     -916    -1043    -1031 
    -897     -727     -683     -772     -886     -940     -959    -1084 
   -1192    -1043     -805     -706     -710     -749     -819     -892 
    -873     -772     -788     -958     -989     -834     -849    -1081 
   -1175    -1012     -818     -738     -754     -877    -1071    -1042 
    -688     -473     -700    -1048    -1127     -940     -818     -892 
    -981    -1046    -1090     -885     -598     -718    -1028    -1032 
    -853     -753     -791     -924     -916     -720     -649     -797 
   -1019    -1161    -1004     -645     -614     -972    -1107     -928 
    -909    -1043     -977     -769     -722     -849     -938     -945 
    -949     -922     -877     -916     -931     -767     -633     -747 
    -864     -824     -934    -1175    -1151     -920     -830     -929 
    -978     -801     -643     -767     -885     -757     -699     -919 
   -1151    -1070     -756     -702    -1016    -1209    -1057     -789 
    -695     -892    -1046     -801     -533     -757    -1128    -1047 
    -735     -761     -973     -913     -769     -854    -1023    -1121 
   -1060     -795     -630     -718     -781     -774     -884    -1012 
    -938     -789     -885    -1098    -1081     -932     -881     -929 
   -1000     -942     -739     -631     -722     -880    -1000    -1007 
    -827     -670     -793    -1000    -1000     -926     -963     -951 
    -810     -767     -851     -884     -900     -942     -981    -1031 
    -932     -668     -635     -908    -1053     -961     -864     -828 
    -801     -807     -831     -789     -765     -907    -1042    -1017 
   -1013    -1059     -985     -890     -913     -849     -662     -608 
    -708     -828     -928    -1030    -1097    -1024     -923     -932 
    -928     -912     -977     -973     -788     -598     -577     -629 
    -710     -942    -1088     -978     -986    -1185    -1178     -903 
    -734     -877     -965     -723     -571     -776     -969     -858 
    -680     -842    -1228    -1324    -1009     -700     -749     -972 
    -893     -606     -603     -787     -884     -986    -1026     -985 
   -1028    -1012     -868     -857     -977     -938     -712     -562 
    -680     -965    -1073     -895     -774     -903    -1030     -982 
    -889     -903    -1026    -1039     -799     -604     -672     -704 
    -616     -697    -1035    -1339    -1313    -1078     -940     -963 
    -959     -784     -693     -888     -931     -588     -387     -629 
    -929     -996     -866     -789    -1046    -1393    -1312     -913 
    -808    -1021     -959     -581     -471     -750     -911     -723 
    -650     -955    -1158     -990     -866     -972    -1009     -989 
   -1077    -1024     -799     -722     -751     -708     -731     -909 
    -994     -846     -724     -820    -1050    -1200    -1028     -702 
    -692     -943    -1078    -1032     -812     -533     -562     -823 
    -923     -938    -1026    -1098    -1165    -1188    -1067     -872 
    -695     -565     -562     -749     -923     -862     -757     -810 
    -893     -962    -1044    -1020     -967    -1036    -1046     -912 
    -804     -787     -805     -749     -654     -766    -1028    -1055 
    -807     -767    -1048    -1111     -918     -854     -853     -870 
    -970     -994     -934     -784     -571     -641     -896     -845 
    -718     -961    -1209    -1084     -947    -1021    -1003     -890 
    -870     -785     -603     -581     -800    -1074    -1071     -746 
    -623     -989    -1282    -1102     -853     -789     -814     -889 
    -866     -758     -789     -913    -1000     -963     -767     -702 
    -889     -972     -881     -922    -1030     -984     -876     -885 
    -953     -899     -769     -796     -980    -1015     -822     -677 
    -670     -753     -936    -1067    -1048     -992     -909     -788 
    -810     -932     -857     -691     -808    -1094    -1175    -1048 
    -889     -801     -793     -751     -687     -714     -789     -854 
    -932    -1026    -1057     -958     -885     -958     -920     -696 
    -702    -1062    -1240     -962     -741     -814     -792     -702 
    -822    -1048    -1084     -838     -692     -890    -1036     -884 
    -767     -877     -927     -819     -828     -866     -799     -864 
   -1003    -1032     -959     -819     -838     -976     -911     -828 
    -928     -993     -924     -830     -734     -645     -708     -924 
   -1048    -1003     -886     -847     -953     -989     -922     -934 
    -854     -691     -861    -1179    -1093     -739     -612     -746 
    -886     -935     -905     -862     -868     -843     -820     -935 
   -1000     -889     -912    -1053     -947     -893    -1067     -892 
    -577     -791    -1044     -838     -661     -808     -858     -684 
    -753    -1086    -1150     -967     -864     -767     -741     -907 
   -1053    -1081    -1000     -864     -876     -922     -866     -872 
    -792     -631     -818    -1094     -980     -803     -854     -900 
    -929    -1038    -1053     -900     -730     -712     -706     -546 
    -623    -1094    -1285     -936     -761    -1120    -1390    -1224 
   -1107    -1094     -641      -75     -364    -1202    -1213     -359 
      14     -324     -600     -743     -949    -1250    -1570    -1377 
    -923    -1308    -1979    -1601     -949    -1080     -965       87 
     650     -144    -1009     -899     -472     -634    -1285    -1501 
   -1026     -818    -1185    -1368    -1124     -837     -719     -650 
    -433     -344     -745     -970     -569     -895    -2316    -2614 
   -1289     -525     -625     -376     -263     -623     -481     -106 
    -490    -1036     -947     -911    -1354    -1360     -661     -206 
    -438    -1163    -2043    -2327    -1842    -1112     -302       85 
    -357     -584      162      862      400     -931    -2019    -2450 
   -2565    -2196    -1219     -493     -533     -751     -619     -202 
     270      359     -261    -1146    -1767    -2157    -2235    -1906 
   -1453     -882     -126      163     -182     -183      229       56 
    -588    -1135    -1856    -2474    -2178    -1233     -337      205 
     -93    -1113    -1524     -965     -610     -847    -1016     -769 
    -631    -1125    -1471    -1074     -828    -1112    -1053     -359 
       2     -446     -847     -751     -693     -876    -1090    -1230 
   -1294    -1383    -1375    -1086     -750     -592     -692    -1000 
    -932     -280       40     -566    -1372    -1490    -1117     -970 
    -946     -787     -877    -1039     -673     -278     -699    -1431 
   -1485    -1100     -890     -831     -938    -1247    -1252     -654 
     -94      -89     -306     -457     -745    -1221    -1399    -1127 
   -1051    -1320    -1300     -965     -827     -915    -1019     -962 
    -681     -526     -728    -1051    -1151     -770     -261     -274 
    -693     -984    -1062    -1354    -1878    -1842    -1117     -521 
    -271     -139     -268     -641     -827     -622     -410     -781 
   -1551    -1714    -1144     -932    -1201    -1046     -737    -1044 
   -1379     -993     -481     -495     -676     -669     -513     -322 
    -422     -747     -889    -1158    -1718    -1769    -1251     -973 
    -961     -923     -969     -899     -490      -40       16     -476 
   -1138    -1371    -1182    -1081    -1080     -815     -776    -1328 
   -1417     -638     -206     -622    -1062    -1007     -827     -972 
   -1077     -728     -531     -828    -1063    -1088     -996     -776 
    -843    -1183    -1193     -945     -797     -584     -309     -430 
    -984    -1278     -954     -612     -733     -974    -1039    -1081 
   -1228    -1291    -1065     -861    -1024    -1046     -484      -40 
    -479    -1277    -1327     -772     -683     -951     -908     -989 
   -1271     -932     -359     -450     -830     -997     -947     -784 
    -903    -1192    -1023     -610     -622    -1036    -1244    -1009 
    -837    -1062    -1282    -1096     -676     -432     -508     -691 
    -842     -966     -926     -873    -1031    -1039     -783     -733 
    -977    -1143    -1067     -859     -579     -421     -702    -1063 
   -1036     -942    -1050    -1246    -1453    -1320     -728     -319 
    -383     -579     -760     -776     -472     -376    -1012    -1671 
   -1509    -1009     -864     -990    -1202    -1340    -1034     -437 
    -232     -499     -730     -881    -1077    -1026     -745     -724 
   -1060    -1197     -758     -392     -733    -1139    -1069    -1069 
   -1200     -926     -637     -897    -1167     -877     -517     -697 
   -1115    -1133     -799     -681     -895     -950     -772     -800 
    -974     -907     -777     -866     -973     -965     -864     -767 
    -939    -1138     -931     -702     -830     -932     -676     -436 
    -739    -1215    -1129     -801     -851    -1129    -1287    -1215 
    -876     -495     -523     -919    -1105     -932     -715     -603 
    -693     -978    -1173    -1127     -929     -714     -612     -661 
    -838    -1084    -1198    -1039     -783     -770     -986    -1043 
    -931     -911     -712     -311     -415    -1005    -1282    -1070 
    -801     -838    -1053    -1057     -935     -977    -1039     -884 
    -696     -793    -1062    -1175    -1071     -824     -591     -566 
    -718     -932    -1057     -811     -400     -392     -807    -1197 
   -1271    -1181    -1161    -1078     -897     -862     -955     -953 
    -708     -405     -565    -1020     -965     -630     -787    -1070 
    -940     -911    -1271    -1332     -805     -432     -654     -913 
    -872     -950    -1202    -1240    -1046     -847     -793     -730 
    -529     -645    -1044     -994     -733     -822     -842     -665 
    -774     -923     -760     -824    -1252    -1254     -838     -900 
   -1291    -1188     -780     -684     -824     -874     -805     -707 
    -606     -591     -691     -787     -920    -1117    -1105     -928 
   -1017    -1182     -953     -710     -753     -706     -757    -1198 
   -1368     -980     -731     -749     -608     -611     -974    -1107 
    -945     -915     -895     -843     -939     -912     -649     -461 
    -561     -928    -1179    -1031     -895    -1162    -1417    -1136 
    -696     -738     -950     -797     -606     -681     -838    -1023 
   -1026     -625     -326     -579    -1026    -1206    -1121    -1094 
   -1242    -1318    -1250     -950     -395     -232     -627     -797 
    -747     -996    -1188     -969     -648     -658    -1035    -1135 
    -722     -633    -1124    -1277     -834     -681    -1034     -990 
    -457     -480    -1036    -1197    -1094    -1107     -940     -781 
    -950    -1074     -935     -743     -648     -711     -795     -715 
    -629     -712     -908    -1173    -1421    -1321     -842     -603 
    -795     -796     -518     -557     -950    -1152    -1012     -881 
    -981    -1177    -1240    -1085     -870     -757     -676     -532 
    -444     -630     -876     -799     -724    -1008    -1306    -1327 
   -1185    -1048     -974     -935     -882     -661     -321     -364 
    -828    -1084    -1021     -989     -977     -953    -1011    -1039 
    -857     -600     -638     -826     -754     -712     -989    -1230 
   -1206    -1089    -1039    -1016     -939     -890     -886     -765 
    -537     -409     -525     -778     -864     -815     -927    -1131 
   -1270    -1370    -1232     -851     -708     -808     -761     -765 
    -970    -1005     -804     -584     -498     -743    -1177    -1327 
   -1098     -805     -676     -631     -612     -741     -876     -816 
