Origin Time       2018/04/09 06:38:00
Lat.              35.2
Long.             132.6
Depth. (km)       10
Mag.              3.8
Station Code      HRS005
Station Lat.      34.7770
Station Long.     133.2807
Station Height(m) 480
Record Time       2018/04/09 06:39:12
Sampling Freq(Hz) 100Hz
Duration Time(s)  60
Dir.              U-D
Scale Factor      7845(gal)/8223790
Max. Acc. (gal)   1.612
Last Correction   2018/04/09 06:39:12
Memo.             
[...]
   15102    15102    15101    15102    15103    15101    15101    15103 
   15102    15099    15103    15105    15102    15099    15097    15099 
   15102    15101    15101    15103    15102    15101    15102    15097 
   15097    15102    15102    15099    15101    15102    15101    15102 
   15102    15102    15101    15099    15101    15101    15101    15103 
   15103    15101    15101    15099    15101    15101    15099    15101 
   15103    15101    15101    15102    15099    15101    15102    15099 
   15099    15103    15102    15099    15099    15101    15102    15102 
   15101    15101    15103    15103    15102    15102    15103    15105 
   15105    15103    15103    15102    15101    15099    15102    15103 
   15101    15099    15102    15102    15102    15102    15101    15101 
   15103    15103    15101    15099    15102    15103    15101    15101 
   15103    15102    15102    15102    15099    15101    15103    15102 
   15102    15103    15103    15105    15102    15099    15102    15103 
   15103    15105    15105    15103    15103    15101    15102    15103 
   15099    15099    15103    15103    15099    15102    15103    15101 
   15102    15103    15101    15099    15101    15102    15103    15103 
   15102    15102    15103    15106    15103    15099    15101    15103 
   15101    15101    15101    15101    15101    15102    15102    15101 
   15099    15099    15101    15102    15102    15102    15101    15101 
   15102    15102    15101    15102    15103    15101    15102    15106 
   15103    15101    15102    15102    15102    15102    15101    15102 
   15102    15101    15101    15101    15101    15101    15102    15102 
   15102    15103    15103    15102    15103    15103    15102    15101 
   15101    15101    15101    15101    15102    15105    15103    15099 
   15099    15102    15103    15102    15101    15101    15099    15097 
   15099    15103    15103    15102    15105    15103    15099    15099 
   15103    15103    15099    15099    15102    15102    15102    15103 
   15102    15101    15101    15101    15099    15099    15102    15103 
   15103    15101    15101    15101    15102    15103    15102    15101 
   15101    15102    15102    15102    15101    15102    15105    15102 
   15099    15101    15101    15101    15101    15099    15101    15099 
   15102    15103    15101    15101    15102    15101    15101    15101 
   15102    15103    15102    15102    15101    15099    15102    15103 
   15101    15101    15102    15103    15101    15101    15101    15101 
   15102    15105    15103    15097    15099    15102    15101    15099 
   15101    15102    15101    15103    15103    15099    15097    15099 
   15099    15101    15101    15101    15101    15101    15102    15105 
   15102    15099    15101    15103    15099    15097    15102    15103 
   15101    15102    15102    15101    15102    15102    15101    15099 
   15099    15099    15101    15103    15102    15099    15101    15101 
   15099    15101    15101    15099    15102    15103    15102    15102 
   15099    15099    15099    15099    15102    15102    15099    15099 
   15099    15103    15103    15097    15101    15105    15103    15103 
   15103    15101    15101    15103    15102    15102    15103    15102 
   15099    15102    15102    15101    15103    15105    15102    15101 
   15103    15102    15099    15099    15103    15103    15101    15102 
   15103    15102    15102    15103    15101    15099    15102    15102 
   15099    15099    15102    15101    15099    15102    15101    15099 
   15102    15101    15101    15103    15103    15101    15101    15102 
   15101    15101    15101    15102    15103    15102    15102    15105 
   15102    15099    15101    15102    15102    15101    15101    15102 
   15102    15101    15103    15102    15099    15102    15103    15102 
   15105    15102    15099    15101    15102    15101    15103    15103 
   15102    15102    15103    15101    15101    15102    15099    15099 
   15102    15102    15101    15101    15101    15102    15102    15099 
   15101    15102    15101    15097    15095    15087    15071    15051 
   15031    15026    15030    15036    15028    15014    15030    15137 
   15342    15526    15523    15333    15140    15009    14813    14685 
   14986    15527    15651    15282    14845    14451    14273    14805 
   15670    15704    15068    14908    15043    14875    14922    15434 
   15801    15688    15246    14588    13910    14122    15499    16313 
   15637    14832    14547    14435    14970    16029    16180    15237 
   14572    14485    14292    14465    15569    16425    15962    14970 
   14345    14172    14586    15383    15834    15634    15124    14778 
   14747    14889    15145    15485    15587    15234    14851    14728 
   14635    14775    15337    15676    15441    15093    14964    14893 
   14708    14688    15054    15434    15539    15587    15531    15125 
   14736    14764    14935    15031    15187    15298    15111    14747 
   14638    14983    15469    15569    15213    14859    14820    15091 
   15433    15399    14988    14751    14932    15194    15244    15237 
   15263    15188    15105    14988    14725    14712    15109    15414 
   15398    15223    15094    15088    15025    14974    15182    15333 
   15153    14952    14901    14909    15070    15365    15418    15099 
   14808    14796    14935    15102    15228    15304    15290    15041 
   14816    14978    15206    15190    15169    15241    15202    15064 
   15047    15091    15117    15237    15229    15016    14955    15012 
   15115    15327    15290    15025    14889    14852    14964    15169 
   15179    15142    15167    15056    14902    14943    15209    15433 
   15341    15107    15045    15115    15082    14908    14886    15126 
   15276    15190    15142    15180    15140    15084    15080    15080 
   15136    15130    14909    14804    15033    15232    15257    15277 
   15165    14895    14898    15196    15265    15114    15138    15210 
   15095    14967    14994    15084    15084    15024    15061    15163 
   15160    15103    15142    15221    15250    15228    15099    14937 
   14894    14909    14904    14995    15196    15346    15400    15354 
   15196    15080    15029    14901    14816    14912    15066    15180 
   15205    15134    15095    15163    15292    15330    15163    14960 
   14928    14976    14971    15053    15219    15186    15054    15133 
   15233    15137    15034    15053    15057    15014    15097    15250 
   15225    15107    15079    15010    14891    14963    15196    15222 
   15048    15109    15255    15167    15151    15187    15036    14998 
   15095    15061    14968    14958    15060    15140    15129    15198 
   15244    15144    15148    15218    15157    15041    14932    14928 
   15060    15126    15160    15271    15288    15203    15137    14993 
   14816    14875    15102    15161    15080    15113    15206    15242 
   15217    15126    15099    15182    15136    14945    14867    14998 
   15203    15260    15171    15151    15142    14998    14870    14962 
   15221    15284    15076    15010    15037    14974    15161    15422 
   15268    15051    15102    15076    14894    14937    15159    15192 
   15122    15101    15020    14976    15102    15233    15201    15117 
   15157    15152    14978    14975    15215    15280    15090    14964 
   15033    15124    15163    15161    15071    15091    15280    15213 
   14902    14800    14916    15087    15209    15228    15269    15248 
   15088    15020    15005    15041    15244    15263    15057    15031 
   15084    15021    14998    15030    15043    15105    15222    15256 
   15149    15047    15044    15066    15053    15057    15122    15140 
   15102    15163    15236    15161    15097    15097    15020    14967 
   15017    15060    15130    15194    15173    15196    15178    15016 
   15010    15137    15086    15040    15142    15142    15080    15094 
   15036    14968    15095    15275    15299    15145    14929    14886 
   15036    15175    15237    15211    15090    15007    15031    15086 
   15140    15171    15114    15037    15034    15028    14997    15121 
   15295    15236    15099    15126    15202    15173    15070    14986 
   14936    14926    15067    15229    15203    15178    15222    15094 
   14987    15064    15044    14991    15099    15201    15180    15076 
   15030    15145    15242    15233    15137    14953    14928    15078 
   15091    15052    15109    15120    15159    15259    15169    15020 
   15075    15095    14975    14949    15028    15205    15377    15246 
   15026    15066    15147    15097    15013    14970    15048    15153 
   15171    15186    15191    15173    15156    15052    14895    14866 
   15021    15195    15183    15113    15147    15179    15187    15171 
   15029    14982    15172    15190    14951    14931    15088    15091 
   15094    15229    15319    15255    15070    14953    15021    15078 
   15012    14988    15071    15173    15248    15228    15113    15070 
   15134    15140    15075    15052    15060    15049    14991    14955 
   15024    15097    15153    15256    15272    15147    15093    15186 
   15194    15052    15001    15071    15052    14963    14965    15087 
   15222    15259    15233    15176    15076    15040    15013    14975 
   15136    15275    15130    15014    15025    15009    15016    15029 
   15111    15300    15315    15168    15107    15031    14940    15054 
   15219    15201    15066    14912    14894    15125    15294    15225 
   15210    15217    15052    14970    15012    15021    15140    15226 
   15093    15001    14979    15001    15214    15317    15115    14982 
   15094    15252    15198    14980    14925    15063    15169    15095 
   14941    15036    15276    15210    15029    15130    15211    15033 
   14964    15117    15190    15167    15152    15087    15076    15145 
   15075    14970    15087    15249    15180    14935    14881    15153 
   15284    15153    15159    15194    15080    15013    15020    15021 
   15025    15072    15175    15186    15072    15016    15056    15178 
   15292    15157    14945    14988    15074    15021    15093    15295 
   15303    15094    14995    15068    15107    15122    15147    15136 
   15160    15120    14932    14886    15017    15099    15175    15255 
   15252    15234    15168    15034    14998    15041    15036    15017 
   15033    15068    15071    15114    15219    15218    15161    15159 
   15031    14932    15157    15317    15124    14974    14986    15063 
   15222    15178    14978    15021    15097    15061    15126    15167 
   15163    15195    15087    14998    15140    15211    15070    14932 
   14913    15002    15133    15213    15228    15210    15199    15182 
   15125    15066    15028    14994    14937    14948    15137    15302 
   15276    15183    15053    15002    15128    15171    15070    14998 
   14990    15064    15102    15056    15198    15402    15303    15083 
   14975    14910    14978    15147    15090    14895    14965    15192 
   15241    15168    15128    15122    15157    15159    15057    14951 
   14990    15160    15272    15232    15137    15115    15122    15037 
   14974    15001    14998    15079    15222    15194    15157    15196 
   15114    15051    15078    15044    15039    15082    15094    15134 
   15157    15126    15159    15201    15084    14962    15029    15076 
   15002    15041    15134    15118    15093    15101    15152    15248 
   15261    15165    15082    15053    15017    14936    14895    14998 
   15194    15261    15159    15103    15157    15201    15180    15097 
   15060    15067    14976    14939    15064    15115    15142    15279 
   15222    15003    15033    15171    15145    15109    15114    15080 
   15090    15114    15043    15005    15094    15171    15159    15147 
   15176    15163    15051    14918    14906    15053    15184    15188 
   15198    15275    15263    15044    14840    14967    15206    15147 
   14972    15020    15124    15129    15219    15256    15048    14982 
   15097    15048    15082    15261    15232    15178    15206    15034 
   14832    14897    15086    15192    15188    15122    15064    15087 
   15172    15195    15169    15186    15126    14953    14885    15002 
   15079    15049    15115    15160    15117    15265    15426    15255 
   14979    14928    15034    15006    14895    15057    15296    15196 
   15016    15107    15238    15209    15175    15084    14850    14856 
   15169    15280    15167    15079    14944    14922    15184    15383 
   15267    15018    14901    14955    15054    15145    15256    15338 
   15259    15056    14952    14955    15028    15172    15214    15106 
   14959    14879    15025    15215    15176    15134    15130    14990 
   15025    15191    15071    15024    15318    15461    15265    14987 
   14904    15044    15016    14882    15037    15176    15105    15130 
   15175    15111    15070    15097    15238    15367    15173    14871 
   14891    15051    15103    15183    15199    15018    14779    14690 
   15006    15513    15554    15159    14872    14898    15153    15414 
   15556    15562    15226    14689    14609    15002    15183    15140 
   15191    14952    14484    14463    14828    15334    15871    15958 
   15709    15588    15229    14427    13910    14337    15195    15305 
   14820    14905    15480    15889    16100    15840    14937    14099 
   13929    14210    14473    14774    15511    16417    16791    16470 
   15565    14413    13826    14042    14323    14422    14777    15354 
   15832    16104    16055    15746    15399    14895    14199    13849 
   14152    14854    15684    16101    15734    15134    14863    14912 
   15017    14870    14725    14963    15244    15253    15160    15290 
   15641    15576    15003    14608    14555    14797    15264    15456 
   15299    15206    15094    14770    14644    15094    15574    15465 
   15105    14859    14689    14843    15238    15331    15130    15034 
   15206    15441    15376    15173    15142    15031    14773    14712 
   14889    15099    15191    15142    15105    15103    15125    15341 
   15493    15182    14889    14982    14936    14828    15079    15249 
   15124    15152    15291    15237    15083    14998    15091    15255 
   15132    14859    14918    15211    15268    15056    14964    15061 
   15093    15114    15214    15221    15169    15199    15159    14975 
   14905    14997    15006    14983    15039    15074    15233    15561 
   15560    15072    14651    14674    14941    15111    15101    15110 
   15286    15426    15340    15275    15263    14960    14656    14757 
   14925    14968    15021    15082    15271    15453    15304    15145 
   15246    15232    15039    14928    14908    15002    15180    15237 
   15111    14962    14980    15121    15214    15271    15279    15140 
   14949    14889    14975    15075    15128    15128    15020    15026 
   15284    15360    15161    15125    15121    14889    14809    15009 
   15147    15186    15192    15180    15221    15149    15018    15095 
   15078    14871    14922    15107    15203    15383    15431    15187 
   14998    15013    15097    15082    14943    14908    14962    14895 
   14936    15290    15506    15340    15294    15424    15217    14848 
   14813    14910    14796    14697    14924    15232    15310    15340 
   15412    15309    15155    15165    15047    14778    14840    15080 
   15049    15034    15209    15292    15286    15159    14958    15075 
   15346    15255    14916    14769    14894    15072    15186    15232 
   15145    15107    15282    15317    15107    15014    15025    15021 
   15053    14955    14901    15194    15388    15217    15068    15034 
   15021    15080    15060    14955    15074    15264    15140    14980 
   15099    15206    15186    15206    15147    14978    15013    15140 
   15052    15026    15192    15203    15110    15142    15159    15021 
   14901    14995    15120    15016    14949    15171    15364    15300 
   15191    15136    15075    15033    15026    15041    15016    14929 
   14952    15103    15250    15449    15512    15182    14920    15001 
   14960    14790    14910    15179    15256    15168    15101    15133 
   15153    15024    14902    15005    15155    15179    15264    15336 
   15168    15074    15134    15006    14874    14949    15086    15272 
   15268    14986    14974    15211    15242    15171    15078    14962 
   14987    15010    14990    15137    15228    15121    15130    15250 
   15222    15160    15171    15107    15034    14995    14848    14820 
   15033    15155    15198    15336    15400    15282    15078    14941 
   14958    15001    14967    14912    14972    15168    15303    15348 
   15358    15205    14990    14926    14920    14963    15178    15360 
   15256    15041    14985    14997    15018    15180    15296    15107 
   14813    14752    14982    15296    15439    15379    15214    14995 
   14891    15021    15190    15242    15140    14918    14878    15114 
   15279    15242    15171    15087    14975    14976    15105    15121 
   14995    15010    15160    15175    15087    15083    15165    15225 
   15179    15066    14991    14995    15026    15070    15201    15290 
   15110    14935    15083    15214    15074    14990    15066    15083 
   15095    15176    15190    15138    15149    15182    15175    15147 
   15060    14987    15083    15156    14987    14874    14997    15044 
   15026    15238    15453    15361    15183    15136    15095    14976 
   14878    14839    14866    15033    15264    15354    15298    15244 
   15165    15007    14889    14862    14917    15113    15246    15129 
   15097    15298    15307    15087    15012    15044    15068    15188 
   15219    15013    14918    15070    15188    15188    15157    15130 
   15107    15060    15047    15078    15068    15068    15054    15009 
   15124    15290    15241    15102    14993    14886    14868    14974 
   15172    15340    15294    15182    15176    15113    14970    14945 
   15064    15173    15160    15120    15196    15239    15110    15024 
   15072    15086    15076    15072    14986    14941    15051    15172 
   15213    15196    15133    15082    15111    15165    15121    15016 
   15013    15117    15167    15103    14998    14959    15047    15161 
   15269    15348    15195    14947    14976    15107    15068    15016 
   15044    15086    15106    15076    15040    15105    15242    15292 
   15188    14995    14870    14988    15228    15305    15186    15070 
   15117    15130    14948    14908    15097    15188    15152    15118 
   15132    15203    15229    15172    15093    15003    14931    14891 
   14945    15124    15256    15239    15222    15223    15148    15033 
   14940    14947    15043    15051    15002    15064    15191    15282 
   15314    15263    15125    14976    14960    14995    14941    14976 
   15149    15223    15191    15173    15198    15250    15223    15103 
   14980    14877    14878    14985    15078    15176    15263    15305 
   15326    15210    15041    14998    14940    14901    15049    15182 
   15168    15153    15180    15180    15138    15086    14985    14863 
   14881    15029    15163    15213    15221    15264    15264    15133 
