Origin Time       2018/04/09 06:38:00
Lat.              35.2
Long.             132.6
Depth. (km)       10
Mag.              3.8
Station Code      SMN003
Station Lat.      35.1795
Station Long.     133.0929
Station Height(m) 332
Record Time       2018/04/09 06:39:02
Sampling Freq(Hz) 100Hz
Duration Time(s)  60
Dir.              E-W
Scale Factor      7845(gal)/8223790
Max. Acc. (gal)   3.903
Last Correction   2018/04/09 06:39:02
Memo.             
[...]
     728      739      747      728      720      741      745      726 
     733      750      741      727      730      731      735      746 
     745      722      719      743      750      737      733      731 
     726      733      743      735      726      734      745      739 
     724      724      733      734      741      743      728      727 
     735      734      737      741      738      733      733      730 
     733      743      741      728      731      741      739      733 
     733      737      735      734      733      731      737      735 
     737      743      735      730      735      733      734      745 
     741      730      728      735      747      739      723      735 
     745      733      735      741      733      731      739      733 
     724      735      750      741      719      731      751      735 
     723      739      739      730      739      739      726      731 
     741      735      730      735      734      728      739      746 
     731      719      728      743      739      733      735      733 
     731      738      734      727      737      746      741      726 
     722      741      749      730      724      741      741      733 
     737      737      730      730      739      745      735      730 
     738      734      731      738      735      730      737      735 
     730      737      743      734      726      727      734      738 
     738      739      733      722      731      747      741      731 
     733      728      723      741      750      730      723      739 
     739      730      733      737      737      739      735      727 
     734      747      739      723      728      741      741      734 
     730      728      735      743      741      730      726      737 
     741      728      726      741      743      731      728      731 
     734      737      739      737      726      728      745      741 
     726      728      741      738      730      737      741      728 
     722      739      750      735      724      731      737      741 
     741      730      726      738      743      734      730      737 
     737      728      734      745      739      733      735      731 
     731      743      739      727      730      734      734      743 
     745      727      722      734      741      739      733      731 
     735      738      738      733      724      731      745      734 
     720      738      747      730      728      741      730      720 
     731      741      741      735      728      734      738      733 
     735      738      730      733      741      734      727      735 
     741      734      728      731      737      739      735      734 
     737      734      735      739      730      733      743      730 
     728      750      739      719      737      750      733      723 
     734      741      731      727      739      743      734      734 
     734      728      737      747      733      723      738      741 
     731      737      739      728      731      747      741      722 
     730      746      738      726      735      741      728      730 
     741      735      727      737      741      734      735      734 
     728      735      743      739      733      730      734      734 
     733      741      739      728      733      739      735      733 
     728      734      741      731      724      739      743      734 
     734      737      733      739      741      728      734      747 
     737      722      735      750      738      726      738      750 
     739      726      727      739      746      738      726      728 
     741      737      727      737      739      731      735      735 
     735      739      731      728      741      739      728      734 
     738      733      737      739      733      730      734      733 
     730      738      743      733      731      741      735      723 
     733      743      734      728      738      739      728      727 
     737      739      730      733      741      728      722      743 
     750      728      726      741      737      734      735      733 
     734      739      739      727      723      743      747      726 
     720      739      746      739      731      724      730      746 
     743      724      720      737      746      734      724      734 
     741      735      734      735      731      730      739      743 
     731      727      738      734      724      734      741      735 
     734      731      734      741      737      735      737      733 
     733      735      733      737      739      730      733      738 
     731      731      735      738      738      735      734      733 
     733      737      737      731      733      735      730      733 
     745      738      723      730      739      734      731      737 
     735      730      734      741      737      726      733      741 
     730      727      745      739      724      734      739      730 
     728      737      738      728      728      745      741      724 
     734      743      730      728      739      734      730      739 
     741      730      727      735      738      737      731      733 
     735      728      735      745      735      730      737      733 
     728      739      738      728      735      741      737      733 
     733      733      733      737      745      735      726      733 
     735      735      741      739      724      723      739      749 
     735      724      734      735      733      741      738      726 
     735      745      728      720      738      753      741      728 
     730      735      735      737      739      738      734      735 
     735      728      730      739      737      733      739      739 
     731      734      738      728      733      746      741      726 
     728      739      737      728      734      739      726      724 
     747      746      722      724      737      738      737      738 
     737      731      737      743      728      726      745      743 
     728      731      734      735      738      738      735      730 
     733      739      735      733      737      731      733      741 
     741      733      726      734      741      733      728      741 
     741      728      730      739      738      735      738      731 
     724      737      741      734      734      737      734      735 
     739      734      727      731      745      746      728      722 
     737      743      735      733      735      728      730      745 
     743      724      728      739      737      735      738      737 
     731      728      735      735      738      746      735      723 
     735      741      731      731      735      733      731      735 
     738      737      734      734      733      730      737      745 
     735      727      734      738      733      734      741      737 
     724      730      741      741      737      738      738      733 
     733      739      738      730      730      731      735      741 
     737      726      731      746      735      722      738      746 
     728      727      738      731      728      741      738      727 
     731      739      739      731      730      738      737      730 
     733      734      733      739      741      733      723      733 
     743      733      726      737      737      731      735      738 
     730      726      738      746      727      720      746      749 
     727      727      735      734      739      741      735      734 
     737      737      730      728      739      743      731      730 
     738      730      731      747      741      724      726      738 
     737      735      738      734      727      726      724      708 
     683      681      697      692      670      642      571      585 
     846     1016      822      826     1167      903      168      309 
    1135     1273      712      423      773     1124      758      121 
     167     1167     1946      954     -427      121     1182      762 
     282      841     1124     1026     1229      853     -117     -220 
     785     1551     1273      777      739      481       54      638 
    1225      499      649     1833      936     -457      318      661 
     128     1344     2303      996       63      526      707      569 
     870      884      280      625     1719     1047     -606     -337 
    1128     1664     1366      776      229      440      895      477 
     141     1088     1760      915      263      515      363      297 
    1175     1405      568      561     1154      773       79      575 
    1788     1405     -467     -503     1382     1927      791     -238 
    -282      926     2001     1188     -252       27     1649     1873 
     221     -184     1053     1161      376      370      877     1333 
    1183      135     -283      850     1599      864      369      855 
    1129      666       87      245      920     1178     1069      778 
     375      418      764      791      719      939     1053      711 
     540      807      872      845      818      419      514     1228 
    1051      112        5      947     1356      691      446      854 
     899      656      715     1015      816      313      689     1382 
     762     -248      280     1455     1485      750      402      451 
     514      743      959      710      468      851     1142      487 
      70      996     1598      767      135      634     1116      724 
     450      926     1023      715      781      676      367      483 
     720      720      855     1132      772       63      199      963 
    1490     1479      684     -151      450     1674     1233     -218 
     -67     1451     1537      172      197     1062      579      336 
    1232     1269      382      297     1036      959      289      793 
    1258      383      259     1209     1197      553      546      664 
     603      936     1038      411      399     1193     1212      396 
     103      589      974      870      760      939      915      360 
      72      702     1282      985      753      980      641      175 
     745     1277      692      225      772     1252      673      141 
     870     1274      492      383     1057     1175      762      491 
     724      874      594      442      679     1163     1109      395 
     259      737      928      815      700      685      684      751 
     938      689      212      522     1071      934      749      946 
     873      402      344      888     1131      656      417     1019 
    1282      445     -129      643     1574     1192      191      220 
    1185     1301      243      -54      795     1204     1008      820 
     587      650      942      765      579      767      877      932 
     718      375      598      669      461      909     1065      550 
     811     1247      606      122      804     1290      603      175 
     881     1215      623      481      970      741      172      903 
    1621      706       97      669      834      544      661     1031 
     886      391      699     1351      996      155        9      619 
    1363     1563      828     -109      101     1144     1426      789 
     352      506      850      847      464      508      932      869 
     681      824      880      777      803      726      315      460 
    1011      661      545     1401     1329      324      175      826 
     935      562      738     1036      893      756      552      318 
     504      950     1188      938      629      638      525      423 
     695      804      731      970     1177      869      310      221 
     807     1094      785      915      951      276      353      958 
     708      425     1000     1341      515       98      927      893 
     139      796     1742     1121      136      383     1043      793 
     415      818      810      252      785     1552      913      330 
     711      814      621      622      641      684      719      915 
    1038      519      174      691     1139      954      610      464 
     585     1026     1298      753      141      352      814     1000 
    1023      838      595      587      777      932      662      372 
     907     1306      643      253      576      741     1053     1185 
     429      287     1093      796       89      826     1368      523 
     244      987     1197      702      352      616      969      658 
     522     1092     1059      321      521     1305      832      103 
     668     1175      849      487      477      892      969      506 
     672     1156      905      388      421      874      980      530 
     427      938     1009      627      689      818      704      810 
     767      600      993      996      120      108      993     1097 
     708      976     1348      728      112      618      876      342 
     437     1039      827      387      714      978      965     1127 
     899      553      957     1341      803       54     -463     -572 
     437     1590     1698     1412     1316     1169      692      692 
     980     -282    -1426      407     2791     1884     -274      467 
    1593     -148     -913     1300     2328      982      889     1629 
    -646    -2582      477     3275     1883     1514     3264     1210 
   -3357    -2619     1956     2695      695      893     1610      422 
    -176     1125     1210     -653     -244     2598     2606      295 
     370     1248     -368    -1657      359     2373     1437      406 
    1030     1269      484     -353      -54     1657     2459     1142 
    -425     -352     1291     1891      430     -395      297     1120 
    1694     1657      656     -622     -629     1044     1634      579 
    1258     2403      557    -1386     -135     1610      893     -144 
    1058     2296     1026     -758     -263     1429     1737      785 
     491     1074      984      206      189      780      823      681 
    1077     1147      922     1294      695     -881       93     2509 
    1796     -288      166     1228      720      205      167      232 
    1228     2386     1595     -633    -1063     1063     2192      778 
    -302      488     1193      456       -8     1055     1857     1117 
     -64      352     2091     1269    -1418     -558     2560     2755 
     197    -1383       85     2450     2211      209     -349      719 
    1428      757     -399      -23     1677     1838      464      187 
     986     1011       16     -243      553     1053     1522     1707 
     569     -670     -232     1702     2529      903      -98      901 
     733     -406      926     2346      324     -932     1275     2371 
     780     -760     -572     1287     1723      106      391     1817 
    1131       28      707     1800     1305     -321     -909      679 
    2818     2351     -387    -1398      388     2431     2527      432 
   -1281     -552      934     1445     1247      568     -172      274 
    1629     2052     1348     -112    -1227      785     3049      749 
   -1200     1098     1975      -82     -147     1759     1413     -442 
     558     2756     1525     -972     -712      846     1528     1474 
     315     -546     1026     2144      677     -220      322      653 
    1390     2232     1046     -888     -291     1447     1205      356 
     711      706      261     1445     2529      723    -1390     -441 
    2027     2436      518     -232      715      310     -241     1359 
    2273     1013      -37       87     1192     1776      -10    -1221 
     432     1493     1081     1547     1648      143     -284     1217 
    1669      514      -63      321      588      406      712     1310 
     575      103     1973     2801      244    -1148      820     1474 
      22      440     1741      776     -727      540     2612     1123 
   -1445      -45     2574     1728     -359     -224     1127     1561 
     619      -11      990     1524      488      124      892     1460 
    1179      116      -81      893      926      189      278     1223 
    2219     1617     -355     -303     1526     1317     -108       60 
     738      760      892      992      720      990     1547      919 
    -149      195     1528     1161     -927     -376     2525     2196 
    -652     -745     1344     1729      973     1112     1019      101 
    -442       -2     1166     1852     1479      772      109       90 
    1111     1491      340      108     1232      831       90     1169 
     714    -1223      654     3915     2200    -1148     -519     1377 
    1227      477      368      778     1250      922      437      477 
     240      573     1516      760     -167     1152     1906      156 
    -834      877     2235     1232     -207     -302     1111     2016 
     577     -372     1092     1781      639       41      313      670 
    1208     1200      229       93     1381     1636      203     -373 
     778     1609      987      511     1019      743     -159      446 
    1416      812      163      931     1493      566      -51      850 
    1547     1239      881      291     -403      148     1393     1630 
     924      261      321     1008     1350      927      306      137 
     629     1071      691       74      282     1205     1748     1047 
    -126      -58     1039     1606     1314      569      -90      131 
    1232     1738      665     -275      518     1595     1417      681 
     417      421       52      -86     1127     2277     1050     -795 
    -382     1304     1987     1065      -63      453     1779     1535 
      -2     -259     1200     1722      278     -283     1301     1671 
    -176     -523     1194     1584      506      676     1485      720 
    -271      436     1625     1139     -440      160     2417     1981 
    -197     -280      834     1028      518      411      877      870 
     616      661      432      522     1071     1048     1161     1530 
     757     -183      136      702      953     1063      730      612 
     978      907      556      645      803      437      252      819 
    1306     1301      767       -5      203     1017      873      502 
    1047     1248      496      203      606     1139     1563      814 
    -411      332     1668     1098      294      367      332      726 
    1352      953      399      997     1513      216    -1016      486 
    2606     1934     -229     -325     1274     1304      180      602 
    1293      325     -166     1024     1408      421      463     1341 
    1161      611      468      382      788     1221      862      403 
     423      859     1003      353      166      855     1150      947 
     657      292      422     1081     1462     1246      602      -22 
     275     1586     1918      336     -519      589     1206      467 
     218     1007     1262      415      243     1175     1360      719 
     360      319      897     1564      820     -221      319     1275 
    1188      892      980      552       55      784     1387      542 
     -28      731     1230      719      556      859      652      523 
    1060     1606     1136     -261     -492      899     1710     1065 
