Origin Time       2018/04/09 06:38:00
Lat.              35.2
Long.             132.6
Depth. (km)       10
Mag.              3.8
Station Code      SMN003
Station Lat.      35.1795
Station Long.     133.0929
Station Height(m) 332
Record Time       2018/04/09 06:39:02
Sampling Freq(Hz) 100Hz
Duration Time(s)  60
Dir.              U-D
Scale Factor      7845(gal)/8223790
Max. Acc. (gal)   1.077
Last Correction   2018/04/09 06:39:02
Memo.             
   24011    24011    24011    24016    24012    23998    24001    24013 
   24015    24009    24011    24012    24009    24008    24009    24008 
   24009    24012    24012    24009    24008    24009    24007    24004 
   24013    24019    24008    24004    24011    24013    24007    24003 
   24008    24015    24011    24009    24011    24004    24003    24016 
   24017    24003    24004    24015    24011    24004    24008    24012 
   24009    24008    24013    24007    24000    24012    24019    24004 
   24000    24015    24011    24000    24004    24009    24008    24015 
   24015    24007    24004    24008    24015    24012    24004    24004 
   24013    24013    24008    24008    24011    24008    24009    24012 
   24004    24004    24016    24011    24004    24007    24008    24012 
   24011    24009    24008    24008    24013    24013    24003    24001 
   24009    24013    24015    24012    24007    24008    24007    24004 
   24009    24015    24016    24008    24004    24009    24012    24004 
   24004    24012    24011    24008    24008    24004    24011    24011 
   24004    24004    24007    24009    24013    24011    24003    24007 
   24019    24013    24001    24004    24011    24008    24013    24012 
   24003    24007    24017    24013    24003    24003    24012    24013 
   24009    24008    24004    24001    24012    24019    24008    24007 
   24015    24012    24007    24008    24008    24013    24012    24003 
   24009    24015    24004    24009    24015    24007    24007    24011 
   24007    24007    24012    24009    24003    24004    24015    24015 
   24003    24004    24015    24015    24009    24007    24004    24007 
   24015    24016    24004    24004    24013    24015    24004    24003 
   24009    24009    24012    24013    24004    24003    24013    24016 
   24004    24003    24009    24013    24012    24008    24004    24008 
   24015    24013    24001    23998    24012    24016    24004    24001 
   24009    24009    24004    24012    24015    24004    24004    24012 
   24009    24007    24012    24011    24007    24008    24011    24011 
   24004    24004    24015    24008    23998    24008    24016    24013 
   24008    24004    24008    24009    24008    24011    24008    24007 
   24012    24013    24011    24007    24004    24008    24012    24012 
   24009    24007    24013    24019    24007    23994    24008    24020 
   24012    24003    24007    24011    24009    24009    24008    24004 
   24004    24013    24017    24007    24004    24012    24007    24004 
   24013    24009    24003    24011    24013    24003    24001    24009 
   24011    24004    24011    24013    24004    24007    24016    24009 
   24004    24008    24013    24009    24004    24007    24007    24004 
   24011    24016    24007    24000    24012    24015    24007    24008 
   24011    24011    24008    24004    24013    24012    24004    24012 
   24012    24003    24011    24017    24008    24004    24009    24012 
   24009    24008    24012    24011    24007    24012    24016    24008 
   24003    24007    24013    24012    24009    24009    24008    24009 
   24015    24009    24004    24011    24015    24008    24004    24008 
   24012    24011    24012    24009    24004    24009    24015    24011 
   24007    24008    24008    24011    24013    24008    24004    24009 
   24012    24009    24007    24008    24013    24013    24008    24009 
   24011    24004    24008    24019    24011    24000    24003    24015 
   24016    24004    24003    24013    24013    24008    24011    24008 
   24004    24012    24013    24004    24008    24012    24007    24008 
   24017    24008    24000    24012    24017    24008    24003    24009 
   24016    24009    24000    24004    24012    24015    24013    24007 
   24004    24013    24017    24009    24001    24007    24016    24017 
   24012    24008    24004    24007    24015    24011    24004    24011 
   24012    24009    24011    24009    24008    24008    24012    24015 
   24009    24004    24004    24009    24009    24004    24009    24011 
   24007    24009    24011    24003    24007    24016    24011    24004 
   24009    24009    24004    24009    24012    24004    24004    24009 
   24015    24012    24004    24008    24015    24011    24004    24011 
   24012    24009    24011    24011    24004    24004    24016    24019 
   24001    24001    24015    24013    24009    24008    24008    24008 
   24009    24013    24009    23998    24009    24021    24009    23998 
   24004    24011    24011    24012    24004    24000    24013    24012 
   24007    24009    24008    24008    24011    24008    24007    24009 
   24008    24008    24013    24012    24004    24004    24012    24015 
   24009    24004    24009    24012    24011    24012    24011    24004 
   24009    24015    24011    24008    24007    24008    24015    24015 
   24004    24004    24012    24013    24009    24004    24009    24017 
   24004    23997    24013    24015    24009    24015    24004    23997 
   24015    24020    24007    24004    24007    24008    24012    24013 
   24009    24009    24008    24007    24015    24012    24004    24008 
   24007    24007    24017    24013    24001    24008    24019    24009 
   24001    24008    24017    24013    24004    24008    24009    24007 
   24012    24012    24003    24004    24017    24015    23998    24000 
   24013    24015    24007    24008    24013    24008    24007    24012 
   24009    24008    24013    24013    24004    24007    24015    24012 
   24008    24008    24009    24011    24008    24007    24012    24009 
   24004    24009    24015    24011    24004    24004    24011    24012 
   24011    24009    24008    24012    24015    24008    24008    24012 
   24007    24008    24017    24012    24003    24007    24015    24015 
   24011    24009    24012    24013    24011    24007    24008    24008 
   24013    24015    24003    24001    24013    24015    24008    24004 
   24011    24011    24008    24015    24012    24003    24004    24013 
   24011    24008    24009    24011    24009    24009    24008    24004 
   24008    24013    24016    24011    24003    24007    24016    24013 
   24004    24004    24007    24012    24016    24008    24004    24011 
   24009    24007    24008    24011    24008    24008    24009    24012 
   24012    24004    24007    24012    24008    24004    24009    24011 
   24011    24007    24003    24011    24017    24012    24004    24001 
   24008    24016    24012    24007    24007    24012    24013    24009 
   24009    24008    24004    24012    24015    24008    24008    24011 
   24008    24011    24011    24001    24004    24016    24013    24004 
   24008    24012    24007    24004    24008    24011    24009    24012 
   24015    24004    23998    24013    24023    24004    23997    24012 
   24015    24008    24008    24007    24007    24011    24013    24013 
   24008    24007    24013    24013    24007    24007    24009    24009 
   24013    24013    24004    24004    24012    24013    24008    24004 
   24012    24017    24009    24004    24009    24013    24011    24009 
   24009    24004    24007    24011    24012    24011    24011    24007 
   24003    24012    24019    24008    24001    24007    24011    24013 
   24012    24004    23998    24008    24023    24013    23997    24004 
   24019    24016    24004    24004    24012    24012    24011    24012 
   24004    24003    24017    24015    24000    24004    24016    24015 
   24004    24004    24011    24009    24012    24015    24008    24003 
   24012    24017    24008    24007    24015    24012    24004    24008 
   24016    24009    24003    24013    24016    24003    24003    24016 
   24013    24004    24004    24012    24009    24007    24012    24011 
   24007    24009    24015    24013    24003    24004    24016    24008 
   24007    24017    24008    23998    24012    24019    24004    24003 
   24013    24016    24009    24008    24009    24008    24011    24015 
   24009    24000    24004    24020    24017    24001    24001    24015 
   24017    24011    24004    24004    24012    24021    24013    24004 
   24004    24012    24020    24016    24000    24004    24016    24017 
   24008    24001    24007    24015    24015    24009    24004    24008 
   24013    24015    24011    24004    24007    24013    24013    24004 
   24008    24013    24009    24008    24012    24007    24004    24013 
   24013    24011    24011    24011    24012    24011    24009    24012 
   24009    24004    24011    24019    24009    24001    24007    24012 
   24011    24009    24007    24007    24013    24013    24007    24001 
   24004    24017    24015    23998    24000    24015    24017    24008 
   24007    24013    24012    24008    24009    24011    24009    24012 
   24015    24007    24004    24016    24016    24004    24003    24011 
   24016    24012    24004    24004    24008    24009    24015    24015 
   24004    24004    24012    24009    24009    24015    24009    24004 
   24007    24008    24012    24009    24004    24011    24015    24016 
   24011    24004    24004    23998    23986    23980    23988    23997 
   23986    23965    23908    23835    23961    24241    24189    23909 
   24046    24295    23954    23581    23955    24513    24418    23815 
   23530    23996    24506    24266    23553    23441    24460    25000 
   23801    22939    23838    24655    24288    23727    23616    23961 
   24499    24395    23606    23356    24047    24509    24008    23703 
   24457    24567    23209    22977    24649    25131    23815    23370 
   23832    23946    24480    24588    23206    22994    24656    25138 
   24088    23433    23580    24061    24372    24237    23865    23726 
   24077    24181    23785    23897    24236    23908    23700    24206 
   24502    24042    23573    23665    24012    24474    24555    23656 
   23149    24212    24964    23870    23032    24075    24737    23905 
   23579    24116    24344    24144    24031    24024    23638    23679 
   24507    24310    23560    24039    24329    23646    23625    24372 
   24467    23661    23522    24455    24556    23728    23572    23944 
   24205    24266    23935    23745    24202    24409    23673    23249 
   24175    24885    24193    23502    23669    24092    24266    24093 
   23911    23928    24169    24254    23584    23367    24478    24806 
   23685    23315    24140    24529    24112    23857    23763    23743 
   24400    24634    23650    23403    24340    24409    23591    23669 
   24452    24420    23730    23606    24050    24250    24092    23953 
   23917    23949    24081    24123    23819    23633    24104    24516 
   24127    23683    23903    24221    24132    23928    23835    23920 
   24125    24054    23907    24102    24062    23777    24020    24220 
   23862    23940    24389    24000    23464    24047    24690    24167 
   23387    23641    24501    24522    23706    23463    24040    24311 
   23950    23836    24169    24209    23926    23861    24023    24078 
   23993    24039    24159    23990    23757    24047    24337    23800 
   23483    24248    24520    23758    23634    24287    24283    23691 
   23819    24385    24154    23777    23984    24021    23961    24159 
   24070    23776    23916    24310    24098    23533    23846    24486 
   24293    23905    23877    23859    23857    24123    24432    24109 
   23521    23728    24264    24229    23954    23905    23998    23923 
   23877    24219    24370    23931    23558    23884    24501    24314 
   23545    23642    24376    24262    23757    23993    24159    23809 
   23803    24192    24430    24116    23674    23907    24217    24040 
   23904    24027    24132    23953    23831    24119    24198    23855 
   23738    24019    24229    24016    23762    23895    24102    24078 
   23974    24030    24055    23965    24123    24198    23824    23730 
   24219    24440    23885    23508    24089    24437    23834    23645 
   24283    24349    23726    23681    24205    24306    23869    23707 
   24098    24177    23961    24136    24043    23733    24050    24283 
   23992    23805    23895    24205    24232    23722    23716    24304 
   24274    23829    23820    23961    24104    24375    24116    23465 
   23772    24633    24282    23391    23857    24742    24159    23195 
   23780    24717    24136    23468    24065    24374    23965    23918 
   23934    23865    24073    24165    24048    23877    23857    24125 
   24050    23737    24032    24467    24202    23649    23681    24198 
   24334    24044    23831    23815    23986    24093    24092    24115 
   23888    23823    24209    24106    23683    23997    24390    23977 
   23739    24192    24100    23593    23949    24385    24052    23878 
   24131    24200    23900    23672    24012    24310    24063    23928 
   24004    23946    23885    24019    24198    23930    23700    24152 
   24322    23961    23831    23863    24035    24244    24101    23901 
   23997    24139    23942    23714    24089    24416    23892    23568 
   24144    24403    23841    23588    24098    24374    23961    23791 
   24117    24066    23839    24066    24115    23831    23984    24279 
   23994    23630    24035    24537    24032    23484    23953    24298 
   24044    24102    24142    23824    23889    24198    24115    23838 
   23831    24062    24058    23958    24151    24102    23773    23927 
   24162    23880    23797    24213    24270    23903    23920    24165 
   24093    23954    23946    23950    23907    24019    24256    24046 
   23662    23900    24305    24189    23851    23795    24004    24219 
   24174    23816    23895    24368    23915    23415    24273    24694 
   23760    23402    24031    24304    24085    24044    24093    23924 
   23743    23903    24314    24225    23642    23784    24360    24127 
   23846    24231    24155    23518    23685    24513    24551    23720 
   23341    24077    24737    24125    23413    23847    24363    24142 
   23889    23938    24048    24027    23845    23916    24221    24231 
   23965    23697    23745    24243    24518    24055    23637    23863 
   24027    23935    24039    24131    23998    23920    24167    24129 
   23584    23885    24570    24016    23479    24124    24559    24073 
   23763    24070    24146    23943    23959    23852    23832    24158 
   23973    23669    24113    24345    23928    23755    24104    24366 
   24024    23765    24039    23950    23755    24275    24507    23811 
   23514    24221    24509    23739    23211    23618    24159    24221 
   24223    24564    24449    23446    23022    23815    24409    24572 
   24840    24322    23172    23136    24101    24255    23895    24551 
   24808    23538    23203    24334    24456    23664    23895    24390 
   23749    23512    24560    24834    23723    23184    23940    24476 
   23951    23584    24146    24526    24075    23616    23699    24025 
   24223    24205    23862    23444    24116    25066    24117    22974 
   23633    24406    24476    24293    23961    23754    23637    23967 
   24483    24306    23819    23457    23488    24179    24710    24240 
   23467    23548    24097    24247    24177    24097    24020    24078 
   24169    24050    23800    23827    24042    24166    24425    24374 
   23553    23340    24313    24630    23873    23525    23646    23839 
   24408    24557    23755    23205    23661    24480    24718    24214 
   23637    23507    23877    24418    24507    23890    23475    23974 
   24408    24225    24070    23963    23851    23913    24182    24517 
   24121    23377    23535    24151    24451    24092    23467    23680 
   24243    24422    24202    23575    23735    24480    24194    23834 
   24109    23982    23800    24003    24074    24209    24245    23669 
   23531    24262    24436    23915    23782    24024    24052    23923 
   24027    24314    24196    23769    23795    23980    23863    23804 
   23996    24367    24433    23961    23517    23580    24281    24572 
   23784    23696    24468    24025    23398    24277    24775    23814 
   23249    23841    24613    24522    23494    23517    24753    24322 
   23198    23950    24574    23923    23684    23904    24183    24426 
   23954    23446    23953    24327    23878    23970    24354    23893 
   23711    24131    24074    23984    24212    24042    23552    23827 
   24629    24251    23498    23915    24367    24282    23935    23454 
   23769    24402    24275    23890    23607    23803    24584    24370 
   23458    23989    24586    23592    23387    24628    24590    23417 
   23581    24429    24048    23674    24414    24331    23242    23591 
   24787    24478    23669    23706    23776    24159    24717    24007 
   23242    23895    24371    23976    24001    24302    23994    23595 
   23776    24151    24202    24096    24008    23892    24030    24193 
   23861    23754    24162    24105    23912    24219    24175    23845 
   23986    24067    23916    24105    24173    23755    23904    24607 
   24271    23292    23514    24629    24848    23757    23022    23665 
   24440    24578    24212    23475    23476    24169    24192    24121 
   24436    23873    23109    24032    25064    24209    23321    23691 
   24152    24266    24152    23963    23895    23828    24012    24287 
   24040    24020    24316    23622    23278    24568    24912    23596 
   23090    23841    24642    24636    23818    23375    23835    24363 
   24266    23731    23693    24359    24322    23525    23809    24591 
   24070    23410    23807    24241    24278    24294    23961    23483 
   23899    24544    24120    23603    23967    24302    24004    23826 
   24159    24258    23893    23521    23595    24441    24929    24023 
   23078    23591    24675    24541    23654    23535    24027    24390 
   24275    23863    23765    23895    24012    24129    24143    24133 
   23980    23681    23727    24150    24466    24231    23716    23749 
   24117    24066    24019    24174    23828    23661    24440    24563 
   23477    23483    24637    24453    23515    23707    24216    24196 
   24035    23877    23889    24197    24194    23768    23916    24231 
   23881    23912    24217    23957    23954    24098    23829    23814 
   24023    24125    24182    23913    23627    23938    24443    24285 
   23560    23508    24311    24555    24024    23758    23911    23982 
   23961    24063    24036    23923    24069    24101    24004    24025 
   23777    23726    24336    24521    23908    23577    23935    24295 
   24217    24019    23922    23836    23954    24281    24310    23900 
   23627    23950    24432    24275    23619    23637    24347    24288 
   23674    23807    24277    24287    23851    23554    23984    24387 
   24048    23733    23924    24120    23988    23920    24104    24088 
   23915    23881    23908    24019    24140    24139    24062    23940 
   23942    24021    23959    24011    24232    24194    23863    23692 
   24039    24491    24159    23577    23789    24154    24125    24061 
   23915    23834    23966    24009    24017    24111    24106    23977 
   23863    23942    24251    24314    23903    23695    23873    23930 
   24011    24148    24016    24024    24124    23877    23850    24155 
   24209    23994    23776    23889    24124    24093    24048    24004 
