Origin Time       2018/04/09 06:38:00
Lat.              35.2
Long.             132.6
Depth. (km)       10
Mag.              3.8
Station Code      SMN003
Station Lat.      35.1795
Station Long.     133.0929
Station Height(m) 332
Record Time       2018/04/09 06:39:02
Sampling Freq(Hz) 100Hz
Duration Time(s)  60
Dir.              N-S
Scale Factor      7845(gal)/8223790
Max. Acc. (gal)   3.543
Last Correction   2018/04/09 06:39:02
Memo.             
[...]
   -3281    -3292    -3296    -3288    -3277    -3276    -3287    -3292 
   -3284    -3280    -3283    -3291    -3291    -3283    -3279    -3284 
   -3288    -3288    -3288    -3283    -3284    -3296    -3289    -3275 
   -3279    -3291    -3292    -3284    -3283    -3287    -3288    -3291 
   -3287    -3275    -3273    -3284    -3292    -3292    -3289    -3287 
   -3283    -3279    -3277    -3287    -3296    -3284    -3279    -3288 
   -3289    -3281    -3277    -3281    -3288    -3289    -3284    -3284 
   -3292    -3287    -3277    -3280    -3289    -3287    -3279    -3283 
   -3291    -3288    -3279    -3279    -3284    -3284    -3284    -3292 
   -3288    -3283    -3284    -3283    -3287    -3283    -3275    -3283 
   -3294    -3294    -3284    -3276    -3280    -3289    -3289    -3284 
   -3284    -3287    -3287    -3284    -3283    -3283    -3284    -3289 
   -3287    -3281    -3291    -3292    -3280    -3280    -3288    -3287 
   -3279    -3284    -3296    -3289    -3277    -3287    -3292    -3284 
   -3284    -3284    -3281    -3284    -3291    -3291    -3280    -3280 
   -3291    -3284    -3273    -3279    -3289    -3295    -3291    -3281 
   -3276    -3281    -3287    -3288    -3283    -3283    -3291    -3291 
   -3281    -3279    -3281    -3281    -3284    -3287    -3287    -3292 
   -3289    -3276    -3277    -3288    -3289    -3283    -3279    -3289 
   -3298    -3284    -3273    -3276    -3291    -3294    -3281    -3279 
   -3289    -3292    -3284    -3281    -3283    -3283    -3283    -3287 
   -3287    -3284    -3289    -3287    -3279    -3281    -3284    -3283 
   -3291    -3291    -3279    -3277    -3289    -3292    -3284    -3281 
   -3281    -3281    -3287    -3287    -3281    -3283    -3288    -3289 
   -3284    -3280    -3277    -3284    -3292    -3287    -3277    -3280 
   -3287    -3288    -3288    -3287    -3280    -3276    -3283    -3288 
   -3288    -3287    -3284    -3283    -3284    -3284    -3284    -3284 
   -3284    -3289    -3291    -3279    -3272    -3284    -3294    -3284 
   -3280    -3284    -3289    -3288    -3279    -3276    -3284    -3287 
   -3288    -3289    -3284    -3277    -3281    -3292    -3287    -3273 
   -3284    -3298    -3283    -3275    -3284    -3284    -3283    -3284 
   -3284    -3284    -3284    -3281    -3284    -3287    -3284    -3284 
   -3283    -3277    -3281    -3288    -3288    -3284    -3283    -3277 
   -3281    -3294    -3288    -3277    -3284    -3288    -3283    -3284 
   -3284    -3284    -3284    -3284    -3284    -3287    -3283    -3281 
   -3281    -3280    -3287    -3292    -3280    -3275    -3284    -3287 
   -3283    -3287    -3287    -3281    -3281    -3287    -3291    -3289 
   -3283    -3283    -3288    -3283    -3279    -3288    -3291    -3287 
   -3284    -3280    -3277    -3284    -3291    -3284    -3277    -3288 
   -3292    -3283    -3281    -3287    -3283    -3284    -3288    -3280 
   -3275    -3283    -3292    -3291    -3279    -3280    -3291    -3288 
   -3281    -3284    -3280    -3277    -3287    -3291    -3284    -3279 
   -3283    -3289    -3287    -3284    -3284    -3281    -3284    -3291 
   -3283    -3280    -3287    -3291    -3284    -3276    -3284    -3294 
   -3284    -3283    -3288    -3284    -3281    -3284    -3287    -3280 
   -3277    -3288    -3291    -3283    -3283    -3288    -3283    -3280 
   -3291    -3291    -3280    -3284    -3294    -3284    -3279    -3284 
   -3284    -3291    -3294    -3281    -3272    -3280    -3295    -3291 
   -3277    -3284    -3291    -3280    -3276    -3284    -3288    -3289 
   -3294    -3287    -3279    -3281    -3289    -3288    -3279    -3280 
   -3292    -3291    -3280    -3283    -3284    -3289    -3292    -3277 
   -3276    -3291    -3291    -3284    -3280    -3289    -3292    -3279 
   -3279    -3291    -3287    -3280    -3284    -3287    -3284    -3281 
   -3287    -3289    -3281    -3281    -3287    -3284    -3281    -3283 
   -3284    -3292    -3289    -3283    -3280    -3279    -3284    -3292 
   -3284    -3280    -3284    -3284    -3281    -3284    -3291    -3289 
   -3281    -3279    -3284    -3288    -3288    -3289    -3283    -3279 
   -3287    -3292    -3284    -3275    -3281    -3298    -3291    -3276 
   -3284    -3294    -3289    -3284    -3279    -3277    -3292    -3294 
   -3281    -3280    -3284    -3289    -3289    -3280    -3276    -3283 
   -3291    -3288    -3283    -3284    -3287    -3284    -3284    -3284 
   -3284    -3281    -3281    -3287    -3292    -3287    -3277    -3283 
   -3291    -3287    -3284    -3281    -3281    -3288    -3288    -3284 
   -3284    -3284    -3288    -3294    -3284    -3271    -3283    -3298 
   -3284    -3275    -3288    -3292    -3279    -3281    -3294    -3287 
   -3277    -3280    -3284    -3287    -3284    -3283    -3283    -3283 
   -3284    -3287    -3284    -3280    -3283    -3291    -3287    -3279 
   -3284    -3287    -3280    -3281    -3284    -3284    -3288    -3284 
   -3277    -3284    -3294    -3284    -3277    -3284    -3289    -3281 
   -3283    -3284    -3283    -3284    -3289    -3284    -3283    -3284 
   -3284    -3279    -3281    -3291    -3291    -3284    -3283    -3281 
   -3281    -3283    -3287    -3288    -3284    -3284    -3284    -3284 
   -3281    -3279    -3287    -3291    -3283    -3283    -3287    -3287 
   -3284    -3283    -3284    -3288    -3288    -3281    -3280    -3281 
   -3283    -3284    -3288    -3284    -3280    -3287    -3291    -3283 
   -3279    -3284    -3289    -3291    -3284    -3283    -3283    -3283 
   -3287    -3284    -3279    -3284    -3292    -3288    -3281    -3281 
   -3289    -3291    -3283    -3281    -3288    -3288    -3284    -3284 
   -3284    -3284    -3294    -3289    -3273    -3276    -3288    -3287 
   -3279    -3283    -3291    -3284    -3284    -3291    -3284    -3275 
   -3284    -3289    -3283    -3280    -3284    -3288    -3281    -3283 
   -3288    -3281    -3281    -3287    -3284    -3287    -3284    -3281 
   -3281    -3288    -3292    -3284    -3277    -3280    -3289    -3292 
   -3280    -3279    -3284    -3284    -3289    -3294    -3281    -3276 
   -3284    -3291    -3288    -3284    -3284    -3284    -3284    -3281 
   -3284    -3284    -3280    -3284    -3284    -3283    -3283    -3284 
   -3291    -3287    -3280    -3284    -3288    -3280    -3281    -3289 
   -3284    -3281    -3284    -3283    -3284    -3294    -3284    -3275 
   -3284    -3294    -3284    -3280    -3284    -3283    -3284    -3288 
   -3284    -3284    -3281    -3284    -3292    -3284    -3276    -3284 
   -3289    -3289    -3284    -3277    -3284    -3292    -3284    -3284 
   -3288    -3280    -3279    -3287    -3288    -3283    -3281    -3287 
   -3289    -3287    -3283    -3277    -3287    -3292    -3279    -3280 
   -3291    -3289    -3284    -3284    -3283    -3283    -3279    -3280 
   -3288    -3289    -3283    -3287    -3289    -3284    -3287    -3284 
   -3279    -3284    -3295    -3289    -3277    -3281    -3291    -3284 
   -3284    -3284    -3279    -3284    -3289    -3284    -3281    -3288 
   -3292    -3287    -3280    -3279    -3284    -3284    -3284    -3288 
   -3284    -3280    -3283    -3284    -3284    -3284    -3288    -3283 
   -3277    -3284    -3289    -3287    -3284    -3284    -3284    -3283 
   -3284    -3289    -3283    -3275    -3287    -3299    -3283    -3276 
   -3284    -3284    -3284    -3287    -3284    -3284    -3288    -3284 
   -3280    -3284    -3291    -3289    -3284    -3284    -3287    -3284 
   -3284    -3291    -3287    -3281    -3283    -3283    -3284    -3287 
   -3288    -3284    -3279    -3283    -3291    -3289    -3287    -3284 
   -3284    -3284    -3287    -3292    -3287    -3275    -3280    -3295 
   -3288    -3273    -3284    -3295    -3284    -3279    -3284    -3287 
   -3288    -3291    -3284    -3276    -3287    -3294    -3284    -3283 
   -3288    -3284    -3288    -3284    -3271    -3277    -3300    -3300 
   -3280    -3271    -3283    -3300    -3294    -3279    -3281    -3284 
   -3287    -3291    -3281    -3277    -3288    -3292    -3283    -3275 
   -3284    -3295    -3284    -3277    -3284    -3284    -3281    -3280 
   -3277    -3283    -3284    -3279    -3295    -3308    -3265    -3225 
   -3281    -3358    -3353    -3334    -3323    -3237    -3198    -3295 
   -3291    -3167    -3244    -3464    -3392    -3073    -3071    -3462 
   -3653    -3348    -2920    -2933    -3443    -3753    -3252    -2575 
   -3075    -4298    -4148    -2669    -2087    -3105    -4230    -3983 
   -2740    -2319    -3388    -4407    -3755    -2106    -1984    -3954 
   -4912    -3303    -2153    -2986    -3630    -3403    -3276    -3369 
   -3597    -3650    -3061    -2644    -3376    -4041    -3261    -2393 
   -3071    -4166    -3899    -2647    -2176    -3086    -3962    -3861 
   -3321    -2809    -2915    -3753    -3801    -2855    -2752    -3549 
   -3874    -3538    -2991    -2802    -3277    -3662    -3304    -2930 
   -3226    -3623    -3459    -2974    -2841    -3191    -3582    -3812 
   -3501    -2667    -2778    -3836    -3762    -2848    -3034    -3855 
   -3595    -2617    -2820    -3775    -3566    -2974    -3280    -3402 
   -2999    -3130    -3515    -3403    -3215    -3433    -3514    -2992 
   -2759    -3269    -3650    -3717    -3568    -3136    -3071    -3449 
   -3418    -2817    -2617    -3530    -4371    -3653    -2382    -2358 
   -3338    -4058    -3859    -2914    -2517    -3433    -3925    -3084 
   -2745    -3418    -3716    -3296    -3015    -3377    -3569    -3065 
   -2803    -3325    -3880    -3676    -2980    -2779    -3198    -3532 
   -3483    -3234    -3292    -3650    -3535    -2999    -2758    -2971 
   -3514    -3927    -3477    -2600    -2721    -3676    -3813    -3079 
   -2833    -3373    -3747    -3298    -2806    -3194    -3694    -3532 
   -3350    -3336    -3073    -2963    -3254    -3393    -3200    -3213 
   -3445    -3260    -2997    -3372    -3738    -3373    -2928    -3160 
   -3705    -3640    -2970    -2694    -3109    -3607    -3744    -3439 
   -3010    -2971    -3304    -3461    -3248    -3095    -3177    -3338 
   -3572    -3546    -3094    -3029    -3458    -3348    -2983    -3388 
   -3846    -3246    -2542    -3129    -3936    -3481    -2889    -3234 
   -3522    -3160    -2975    -3342    -3424    -3114    -3348    -3719 
   -3275    -2762    -3172    -3878    -3709    -2964    -2839    -3272 
   -3522    -3466    -3231    -2997    -3042    -3402    -3569    -3291 
   -3210    -3391    -3229    -3073    -3339    -3527    -3289    -3080 
   -3362    -3586    -3235    -3029    -3304    -3287    -2922    -3107 
   -3632    -3481    -3164    -3497    -3603    -3003    -2851    -3476 
   -3653    -3117    -2967    -3331    -3447    -3245    -3132    -3299 
   -3462    -3329    -3169    -3234    -3353    -3283    -3206    -3372 
   -3430    -3245    -3173    -3323    -3451    -3306    -3221    -3447 
   -3354    -2890    -2867    -3335    -3593    -3375    -3152    -3218 
   -3284    -3303    -3410    -3418    -3335    -3357    -3317    -3150 
   -3173    -3329    -3333    -3284    -3317    -3406    -3349    -3099 
   -3082    -3312    -3323    -3179    -3240    -3449    -3433    -3127 
   -3033    -3366    -3586    -3304    -3001    -3307    -3700    -3280 
   -2829    -3271    -3643    -3414    -3154    -2890    -3015    -3784 
   -3947    -3036    -2519    -3230    -3854    -3252    -2740    -3461 
   -3896    -3146    -2752    -3355    -3646    -3269    -3222    -3384 
   -3167    -3138    -3429    -3372    -3084    -3245    -3703    -3456 
   -2708    -2891    -3609    -3569    -3219    -3190    -3280    -3358 
   -3365    -3295    -3204    -3213    -3407    -3454    -3106    -2937 
   -3459    -3893    -3375    -2749    -3055    -3547    -3399    -3105 
   -3078    -3190    -3369    -3492    -3392    -3132    -3095    -3383 
   -3473    -3237    -3190    -3487    -3522    -3061    -3042    -3538 
   -3515    -3276    -3262    -3056    -2986    -3260    -3338    -3192 
   -3246    -3566    -3684    -3230    -2740    -2941    -3554    -3762 
   -3365    -2979    -3199    -3684    -3499    -2774    -2797    -3608 
   -3781    -3165    -2978    -3302    -3376    -3335    -3345    -3171 
   -3073    -3365    -3719    -3388    -2688    -2998    -3813    -3570 
   -3007    -3177    -3260    -3071    -3358    -3596    -3246    -3118 
   -3508    -3530    -3011    -2918    -3388    -3465    -3206    -3312 
   -3474    -3353    -3292    -3380    -3165    -2776    -3165    -3824 
   -3385    -2732    -3018    -3592    -3863    -3640    -2991    -2759 
   -3194    -3440    -3256    -3176    -3325    -3461    -3453    -3388 
   -3407    -3237    -2974    -3226    -3410    -3052    -3191    -3620 
   -3306    -3065    -3411    -3372    -3060    -3194    -3377    -3323 
   -3410    -3544    -3362    -2975    -2835    -3323    -3856    -3496 
   -2957    -3057    -3105    -3176    -3697    -3623    -3024    -3198 
   -3491    -3132    -3026    -3330    -3439    -3339    -3245    -3383 
   -3555    -3206    -2716    -2918    -3488    -3634    -3485    -3442 
   -3308    -3024    -3001    -3296    -3547    -3443    -3145    -3215 
   -3438    -3222    -3026    -3254    -3427    -3415    -3380    -3302 
   -3308    -3244    -3037    -3167    -3508    -3395    -3063    -3149 
   -3384    -3221    -2860    -2994    -3542    -3326    -2323    -2068 
   -2829    -3442    -3759    -4623    -5760    -5606    -3588    -1479 
   -1341    -2928    -4486    -4835    -3807    -1857     -147     -337 
   -2546    -5003    -6588    -6889    -4938    -1305      429    -1554 
   -4013    -4392    -4139    -3956    -2903    -2100    -3118    -4255 
   -3809    -3466    -4017    -3566    -2246    -2450    -3450    -2527 
   -1655    -3713    -5310    -3634    -2001    -2803    -4031    -3994 
   -3676    -3645    -3177    -2902    -3499    -3650    -2701    -2126 
   -2671    -3113    -3042    -3446    -4126    -4203    -3929    -3461 
   -2509    -2182    -3488    -4600    -3732    -2413    -2623    -3468 
   -3373    -3156    -3334    -2529    -1713    -3049    -4977    -4777 
   -3136    -2766    -3573    -3366    -2924    -3707    -4289    -3604 
   -2698    -2766    -3306    -3099    -2920    -3553    -3672    -3156 
   -3358    -3809    -3111    -2115    -2639    -3676    -3605    -3496 
   -3965    -3766    -2656    -1944    -2458    -3584    -4280    -4145 
   -3570    -3213    -3327    -3476    -2797    -1900    -2614    -4228 
   -4247    -3169    -3028    -3439    -3456    -3152    -3010    -3492 
   -3640    -2820    -2319    -2756    -3353    -3458    -3234    -3273 
   -3878    -4614    -4499    -3585    -2907    -2889    -3379    -3326 
   -2403    -2533    -3546    -3334    -2658    -2840    -3380    -3554 
   -3232    -3073    -3272    -3573    -4047    -3973    -2978    -2388 
   -2986    -3719    -3692    -3515    -3508    -2988    -2546    -3283 
   -3847    -2932    -2303    -3264    -4305    -3924    -2361    -1701 
   -3480    -5173    -4233    -2729    -2887    -4162    -4827    -3217 
    -926    -1640    -4298    -4627    -2673    -1880    -2930    -3805 
   -3673    -3176    -3213    -3871    -3865    -3129    -3235    -3842 
   -3492    -2886    -3106    -3440    -3283    -3065    -3095    -3470 
   -3685    -3140    -2884    -3335    -3249    -2822    -2691    -2839 
   -3958    -4872    -3391    -1900    -3315    -4665    -3639    -2739 
   -2713    -2762    -3450    -3559    -2493    -2581    -3794    -3947 
   -3055    -2569    -3229    -4258    -4186    -3118    -2844    -3747 
   -3828    -2620    -2261    -3132    -3639    -3461    -3194    -3333 
   -3757    -3711    -3488    -3391    -2536    -1898    -3217    -4729 
   -4129    -2663    -2427    -3319    -3765    -2980    -2455    -3743 
   -5022    -3906    -2209    -2516    -3433    -3036    -2432    -3009 
   -4003    -3921    -3146    -3211    -3465    -3222    -3766    -4332 
   -3244    -1911    -2039    -3176    -4159    -3956    -2853    -2735 
   -3790    -3943    -3006    -2863    -3669    -3996    -3319    -2317 
   -2430    -3902    -4342    -2887    -2160    -3179    -4066    -3792 
   -3284    -3503    -3570    -2862    -3264    -4515    -3203     -653 
   -1795    -5150    -5178    -2532    -1818    -3152    -3738    -3608 
   -4104    -4137    -2790    -1946    -2624    -3435    -3732    -3699 
   -3211    -2948    -3723    -4518    -3588    -1869    -2180    -3896 
   -4230    -3553    -2891    -2196    -2710    -4097    -3996    -2965 
   -3134    -3744    -3192    -2654    -3362    -3807    -3339    -3200 
   -3261    -3199    -3716    -3983    -3119    -2590    -2905    -3183 
   -3655    -3916    -3217    -2573    -2825    -3572    -3923    -3115 
   -2362    -3362    -4513    -3759    -2535    -2257    -2571    -3726 
   -4737    -3970    -2728    -2614    -3059    -3267    -3211    -3206 
   -3379    -3388    -3248    -3699    -3954    -2687    -2211    -3955 
   -4324    -2523    -2316    -3755    -4047    -3379    -3049    -2971 
   -3046    -3296    -3453    -3358    -3032    -2999    -3544    -3782 
   -3445    -3350    -3144    -2625    -3335    -4407    -3315    -1898 
   -2972    -4492    -3944    -2898    -3153    -3627    -3037    -2093 
   -2408    -3955    -4530    -3271    -2417    -3250    -3927    -3555 
   -3334    -3134    -2801    -3387    -3921    -3230    -2801    -3314 
   -3468    -2801    -2349    -3211    -4444    -3981    -2598    -2740 
   -3923    -3928    -2922    -2747    -3365    -3568    -3630    -3535 
   -2778    -2762    -3854    -3867    -2754    -2749    -3645    -3528 
   -2805    -2896    -3464    -3694    -3246    -2469    -2903    -4263 
   -4191    -3033    -2852    -3406    -3577    -3310    -3082    -3279 
   -3593    -3443    -2963    -2882    -3312    -3404    -3075    -3127 
   -3472    -3369    -3052    -3360    -3820    -3399    -2683    -2814 
   -3474    -3466    -2970    -3327    -3935    -3260    -2501    -3400 
   -4556    -3831    -2293    -2373    -3630    -3901    -3069    -2701 
   -3207    -3539    -3279    -3121    -3343    -3730    -3897    -3210 
   -2513    -3157    -3984    -3601    -2744    -2506    -3129    -3932 
   -3848    -3082    -3011    -3500    -3372    -3105    -3299    -3323 
   -3076    -2938    -2986    -3227    -3399    -3350    -3400    -3474 
   -3202    -3109    -3666    -3912    -3336    -2936    -3122    -3312 
   -3225    -3192    -3418    -3495    -3393    -3288    -2836    -2506 
   -3092    -3824    -3730    -3254    -3186    -3492    -3586    -3111 
   -2890    -3500    -3535    -2779    -3102    -3956    -3433    -2640 
   -3341    -4248    -3767    -2772    -2353    -2567    -3241    -3871 
   -4083    -3762    -3002    -2740    -3244    -3234    -2701    -2976 
   -3798    -3910    -3276    -2772    -2866    -3511    -4217    -3888 
   -2651    -2181    -3021    -4059    -3979    -2828    -2373    -3435 
   -4387    -3734    -2438    -2386    -3516    -4302    -3875    -2654 
   -2280    -3397    -4149    -3522    -2816    -3021    -3615    -3520 
   -2980    -3142    -3465    -3109    -3084    -3646    -3500    -2785 
   -2798    -3597    -4121    -3615    -2748    -3009    -3928    -3534 
   -2492    -2771    -3504    -3484    -3350    -3312    -3271    -3427 
   -3402    -3103    -3122    -3450    -3326    -2643    -2598    -3661 
   -4263    -3546    -3018    -3366    -3416    -3172    -3350    -3361 
