Origin Time       2018/04/09 06:38:00
Lat.              35.2
Long.             132.6
Depth. (km)       10
Mag.              3.8
Station Code      HRSH03
Station Lat.      34.5183
Station Long.     133.1375
Station Height(m) -40
Record Time       2018/04/09 06:39:15
Sampling Freq(Hz) 100Hz
Duration Time(s)  120
Dir.              2
Scale Factor      3923(gal)/8224838
Max. Acc. (gal)   0.127
Last Correction   2018/04/09 06:39:00
Memo.             
[...]
   10503    10503    10500    10500    10505    10507    10503    10501 
   10503    10504    10503    10504    10504    10503    10501    10501 
   10503    10504    10503    10501    10503    10503    10501    10503 
   10503    10503    10504    10504    10501    10500    10503    10504 
   10500    10498    10504    10503    10500    10500    10503    10504 
   10504    10503    10503    10501    10503    10505    10505    10500 
   10500    10504    10504    10503    10500    10498    10501    10501 
   10498    10501    10503    10500    10498    10503    10505    10504 
   10503    10503    10503    10501    10501    10501    10500    10501 
   10503    10501    10501    10501    10500    10504    10504    10500 
   10500    10503    10503    10498    10498    10501    10500    10497 
   10501    10504    10503    10501    10503    10501    10500    10501 
   10503    10503    10500    10500    10505    10504    10498    10500 
   10501    10503    10504    10503    10501    10503    10500    10500 
   10503    10501    10500    10498    10500    10501    10501    10501 
   10503    10503    10503    10503    10503    10500    10500    10501 
   10500    10503    10503    10498    10498    10500    10500    10501 
   10501    10500    10501    10501    10504    10503    10500    10500 
   10503    10503    10503    10504    10501    10500    10501    10503 
   10500    10501    10501    10500    10501    10503    10500    10500 
   10503    10501    10500    10500    10498    10498    10504    10505 
   10503    10500    10501    10504    10503    10500    10503    10504 
   10501    10500    10501    10501    10501    10501    10503    10503 
   10501    10504    10504    10503    10501    10500    10500    10501 
   10500    10503    10505    10503    10503    10507    10504    10501 
   10501    10500    10501    10501    10500    10500    10501    10501 
   10500    10501    10501    10500    10501    10503    10503    10500 
   10501    10501    10497    10498    10503    10504    10503    10503 
   10501    10503    10504    10503    10501    10503    10501    10500 
   10501    10498    10500    10504    10501    10503    10504    10501 
   10501    10504    10503    10501    10503    10503    10501    10501 
   10503    10503    10501    10504    10504    10501    10498    10500 
   10503    10500    10497    10500    10504    10501    10498    10500 
   10501    10500    10500    10501    10501    10501    10503    10501 
   10503    10503    10501    10503    10503    10500    10500    10501 
   10501    10500    10500    10500    10501    10501    10500    10500 
   10503    10503    10503    10504    10500    10501    10504    10501 
   10498    10500    10501    10500    10500    10501    10501    10498 
   10500    10503    10503    10500    10500    10504    10504    10498 
   10500    10503    10503    10500    10498    10503    10503    10501 
   10504    10504    10501    10501    10503    10503    10501    10503 
   10503    10503    10501    10500    10498    10498    10501    10503 
   10501    10503    10503    10501    10501    10503    10503    10501 
   10501    10501    10503    10504    10503    10500    10500    10504 
   10501    10498    10501    10498    10497    10503    10504    10501 
   10501    10503    10503    10503    10505    10507    10504    10501 
   10504    10505    10505    10501    10496    10494    10493    10488 
   10478    10473    10477    10489    10501    10516    10530    10543 
   10554    10551    10530    10497    10466    10454    10466    10482 
   10480    10476    10501    10534    10528    10500    10492    10505 
   10519    10517    10498    10496    10536    10575    10559    10501 
   10459    10458    10477    10488    10467    10453    10485    10516 
   10508    10503    10498    10498    10517    10524    10519    10525 
   10516    10488    10467    10463    10498    10544    10531    10489 
   10489    10515    10517    10498    10481    10466    10461    10486 
   10520    10531    10539    10543    10534    10500    10477    10492 
   10492    10473    10478    10473    10470    10525    10588    10566 
   10481    10426    10438    10485    10519    10507    10473    10485 
   10523    10528    10496    10476    10519    10578    10557    10493 
   10493    10519    10503    10477    10451    10439    10488    10558 
   10547    10474    10449    10489    10511    10500    10500    10505 
   10507    10520    10531    10508    10492    10497    10480    10476 
   10511    10521    10515    10536    10550    10505    10459    10471 
   10500    10485    10471    10512    10540    10517    10504    10515 
   10515    10498    10477    10466    10465    10476    10513    10534 
   10519    10516    10515    10494    10494    10513    10515    10517 
   10528    10508    10481    10496    10503    10461    10449    10496 
   10523    10509    10496    10489    10494    10509    10508    10501 
   10528    10565    10534    10473    10478    10507    10500    10498 
   10505    10490    10489    10515    10512    10473    10470    10505 
   10512    10500    10504    10503    10503    10527    10542    10509 
   10462    10466    10504    10525    10523    10493    10462    10461 
   10481    10496    10486    10496    10534    10538    10511    10513 
   10513    10492    10493    10503    10505    10520    10519    10500 
   10509    10530    10521    10492    10477    10480    10466    10463 
   10504    10517    10485    10477    10473    10457    10481    10517 
   10532    10531    10527    10542    10548    10512    10474    10477 
   10496    10494    10505    10555    10551    10473    10446    10497 
   10511    10474    10469    10484    10492    10511    10519    10523 
   10535    10520    10489    10473    10473    10500    10525    10501 
   10484    10503    10507    10490    10477    10473    10497    10520 
   10509    10511    10540    10536    10508    10500    10492    10492 
   10511    10505    10489    10501    10508    10494    10489    10490 
   10501    10521    10523    10511    10507    10512    10515    10488 
   10461    10476    10497    10489    10474    10481    10498    10496 
   10497    10523    10542    10536    10512    10498    10509    10517 
   10509    10503    10513    10515    10503    10504    10490    10466 
   10478    10509    10516    10492    10469    10477    10503    10505 
   10496    10512    10524    10507    10507    10513    10498    10508 
   10528    10516    10504    10488    10463    10484    10517    10504 
   10494    10503    10480    10470    10498    10505    10517    10557 
   10543    10489    10471    10477    10481    10493    10505    10511 
   10516    10512    10486    10462    10461    10494    10540    10543 
   10513    10508    10507    10496    10500    10512    10516    10511 
   10500    10497    10492    10480    10489    10515    10519    10515 
   10530    10535    10517    10480    10444    10454    10486    10508 
   10519    10501    10480    10507    10530    10488    10455    10484 
   10508    10503    10508    10527    10525    10515    10517    10512 
   10498    10517    10542    10523    10497    10507    10517    10494 
   10476    10490    10503    10493    10492    10480    10466    10480 
   10490    10503    10525    10524    10507    10500    10496    10493 
   10507    10520    10494    10471    10493    10527    10536    10520 
   10492    10485    10501    10508    10504    10496    10489    10493 
   10509    10513    10497    10488    10498    10512    10520    10509 
   10492    10484    10492    10509    10509    10501    10509    10511 
   10496    10490    10494    10497    10500    10504    10498    10494 
   10504    10507    10500    10497    10496    10504    10513    10505 
   10493    10505    10524    10507    10471    10477    10504    10505 
   10498    10511    10520    10512    10520    10536    10516    10484 
   10481    10486    10485    10486    10496    10507    10516    10527 
   10523    10501    10484    10485    10494    10507    10508    10497 
   10501    10509    10498    10490    10505    10512    10501    10505 
   10517    10498    10481    10494    10505    10498    10490    10485 
   10492    10509    10509    10507    10521    10517    10498    10494 
   10500    10497    10498    10511    10517    10504    10490    10482 
   10485    10505    10511    10492    10505    10516    10494    10504 
   10523    10511    10508    10513    10504    10494    10489    10490 
   10489    10480    10486    10508    10513    10516    10519    10511 
   10508    10509    10513    10517    10512    10503    10488    10473 
   10482    10500    10494    10484    10481    10496    10523    10516 
   10480    10490    10530    10513    10490    10504    10505    10496 
   10504    10516    10525    10524    10509    10498    10490    10484 
   10494    10497    10484    10494    10517    10515    10498    10496 
   10504    10501    10490    10494    10508    10512    10517    10520 
   10509    10493    10488    10492    10484    10469    10474    10497 
   10507    10509    10516    10520    10509    10488    10488    10498 
   10494    10508    10536    10534    10509    10507    10513    10504 
   10498    10496    10473    10473    10507    10511    10494    10493 
   10486    10481    10507    10539    10525    10490    10501    10528 
   10525    10515    10497    10476    10482    10504    10505    10488 
   10482    10494    10500    10498    10515    10539    10532    10509 
   10493    10484    10490    10500    10504    10519    10521    10503 
   10490    10500    10513    10503    10498    10505    10484    10458 
   10466    10482    10486    10493    10505    10523    10535    10527 
   10503    10489    10500    10512    10500    10492    10505    10512 
   10517    10525    10511    10500    10501    10493    10497    10508 
   10497    10490    10508    10516    10501    10486    10486    10490 
   10503    10515    10509    10494    10494    10507    10498    10482 
   10490    10497    10493    10494    10498    10497    10501    10520 
   10531    10523    10515    10500    10478    10482    10503    10509 
   10505    10505    10503    10492    10492    10508    10512    10507 
   10515    10523    10511    10486    10476    10477    10480    10494 
   10519    10516    10498    10504    10512    10501    10496    10501 
   10508    10512    10497    10482    10490    10503    10507    10513 
   10511    10500    10498    10497    10480    10481    10521    10550 
   10513    10471    10485    10516    10527    10516    10496    10486 
   10485    10485    10496    10511    10516    10513    10500    10490 
   10492    10496    10508    10528    10535    10520    10496    10488 
   10504    10505    10485    10474    10482    10490    10488    10484 
   10496    10513    10511    10498    10505    10509    10492    10484 
   10503    10530    10542    10517    10481    10493    10524    10501 
   10474    10492    10497    10492    10511    10515    10497    10505 
   10521    10503    10489    10494    10481    10489    10520    10519 
   10517    10523    10500    10476    10478    10489    10492    10490 
   10494    10501    10505    10505    10504    10512    10515    10503 
   10494    10501    10501    10492    10498    10509    10509    10507 
   10493    10500    10525    10516    10490    10486    10493    10501 
   10505    10505    10512    10516    10498    10488    10504    10508 
   10490    10490    10501    10493    10493    10508    10507    10494 
   10494    10504    10508    10498    10490    10501    10507    10492 
   10492    10503    10511    10513    10504    10490    10494    10515 
   10517    10496    10486    10492    10496    10501    10500    10515 
   10528    10503    10485    10496    10500    10504    10513    10512 
   10508    10504    10500    10504    10497    10498    10513    10504 
   10494    10516    10536    10517    10481    10481    10508    10508 
   10486    10490    10501    10493    10498    10512    10507    10500 
   10515    10516    10493    10481    10496    10504    10490    10488 
   10503    10511    10503    10497    10497    10492    10497    10516 
   10515    10501    10500    10497    10496    10497    10494    10500 
   10512    10515    10512    10505    10490    10488    10512    10523 
   10501    10497    10498    10486    10498    10527    10524    10504 
   10501    10505    10489    10462    10469    10505    10521    10509 
   10501    10515    10527    10498    10465    10481    10512    10512 
   10497    10508    10532    10528    10509    10500    10494    10497 
   10489    10478    10501    10521    10498    10482    10505    10527 
   10512    10492    10493    10493    10481    10485    10504    10516 
   10519    10509    10505    10515    10516    10508    10505    10500 
   10490    10484    10484    10490    10501    10507    10513    10521 
   10511    10493    10497    10515    10513    10497    10492    10496 
   10493    10484    10482    10501    10525    10521    10490    10481 
   10507    10525    10517    10493    10469    10469    10488    10511 
   10523    10527    10523    10507    10492    10486    10481    10480 
   10497    10516    10519    10512    10508    10515    10519    10503 
   10494    10498    10493    10501    10532    10542    10512    10494 
   10503    10492    10463    10439    10409    10385    10378    10377 
   10404    10436    10417    10409    10450    10496    10567    10679 
   10764    10768    10723    10682    10646    10601    10542    10471 
   10430    10419    10401    10385    10397    10440    10497    10571 
   10631    10608    10536    10520    10565    10584    10535    10462 
   10422    10411    10409    10423    10431    10434    10493    10552 
   10508    10419    10400    10435    10469    10500    10532    10528 
   10492    10481    10493    10503    10509    10501    10493    10497 
   10511    10544    10597    10623    10588    10540    10520    10500 
   10474    10454    10427    10409    10435    10500    10530    10486 
   10465    10503    10530    10548    10566    10530    10497    10538 
   10567    10540    10524    10508    10454    10419    10453    10496 
   10494    10459    10439    10494    10588    10590    10507    10470 
   10520    10551    10501    10436    10411    10427    10480    10521 
   10539    10550    10519    10440    10397    10430    10496    10550 
   10588    10616    10612    10573    10520    10497    10508    10492 
   10455    10458    10473    10507    10579    10581    10492    10440 
   10412    10382    10416    10449    10434    10467    10516    10500 
   10484    10498    10512    10528    10546    10563    10573    10555 
   10519    10484    10473    10486    10466    10453    10523    10590 
   10596    10604    10592    10508    10436    10435    10477    10509 
   10494    10447    10397    10388    10458    10539    10557    10515 
   10482    10504    10516    10496    10542    10605    10565    10484 
   10442    10422    10447    10515    10534    10482    10440    10478 
   10563    10611    10608    10558    10481    10459    10501    10542 
   10563    10540    10476    10484    10543    10532    10512    10517 
   10462    10415    10476    10538    10493    10436    10450    10478 
   10505    10528    10524    10536    10552    10524    10493    10512 
   10535    10481    10423    10470    10555    10571    10527    10490 
   10482    10477    10461    10473    10540    10577    10530    10484 
   10474    10461    10450    10473    10539    10559    10485    10430 
   10454    10492    10511    10488    10428    10401    10427    10461 
   10484    10484    10473    10486    10488    10459    10447    10454 
   10490    10565    10604    10557    10484    10490    10559    10567 
   10512    10485    10511    10554    10571    10542    10512    10519 
   10523    10507    10501    10521    10544    10540    10478    10434 
   10489    10536    10505    10496    10512    10485    10450    10449 
   10489    10551    10551    10478    10431    10440    10455    10485 
   10534    10558    10536    10496    10455    10426    10457    10519 
   10535    10534    10542    10528    10501    10497    10530    10552 
   10511    10473    10512    10531    10485    10501    10559    10540 
   10511    10524    10532    10539    10532    10477    10446    10493 
   10521    10494    10493    10505    10496    10486    10494    10519 
   10530    10498    10488    10517    10527    10528    10530    10484 
   10449    10467    10467    10443    10457    10481    10488    10517 
   10567    10569    10496    10457    10512    10528    10463    10440 
   10461    10478    10503    10492    10457    10473    10516    10523 
   10530    10538    10503    10486    10504    10473    10443    10476 
   10513    10525    10516    10471    10430    10436    10482    10524 
   10528    10524    10536    10543    10536    10524    10513    10521 
   10540    10525    10474    10446    10482    10528    10524    10520 
   10523    10481    10446    10470    10525    10594    10601    10527 
   10493    10521    10525    10481    10439    10465    10503    10490 
   10488    10517    10536    10538    10527    10504    10496    10505 
   10497    10478    10486    10530    10555    10535    10523    10527 
   10504    10476    10484    10511    10501    10466    10466    10517 
   10563    10548    10501    10476    10471    10476    10461    10440 
   10469    10508    10497    10488    10516    10523    10484    10458 
   10453    10434    10450    10497    10498    10481    10484    10476 
   10469    10488    10498    10488    10505    10544    10546    10516 
   10480    10451    10451    10466    10494    10535    10569    10578 
   10565    10542    10507    10497    10524    10513    10474    10467 
   10466    10473    10511    10523    10511    10521    10531    10503 
   10461    10478    10532    10536    10509    10494    10508    10552 
   10550    10494    10478    10489    10474    10461    10467    10473 
   10477    10486    10505    10531    10536    10523    10517    10501 
   10486    10500    10505    10503    10535    10550    10494    10447 
   10477    10515    10508    10493    10482    10485    10493    10486 
   10492    10524    10555    10558    10539    10507    10477    10482 
   10511    10508    10481    10471    10481    10505    10532    10542 
   10523    10504    10505    10496    10471    10453    10447    10485 
   10534    10524    10489    10485    10488    10474    10474    10517 
   10531    10481    10469    10512    10525    10513    10503    10496 
   10492    10465    10451    10492    10534    10546    10557    10554 
   10523    10484    10477    10507    10525    10507    10494    10523 
   10555    10539    10490    10469    10492    10524    10531    10504 
   10459    10449    10469    10474    10476    10476    10466    10459 
   10459    10486    10535    10550    10519    10489    10489    10503 
   10509    10519    10528    10519    10519    10536    10530    10508 
   10503    10512    10530    10535    10512    10497    10505    10504 
   10478    10478    10507    10500    10485    10500    10497    10497 
   10524    10521    10494    10500    10528    10525    10501    10486 
   10478    10488    10500    10481    10470    10485    10478    10458 
