Origin Time       2018/04/09 06:38:00
Lat.              35.2
Long.             132.6
Depth. (km)       10
Mag.              3.8
Station Code      HRSH03
Station Lat.      34.5183
Station Long.     133.1375
Station Height(m) -40
Record Time       2018/04/09 06:39:15
Sampling Freq(Hz) 100Hz
Duration Time(s)  120
Dir.              1
Scale Factor      3923(gal)/8224838
Max. Acc. (gal)   0.157
Last Correction   2018/04/09 06:39:00
Memo.             
[...]
  -28769   -28769   -28772   -28773   -28769   -28768   -28771   -28769 
  -28768   -28771   -28771   -28768   -28768   -28771   -28769   -28768 
  -28768   -28765   -28767   -28772   -28771   -28768   -28768   -28771 
  -28772   -28769   -28768   -28769   -28769   -28768   -28771   -28773 
  -28772   -28765   -28764   -28768   -28769   -28769   -28769   -28769 
  -28771   -28769   -28768   -28771   -28769   -28767   -28767   -28768 
  -28771   -28771   -28769   -28768   -28768   -28769   -28769   -28769 
  -28768   -28768   -28769   -28769   -28772   -28771   -28768   -28769 
  -28771   -28769   -28768   -28769   -28769   -28767   -28767   -28769 
  -28771   -28772   -28771   -28769   -28769   -28768   -28768   -28769 
  -28768   -28768   -28768   -28769   -28771   -28771   -28768   -28769 
  -28769   -28769   -28769   -28771   -28769   -28767   -28767   -28769 
  -28769   -28768   -28769   -28771   -28771   -28769   -28768   -28769 
  -28771   -28771   -28769   -28769   -28771   -28771   -28769   -28771 
  -28772   -28769   -28769   -28771   -28771   -28771   -28769   -28769 
  -28771   -28772   -28769   -28769   -28771   -28772   -28768   -28768 
  -28772   -28771   -28768   -28768   -28771   -28771   -28769   -28771 
  -28769   -28768   -28769   -28769   -28768   -28768   -28768   -28768 
  -28769   -28771   -28769   -28768   -28771   -28773   -28771   -28769 
  -28768   -28768   -28769   -28768   -28767   -28768   -28771   -28768 
  -28767   -28769   -28771   -28771   -28769   -28771   -28769   -28767 
  -28767   -28768   -28769   -28769   -28769   -28771   -28772   -28769 
  -28771   -28771   -28767   -28765   -28769   -28769   -28768   -28767 
  -28768   -28769   -28768   -28768   -28771   -28771   -28769   -28768 
  -28768   -28772   -28769   -28767   -28769   -28769   -28767   -28765 
  -28765   -28767   -28768   -28767   -28768   -28769   -28765   -28765 
  -28768   -28769   -28769   -28768   -28768   -28769   -28769   -28768 
  -28768   -28769   -28771   -28771   -28769   -28768   -28768   -28771 
  -28771   -28769   -28771   -28771   -28767   -28767   -28769   -28771 
  -28767   -28767   -28769   -28769   -28768   -28768   -28768   -28769 
  -28769   -28768   -28769   -28768   -28768   -28769   -28769   -28769 
  -28768   -28767   -28768   -28771   -28769   -28769   -28771   -28769 
  -28768   -28768   -28769   -28772   -28773   -28771   -28768   -28768 
  -28769   -28765   -28767   -28771   -28769   -28768   -28767   -28767 
  -28769   -28771   -28769   -28768   -28768   -28771   -28768   -28767 
  -28769   -28771   -28771   -28768   -28768   -28772   -28769   -28765 
  -28767   -28771   -28769   -28769   -28772   -28771   -28768   -28769 
  -28768   -28768   -28769   -28771   -28769   -28769   -28769   -28769 
  -28769   -28768   -28767   -28765   -28767   -28768   -28768   -28771 
  -28772   -28769   -28768   -28769   -28769   -28768   -28768   -28769 
  -28769   -28768   -28769   -28772   -28771   -28768   -28767   -28768 
  -28771   -28771   -28771   -28767   -28768   -28772   -28771   -28768 
  -28769   -28771   -28767   -28767   -28768   -28769   -28771   -28771 
  -28771   -28769   -28769   -28772   -28772   -28769   -28771   -28773 
  -28769   -28768   -28771   -28771   -28769   -28769   -28768   -28767 
  -28767   -28769   -28771   -28771   -28771   -28771   -28772   -28775 
  -28772   -28771   -28771   -28768   -28764   -28760   -28756   -28752 
  -28745   -28736   -28734   -28748   -28768   -28787   -28799   -28814 
  -28831   -28833   -28813   -28782   -28752   -28728   -28721   -28734 
  -28738   -28730   -28749   -28795   -28810   -28776   -28757   -28788 
  -28807   -28771   -28744   -28775   -28815   -28815   -28792   -28768 
  -28741   -28723   -28732   -28741   -28738   -28746   -28765   -28768 
  -28783   -28819   -28833   -28814   -28786   -28763   -28757   -28767 
  -28759   -28709   -28680   -28725   -28777   -28784   -28792   -28821 
  -28826   -28800   -28779   -28761   -28741   -28748   -28777   -28765 
  -28733   -28750   -28786   -28783   -28768   -28773   -28792   -28795 
  -28771   -28744   -28729   -28742   -28784   -28817   -28826   -28819 
  -28786   -28732   -28701   -28721   -28761   -28782   -28764   -28738 
  -28755   -28798   -28796   -28767   -28768   -28795   -28809   -28784 
  -28750   -28746   -28760   -28780   -28773   -28740   -28750   -28795 
  -28791   -28745   -28723   -28749   -28756   -28740   -28768   -28807 
  -28798   -28787   -28791   -28782   -28780   -28784   -28750   -28726 
  -28755   -28788   -28784   -28777   -28783   -28772   -28759   -28768 
  -28769   -28742   -28737   -28767   -28776   -28767   -28772   -28784 
  -28791   -28791   -28769   -28744   -28750   -28786   -28795   -28768 
  -28744   -28752   -28775   -28777   -28764   -28769   -28791   -28791 
  -28760   -28757   -28795   -28790   -28753   -28761   -28773   -28745 
  -28733   -28755   -28779   -28784   -28763   -28741   -28756   -28792 
  -28827   -28823   -28767   -28730   -28757   -28787   -28783   -28776 
  -28768   -28748   -28750   -28769   -28767   -28763   -28768   -28757 
  -28760   -28780   -28775   -28769   -28780   -28760   -28736   -28768 
  -28795   -28767   -28769   -28818   -28806   -28744   -28726   -28752 
  -28763   -28756   -28752   -28768   -28792   -28804   -28799   -28777 
  -28752   -28753   -28771   -28771   -28756   -28750   -28750   -28755 
  -28765   -28759   -28748   -28760   -28772   -28777   -28791   -28795 
  -28787   -28791   -28799   -28784   -28752   -28738   -28753   -28772 
  -28776   -28776   -28779   -28780   -28777   -28776   -28772   -28750 
  -28725   -28738   -28776   -28783   -28755   -28756   -28790   -28791 
  -28769   -28755   -28749   -28761   -28783   -28788   -28782   -28776 
  -28780   -28772   -28753   -28748   -28756   -28773   -28786   -28786 
  -28791   -28776   -28745   -28742   -28748   -28753   -28777   -28786 
  -28763   -28746   -28771   -28790   -28769   -28750   -28759   -28775 
  -28799   -28817   -28795   -28759   -28755   -28760   -28745   -28755 
  -28786   -28777   -28755   -28760   -28771   -28784   -28792   -28780 
  -28773   -28759   -28726   -28728   -28773   -28786   -28763   -28765 
  -28761   -28745   -28760   -28771   -28764   -28784   -28817   -28811 
  -28779   -28755   -28746   -28756   -28775   -28777   -28764   -28759 
  -28760   -28764   -28775   -28784   -28771   -28748   -28750   -28773 
  -28786   -28775   -28764   -28764   -28772   -28790   -28790   -28761 
  -28752   -28769   -28782   -28776   -28753   -28749   -28776   -28782 
  -28755   -28746   -28769   -28788   -28782   -28761   -28748   -28760 
  -28794   -28802   -28769   -28740   -28746   -28760   -28756   -28756 
  -28773   -28791   -28791   -28768   -28752   -28771   -28794   -28782 
  -28769   -28773   -28768   -28759   -28763   -28760   -28749   -28765 
  -28784   -28764   -28752   -28775   -28779   -28761   -28763   -28776 
  -28776   -28769   -28765   -28761   -28753   -28757   -28779   -28803 
  -28798   -28763   -28746   -28756   -28768   -28777   -28775   -28768 
  -28768   -28773   -28783   -28783   -28769   -28771   -28776   -28773 
  -28771   -28764   -28750   -28749   -28767   -28782   -28773   -28756 
  -28748   -28768   -28787   -28773   -28760   -28776   -28787   -28765 
  -28746   -28755   -28772   -28780   -28773   -28763   -28760   -28768 
  -28786   -28790   -28761   -28740   -28761   -28773   -28756   -28756 
  -28768   -28768   -28764   -28752   -28755   -28780   -28787   -28775 
  -28777   -28794   -28796   -28780   -28775   -28779   -28764   -28755 
  -28761   -28759   -28756   -28763   -28765   -28768   -28768   -28768 
  -28780   -28791   -28776   -28750   -28750   -28771   -28771   -28756 
  -28767   -28786   -28772   -28756   -28764   -28771   -28772   -28771 
  -28768   -28772   -28773   -28772   -28771   -28769   -28767   -28759 
  -28759   -28771   -28775   -28768   -28771   -28780   -28779   -28772 
  -28775   -28771   -28759   -28759   -28761   -28768   -28784   -28783 
  -28765   -28765   -28767   -28756   -28772   -28799   -28794   -28776 
  -28763   -28752   -28757   -28767   -28760   -28756   -28768   -28773 
  -28767   -28767   -28765   -28759   -28764   -28780   -28786   -28773 
  -28764   -28771   -28783   -28788   -28783   -28773   -28765   -28767 
  -28759   -28742   -28745   -28767   -28779   -28780   -28767   -28755 
  -28767   -28784   -28784   -28767   -28759   -28769   -28775   -28767 
  -28760   -28760   -28767   -28764   -28765   -28790   -28794   -28764 
  -28748   -28744   -28748   -28776   -28790   -28767   -28756   -28767 
  -28773   -28777   -28775   -28772   -28779   -28776   -28755   -28756 
  -28783   -28795   -28783   -28764   -28740   -28738   -28772   -28786 
  -28763   -28759   -28779   -28779   -28757   -28755   -28764   -28755 
  -28764   -28800   -28809   -28784   -28761   -28753   -28764   -28769 
  -28759   -28760   -28776   -28776   -28769   -28765   -28761   -28765 
  -28776   -28775   -28775   -28775   -28757   -28749   -28782   -28807 
  -28791   -28772   -28764   -28755   -28745   -28748   -28760   -28757 
  -28753   -28768   -28784   -28784   -28771   -28765   -28769   -28772 
  -28777   -28776   -28773   -28779   -28780   -28776   -28776   -28767 
  -28753   -28750   -28757   -28755   -28745   -28761   -28780   -28784 
  -28795   -28792   -28772   -28760   -28757   -28764   -28776   -28772 
  -28773   -28792   -28791   -28759   -28738   -28746   -28759   -28771 
  -28790   -28794   -28779   -28773   -28787   -28791   -28771   -28768 
  -28784   -28777   -28750   -28734   -28738   -28750   -28769   -28792 
  -28792   -28779   -28776   -28773   -28757   -28753   -28769   -28772 
  -28760   -28765   -28772   -28759   -28749   -28768   -28786   -28780 
  -28775   -28777   -28782   -28779   -28761   -28757   -28771   -28775 
  -28773   -28782   -28784   -28772   -28755   -28744   -28764   -28787 
  -28772   -28763   -28777   -28771   -28752   -28748   -28752   -28755 
  -28769   -28782   -28780   -28784   -28788   -28773   -28757   -28755 
  -28759   -28761   -28763   -28769   -28779   -28784   -28790   -28787 
  -28764   -28744   -28753   -28773   -28776   -28760   -28753   -28769 
  -28784   -28769   -28755   -28760   -28775   -28777   -28767   -28767 
  -28773   -28768   -28765   -28769   -28768   -28765   -28768   -28767 
  -28759   -28755   -28768   -28787   -28792   -28788   -28777   -28764 
  -28753   -28752   -28765   -28776   -28769   -28761   -28761   -28769 
  -28776   -28773   -28767   -28763   -28759   -28757   -28779   -28803 
  -28787   -28750   -28745   -28771   -28790   -28782   -28752   -28736 
  -28756   -28777   -28775   -28769   -28782   -28787   -28773   -28772 
  -28783   -28776   -28761   -28764   -28775   -28773   -28763   -28767 
  -28780   -28776   -28753   -28740   -28744   -28752   -28757   -28773 
  -28792   -28798   -28782   -28759   -28755   -28768   -28780   -28773 
  -28745   -28738   -28759   -28760   -28765   -28794   -28806   -28784 
  -28760   -28764   -28783   -28791   -28788   -28780   -28767   -28756 
  -28753   -28755   -28746   -28741   -28752   -28769   -28788   -28795 
  -28782   -28769   -28782   -28803   -28796   -28760   -28733   -28732 
  -28752   -28776   -28775   -28763   -28765   -28767   -28777   -28791 
  -28773   -28760   -28777   -28783   -28771   -28769   -28767   -28761 
  -28763   -28760   -28756   -28761   -28764   -28761   -28768   -28786 
  -28798   -28795   -28782   -28764   -28756   -28755   -28755   -28753 
  -28748   -28755   -28775   -28790   -28796   -28798   -28783   -28763 
  -28759   -28764   -28761   -28755   -28768   -28783   -28769   -28750 
  -28752   -28759   -28768   -28776   -28790   -28803   -28796   -28783 
  -28776   -28777   -28779   -28761   -28750   -28760   -28769   -28769 
  -28746   -28723   -28746   -28787   -28800   -28790   -28776   -28768 
  -28769   -28773   -28771   -28776   -28782   -28764   -28755   -28765 
  -28757   -28753   -28779   -28791   -28771   -28759   -28759   -28761 
  -28780   -28791   -28780   -28775   -28767   -28748   -28746   -28763 
  -28772   -28768   -28776   -28798   -28802   -28780   -28763   -28763 
  -28767   -28761   -28746   -28742   -28753   -28777   -28791   -28775 
  -28767   -28775   -28769   -28767   -28780   -28784   -28777   -28767 
  -28769   -28780   -28773   -28761   -28755   -28742   -28750   -28782 
  -28798   -28779   -28750   -28746   -28771   -28791   -28790   -28780 
  -28779   -28776   -28777   -28782   -28777   -28765   -28756   -28755 
  -28767   -28786   -28779   -28761   -28763   -28765   -28764   -28771 
  -28771   -28769   -28773   -28772   -28786   -28790   -28759   -28746 
  -28761   -28755   -28742   -28750   -28756   -28752   -28764   -28787 
  -28798   -28790   -28767   -28756   -28772   -28779   -28775   -28790 
  -28784   -28752   -28756   -28767   -28749   -28749   -28768   -28765 
  -28756   -28767   -28784   -28784   -28765   -28763   -28779   -28777 
  -28769   -28771   -28776   -28783   -28777   -28756   -28752   -28776 
  -28779   -28759   -28756   -28756   -28742   -28752   -28773   -28782 
  -28786   -28790   -28786   -28772   -28763   -28775   -28780   -28765 
  -28760   -28755   -28741   -28752   -28779   -28783   -28775   -28772 
  -28765   -28768   -28783   -28788   -28780   -28776   -28769   -28761 
  -28750   -28734   -28755   -28795   -28799   -28791   -28798   -28782 
  -28764   -28768   -28755   -28736   -28752   -28802   -28856   -28877 
  -28890   -28923   -28944   -28929   -28894   -28834   -28756   -28683 
  -28617   -28551   -28480   -28439   -28452   -28505   -28598   -28721 
  -28850   -28976   -29074   -29087   -29002   -28906   -28837   -28740 
  -28621   -28567   -28580   -28599   -28613   -28655   -28721   -28804 
  -28861   -28848   -28836   -28840   -28779   -28723   -28768   -28813 
  -28782   -28760   -28791   -28833   -28846   -28818   -28768   -28729 
  -28692   -28656   -28676   -28750   -28780   -28755   -28784   -28892 
  -28957   -28935   -28890   -28853   -28827   -28822   -28831   -28829 
  -28780   -28709   -28690   -28725   -28742   -28714   -28649   -28582 
  -28599   -28705   -28768   -28753   -28736   -28750   -28783   -28814 
  -28809   -28775   -28772   -28811   -28821   -28780   -28776   -28807 
  -28787   -28775   -28844   -28908   -28879   -28802   -28750   -28710 
  -28688   -28706   -28718   -28687   -28647   -28671   -28737   -28741 
  -28721   -28760   -28802   -28787   -28768   -28772   -28784   -28802 
  -28815   -28818   -28821   -28807   -28775   -28772   -28806   -28813 
  -28795   -28799   -28799   -28755   -28725   -28753   -28777   -28741 
  -28686   -28683   -28733   -28777   -28821   -28881   -28884   -28821 
  -28784   -28782   -28784   -28788   -28768   -28738   -28736   -28763 
  -28783   -28800   -28829   -28796   -28707   -28664   -28690   -28721 
  -28737   -28767   -28810   -28806   -28752   -28732   -28756   -28753 
  -28752   -28772   -28761   -28757   -28777   -28794   -28825   -28837 
  -28804   -28787   -28792   -28786   -28764   -28730   -28726   -28773 
  -28810   -28780   -28721   -28722   -28786   -28813   -28782   -28746 
  -28749   -28782   -28803   -28795   -28764   -28715   -28665   -28679 
  -28756   -28768   -28721   -28757   -28822   -28836   -28818   -28750 
  -28669   -28664   -28718   -28764   -28760   -28742   -28742   -28728 
  -28713   -28734   -28744   -28728   -28730   -28768   -28794   -28769 
  -28763   -28806   -28798   -28752   -28765   -28827   -28860   -28838 
  -28804   -28782   -28757   -28753   -28771   -28799   -28838   -28852 
  -28818   -28771   -28748   -28788   -28840   -28823   -28823   -28867 
  -28849   -28800   -28787   -28780   -28791   -28802   -28752   -28676 
  -28687   -28779   -28804   -28768   -28780   -28777   -28729   -28734 
  -28776   -28779   -28761   -28773   -28799   -28773   -28728   -28705 
  -28686   -28703   -28764   -28810   -28838   -28846   -28775   -28679 
  -28691   -28753   -28752   -28761   -28788   -28750   -28723   -28763 
  -28761   -28710   -28721   -28776   -28777   -28744   -28749   -28782 
  -28795   -28791   -28741   -28702   -28760   -28796   -28768   -28791 
  -28827   -28817   -28798   -28765   -28734   -28740   -28757   -28792 
  -28834   -28792   -28694   -28680   -28750   -28803   -28807   -28783 
  -28742   -28725   -28757   -28796   -28807   -28814   -28822   -28811 
  -28788   -28765   -28765   -28788   -28794   -28756   -28737   -28760 
  -28725   -28665   -28702   -28757   -28763   -28772   -28792   -28798 
  -28777   -28736   -28721   -28745   -28773   -28806   -28831   -28810 
  -28765   -28755   -28768   -28782   -28786   -28753   -28722   -28752 
  -28788   -28800   -28796   -28780   -28769   -28775   -28773   -28764 
  -28767   -28792   -28792   -28755   -28750   -28786   -28788   -28757 
  -28744   -28749   -28763   -28792   -28798   -28773   -28759   -28750 
  -28775   -28833   -28830   -28769   -28752   -28760   -28756   -28771 
  -28788   -28772   -28759   -28775   -28780   -28749   -28744   -28772 
  -28773   -28771   -28795   -28795   -28759   -28748   -28791   -28823 
  -28790   -28737   -28707   -28703   -28741   -28783   -28777   -28746 
  -28737   -28757   -28775   -28775   -28771   -28771   -28768   -28750 
  -28737   -28755   -28760   -28740   -28748   -28783   -28788   -28765 
  -28768   -28779   -28772   -28783   -28794   -28775   -28772   -28796 
  -28809   -28806   -28811   -28811   -28794   -28767   -28726   -28698 
  -28719   -28767   -28804   -28796   -28755   -28775   -28825   -28788 
  -28737   -28759   -28775   -28750   -28746   -28769   -28791   -28809 
  -28783   -28726   -28714   -28742   -28749   -28757   -28794   -28825 
  -28829   -28821   -28807   -28791   -28767   -28730   -28730   -28769 
  -28761   -28737   -28767   -28784   -28757   -28745   -28742   -28752 
  -28796   -28810   -28760   -28717   -28713   -28742   -28783   -28791 
  -28782   -28791   -28791   -28748   -28723   -28759   -28806   -28827 
  -28807   -28755   -28745   -28792   -28809   -28764   -28729   -28723 
  -28726   -28749   -28779   -28786   -28803   -28834   -28811   -28753 
  -28736   -28745   -28761   -28776   -28755   -28730   -28746   -28763 
  -28779   -28798   -28799   -28802   -28804   -28788   -28783   -28803 
  -28794   -28769   -28779   -28765   -28725   -28726   -28756   -28787 
  -28809   -28794   -28768   -28783   -28800   -28790   -28772   -28744 
  -28717   -28736   -28777   -28792   -28753   -28709   -28733   -28790 
  -28803   -28791   -28780   -28777   -28776   -28772   -28776   -28769 
  -28738   -28729   -28761   -28780   -28752   -28733   -28740   -28750 
  -28760   -28764   -28764   -28775   -28782   -28777   -28773   -28756 
  -28748   -28771   -28777   -28759   -28759   -28769   -28760   -28761 
  -28791   -28791   -28764   -28768   -28783   -28757   -28714   -28728 
  -28782   -28798   -28787   -28783   -28777   -28773   -28776   -28780 
  -28786   -28787   -28765   -28748   -28776   -28804   -28773   -28746 
  -28764   -28771   -28750   -28729   -28733   -28776   -28811   -28802 
  -28787   -28792   -28779   -28760   -28773   -28792   -28798   -28798 
  -28792   -28779   -28769   -28780   -28784   -28776   -28771   -28773 
  -28786   -28782   -28744   -28718   -28725   -28726   -28723   -28744 
  -28765   -28764   -28759   -28763   -28767   -28779   -28798   -28790 
  -28757   -28736   -28737   -28757   -28787   -28802   -28795   -28783 
