Origin Time       2018/04/09 06:38:00
Lat.              35.2
Long.             132.6
Depth. (km)       10
Mag.              3.8
Station Code      HRSH03
Station Lat.      34.5183
Station Long.     133.1375
Station Height(m) -40
Record Time       2018/04/09 06:39:15
Sampling Freq(Hz) 100Hz
Duration Time(s)  120
Dir.              3
Scale Factor      3923(gal)/8224838
Max. Acc. (gal)   0.078
Last Correction   2018/04/09 06:39:00
Memo.             
[...]
  -38380   -38379   -38381   -38380   -38380   -38381   -38381   -38381 
  -38381   -38381   -38383   -38380   -38379   -38381   -38380   -38377 
  -38379   -38383   -38381   -38379   -38380   -38383   -38381   -38381 
  -38380   -38380   -38381   -38380   -38377   -38380   -38380   -38381 
  -38383   -38383   -38380   -38379   -38380   -38383   -38383   -38381 
  -38381   -38380   -38380   -38381   -38381   -38379   -38380   -38381 
  -38380   -38379   -38381   -38380   -38377   -38377   -38381   -38381 
  -38379   -38379   -38377   -38379   -38379   -38379   -38380   -38384 
  -38381   -38377   -38379   -38381   -38381   -38381   -38383   -38383 
  -38380   -38381   -38383   -38381   -38379   -38381   -38381   -38383 
  -38381   -38379   -38379   -38380   -38380   -38380   -38380   -38377 
  -38379   -38379   -38379   -38379   -38381   -38381   -38381   -38380 
  -38379   -38381   -38384   -38383   -38381   -38380   -38380   -38379 
  -38379   -38380   -38383   -38383   -38381   -38381   -38383   -38384 
  -38383   -38380   -38380   -38380   -38381   -38381   -38380   -38380 
  -38381   -38380   -38381   -38381   -38381   -38380   -38380   -38381 
  -38383   -38379   -38379   -38385   -38383   -38379   -38381   -38381 
  -38381   -38384   -38383   -38381   -38384   -38381   -38383   -38384 
  -38381   -38381   -38384   -38381   -38380   -38380   -38380   -38384 
  -38385   -38381   -38381   -38383   -38383   -38381   -38381   -38381 
  -38381   -38381   -38383   -38381   -38380   -38380   -38381   -38381 
  -38379   -38380   -38381   -38380   -38383   -38384   -38380   -38380 
  -38380   -38377   -38377   -38379   -38379   -38380   -38380   -38380 
  -38381   -38381   -38379   -38379   -38381   -38381   -38379   -38377 
  -38379   -38381   -38381   -38381   -38381   -38381   -38380   -38380 
  -38381   -38383   -38381   -38383   -38384   -38383   -38381   -38381 
  -38383   -38383   -38380   -38380   -38384   -38381   -38379   -38380 
  -38381   -38381   -38380   -38379   -38380   -38383   -38383   -38381 
  -38381   -38381   -38381   -38381   -38381   -38381   -38379   -38379 
  -38380   -38379   -38381   -38381   -38379   -38379   -38381   -38381 
  -38383   -38384   -38381   -38379   -38380   -38380   -38380   -38380 
  -38380   -38381   -38381   -38383   -38381   -38379   -38379   -38381 
  -38381   -38380   -38380   -38380   -38380   -38379   -38379   -38380 
  -38379   -38379   -38381   -38381   -38380   -38380   -38379   -38379 
  -38380   -38380   -38381   -38380   -38380   -38381   -38384   -38384 
  -38383   -38379   -38377   -38381   -38381   -38377   -38380   -38383 
  -38381   -38381   -38383   -38381   -38379   -38379   -38381   -38381 
  -38379   -38379   -38380   -38385   -38384   -38379   -38381   -38383 
  -38381   -38384   -38384   -38379   -38380   -38384   -38381   -38379 
  -38379   -38381   -38381   -38379   -38381   -38383   -38379   -38379 
  -38383   -38380   -38377   -38381   -38381   -38377   -38380   -38383 
  -38380   -38380   -38380   -38380   -38381   -38381   -38381   -38385 
  -38384   -38380   -38379   -38379   -38377   -38380   -38380   -38377 
  -38376   -38377   -38379   -38379   -38383   -38387   -38391   -38396 
  -38404   -38415   -38421   -38416   -38403   -38388   -38380   -38372 
  -38356   -38344   -38342   -38350   -38361   -38365   -38352   -38337 
  -38342   -38362   -38373   -38372   -38373   -38388   -38411   -38419 
  -38410   -38412   -38429   -38423   -38384   -38349   -38352   -38376 
  -38403   -38410   -38377   -38330   -38326   -38364   -38403   -38431 
  -38433   -38380   -38317   -38304   -38350   -38414   -38437   -38407 
  -38376   -38381   -38403   -38412   -38388   -38345   -38340   -38368 
  -38373   -38356   -38361   -38411   -38458   -38442   -38388   -38371 
  -38367   -38345   -38362   -38394   -38376   -38372   -38389   -38346 
  -38292   -38335   -38422   -38425   -38389   -38385   -38354   -38323 
  -38380   -38446   -38430   -38398   -38389   -38377   -38385   -38414 
  -38422   -38410   -38383   -38350   -38352   -38371   -38364   -38369 
  -38400   -38394   -38342   -38321   -38360   -38392   -38369   -38356 
  -38383   -38388   -38376   -38398   -38437   -38439   -38410   -38375 
  -38354   -38354   -38371   -38399   -38415   -38402   -38396   -38416 
  -38412   -38356   -38304   -38300   -38326   -38372   -38407   -38398 
  -38367   -38348   -38345   -38348   -38352   -38373   -38414   -38434 
  -38404   -38357   -38362   -38415   -38433   -38406   -38407   -38411 
  -38381   -38377   -38402   -38399   -38377   -38364   -38346   -38340 
  -38376   -38407   -38380   -38345   -38331   -38333   -38357   -38383 
  -38400   -38403   -38385   -38376   -38381   -38400   -38410   -38377 
  -38350   -38368   -38385   -38388   -38396   -38399   -38376   -38367 
  -38388   -38398   -38385   -38388   -38387   -38362   -38354   -38388 
  -38419   -38408   -38376   -38362   -38376   -38399   -38392   -38369 
  -38373   -38380   -38357   -38323   -38326   -38373   -38421   -38438 
  -38418   -38364   -38326   -38337   -38364   -38392   -38407   -38395 
  -38396   -38414   -38407   -38394   -38391   -38388   -38402   -38418 
  -38394   -38364   -38381   -38408   -38398   -38375   -38369   -38368 
  -38365   -38371   -38350   -38319   -38349   -38398   -38376   -38342 
  -38354   -38364   -38350   -38350   -38362   -38375   -38396   -38416 
  -38414   -38395   -38388   -38389   -38407   -38448   -38465   -38422 
  -38368   -38360   -38381   -38384   -38383   -38402   -38406   -38380 
  -38361   -38356   -38352   -38349   -38349   -38346   -38364   -38404 
  -38398   -38350   -38345   -38367   -38385   -38408   -38399   -38371 
  -38387   -38404   -38381   -38380   -38395   -38388   -38385   -38389 
  -38369   -38350   -38356   -38377   -38414   -38418   -38376   -38368 
  -38383   -38357   -38348   -38398   -38427   -38398   -38360   -38356 
  -38371   -38384   -38389   -38367   -38353   -38388   -38407   -38379 
  -38369   -38381   -38380   -38380   -38392   -38395   -38392   -38381 
  -38371   -38380   -38403   -38415   -38388   -38345   -38344   -38362 
  -38364   -38377   -38385   -38375   -38375   -38372   -38362   -38377 
  -38388   -38385   -38387   -38381   -38373   -38387   -38404   -38392 
  -38383   -38396   -38389   -38362   -38368   -38387   -38379   -38375 
  -38388   -38396   -38392   -38385   -38379   -38384   -38391   -38379 
  -38371   -38379   -38387   -38387   -38373   -38361   -38376   -38392 
  -38398   -38400   -38383   -38368   -38373   -38381   -38392   -38385 
  -38354   -38368   -38412   -38394   -38338   -38348   -38394   -38387 
  -38362   -38373   -38371   -38353   -38379   -38407   -38395   -38384 
  -38385   -38380   -38376   -38389   -38414   -38406   -38369   -38358 
  -38371   -38379   -38387   -38383   -38357   -38345   -38368   -38391 
  -38383   -38367   -38381   -38410   -38399   -38372   -38384   -38399 
  -38377   -38362   -38380   -38394   -38379   -38348   -38344   -38379 
  -38392   -38369   -38376   -38403   -38391   -38368   -38376   -38400 
  -38408   -38388   -38369   -38371   -38376   -38373   -38369   -38364 
  -38362   -38369   -38385   -38404   -38407   -38400   -38387   -38372 
  -38362   -38362   -38380   -38406   -38411   -38410   -38407   -38388 
  -38368   -38364   -38367   -38367   -38368   -38380   -38388   -38380 
  -38357   -38335   -38345   -38373   -38389   -38398   -38400   -38385 
  -38372   -38380   -38403   -38408   -38406   -38414   -38402   -38380 
  -38376   -38368   -38360   -38369   -38379   -38379   -38364   -38358 
  -38380   -38377   -38354   -38369   -38398   -38391   -38372   -38373 
  -38372   -38357   -38362   -38388   -38391   -38381   -38379   -38379 
  -38383   -38392   -38387   -38385   -38410   -38403   -38380   -38391 
  -38388   -38360   -38368   -38398   -38392   -38371   -38371   -38376 
  -38365   -38362   -38369   -38379   -38385   -38376   -38369   -38384 
  -38383   -38372   -38399   -38414   -38389   -38380   -38376   -38365 
  -38379   -38395   -38385   -38373   -38372   -38377   -38384   -38392 
  -38389   -38377   -38384   -38388   -38364   -38360   -38388   -38403 
  -38411   -38408   -38372   -38352   -38371   -38394   -38404   -38402 
  -38383   -38362   -38353   -38361   -38375   -38379   -38380   -38375 
  -38376   -38394   -38398   -38383   -38380   -38394   -38392   -38375 
  -38389   -38416   -38391   -38360   -38376   -38392   -38383   -38384 
  -38380   -38346   -38331   -38369   -38398   -38384   -38367   -38373 
  -38383   -38384   -38394   -38398   -38383   -38371   -38388   -38402 
  -38388   -38392   -38403   -38383   -38362   -38369   -38389   -38388 
  -38368   -38365   -38368   -38364   -38373   -38381   -38381   -38377 
  -38377   -38388   -38383   -38368   -38384   -38396   -38375   -38375 
  -38402   -38394   -38373   -38395   -38414   -38392   -38371   -38376 
  -38394   -38394   -38367   -38362   -38385   -38387   -38373   -38377 
  -38391   -38396   -38380   -38357   -38368   -38394   -38381   -38357 
  -38365   -38373   -38365   -38380   -38400   -38398   -38379   -38362 
  -38364   -38375   -38387   -38398   -38391   -38377   -38387   -38400 
  -38380   -38356   -38368   -38394   -38389   -38384   -38396   -38391 
  -38375   -38379   -38389   -38388   -38375   -38367   -38381   -38385 
  -38372   -38372   -38377   -38379   -38385   -38395   -38389   -38365 
  -38356   -38381   -38400   -38394   -38383   -38373   -38367   -38379 
  -38392   -38383   -38369   -38371   -38380   -38387   -38388   -38383 
  -38376   -38380   -38379   -38376   -38396   -38411   -38400   -38398 
  -38398   -38373   -38365   -38385   -38395   -38394   -38383   -38361 
  -38362   -38365   -38346   -38350   -38379   -38388   -38384   -38384 
  -38383   -38375   -38360   -38364   -38381   -38381   -38381   -38388 
  -38385   -38383   -38380   -38369   -38380   -38407   -38399   -38369 
  -38375   -38394   -38380   -38367   -38389   -38407   -38389   -38377 
  -38380   -38376   -38387   -38400   -38383   -38371   -38385   -38385 
  -38377   -38385   -38383   -38361   -38375   -38404   -38392   -38375 
  -38388   -38403   -38396   -38381   -38376   -38373   -38358   -38364 
  -38392   -38396   -38373   -38364   -38375   -38394   -38392   -38375 
  -38361   -38352   -38348   -38365   -38406   -38429   -38398   -38361 
  -38369   -38380   -38383   -38400   -38398   -38369   -38365   -38380 
  -38383   -38384   -38385   -38373   -38361   -38369   -38385   -38387 
  -38373   -38368   -38375   -38376   -38376   -38383   -38384   -38380 
  -38365   -38358   -38377   -38394   -38389   -38384   -38375   -38372 
  -38391   -38399   -38388   -38373   -38352   -38361   -38407   -38423 
  -38389   -38368   -38373   -38373   -38368   -38361   -38352   -38368 
  -38399   -38398   -38376   -38368   -38372   -38394   -38416   -38410 
  -38396   -38392   -38380   -38369   -38381   -38383   -38368   -38383 
  -38402   -38380   -38361   -38368   -38358   -38354   -38376   -38389 
  -38389   -38396   -38402   -38387   -38373   -38383   -38391   -38379 
  -38375   -38385   -38384   -38373   -38375   -38380   -38372   -38372 
  -38385   -38385   -38371   -38375   -38381   -38375   -38383   -38396 
  -38389   -38364   -38342   -38348   -38383   -38410   -38412   -38389 
  -38362   -38369   -38379   -38376   -38385   -38395   -38398   -38402 
  -38392   -38373   -38376   -38396   -38406   -38404   -38398   -38384 
  -38375   -38372   -38373   -38387   -38388   -38376   -38369   -38365 
  -38372   -38369   -38356   -38367   -38376   -38361   -38379   -38400 
  -38373   -38364   -38388   -38392   -38368   -38354   -38385   -38422 
  -38407   -38380   -38387   -38388   -38380   -38381   -38377   -38377 
  -38385   -38367   -38340   -38350   -38379   -38389   -38383   -38372 
  -38371   -38381   -38389   -38387   -38385   -38395   -38403   -38385 
  -38369   -38392   -38410   -38395   -38379   -38372   -38368   -38369 
  -38380   -38387   -38376   -38361   -38360   -38372   -38388   -38388 
  -38376   -38381   -38396   -38383   -38371   -38392   -38388   -38356 
  -38360   -38372   -38357   -38362   -38398   -38416   -38398   -38372 
  -38362   -38362   -38375   -38396   -38398   -38381   -38384   -38395 
  -38392   -38394   -38400   -38387   -38357   -38352   -38376   -38392 
  -38384   -38377   -38376   -38367   -38376   -38399   -38392   -38380 
  -38385   -38387   -38380   -38380   -38376   -38357   -38360   -38380 
  -38388   -38392   -38388   -38367   -38354   -38373   -38404   -38414 
  -38399   -38381   -38373   -38385   -38411   -38414   -38391   -38369 
  -38361   -38358   -38352   -38358   -38388   -38387   -38352   -38362 
  -38402   -38380   -38341   -38364   -38392   -38379   -38373   -38385 
  -38403   -38412   -38384   -38356   -38380   -38404   -38388   -38387 
  -38399   -38388   -38380   -38387   -38381   -38368   -38375   -38395 
  -38407   -38403   -38380   -38362   -38377   -38395   -38391   -38387 
  -38385   -38375   -38372   -38376   -38365   -38357   -38368   -38384 
  -38368   -38333   -38341   -38375   -38379   -38368   -38379   -38399 
  -38406   -38399   -38388   -38387   -38385   -38379   -38404   -38439 
  -38425   -38392   -38376   -38368   -38357   -38349   -38372   -38410 
  -38406   -38383   -38380   -38380   -38403   -38456   -38449   -38364 
  -38292   -38281   -38310   -38329   -38307   -38280   -38283   -38303 
  -38357   -38425   -38452   -38446   -38418   -38361   -38350   -38419 
  -38480   -38500   -38492   -38450   -38430   -38457   -38491   -38504 
  -38483   -38438   -38367   -38264   -38217   -38263   -38308   -38290 
  -38252   -38250   -38272   -38311   -38385   -38481   -38519   -38443 
  -38368   -38387   -38411   -38384   -38380   -38433   -38483   -38480 
  -38430   -38379   -38367   -38361   -38346   -38356   -38362   -38326 
  -38296   -38314   -38349   -38381   -38396   -38365   -38323   -38319 
  -38353   -38403   -38429   -38430   -38433   -38412   -38403   -38427 
  -38422   -38379   -38338   -38315   -38323   -38331   -38330   -38369 
  -38453   -38504   -38466   -38412   -38429   -38446   -38406   -38385 
  -38412   -38392   -38299   -38252   -38334   -38414   -38394   -38369 
  -38383   -38381   -38362   -38327   -38302   -38341   -38414   -38453 
  -38441   -38381   -38342   -38364   -38371   -38350   -38369   -38403 
  -38391   -38368   -38402   -38434   -38414   -38391   -38376   -38350 
  -38341   -38358   -38385   -38377   -38357   -38380   -38412   -38438 
  -38464   -38442   -38369   -38322   -38356   -38381   -38342   -38331 
  -38353   -38338   -38308   -38315   -38360   -38392   -38384   -38395 
  -38450   -38491   -38446   -38361   -38350   -38398   -38421   -38407 
  -38396   -38392   -38367   -38353   -38373   -38369   -38360   -38384 
  -38385   -38334   -38304   -38342   -38376   -38380   -38395   -38412 
  -38426   -38423   -38394   -38391   -38411   -38419   -38416   -38410 
  -38419   -38416   -38387   -38384   -38387   -38342   -38296   -38307 
  -38361   -38383   -38352   -38338   -38345   -38341   -38367   -38404 
  -38377   -38329   -38333   -38383   -38437   -38452   -38421   -38394 
  -38384   -38368   -38362   -38391   -38419   -38414   -38381   -38353 
  -38334   -38341   -38380   -38383   -38331   -38313   -38326   -38313 
  -38317   -38368   -38404   -38441   -38476   -38443   -38395   -38389 
  -38391   -38391   -38408   -38439   -38450   -38415   -38400   -38448 
  -38481   -38438   -38357   -38334   -38381   -38387   -38338   -38338 
  -38361   -38342   -38338   -38391   -38433   -38410   -38369   -38345 
  -38334   -38357   -38380   -38354   -38349   -38377   -38381   -38395 
  -38416   -38406   -38394   -38398   -38419   -38427   -38383   -38342 
  -38369   -38410   -38403   -38383   -38384   -38381   -38373   -38357 
  -38335   -38338   -38341   -38340   -38349   -38334   -38317   -38348 
  -38379   -38377   -38380   -38396   -38391   -38372   -38381   -38410 
  -38433   -38454   -38425   -38352   -38327   -38357   -38395   -38423 
  -38427   -38418   -38395   -38356   -38346   -38377   -38396   -38361 
  -38315   -38330   -38354   -38338   -38377   -38473   -38477   -38392 
  -38367   -38398   -38403   -38398   -38399   -38384   -38369   -38360 
  -38360   -38368   -38352   -38345   -38376   -38392   -38368   -38349 
  -38364   -38380   -38367   -38353   -38365   -38389   -38415   -38415 
  -38395   -38383   -38387   -38387   -38365   -38379   -38427   -38445 
  -38443   -38431   -38399   -38389   -38389   -38389   -38411   -38408 
  -38377   -38387   -38421   -38403   -38369   -38365   -38360   -38349 
  -38354   -38368   -38380   -38375   -38335   -38317   -38340   -38350 
  -38352   -38375   -38380   -38360   -38358   -38379   -38395   -38398 
  -38394   -38387   -38385   -38396   -38415   -38415   -38387   -38358 
  -38364   -38384   -38379   -38362   -38375   -38381   -38364   -38367 
  -38381   -38380   -38369   -38361   -38376   -38387   -38364   -38362 
  -38385   -38373   -38354   -38380   -38404   -38377   -38350   -38368 
  -38385   -38372   -38377   -38404   -38388   -38348   -38350   -38384 
  -38388   -38369   -38384   -38410   -38403   -38396   -38427   -38450 
  -38423   -38391   -38400   -38416   -38410   -38396   -38408   -38418 
  -38392   -38376   -38384   -38383   -38379   -38373   -38362   -38368 
  -38381   -38380   -38367   -38368   -38371   -38356   -38369   -38406 
  -38391   -38334   -38310   -38337   -38383   -38406   -38394   -38364 
  -38350   -38360   -38379   -38400   -38406   -38399   -38403   -38399 
  -38384   -38392   -38399   -38385   -38380   -38379   -38367   -38376 
  -38388   -38373   -38380   -38392   -38342   -38314   -38358   -38385 
  -38373   -38356   -38346   -38377   -38410   -38388   -38367   -38389 
  -38398   -38376   -38379   -38410   -38425   -38411   -38403   -38425 
  -38446   -38430   -38395   -38375   -38368   -38376   -38408   -38414 
  -38368   -38327   -38337   -38368   -38389   -38399   -38385   -38350 
  -38345   -38353   -38335   -38329   -38348   -38348   -38356   -38394 
  -38402   -38385   -38394   -38400   -38380   -38364   -38387   -38410 
  -38391   -38380   -38400   -38403   -38381   -38371   -38377   -38377 
  -38372   -38372   -38380   -38403   -38416   -38394   -38385   -38415 
  -38419   -38389   -38360   -38353   -38372   -38398   -38414   -38407 
  -38400   -38404   -38394   -38389   -38406   -38385   -38357   -38368 
  -38365   -38353   -38364   -38358   -38349   -38367   -38365   -38349 
  -38358   -38364   -38354   -38368   -38398   -38411   -38385   -38345 
  -38344   -38380   -38402   -38407   -38410   -38400   -38365   -38333 
  -38342   -38361   -38353   -38353   -38362   -38365   -38377   -38391 
  -38384   -38354   -38349   -38369   -38367   -38361   -38385   -38408 
  -38412   -38414   -38425   -38422   -38391   -38371   -38381   -38392 
  -38407   -38423   -38412   -38388   -38380   -38384   -38396   -38418 
  -38426   -38415   -38407   -38404   -38391   -38384   -38394   -38391 
  -38391   -38387   -38362   -38362   -38383   -38368   -38344   -38349 
  -38368   -38369   -38350   -38348   -38372   -38388   -38373   -38358 
  -38364   -38368   -38361   -38356   -38368   -38392   -38387   -38362 
  -38367   -38381   -38365   -38362   -38394   -38412   -38407   -38379 
  -38349   -38349   -38353   -38358   -38399   -38429   -38403   -38368 
  -38373   -38381   -38367   -38365   -38384   -38394   -38388   -38385 
