Origin Time       2018/04/09 06:38:00
Lat.              35.2
Long.             132.6
Depth. (km)       10
Mag.              3.8
Station Code      HRSH03
Station Lat.      34.5183
Station Long.     133.1375
Station Height(m) 160
Record Time       2018/04/09 06:39:15
Sampling Freq(Hz) 100Hz
Duration Time(s)  120
Dir.              6
Scale Factor      7845(gal)/8223790
Max. Acc. (gal)   1.198
Last Correction   2018/04/09 06:39:00
Memo.             
[...]
   18725    18728    18729    18727    18721    18724    18727    18721 
   18721    18725    18725    18724    18725    18724    18725    18727 
   18724    18727    18728    18725    18727    18724    18721    18728 
   18727    18721    18725    18724    18721    18727    18727    18724 
   18727    18728    18724    18724    18725    18727    18725    18720 
   18720    18728    18728    18725    18725    18724    18724    18724 
   18721    18723    18725    18725    18728    18728    18724    18723 
   18724    18725    18727    18724    18724    18725    18725    18723 
   18721    18723    18725    18728    18724    18720    18720    18725 
   18728    18725    18723    18725    18724    18723    18724    18724 
   18725    18727    18725    18723    18725    18729    18724    18720 
   18727    18727    18723    18723    18725    18725    18727    18728 
   18727    18723    18723    18728    18728    18724    18724    18728 
   18728    18725    18725    18725    18723    18721    18724    18725 
   18724    18724    18725    18725    18721    18720    18725    18729 
   18728    18725    18724    18724    18727    18727    18725    18725 
   18724    18723    18723    18723    18723    18723    18727    18728 
   18725    18725    18724    18721    18724    18725    18724    18723 
   18720    18721    18727    18728    18725    18724    18723    18723 
   18721    18721    18725    18725    18723    18724    18725    18727 
   18723    18720    18724    18725    18724    18727    18725    18720 
   18721    18724    18725    18727    18723    18719    18724    18725 
   18721    18724    18728    18724    18724    18727    18724    18721 
   18727    18727    18723    18720    18723    18724    18724    18723 
   18724    18725    18727    18724    18720    18723    18724    18725 
   18725    18724    18725    18727    18727    18724    18721    18723 
   18728    18727    18724    18727    18725    18723    18720    18723 
   18727    18727    18723    18723    18724    18725    18724    18721 
   18723    18724    18727    18728    18723    18719    18723    18725 
   18725    18724    18721    18725    18728    18723    18723    18724 
   18723    18723    18727    18728    18723    18717    18720    18724 
   18723    18724    18728    18725    18723    18724    18725    18725 
   18727    18725    18723    18723    18723    18720    18720    18724 
   18724    18725    18729    18725    18723    18725    18724    18723 
   18723    18723    18724    18723    18720    18724    18723    18721 
   18725    18725    18724    18724    18721    18720    18724    18724 
   18727    18729    18728    18729    18729    18728    18732    18732 
   18728    18725    18716    18704    18694    18682    18669    18657 
   18643    18646    18675    18733    18804    18860    18905    18948 
   18954    18889    18770    18636    18531    18489    18488    18486 
   18542    18704    18863    18910    18890    18858    18831    18787 
   18661    18516    18542    18713    18785    18732    18743    18806 
   18839    18856    18817    18694    18597    18580    18528    18439 
   18553    18908    19170    19099    18808    18588    18650    18782 
   18639    18411    18427    18565    18673    18850    19094    19197 
   19072    18860    18555    18160    18073    18485    18909    18881 
   18698    18863    19144    19122    18862    18667    18783    18850 
   18457    18090    18145    18382    18762    19275    19467    19179 
   18922    18797    18296    17728    17952    18631    18979    19136 
   19242    19089    18939    19002    18886    18573    18461    18455 
   18360    18304    18463    18758    18900    18986    19143    19080 
   18832    18716    18711    18582    18277    18133    18449    18866 
   18912    18897    19174    19288    18929    18578    18532    18449 
   18223    18269    18639    18945    19116    19290    19275    18889 
   18453    18345    18420    18354    18293    18524    18879    19163 
   19300    19118    18732    18412    18299    18488    18725    18708 
   18688    18825    18841    18702    18621    18847    19303    19296 
   18716    18296    18181    18164    18439    18801    18793    18802 
   19240    19496    19118    18634    18408    18223    18187    18459 
   18675    18731    18910    19098    19029    18858    18785    18751 
   18666    18567    18495    18461    18612    18859    18895    18831 
   18765    18636    18724    18891    18689    18488    18711    18920 
   18792    18673    18747    18774    18709    18733    18790    18724 
   18631    18628    18605    18530    18554    18733    18993    19164 
   19071    18786    18501    18288    18247    18458    18823    19082 
   18968    18709    18708    18806    18810    18829    18831    18758 
   18655    18597    18631    18594    18553    18802    19032    18931 
   18802    18700    18524    18504    18578    18582    18777    19052 
   18922    18586    18508    18555    18546    18684    18932    18962 
   18840    18893    18910    18561    18257    18488    18898    18998 
   18862    18732    18650    18585    18631    18781    18846    18856 
   18898    18809    18642    18519    18372    18428    18783    18954 
   18847    18824    18814    18681    18646    18785    18891    18837 
   18728    18682    18612    18522    18565    18651    18671    18704 
   18713    18715    18862    19012    18958    18881    18901    18813 
   18516    18291    18350    18485    18625    18909    19078    18902 
   18693    18717    18802    18762    18712    18782    18771    18603 
   18569    18636    18584    18603    18800    18922    18891    18901 
   18897    18684    18559    18732    18782    18608    18504    18486 
   18536    18697    18878    18991    18991    18881    18742    18678 
   18706    18715    18655    18619    18623    18592    18553    18600 
   18698    18774    18933    19091    18943    18673    18590    18611 
   18681    18731    18682    18760    18889    18738    18484    18432 
   18594    18812    18905    18906    18921    18858    18682    18617 
   18716    18725    18638    18608    18608    18620    18682    18809 
   18945    18924    18750    18661    18729    18810    18744    18592 
   18549    18522    18465    18616    18867    18997    19079    19072 
   18828    18550    18557    18684    18559    18373    18549    18850 
   18887    18879    18924    18785    18632    18678    18685    18571 
   18689    18948    18828    18492    18473    18754    18962    18895 
   18812    18841    18684    18480    18558    18685    18688    18677 
   18697    18829    18976    18922    18763    18558    18364    18515 
   18924    19059    18870    18712    18669    18623    18565    18535 
   18613    18779    18831    18775    18800    18800    18652    18590 
   18750    18964    19078    18932    18651    18605    18644    18472 
   18353    18524    18725    18744    18747    18885    19006    18948 
   18797    18662    18559    18594    18731    18747    18658    18657 
   18790    18804    18600    18598    18898    18974    18716    18609 
   18782    18848    18658    18490    18561    18781    18900    18844 
   18782    18759    18731    18658    18515    18508    18694    18824 
   18850    18847    18813    18762    18733    18748    18667    18490 
   18543    18790    18844    18758    18790    18840    18785    18711 
   18685    18670    18643    18671    18766    18829    18785    18669 
   18628    18675    18648    18642    18804    18891    18746    18702 
   18827    18747    18638    18769    18820    18705    18651    18646 
   18597    18542    18604    18794    18928    18904    18813    18742 
   18723    18743    18729    18679    18605    18554    18642    18767 
   18809    18828    18778    18713    18796    18820    18697    18694 
   18747    18663    18559    18555    18647    18765    18864    18944 
   18833    18594    18611    18759    18702    18630    18720    18843 
   18906    18856    18738    18655    18578    18544    18634    18723 
   18720    18688    18733    18824    18808    18824    18914    18736 
   18441    18520    18793    18847    18798    18785    18648    18500 
   18609    18836    18912    18878    18867    18825    18693    18566 
   18532    18547    18565    18636    18771    18841    18840    18910 
   18982    18840    18628    18607    18654    18598    18539    18530 
   18558    18743    19002    19018    18854    18775    18739    18652 
   18582    18623    18754    18786    18670    18648    18806    18852 
   18728    18735    18779    18648    18576    18611    18584    18636 
   18856    18999    18929    18831    18813    18712    18542    18474 
   18447    18586    18904    18931    18711    18704    18829    18823 
   18738    18744    18756    18647    18612    18675    18671    18727 
   18868    18927    18800    18536    18445    18594    18739    18879 
   18952    18823    18698    18682    18681    18684    18661    18681 
   18717    18654    18709    18886    18855    18694    18652    18723 
   18786    18781    18756    18657    18468    18428    18619    18828 
   18918    18951    18983    18889    18647    18553    18652    18659 
   18601    18682    18765    18748    18800    18878    18785    18630 
   18600    18675    18747    18738    18728    18742    18758    18860 
   18877    18690    18539    18488    18547    18747    18839    18833 
   18870    18798    18694    18685    18665    18698    18792    18783 
   18679    18566    18559    18693    18777    18810    18956    19005 
   18766    18557    18581    18630    18612    18607    18627    18685 
   18771    18840    18851    18828    18844    18851    18774    18709 
   18667    18577    18562    18624    18592    18596    18783    18909 
   18850    18841    18945    18914    18704    18578    18584    18557 
   18546    18570    18571    18701    18951    19029    18940    18840 
   18702    18590    18597    18681    18769    18758    18694    18673 
   18605    18580    18736    18860    18841    18790    18754    18771 
   18813    18766    18635    18542    18562    18666    18752    18747 
   18720    18705    18708    18828    18955    18912    18796    18665 
   18538    18562    18666    18655    18636    18748    18847    18835 
   18794    18733    18671    18700    18736    18666    18635    18751 
   18806    18702    18678    18732    18690    18689    18758    18797 
   18881    18844    18647    18655    18797    18756    18615    18501 
   18557    18756    18747    18628    18732    18895    18944    18935 
   18904    18839    18712    18553    18432    18399    18488    18647 
   18777    18870    18921    18937    18933    18813    18670    18713 
   18732    18562    18517    18666    18723    18693    18721    18775 
   18820    18819    18720    18612    18682    18848    18802    18627 
   18655    18782    18712    18569    18655    18831    18793    18665 
   18694    18805    18783    18681    18719    18809    18798    18775 
   18765    18721    18643    18566    18648    18808    18748    18601 
   18596    18711    18905    18952    18779    18704    18719    18661 
   18644    18677    18642    18553    18574    18801    18948    18901 
   18933    18928    18715    18578    18603    18611    18588    18619 
   18667    18642    18702    18894    18893    18751    18756    18816 
   18792    18666    18519    18608    18871    18920    18709    18559 
   18654    18775    18705    18651    18771    18831    18756    18732 
   18701    18628    18725    18858    18731    18555    18620    18774 
   18802    18785    18871    18897    18725    18613    18615    18549 
   18528    18607    18686    18843    18987    18931    18839    18775 
   18604    18540    18627    18634    18716    18890    18814    18605 
   18684    18939    18862    18492    18441    18736    18809    18692 
   18759    18781    18704    18847    18935    18755    18715    18777 
   18600    18449    18581    18736    18729    18665    18690    18801 
   18895    18968    18920    18670    18474    18495    18590    18752 
   18955    18948    18760    18648    18642    18727    18817    18740 
   18631    18640    18635    18627    18706    18796    18866    18866 
   18778    18736    18750    18686    18538    18566    18778    18755 
   18603    18736    18894    18782    18702    18787    18767    18613 
   18601    18763    18794    18640    18644    18837    18883    18763 
   18685    18671    18651    18600    18631    18813    18922    18889 
   18932    18959    18747    18459    18370    18472    18553    18598 
   18705    18843    18943    18908    18800    18832    18904    18801 
   18643    18530    18407    18468    18739    18793    18608    18690 
   19093    19294    19025    18605    18484    18621    18620    18540 
   18611    18607    18524    18634    18878    19109    19176    19032 
   18873    18751    18596    18495    18472    18409    18284    18172 
   18181    18408    18802    19157    19299    19236    19197    19330 
   19307    18890    18523    18387    18146    17892    17940    18272 
   18805    19359    19518    19268    19180    19360    19206    18526 
   17857    17649    17840    18261    18702    18839    18781    18987 
   19377    19491    19391    19280    18863    18246    17967    17933 
   17969    18362    19003    19357    19201    18785    18590    18661 
   18609    18636    19114    19565    19458    18999    18503    18011 
   17714    17884    18274    18435    18507    18889    19535    19980 
   19854    19225    18428    17896    17852    18068    18312    18486 
   18553    18792    19396    19811    19584    19147    18800    18396 
   18071    17983    17990    17971    18192    18983    19818    19791 
   19143    18848    19030    19001    18476    18003    17899    17811 
   17961    18813    19668    19619    19145    19175    19371    18927 
   18229    18014    18045    18000    18241    18800    19059    18959 
   19048    19311    19413    19260    18809    18345    18131    17979 
   17999    18423    18966    19346    19391    19044    18712    18750 
   18912    18763    18466    18349    18107    17861    18272    19051 
   19530    19573    19282    18927    18682    18612    18690    18570 
   18285    18214    18231    18318    18771    19296    19427    19160 
   18790    18697    18724    18513    18377    18504    18503    18273 
   18285    18870    19508    19502    19113    18883    18732    18532 
   18387    18306    18364    18555    18673    18779    18976    18921 
   18628    18773    19280    19273    18711    18304    18252    18335 
   18540    18835    18917    18702    18585    18766    19009    19107 
   19005    18808    18735    18698    18588    18592    18551    18249 
   18111    18516    19157    19369    19124    19029    18978    18593 
   18222    18265    18625    18782    18476    18216    18438    18886 
   19074    18982    19116    19392    19191    18728    18476    18314 
   18268    18346    18381    18465    18670    18966    19197    19283 
   19354    19168    18609    18249    18247    18280    18287    18292 
   18445    18871    19248    19394    19392    19192    18808    18327 
   17977    18087    18420    18624    18829    18991    19120    19419 
   19468    18989    18503    18262    18153    18199    18319    18500 
   18831    19147    19260    19090    18759    18704    18840    18613 
   18253    18370    18681    18643    18558    18804    19064    19001 
   18808    18813    18920    18819    18625    18565    18511    18490 
   18669    18901    18909    18582    18337    18627    18981    18967 
   18831    18678    18650    18797    18802    18743    18837    18805 
   18513    18291    18422    18806    18983    18877    18986    19141 
   18816    18486    18557    18617    18589    18594    18520    18534 
   18716    18823    18831    18890    18963    18933    18787    18555 
   18436    18638    18805    18592    18438    18646    18856    18964 
   18970    18662    18420    18711    19079    19010    18789    18705 
   18643    18577    18482    18427    18674    18976    18990    18883 
   18743    18684    18816    18828    18542    18210    18266    18787 
   19132    19001    18867    18944    18944    18769    18592    18462 
   18315    18333    18702    19022    18873    18659    18897    19180 
   18982    18615    18495    18550    18651    18659    18473    18480 
   18835    18981    18863    18847    18852    18840    18748    18459 
   18369    18681    18925    18804    18646    18821    19057    18932 
   18648    18470    18377    18414    18580    18790    18922    18825 
   18644    18677    18804    18794    18801    18920    18922    18766 
   18743    18720    18360    18156    18436    18686    18848    19161 
   19306    19043    18666    18465    18457    18628    18750    18636 
   18715    18983    18878    18632    18586    18523    18562    18743 
   18819    18931    19066    18932    18671    18542    18515    18507 
   18504    18549    18635    18693    18813    19122    19323    19076 
   18696    18530    18457    18442    18535    18663    18759    18692 
   18590    18783    19044    19033    18886    18693    18513    18489 
   18515    18524    18624    18800    18928    18929    18881    18782 
   18589    18515    18550    18513    18690    19048    19024    18816 
   18886    18882    18600    18441    18532    18678    18742    18678 
   18652    18835    19014    18935    18766    18729    18711    18594 
   18535    18561    18519    18559    18798    18972    18954    18828 
   18717    18759    18758    18534    18445    18630    18754    18787 
   18894    19001    18933    18685    18500    18449    18423    18566 
   18802    18833    18848    18966    18900    18747    18659    18492 
   18465    18743    18949    18862    18670    18654    18786    18754 
   18613    18639    18740    18821    18952    19057    18978    18639 
   18272    18262    18509    18696    18819    18895    18937    18962 
   18790    18596    18739    18925    18805    18613    18515    18459 
   18476    18598    18854    19103    19120    18971    18828    18671 
   18488    18358    18387    18613    18894    18990    18786    18511 
   18570    18881    18944    18763    18739    18831    18747    18565 
   18499    18540    18550    18517    18686    19033    19106    18894 
   18781    18735    18558    18389    18484    18754    18863    18817 
   18840    18835    18732    18654    18569    18522    18725    19020 
   19053    18944    18913    18804    18553    18351    18327    18459 
   18582    18634    18773    18974    19072    19062    18963    18813 
   18708    18677    18651    18530    18399    18428    18577    18758 
   18874    18868    18827    18778    18785    18900    18927    18790 
   18635    18607    18648    18547    18441    18646    18944    18979 
   18740    18473    18504    18685    18739    18898    19167    19188 
   18947    18627    18366    18241    18266    18443    18628    18712 
   18889    19140    19114    18901    18832    18809    18712    18619 
   18490    18391    18454    18600    18782    18976    19039    18901 
   18688    18630    18744    18763    18661    18674    18856    18959 
   18767    18516    18508    18623    18673    18603    18538    18640 
