Origin Time       2018/04/09 06:38:00
Lat.              35.2
Long.             132.6
Depth. (km)       10
Mag.              3.8
Station Code      HRSH03
Station Lat.      34.5183
Station Long.     133.1375
Station Height(m) 160
Record Time       2018/04/09 06:39:15
Sampling Freq(Hz) 100Hz
Duration Time(s)  120
Dir.              4
Scale Factor      7845(gal)/8223790
Max. Acc. (gal)   2.518
Last Correction   2018/04/09 06:39:00
Memo.             
[...]
   -4565    -4569    -4573    -4573    -4571    -4573    -4569    -4563 
   -4571    -4576    -4572    -4575    -4573    -4568    -4568    -4567 
   -4569    -4572    -4568    -4568    -4572    -4571    -4571    -4571 
   -4571    -4569    -4567    -4569    -4572    -4572    -4572    -4572 
   -4569    -4569    -4571    -4573    -4572    -4572    -4572    -4568 
   -4567    -4572    -4571    -4565    -4564    -4571    -4577    -4573 
   -4568    -4573    -4576    -4571    -4569    -4572    -4568    -4564 
   -4571    -4572    -4569    -4572    -4569    -4565    -4573    -4575 
   -4569    -4569    -4573    -4572    -4567    -4567    -4567    -4567 
   -4572    -4575    -4569    -4569    -4573    -4567    -4567    -4573 
   -4571    -4567    -4571    -4573    -4568    -4567    -4571    -4572 
   -4572    -4573    -4572    -4569    -4571    -4575    -4573    -4571 
   -4565    -4564    -4571    -4576    -4572    -4567    -4568    -4569 
   -4571    -4571    -4569    -4568    -4568    -4569    -4572    -4575 
   -4575    -4571    -4564    -4564    -4569    -4572    -4573    -4571 
   -4569    -4572    -4568    -4568    -4569    -4569    -4575    -4576 
   -4571    -4571    -4571    -4567    -4565    -4568    -4571    -4575 
   -4571    -4565    -4568    -4572    -4571    -4572    -4576    -4569 
   -4565    -4572    -4575    -4569    -4567    -4568    -4569    -4571 
   -4571    -4571    -4573    -4573    -4575    -4572    -4567    -4568 
   -4569    -4569    -4572    -4572    -4572    -4572    -4571    -4571 
   -4567    -4568    -4573    -4569    -4567    -4571    -4571    -4569 
   -4571    -4572    -4573    -4568    -4565    -4571    -4572    -4573 
   -4576    -4573    -4569    -4569    -4571    -4569    -4569    -4575 
   -4575    -4571    -4572    -4572    -4569    -4568    -4565    -4567 
   -4575    -4576    -4573    -4573    -4572    -4568    -4565    -4569 
   -4571    -4567    -4569    -4579    -4577    -4572    -4568    -4565 
   -4569    -4576    -4575    -4569    -4569    -4569    -4565    -4568 
   -4573    -4575    -4576    -4573    -4567    -4565    -4569    -4571 
   -4571    -4571    -4571    -4573    -4572    -4569    -4568    -4568 
   -4567    -4569    -4575    -4575    -4571    -4569    -4569    -4568 
   -4569    -4572    -4568    -4567    -4573    -4575    -4569    -4569 
   -4573    -4572    -4569    -4572    -4575    -4569    -4564    -4567 
   -4568    -4571    -4572    -4572    -4571    -4569    -4571    -4572 
   -4568    -4567    -4567    -4567    -4573    -4576    -4571    -4567 
   -4571    -4572    -4571    -4568    -4565    -4568    -4571    -4572 
   -4572    -4571    -4569    -4569    -4569    -4572    -4576    -4575 
   -4571    -4568    -4568    -4572    -4575    -4576    -4577    -4580 
   -4577    -4573    -4569    -4565    -4560    -4552    -4542    -4525 
   -4510    -4504    -4494    -4487    -4514    -4579    -4658    -4734 
   -4795    -4834    -4824    -4733    -4581    -4436    -4330    -4287 
   -4313    -4347    -4376    -4490    -4664    -4750    -4749    -4766 
   -4814    -4791    -4634    -4423    -4357    -4473    -4531    -4449 
   -4476    -4644    -4675    -4531    -4473    -4630    -4816    -4761 
   -4467    -4187    -4129    -4409    -4930    -5262    -5098    -4725 
   -4549    -4353    -3908    -3748    -4224    -4773    -4841    -4612 
   -4623    -4990    -5347    -5340    -4841    -4090    -3680    -3916 
   -4330    -4302    -4201    -4750    -5412    -5294    -4653    -4209 
   -4290    -4621    -4662    -4448    -4356    -4428    -4567    -4720 
   -4853    -4996    -5105    -4885    -4075    -3422    -3948    -4831 
   -4815    -4383    -4275    -4521    -5067    -5509    -5266    -4661 
   -4436    -4359    -3937    -3589    -3898    -4687    -5267    -5188 
   -4687    -4450    -4725    -4999    -4876    -4450    -3973    -3782 
   -4110    -4633    -4943    -5097    -5053    -4685    -4361    -4407 
   -4599    -4591    -4410    -4291    -4314    -4530    -4880    -4988 
   -4669    -4324    -4342    -4638    -4947    -4989    -4607    -4129 
   -4016    -4286    -4602    -4750    -4807    -4810    -4746    -4687 
   -4488    -4099    -4114    -4691    -4935    -4595    -4419    -4719 
   -5032    -4926    -4542    -4197    -3982    -4066    -4534    -4996 
   -5004    -4768    -4656    -4557    -4405    -4383    -4491    -4564 
   -4550    -4487    -4486    -4719    -5059    -5050    -4591    -4104 
   -3933    -4162    -4615    -4822    -4639    -4510    -4706    -4918 
   -4823    -4634    -4530    -4347    -4278    -4482    -4521    -4421 
   -4700    -4988    -4702    -4337    -4456    -4780    -4892    -4712 
   -4372    -4170    -4288    -4453    -4556    -4868    -5089    -4787 
   -4386    -4252    -4178    -4297    -4703    -4808    -4472    -4325 
   -4633    -4995    -4958    -4642    -4436    -4367    -4448    -4699 
   -4785    -4637    -4557    -4487    -4326    -4325    -4594    -4827 
   -4668    -4364    -4410    -4607    -4644    -4691    -4707    -4580 
   -4563    -4584    -4407    -4379    -4700    -4862    -4572    -4248 
   -4151    -4241    -4671    -5200    -5225    -4772    -4388    -4328 
   -4429    -4495    -4326    -4024    -4216    -4926    -5352    -5181 
   -4733    -4395    -4276    -4108    -4047    -4461    -4860    -4858 
   -4885    -4909    -4561    -4283    -4455    -4530    -4233    -4099 
   -4445    -4954    -5120    -4847    -4598    -4652    -4679    -4446 
   -4159    -4024    -4144    -4476    -4877    -5171    -5139    -4806 
   -4511    -4428    -4411    -4423    -4506    -4526    -4502    -4506 
   -4413    -4328    -4510    -4749    -4746    -4692    -4739    -4720 
   -4598    -4491    -4471    -4531    -4585    -4507    -4353    -4340 
   -4477    -4702    -4943    -4943    -4695    -4456    -4351    -4450 
   -4608    -4553    -4445    -4479    -4537    -4671    -4878    -4752 
   -4307    -4183    -4471    -4685    -4746    -4715    -4531    -4514 
   -4706    -4611    -4405    -4531    -4693    -4583    -4355    -4324 
   -4607    -4888    -4858    -4595    -4363    -4326    -4450    -4646 
   -4791    -4814    -4811    -4631    -4174    -3981    -4351    -4810 
   -4901    -4699    -4581    -4603    -4545    -4477    -4540    -4612 
   -4600    -4583    -4617    -4568    -4407    -4419    -4623    -4726 
   -4661    -4510    -4504    -4754    -4893    -4614    -4133    -4072 
   -4595    -4915    -4639    -4499    -4814    -4826    -4267    -3998 
   -4482    -4954    -4885    -4673    -4572    -4565    -4638    -4631 
   -4517    -4349    -4263    -4425    -4571    -4565    -4726    -4911 
   -4689    -4279    -4226    -4603    -4997    -5042    -4780    -4436 
   -4141    -4014    -4077    -4371    -4941    -5355    -5184    -4665 
   -4295    -4303    -4502    -4475    -4225    -4214    -4469    -4652 
   -4803    -4965    -4943    -4783    -4598    -4351    -4206    -4364 
   -4576    -4598    -4558    -4537    -4531    -4612    -4787    -4909 
   -4788    -4442    -4195    -4334    -4550    -4446    -4388    -4703 
   -4978    -4874    -4575    -4337    -4294    -4445    -4568    -4544 
   -4587    -4747    -4766    -4644    -4576    -4556    -4567    -4603 
   -4554    -4488    -4457    -4446    -4553    -4619    -4554    -4642 
   -4757    -4591    -4446    -4588    -4706    -4549    -4332    -4396 
   -4675    -4791    -4691    -4549    -4425    -4388    -4513    -4669 
   -4662    -4563    -4650    -4831    -4700    -4413    -4341    -4403 
   -4483    -4526    -4509    -4631    -4843    -4822    -4579    -4422 
   -4477    -4585    -4596    -4506    -4457    -4591    -4716    -4617 
   -4453    -4456    -4603    -4693    -4653    -4565    -4469    -4448 
   -4573    -4675    -4635    -4635    -4689    -4634    -4496    -4371 
   -4318    -4374    -4602    -4919    -4912    -4579    -4419    -4480 
   -4496    -4540    -4668    -4645    -4490    -4492    -4629    -4664 
   -4618    -4590    -4496    -4380    -4363    -4382    -4450    -4669 
   -4896    -4963    -4851    -4573    -4361    -4410    -4534    -4587 
   -4580    -4463    -4332    -4437    -4711    -4810    -4673    -4575 
   -4608    -4583    -4457    -4414    -4510    -4584    -4536    -4503 
   -4579    -4664    -4695    -4708    -4703    -4652    -4599    -4558 
   -4468    -4378    -4426    -4531    -4530    -4519    -4573    -4538 
   -4510    -4666    -4787    -4742    -4681    -4560    -4322    -4293 
   -4602    -4784    -4629    -4521    -4648    -4720    -4557    -4401 
   -4436    -4509    -4488    -4480    -4563    -4654    -4764    -4904 
   -4841    -4518    -4283    -4309    -4457    -4621    -4634    -4430 
   -4325    -4514    -4801    -4903    -4806    -4761    -4649    -4275 
   -4094    -4401    -4731    -4685    -4456    -4406    -4641    -4905 
   -4874    -4585    -4332    -4367    -4579    -4567    -4448    -4626 
   -4861    -4737    -4453    -4317    -4322    -4525    -4845    -4814 
   -4519    -4558    -4768    -4695    -4500    -4336    -4234    -4303 
   -4467    -4646    -4750    -4673    -4657    -4820    -4900    -4816 
   -4644    -4379    -4133    -4116    -4360    -4581    -4588    -4571 
   -4703    -4896    -4958    -4827    -4622    -4407    -4276    -4349 
   -4450    -4449    -4526    -4649    -4642    -4607    -4611    -4648 
   -4706    -4583    -4355    -4382    -4580    -4710    -4814    -4819 
   -4623    -4460    -4426    -4384    -4369    -4387    -4406    -4531 
   -4823    -5112    -5001    -4495    -4267    -4491    -4596    -4410 
   -4248    -4318    -4515    -4599    -4671    -4889    -5026    -4876 
   -4564    -4402    -4476    -4448    -4229    -4195    -4441    -4672 
   -4734    -4723    -4768    -4822    -4704    -4479    -4401    -4490 
   -4542    -4480    -4476    -4585    -4641    -4614    -4571    -4496 
   -4467    -4536    -4592    -4685    -4892    -4931    -4648    -4364 
   -4288    -4268    -4218    -4275    -4531    -4800    -4878    -4820 
   -4764    -4801    -4874    -4711    -4299    -4039    -4132    -4372 
   -4608    -4796    -4783    -4622    -4619    -4746    -4746    -4560 
   -4299    -4209    -4399    -4681    -4835    -4780    -4600    -4465 
   -4477    -4600    -4689    -4668    -4530    -4380    -4390    -4494 
   -4527    -4595    -4776    -4804    -4567    -4414    -4527    -4654 
   -4642    -4571    -4510    -4500    -4433    -4275    -4410    -4826 
   -4954    -4761    -4639    -4661    -4638    -4473    -4302    -4275 
   -4352    -4457    -4550    -4702    -4962    -4988    -4649    -4429 
   -4450    -4419    -4395    -4486    -4549    -4536    -4514    -4527 
   -4635    -4846    -4942    -4662    -4256    -4261    -4626    -4830 
   -4602    -4213    -4180    -4519    -4851    -5019    -4918    -4567 
   -4314    -4322    -4421    -4537    -4650    -4689    -4662    -4596 
   -4517    -4430    -4425    -4627    -4811    -4703    -4499    -4410 
   -4341    -4382    -4696    -4923    -4737    -4442    -4411    -4592 
   -4675    -4556    -4531    -4680    -4662    -4518    -4552    -4619 
   -4519    -4326    -4172    -4342    -4820    -4999    -4737    -4639 
   -4889    -4968    -4561    -4141    -4203    -4360    -4295    -4394 
   -4617    -4675    -4685    -4725    -4753    -4730    -4668    -4610 
   -4471    -4469    -4676    -4588    -4301    -4330    -4583    -4766 
   -4676    -4445    -4527    -4688    -4556    -4482    -4641    -4827 
   -4847    -4550    -4205    -4214    -4472    -4631    -4618    -4622 
   -4719    -4745    -4653    -4519    -4440    -4592    -4764    -4533 
   -4198    -4334    -4726    -4826    -4679    -4630    -4695    -4665 
   -4438    -4206    -4216    -4406    -4685    -4932    -4860    -4625 
   -4603    -4684    -4658    -4571    -4513    -4417    -4216    -4197 
   -4514    -4725    -4660    -4696    -4781    -4677    -4621    -4638 
   -4561    -4522    -4542    -4567    -4564    -4472    -4484    -4645 
   -4590    -4355    -4419    -4727    -4785    -4642    -4662    -4692 
   -4498    -4320    -4333    -4473    -4738    -4866    -4598    -4351 
   -4511    -4711    -4608    -4488    -4557    -4603    -4533    -4477 
   -4511    -4565    -4684    -4887    -4819    -4461    -4291    -4383 
   -4531    -4656    -4625    -4430    -4426    -4656    -4666    -4540 
   -4753    -4970    -4654    -4236    -4168    -4333    -4637    -4893 
   -4857    -4603    -4353    -4297    -4542    -4887    -4862    -4499 
   -4336    -4502    -4635    -4585    -4496    -4495    -4607    -4603 
   -4332    -4225    -4556    -4873    -4830    -4704    -4735    -4749 
   -4679    -4610    -4500    -4328    -4199    -4206    -4334    -4571 
   -4838    -4941    -4934    -4985    -4864    -4355    -3944    -4162 
   -4585    -4550    -4297    -4428    -4792    -4864    -4723    -4747 
   -4924    -4834    -4290    -3933    -4260    -4729    -4866    -4807 
   -4595    -4376    -4396    -4554    -4799    -5130    -5359    -5385 
   -5000    -4356    -4110    -4066    -3630    -3230    -3361    -3662 
   -3809    -4121    -4888    -5726    -6046    -5857    -5657    -5583 
   -5232    -4375    -3439    -3091    -3418    -3867    -4122    -4480 
   -5022    -5506    -5946    -6180    -5806    -4943    -3950    -3049 
   -2662    -2984    -3522    -3881    -4330    -5242    -6349    -6723 
   -6069    -5301    -4985    -4530    -3588    -2790    -2704    -3242 
   -4033    -4873    -5784    -6401    -6286    -5799    -5347    -4671 
   -3504    -2268    -1961    -2998    -4419    -5088    -5232    -5717 
   -6378    -6455    -5853    -4869    -3592    -2376    -1931    -2662 
   -4374    -6102    -6636    -6004    -5265    -4865    -4563    -4386 
   -4491    -4514    -3883    -2916    -2768    -3820    -5125    -5805 
   -5900    -5624    -4861    -4052    -4202    -4985    -4976    -4156 
   -3642    -3839    -4266    -4504    -4924    -5628    -5686    -4766 
   -3797    -3420    -3645    -4534    -5626    -5930    -5316    -4488 
   -3892    -3717    -4036    -4276    -4037    -4067    -4720    -5204 
   -5379    -5721    -5776    -5161    -4376    -3790    -3543    -3609 
   -3696    -3910    -4417    -4904    -5244    -5556    -5672    -5248 
   -4349    -3627    -3516    -3947    -4634    -4954    -4683    -4507 
   -4733    -4862    -4607    -4179    -4028    -4348    -4831    -5277 
   -5589    -5516    -5020    -4180    -3527    -3754    -4245    -4205 
   -4218    -4675    -4928    -4656    -4326    -4518    -5092    -5379 
   -5316    -5090    -4573    -4083    -4033    -4135    -3923    -3519 
   -3654    -4492    -5271    -5607    -5741    -5602    -5028    -4445 
   -4226    -4155    -4072    -3804    -3362    -3596    -4572    -5120 
   -5096    -5155    -5209    -5017    -4723    -4441    -4153    -3964 
   -4186    -4753    -4995    -4756    -4619    -4698    -4681    -4557 
   -4291    -4110    -4418    -4645    -4411    -4714    -5644    -5622 
   -4333    -3480    -3856    -4471    -4723    -4841    -4916    -4812 
   -4469    -4279    -4513    -4704    -4622    -4696    -4893    -4762 
   -4498    -4509    -4650    -4568    -4286    -4185    -4239    -4148 
   -4126    -4545    -5275    -5737    -5425    -4575    -3936    -3896 
   -4291    -4687    -4704    -4356    -3943    -3982    -4774    -5633 
   -5589    -4866    -4467    -4413    -4106    -3832    -3897    -4066 
   -4592    -5377    -5383    -4544    -3969    -4189    -4869    -5393 
   -5356    -4801    -3947    -3403    -4005    -5150    -5177    -4225 
   -3881    -4365    -4766    -4801    -4831    -5016    -5085    -4743 
   -4068    -3600    -3832    -4603    -5314    -5466    -4914    -4094 
   -3854    -4394    -5003    -5208    -5101    -4793    -4368    -3986 
   -3967    -4484    -4934    -4599    -3994    -4124    -4766    -5062 
   -5069    -5061    -4639    -4098    -4225    -4541    -4394    -4172 
   -4353    -4874    -5117    -4739    -4353    -4522    -4818    -4687 
   -4437    -4413    -4267    -4041    -4338    -4982    -5329    -5188 
   -4459    -3724    -4114    -5082    -5184    -4645    -4444    -4548 
   -4513    -4340    -4145    -4056    -4430    -5026    -5177    -5107 
   -5047    -4631    -4140    -4078    -4212    -4244    -4332    -4498 
   -4561    -4673    -4970    -5105    -4800    -4349    -4309    -4681 
   -4866    -4631    -4328    -4282    -4446    -4557    -4606    -4704 
   -4676    -4506    -4526    -4692    -4731    -4681    -4576    -4437 
   -4410    -4463    -4473    -4487    -4588    -4668    -4587    -4517 
   -4676    -4899    -4860    -4614    -4500    -4479    -4224    -3885 
   -3947    -4449    -5007    -5259    -5081    -4758    -4637    -4585 
   -4463    -4336    -4083    -3946    -4305    -4734    -4872    -4996 
   -5073    -4860    -4564    -4469    -4531    -4584    -4509    -4328 
   -4306    -4456    -4518    -4684    -4919    -4749    -4413    -4303 
   -4329    -4603    -5047    -5090    -4629    -4143    -4051    -4372 
   -4631    -4544    -4406    -4449    -4757    -5170    -5147    -4810 
   -4594    -4217    -3831    -4062    -4594    -4831    -4773    -4626 
   -4656    -4753    -4502    -4286    -4637    -4961    -4762    -4580 
   -4665    -4469    -3917    -3735    -4336    -5205    -5532    -5128 
   -4598    -4360    -4162    -3994    -4175    -4510    -4673    -4753 
   -4772    -4731    -4869    -5051    -4803    -4125    -3636    -3936 
   -4737    -5066    -4799    -4725    -4935    -4880    -4569    -4342 
   -4351    -4461    -4334    -4252    -4625    -4834    -4564    -4444 
   -4534    -4529    -4606    -4811    -4895    -4835    -4700    -4444 
   -4209    -4205    -4297    -4437    -4730    -4842    -4645    -4617 
   -4855    -4970    -4830    -4584    -4333    -4207    -4270    -4342 
   -4336    -4386    -4550    -4796    -4962    -4811    -4577    -4626 
   -4733    -4629    -4446    -4399    -4507    -4519    -4326    -4294 
   -4542    -4664    -4553    -4425    -4556    -5043    -5158    -4610 
   -4375    -4671    -4773    -4526    -4207    -4139    -4440    -4752 
   -4753    -4456    -4078    -4086    -4665    -5292    -5375    -4847 
   -4224    -4143    -4511    -4700    -4521    -4301    -4226    -4183 
   -4352    -4981    -5448    -5109    -4580    -4536    -4523    -4205 
   -4066    -4314    -4536    -4556    -4603    -4696    -4737    -4823 
   -4904    -4714    -4230    -3950    -4279    -4754    -4865    -4862 
   -4807    -4536    -4402    -4606    -4706    -4406    -4209    -4552 
   -4847    -4695    -4563    -4637    -4715    -4679    -4483    -4320 
   -4356    -4509    -4662    -4737    -4716    -4596    -4349    -4228 
   -4448    -4731    -4804    -4766    -4788    -4773    -4496    -4189 
   -4341    -4665    -4446    -4018    -4301    -5062    -5259    -4801 
   -4518    -4652    -4679    -4433    -4256    -4271    -4359    -4425 
   -4452    -4648    -4984    -5004    -4704    -4438    -4332    -4467 
   -4703    -4683    -4446    -4307    -4367    -4572    -4764    -4716 
   -4583    -4583    -4515    -4398    -4531    -4703    -4599    -4450 
   -4533    -4774    -4828    -4565    -4413    -4506    -4544    -4608 
   -4750    -4695    -4432    -4239    -4330    -4619    -4764    -4669 
   -4649    -4851    -4959    -4718    -4352    -4221    -4280    -4245 
   -4202    -4461    -4831    -4926    -4889    -4904    -4754    -4503 
   -4503    -4563    -4321    -4195    -4517    -4633    -4330    -4310 
