Origin Time       2018/04/09 06:38:00
Lat.              35.2
Long.             132.6
Depth. (km)       10
Mag.              3.8
Station Code      HRSH03
Station Lat.      34.5183
Station Long.     133.1375
Station Height(m) 160
Record Time       2018/04/09 06:39:15
Sampling Freq(Hz) 100Hz
Duration Time(s)  120
Dir.              5
Scale Factor      7845(gal)/8223790
Max. Acc. (gal)   2.285
Last Correction   2018/04/09 06:39:00
Memo.             
[...]
   -3222    -3222    -3219    -3218    -3218    -3218    -3221    -3223 
   -3223    -3222    -3221    -3219    -3218    -3218    -3215    -3217 
   -3222    -3221    -3218    -3222    -3225    -3222    -3218    -3218 
   -3219    -3219    -3218    -3219    -3218    -3215    -3218    -3222 
   -3225    -3221    -3218    -3225    -3227    -3218    -3211    -3215 
   -3219    -3219    -3217    -3221    -3222    -3221    -3219    -3217 
   -3222    -3229    -3222    -3218    -3223    -3225    -3215    -3213 
   -3221    -3221    -3215    -3221    -3222    -3217    -3218    -3219 
   -3222    -3227    -3223    -3223    -3223    -3215    -3213    -3218 
   -3221    -3223    -3225    -3222    -3218    -3215    -3217    -3221 
   -3225    -3227    -3225    -3221    -3218    -3217    -3217    -3215 
   -3218    -3226    -3223    -3217    -3217    -3218    -3221    -3225 
   -3221    -3221    -3223    -3226    -3222    -3214    -3213    -3214 
   -3218    -3226    -3225    -3221    -3225    -3223    -3218    -3215 
   -3217    -3221    -3222    -3221    -3221    -3218    -3214    -3215 
   -3218    -3222    -3222    -3221    -3222    -3221    -3219    -3218 
   -3214    -3217    -3225    -3222    -3221    -3222    -3221    -3222 
   -3221    -3217    -3217    -3219    -3221    -3221    -3219    -3223 
   -3222    -3215    -3218    -3222    -3219    -3221    -3222    -3222 
   -3221    -3218    -3221    -3221    -3217    -3218    -3222    -3223 
   -3226    -3222    -3217    -3219    -3221    -3218    -3222    -3226 
   -3222    -3218    -3221    -3222    -3221    -3219    -3222    -3222 
   -3219    -3218    -3219    -3219    -3221    -3221    -3223    -3222 
   -3217    -3217    -3218    -3218    -3221    -3219    -3217    -3218 
   -3213    -3211    -3214    -3214    -3218    -3229    -3235    -3244 
   -3258    -3275    -3295    -3310    -3302    -3264    -3222    -3176 
   -3111    -3011    -2902    -2866    -2943    -3102    -3298    -3495 
   -3661    -3793    -3828    -3630    -3244    -2928    -2801    -2762 
   -2695    -2685    -2929    -3354    -3584    -3549    -3543    -3650 
   -3609    -3269    -2895    -2803    -2880    -2964    -3234    -3620 
   -3612    -3222    -3064    -3149    -3065    -3037    -3358    -3530 
   -3082    -2610    -2852    -3512    -3991    -4018    -3576    -3051 
   -2724    -2569    -2662    -2890    -3094    -3402    -3735    -3642 
   -3046    -2787    -3462    -4139    -3852    -3187    -2874    -2681 
   -2370    -2396    -3110    -3896    -4129    -4032    -3510    -2579 
   -2363    -3025    -3423    -3302    -3231    -3308    -3173    -3048 
   -3352    -3654    -3604    -3408    -3076    -2623    -2442    -2856 
   -3500    -3676    -3360    -3231    -3415    -3296    -3087    -3447 
   -3728    -3230    -2766    -2897    -3055    -3028    -3098    -3353 
   -3545    -3420    -3231    -3227    -3256    -3257    -3285    -3213 
   -2953    -2801    -3005    -3326    -3439    -3438    -3622    -3715 
   -3223    -2474    -2257    -2808    -3568    -4047    -4139    -3684 
   -2990    -2587    -2427    -2527    -3122    -3894    -4158    -3696 
   -3099    -3041    -3234    -3090    -2731    -2489    -2660    -3233 
   -3665    -3777    -3684    -3429    -3207    -3119    -3148    -3245 
   -3430    -3608    -3304    -2636    -2389    -2737    -3252    -3473 
   -3402    -3505    -3788    -3781    -3331    -2713    -2417    -2698 
   -3268    -3550    -3424    -3376    -3469    -3383    -3244    -3260 
   -3272    -3084    -2928    -3046    -3156    -3208    -3477    -3551 
   -3091    -2820    -3076    -3173    -3046    -3265    -3720    -3879 
   -3488    -2794    -2493    -2894    -3429    -3520    -3319    -3156 
   -3069    -3037    -3180    -3505    -3585    -3271    -3148    -3418 
   -3442    -2964    -2731    -3123    -3330    -2986    -2922    -3310 
   -3435    -3285    -3262    -3391    -3484    -3366    -3237    -3219 
   -3069    -3007    -3179    -3215    -3199    -3246    -3150    -3056 
   -3033    -3013    -3221    -3532    -3596    -3588    -3634    -3408 
   -2903    -2513    -2562    -3013    -3342    -3410    -3554    -3586 
   -3296    -3111    -3271    -3352    -3118    -3045    -3291    -3323 
   -3080    -2972    -3106    -3323    -3331    -3141    -3179    -3335 
   -3175    -3096    -3469    -3667    -3418    -3118    -2824    -2686 
   -2867    -3109    -3468    -3827    -3597    -3122    -3121    -3226 
   -3137    -3190    -3316    -3397    -3372    -2999    -2685    -2897 
   -3167    -3203    -3393    -3666    -3555    -3133    -2918    -3231 
   -3622    -3489    -3084    -2891    -2918    -3069    -3246    -3246 
   -3195    -3308    -3288    -3105    -3146    -3311    -3342    -3329 
   -3476    -3645    -3403    -2883    -2605    -2710    -3098    -3437 
   -3478    -3389    -3230    -3150    -3362    -3403    -3121    -3198 
   -3476    -3330    -3064    -2914    -2852    -3084    -3307    -3230 
   -3296    -3538    -3418    -3132    -3171    -3303    -3335    -3265 
   -3030    -3067    -3330    -3225    -3090    -3188    -3150    -3142 
   -3271    -3254    -3225    -3369    -3497    -3395    -3068    -2793 
   -2906    -3256    -3339    -3281    -3458    -3518    -3254    -3014 
   -2868    -2930    -3240    -3434    -3558    -3620    -3366    -3063 
   -3001    -3009    -2883    -2851    -3148    -3495    -3690    -3597 
   -3142    -2967    -3314    -3357    -3019    -3076    -3464    -3474 
   -2988    -2682    -3002    -3357    -3240    -3159    -3500    -3711 
   -3439    -3079    -2884    -2976    -3244    -3235    -3141    -3242 
   -3314    -3439    -3418    -2870    -2587    -3192    -3770    -3676 
   -3406    -3345    -3292    -2934    -2578    -2829    -3319    -3420 
   -3333    -3289    -3281    -3389    -3474    -3269    -2949    -2916 
   -3154    -3366    -3376    -3241    -3171    -3188    -3125    -3030 
   -3102    -3285    -3418    -3441    -3375    -3369    -3316    -2959 
   -2733    -3049    -3300    -3159    -3303    -3766    -3699    -3073 
   -2704    -2938    -3261    -3191    -3152    -3524    -3723    -3343 
   -2967    -3002    -3106    -3068    -2976    -2967    -3105    -3315 
   -3599    -3711    -3481    -3221    -2974    -2862    -3106    -3281 
   -3214    -3191    -3269    -3406    -3350    -3042    -2928    -3083 
   -3312    -3561    -3585    -3339    -3187    -3175    -3061    -2937 
   -2905    -2997    -3285    -3416    -3229    -3154    -3307    -3424 
   -3366    -3288    -3323    -3256    -3121    -3159    -3223    -3210 
   -3208    -3144    -3033    -3075    -3221    -3288    -3258    -3198 
   -3272    -3492    -3551    -3360    -3102    -2917    -2916    -3028 
   -3148    -3300    -3333    -3196    -3256    -3424    -3321    -3211 
   -3250    -3242    -3219    -3227    -3268    -3234    -3057    -3003 
   -3152    -3244    -3198    -3215    -3365    -3387    -3144    -2928 
   -3040    -3318    -3438    -3484    -3555    -3388    -3063    -2997 
   -3164    -3192    -3005    -2975    -3137    -3084    -3021    -3318 
   -3605    -3568    -3430    -3406    -3414    -3250    -2968    -2747 
   -2704    -3071    -3558    -3489    -3114    -3060    -3288    -3466 
   -3370    -3254    -3442    -3488    -3055    -2670    -2758    -3094 
   -3285    -3284    -3315    -3446    -3542    -3465    -3276    -3152 
   -3064    -3069    -3194    -3177    -3091    -3132    -3267    -3392 
   -3294    -3105    -3204    -3375    -3230    -3005    -3100    -3372 
   -3408    -3233    -3229    -3330    -3103    -2866    -3136    -3395 
   -3149    -2918    -3114    -3431    -3619    -3630    -3519    -3447 
   -3211    -2725    -2516    -2776    -3110    -3280    -3396    -3555 
   -3586    -3404    -3281    -3254    -3068    -2968    -3238    -3389 
   -3163    -3044    -3153    -3149    -3028    -3060    -3265    -3442 
   -3553    -3565    -3331    -3057    -3032    -3136    -3140    -3033 
   -3036    -3199    -3240    -3134    -3186    -3474    -3677    -3545 
   -3361    -3275    -3075    -2899    -2839    -2751    -2852    -3181 
   -3462    -3578    -3449    -3335    -3532    -3640    -3439    -3227 
   -2982    -2709    -2686    -2825    -3014    -3362    -3703    -3694 
   -3280    -2961    -3203    -3530    -3399    -3098    -3021    -3086 
   -3098    -3117    -3180    -3156    -3123    -3280    -3478    -3468 
   -3357    -3319    -3277    -3137    -2980    -3069    -3375    -3416 
   -3069    -2793    -2968    -3389    -3416    -3036    -3049    -3554 
   -3792    -3520    -3180    -3088    -3072    -2920    -2790    -2884 
   -3103    -3272    -3434    -3576    -3547    -3348    -3133    -3172 
   -3375    -3284    -3060    -3084    -3187    -3164    -3013    -2911 
   -3076    -3339    -3500    -3608    -3584    -3408    -3268    -3105 
   -2867    -2828    -3025    -3164    -3102    -3026    -3204    -3491 
   -3555    -3456    -3354    -3300    -3319    -3326    -3223    -3007 
   -2844    -2929    -3126    -3249    -3319    -3285    -3198    -3199 
   -3171    -3160    -3370    -3592    -3559    -3306    -3038    -3024 
   -3176    -3113    -2926    -3009    -3288    -3473    -3403    -3137 
   -3084    -3342    -3427    -3234    -3150    -3202    -3181    -3103 
   -3095    -3229    -3337    -3213    -3087    -3202    -3291    -3304 
   -3481    -3531    -3269    -3026    -2938    -2979    -3006    -2933 
   -3123    -3530    -3577    -3294    -3111    -3285    -3649    -3555 
   -3059    -2963    -3173    -3065    -2783    -2920    -3415    -3478 
   -3129    -3211    -3541    -3499    -3360    -3287    -3086    -2924 
   -2945    -3145    -3316    -3115    -2948    -3284    -3558    -3426 
   -3306    -3242    -3098    -3088    -3221    -3319    -3300    -3171 
   -3163    -3310    -3291    -3118    -3125    -3280    -3271    -3083 
   -2978    -3113    -3327    -3410    -3373    -3343    -3388    -3281 
   -2970    -2933    -3169    -3265    -3258    -3264    -3222    -3150 
   -3130    -3264    -3406    -3335    -3294    -3453    -3393    -2933 
   -2659    -2952    -3334    -3338    -3244    -3445    -3561    -3140 
   -2821    -3133    -3474    -3396    -3067    -2982    -3339    -3416 
   -3122    -3150    -3352    -3396    -3221    -2952    -3061    -3296 
   -3233    -3183    -3156    -3141    -3318    -3311    -3091    -3164 
   -3462    -3558    -3407    -3241    -3106    -2901    -2759    -2910 
   -3298    -3524    -3388    -3211    -3285    -3493    -3480    -3142 
   -2967    -3176    -3246    -3086    -3092    -3180    -3167    -3175 
   -3252    -3311    -3322    -3396    -3497    -3373    -3090    -2974 
   -3052    -3082    -3044    -3164    -3288    -3213    -3233    -3391 
   -3437    -3385    -3272    -3088    -2999    -3149    -3276    -3152 
   -3088    -3276    -3478    -3422    -3199    -3176    -3223    -3105 
   -3042    -3114    -3218    -3200    -3118    -3295    -3445    -3319 
   -3384    -3461    -3118    -2918    -3188    -3407    -3327    -3049 
   -2747    -2808    -3219    -3442    -3458    -3554    -3431    -3123 
   -3119    -3256    -3230    -3046    -2988    -3418    -3674    -3217 
   -2911    -3059    -3018    -2909    -3094    -3416    -3728    -3761 
   -3383    -3137    -3204    -3133    -2839    -2632    -2821    -3231 
   -3315    -3241    -3422    -3665    -3771    -3578    -3184    -3095 
   -3113    -2933    -2933    -3042    -2940    -2937    -3267    -3546 
   -3451    -3252    -3354    -3559    -3415    -3060    -2934    -3144 
   -3330    -3200    -3088    -3199    -3204    -3061    -2979    -3026 
   -3276    -3661    -3794    -3478    -3065    -2955    -3049    -3021 
   -2971    -3180    -3345    -3156    -3064    -3504    -3821    -3322 
   -2785    -3034    -3445    -3254    -2906    -3198    -3680    -3387 
   -2774    -2851    -3191    -3019    -2910    -3392    -3846    -3781 
   -3607    -3708    -3645    -3225    -3053    -3253    -3281    -2937 
   -2713    -2787    -2554    -2235    -2547    -2884    -2785    -3007 
   -3696    -4116    -4012    -3842    -3973    -4023    -3465    -2635 
   -2354    -2747    -3056    -2735    -2259    -2505    -3438    -3982 
   -3761    -3755    -4353    -4654    -4245    -3726    -3397    -2871 
   -1918    -1129    -1271    -1966    -2347    -2540    -3231    -4440 
   -5250    -5169    -4978    -5017    -4433    -2895    -1331     -896 
   -1656    -2295    -2012    -2087    -3447    -4692    -4695    -4234 
   -4241    -4459    -3969    -2818    -2174    -2212    -1938    -1557 
   -2249    -3613    -4371    -4568    -4618    -4311    -3846    -3269 
   -2091    -1121    -1586    -2697    -3142    -3078    -3181    -3665 
   -4322    -4893    -5296    -4984    -3526    -2029    -1560    -1711 
   -2077    -2525    -2793    -3141    -3518    -3518    -3639    -4205 
   -4387    -3640    -2911    -3179    -3392    -2455    -1713    -2505 
   -3701    -3802    -3222    -3061    -3410    -3639    -3504    -3358 
   -3246    -2755    -2431    -3389    -4610    -4263    -3285    -3159 
   -3095    -2434    -2085    -2675    -3472    -3389    -2682    -2729 
   -3581    -4027    -4072    -4197    -3983    -3277    -2556    -2254 
   -2277    -2212    -2160    -2512    -3285    -3979    -4222    -4386 
   -4664    -4602    -3946    -3003    -2312    -1918    -1556    -1699 
   -2689    -3653    -3875    -3838    -3871    -3565    -3329    -3790 
   -4056    -3755    -3685    -3488    -2604    -1698    -1579    -2228 
   -2679    -2647    -3059    -3846    -4271    -4442    -4491    -4314 
   -3951    -3496    -3152    -2830    -2101    -1098     -824    -1856 
   -3262    -4040    -4525    -5012    -4774    -3699    -3107    -3642 
   -4113    -3464    -2277    -1694    -1732    -1802    -2139    -3080 
   -4054    -4398    -4321    -4399    -4369    -3600    -2521    -2270 
   -2983    -3362    -2883    -2728    -3009    -2629    -2153    -2871 
   -4155    -4234    -3273    -3222    -4070    -4220    -3724    -3360 
   -2967    -2455    -2251    -2428    -2535    -2548    -3072    -3862 
   -4132    -4222    -4294    -3885    -3387    -3091    -2766    -2511 
   -2543    -2833    -2913    -2690    -2820    -3348    -3663    -3646 
   -3844    -4336    -4037    -2953    -2554    -2562    -2119    -2108 
   -2856    -3542    -3740    -3624    -3693    -3877    -3804    -3524 
   -2991    -2566    -2847    -3160    -2932    -2938    -3327    -3357 
   -3111    -3111    -3168    -3091    -3258    -3640    -3828    -3816 
   -3654    -3362    -3106    -2889    -2593    -2363    -2617    -3346 
   -3703    -3310    -3045    -3214    -3299    -3449    -3744    -3767 
   -3483    -3138    -3014    -3099    -2960    -2652    -2678    -2843 
   -2798    -2893    -3366    -3971    -4248    -3997    -3674    -3546 
   -3171    -2398    -1996    -2497    -3138    -3121    -2995    -3551 
   -4125    -3820    -3298    -3333    -3384    -2870    -2546    -3230 
   -3865    -3315    -2673    -3072    -3527    -3114    -2744    -3153 
   -3618    -3454    -3083    -3267    -3711    -3588    -3173    -2917 
   -2783    -2975    -3196    -3061    -2972    -3245    -3515    -3298 
   -3009    -3244    -3627    -3758    -3568    -3233    -3214    -3319 
   -3146    -2959    -2855    -2613    -2627    -3264    -3796    -3645 
   -3422    -3446    -3210    -2764    -2760    -3177    -3360    -3254 
   -3429    -3740    -3553    -3180    -3265    -3314    -2758    -2340 
   -2740    -3253    -3281    -3258    -3487    -3659    -3505    -3268 
   -3102    -2871    -3080    -3865    -4075    -3388    -2814    -2779 
   -2797    -2512    -2470    -3203    -3928    -3959    -3746    -3522 
   -3149    -2813    -2847    -3161    -3227    -3141    -3273    -3153 
   -2694    -2781    -3523    -3874    -3497    -3322    -3573    -3491 
   -3109    -2914    -2758    -2589    -2832    -3527    -3975    -3527 
   -2814    -2984    -3523    -3397    -3052    -3014    -3083    -3134 
   -3184    -3358    -3581    -3634    -3620    -3462    -3032    -2745 
   -2959    -3275    -3148    -2694    -2438    -2891    -3940    -4483 
   -3900    -3175    -3306    -3528    -2943    -2428    -2664    -2944 
   -2863    -2847    -3298    -3834    -3734    -3315    -3361    -3577 
   -3469    -3349    -3221    -2863    -2587    -2462    -2621    -3284 
   -3573    -3136    -3219    -3981    -4095    -3447    -3173    -3526 
   -3624    -3076    -2606    -2632    -2609    -2432    -2587    -3002 
   -3369    -3871    -4510    -4518    -3634    -2859    -2809    -2906 
   -2739    -2639    -2825    -3167    -3519    -3669    -3527    -3279 
   -3088    -3076    -3137    -2949    -2864    -3415    -3970    -3773 
   -3156    -2770    -2755    -2871    -3030    -3281    -3531    -3688 
   -3678    -3507    -3237    -2870    -2721    -3011    -3214    -3092 
   -3026    -3175    -3393    -3354    -3168    -3333    -3616    -3586 
   -3299    -2979    -2913    -3033    -2899    -2677    -3082    -3851 
   -3940    -3464    -3190    -3123    -3002    -2790    -2821    -3397 
   -3819    -3443    -3083    -3396    -3574    -3060    -2639    -2897 
   -3221    -3161    -3122    -3267    -3331    -3280    -3298    -3480 
   -3473    -3037    -2864    -3352    -3638    -3159    -2498    -2427 
   -3127    -3950    -4164    -3863    -3441    -3137    -2980    -2776 
   -2643    -2793    -3009    -3136    -3272    -3411    -3559    -3680 
   -3619    -3519    -3505    -3284    -2872    -2721    -2828    -2825 
   -2770    -2956    -3321    -3542    -3530    -3526    -3561    -3373 
   -3138    -3191    -3241    -2934    -2605    -2736    -3260    -3669 
   -3611    -3402    -3399    -3354    -3177    -3231    -3532    -3474 
   -2716    -2189    -2871    -3793    -3651    -3083    -3113    -3492 
   -3522    -3142    -3003    -3267    -3240    -2940    -2988    -3279 
   -3423    -3306    -3106    -3289    -3720    -3697    -3237    -2879 
   -2775    -2735    -2675    -2810    -3204    -3524    -3608    -3573 
   -3535    -3582    -3559    -3358    -3179    -3111    -3056    -2941 
   -2813    -2755    -2860    -3192    -3399    -3346    -3488    -3659 
   -3495    -3316    -3264    -3258    -3287    -3183    -3071    -2988 
   -2675    -2575    -3122    -3703    -3742    -3464    -3339    -3453 
   -3379    -2982    -2825    -3159    -3473    -3321    -2894    -2751 
   -3057    -3325    -3292    -3254    -3330    -3439    -3542    -3430 
   -3053    -2891    -3168    -3258    -2963    -3034    -3508    -3586 
   -3221    -3046    -3316    -3550    -3308    -3048    -3233    -3403 
   -3146    -2812    -2875    -3271    -3375    -3057    -2984    -3238 
   -3315    -3258    -3396    -3692    -3620    -3022    -2721    -3105 
   -3468    -3285    -2857    -2798    -3045    -3117    -3190    -3466 
   -3639    -3593    -3408    -3250    -3291    -3300    -3168    -3122 
   -3075    -2922    -2856    -2918    -3025    -3130    -3190    -3310 
   -3601    -3825    -3813    -3673    -3384    -3002    -2729    -2674 
   -2914    -3219    -3196    -3025    -3167    -3460    -3361    -3040 
   -3229    -3951    -4255    -3550    -2627    -2470    -2840    -3009 
   -2859    -2794    -3119    -3580    -3682    -3334    -3059    -3262 
   -3562    -3559    -3392    -3261    -3221    -3132    -2864    -2720 
   -2856    -3007    -3136    -3343    -3573    -3717    -3649    -3415 
   -3221    -3125    -3064    -2997    -2978    -3040    -3033    -2911 
