Origin Time       2018/04/09 06:38:00
Lat.              35.2
Long.             132.6
Depth. (km)       10
Mag.              3.8
Station Code      HRS008
Station Lat.      34.6029
Station Long.     132.7201
Station Height(m) 207
Record Time       2018/04/09 06:39:08
Sampling Freq(Hz) 100Hz
Duration Time(s)  60
Dir.              N-S
Scale Factor      7845(gal)/8223790
Max. Acc. (gal)   4.994
Last Correction   2018/04/09 06:39:08
Memo.             
[...]
     869      872      876      876      872      872      873      872 
     866      868      872      870      870      874      873      872 
     872      869      872      872      872      873      872      870 
     872      873      872      872      873      873      873      872 
     873      873      874      873      872      870      870      870 
     872      870      872      873      870      872      872      869 
     868      869      870      873      873      872      872      872 
     870      869      869      872      873      872      872      872 
     872      873      870      869      870      869      868      872 
     873      870      870      873      870      869      870      869 
     872      872      869      869      870      870      872      873 
     870      869      869      869      870      872      872      872 
     873      873      872      870      870      872      870      870 
     870      870      872      872      870      870      872      873 
     873      872      870      872      872      870      868      870 
     872      870      870      873      872      870      873      873 
     872      870      872      872      869      868      870      870 
     869      870      873      873      872      872      872      868 
     870      874      873      872      874      873      870      870 
     873      872      870      873      873      870      870      873 
     872      870      872      873      870      869      872      873 
     873      874      873      870      869      870      872      870 
     870      870      870      872      872      870      872      870 
     870      870      870      870      872      873      873      870 
     872      873      872      872      870      869      872      872 
     870      872      870      872      872      870      870      869 
     868      870      873      872      872      870      869      870 
     870      869      869      869      869      869      873      872 
     869      869      870      870      869      870      873      874 
     872      869      873      876      870      870      870      869 
     869      873      874      872      869      872      872      870 
     872      873      869      868      872      873      870      872 
     872      870      870      874      873      869      870      873 
     873      870      870      872      872      870      868      869 
     872      872      872      873      873      872      872      872 
     870      869      870      870      870      870      872      870 
     870      872      872      870      872      872      870      870 
     870      869      872      873      870      870      872      872 
     872      872      870      869      872      873      870      869 
     872      872      870      872      873      873      872      870 
     870      870      872      872      874      873      872      872 
     869      868      870      872      870      872      872      869 
     869      872      870      870      872      872      870      870 
     870      869      872      873      872      872      870      870 
     872      872      870      870      870      873      874      873 
     873      872      869      870      872      870      870      872 
     872      874      874      870      869      869      869      869 
     872      873      872      872      872      870      870      872 
     869      869      872      872      872      872      872      870 
     872      872      872      873      870      866      869      873 
     873      870      870      872      872      873      872      870 
     872      873      872      869      869      870      872      870 
     870      874      873      870      870      872      869      868 
     870      872      870      870      872      872      870      870 
     872      872      870      868      868      870      872      872 
     872      873      873      872      873      873      872      872 
     873      873      872      870      870      869      872      873 
     872      870      873      872      870      870      869      870 
     872      872      873      874      870      869      869      868 
     870      872      872      872      872      872      872      870 
     872      872      869      870      873      872      872      872 
     870      872      873      872      872      870      870      872 
     870      870      873      872      872      872      870      869 
     869      869      872      870      870      873      872      869 
     870      870      869      873      873      870      870      872 
     870      869      870      869      869      870      872      872 
     870      870      872      870      870      873      870      869 
     869      869      870      872      872      872      870      873 
     873      869      868      870      870      869      872      873 
     872      869      868      869      870      870      873      872 
     870      872      873      870      870      872      870      870 
     870      872      870      869      872      874      870      868 
     873      874      868      868      873      872      869      872 
     872      869      870      870      870      872      873      873 
     873      870      872      873      872      869      869      870 
     869      870      873      874      870      870      872      872 
     872      872      873      874      873      869      870      870 
     869      869      870      872      873      873      872      870 
     869      869      870      870      870      872      873      872 
     868      864      864      862      861      862      858      851 
     847      850      854      850      842      835      843      866 
     884      885      889      912      920      890      882      920 
     959      985      994      973      949      927      876      830 
     820      841      872      834      776      815      847      807 
     795      795      830      957      993      864      824      854 
     787      762      791      764      791      842      787      731 
     823      931      892      877      936      890      951     1244 
    1321     1101      993      969      789      723      967     1063 
     822      666      660      661      781      888      874      942 
     901      610      629     1050     1190      924      746      756 
     688      630      820     1020      924      747      764      850 
     827      783      803      877     1047     1212     1151      951 
     807      734      869     1173     1212     1004      907      834 
     691      653      741      824      882      977     1000      916 
     884      830      692      683      814      823      711      837 
    1065      926      765      897      873      714      769      862 
     881      864      753      758     1028     1229     1107      909 
     877      872      803      785      787      800      922     1109 
    1139      889      672      702      727      737      842      882 
     892      942      890      796      800      892      974      927 
     862      959     1024      905      781      750      757      784 
     846      934      951      868      855      989     1059      957 
     877      967     1032      903      745      691      739      842 
     828      727      769      869      797      704      783      842 
     818      893     1005     1004      962      947      946      932 
     849      792      908     1036      996      853      766      851 
    1000     1053     1070     1053      916      781      724      661 
     638      738      845      896      939      872      700      589 
     606      762      903      903      886      896      950     1047 
     972      837      928     1026      950      918      903      861 
     961     1070     1017      969      955      855      750      753 
     788      842      907      861      754      710      714      765 
     841      915     1013     1032      901      787      728      604 
     525      626      820      992     1081     1050      969      953 
     984     1026     1059     1013      892      746      743      934 
    1043     1070     1154     1039      760      649      553      419 
     626     1031     1163     1127     1060      876      734      689 
     643      637      685      807      951      957      876      835 
     820      899     1013      939      788      766      776      818 
     987     1117     1132     1156     1116      972      897      870 
     767      685      673      676      792     1026     1136     1042 
     862      677      588      656      756      812      872      892 
     849      827      862      916      931      899      859      841 
     919     1012      868      665      774     1028     1150     1135 
     996      847      792      746      700      787      959     1028 
     932      784      745      850      977     1000      900      845 
     877      832      795      868      880      773      699      738 
     785      800      884      972      963      897      870      942 
     966      841      757      787      838      939     1055     1043 
     905      804      814      858      890      963     1034      954 
     831      864      896      785      750      841      854      788 
     746      714      726      832      966     1016      987      955 
     901      816      747      728      830     1015     1062      901 
     814      897      927      901      893      846      858      884 
     777      731      858      987     1039     1021      905      741 
     652      687      762      810      872      949     1008     1031 
     945      864      963     1026      864      692      730      908 
    1016     1007      984      959      832      664      642      722 
     781      828      874      936      961      880      831      895 
     893      816      819      832      820      857      918     1021 
    1073      928      822      892      857      711      791     1000 
    1004      942      982      895      711      751      900      886 
     819      819      864      929      908      849      903      967 
     895      745      676      777      897      903      938      992 
     882      762      831      916      900      903      896      831 
     854      837      652      675      951     1060     1016      987 
     903      824      834      850      864      859      792      801 
     890      897      928     1058     1080      951      824      791 
     842      861      811      793      805      838      885      799 
     719      880      981      850      815      897      857      785 
     835      901      918      924      912      884      822      781 
     866      974      997     1008     1028      957      772      662 
     754      864      853      832      864      931      996      970 
     918      940      909      818      838      859      747      653 
     669      772      859      866      929     1026     1050     1055 
     969      832      807      808      838      954      967      907 
     896      808      710      804      896      831      800      846 
     853      780      693      774      953      987      946      984 
    1047     1039      940      842      858      896      843      795 
     777      770      853      926      864      816      830      810 
     851      888      822      899     1047      963      800      770 
     838      929     1007      969      820      810      927      923 
     857      849      811      745      792      901      901      890 
     940      958     1008     1044      888      734      799      845 
     707      623      692      780      881      953      909      851 
     882      949      961      929      918      909      916      959 
     936      850      816      853      903      959     1047     1067 
     981      903      814      669      572      612      796      959 
    1000      961      849      765      718      630      677      888 
     994      954      935      945      896      853      873      892 
     922      989      987      923      961     1000      826      652 
     715      874      973      992      993      993      940      929 
     915      746      649      735      769      796      882      847 
     770      783      765      750      820      931     1016      985 
     899      932     1026     1057      966      749      681      845 
     889      877     1013     1023      849      818      889      850 
     820      899      877      749      741      850      954      976 
     858      772      834      823      722      793      961     1005 
     976      935      907      931      909      835      838      893 
     884      791      812      997      949      677      685      903 
     980     1004     1053      985      850      793      753      723 
     808      893      924      977      920      658      402      394 
     592      737      746      820      976     1039     1086     1208 
    1371     1517     1463     1177      762      263     -105      -28 
     457     1070     1780     2528     2836     2614     2222     1286 
    -503    -1894    -1933    -1752    -1800     -461     2330     4189 
    4072     3523     3685     3086       97    -3464    -4364    -2677 
    -947       81     1345     2694     3213     2890     2442     2212 
    1746      864      410      822     1026      236     -616     -702 
    -556     -575     -216     1085     2906     3812     3287     2619 
    2461     1856      583     -409    -1094    -1833    -1676      -44 
    1707     2363     2270     1969     1462      876      576      679 
    1015     1270     1026      224     -519     -697     -707     -812 
    -341      661     1225     1564     2313     2851     2733     2280 
    1540      653      -65     -724    -1177     -764      463     1686 
    2555     3102     3184     2837     2087      907     -135     -496 
    -451     -302      141      892     1456     1497     1345     1147 
     380     -656     -934     -612     -438     -141      838     2102 
    2921     3198     2976     2104      847     -206     -791     -980 
    -769     -195      463     1105     1721     2096     2173     2115 
    2011     1686      908      148       40      289      495      634 
     637      743      938      776      664      982     1154     1154 
    1355     1367     1093      999     1000      828      730      873 
     847      569      565      611      307      275      460      259 
     463     1291     1474     1170     1340     1368      827      579 
     718      606      442      588      781      895     1107     1323 
    1440     1579     1445      940      707      653      379      483 
    1140     1630     1606     1337     1119      816      344       29 
     -35       97      661     1405     1557     1105      652      301 
      20       14      276      681     1240     1663     1475     1070 
    1215     1521     1235      614      253      348      815     1178 
    1144     1302     1790     1710     1017      473      329      540 
     665      413      475     1098     1382      954      468      326 
     503      970     1327     1140      728      656      785      760 
     830     1116     1232     1080      854      626      510      666 
     938     1144     1355     1382     1088      854      854      689 
     182     -120      245      884     1177     1123     1169     1397 
    1339      896      669      807      808      706      754      765 
     785      997     1127      970      788      808      929     1074 
    1267     1323     1101      866      789      700      558      577 
     761      924     1080     1220     1003      446      207      453 
     660      592      425      434      668      838      903     1012 
    1143     1281     1281     1169     1212     1300     1291     1208 
     955      733      733      837      997     1053      882      750 
     808      990     1178     1081      778      739      761      523 
     413      388      164      187      565      720      643      776 
    1039     1163     1179     1098      890      737      835     1182 
    1495     1475     1282     1225     1113      724      463      648 
     864      869      972     1190     1350     1385     1159      889 
     818      633      337      348      562      627      576      650 
     842      893      711      476      365      440      702      978 
    1073     1113     1227     1263     1124      857      608      575 
     772      943      970     1071     1277     1375     1418     1375 
    1077      834      841      828      769      747      710      751 
     838      872      977     1065      922      653      472      403 
     391      514      838     1105     1081      935      832      679 
     514      454      514      792     1155     1233     1069      931 
     811      700      766     1013     1290     1524     1602     1466 
    1217      876      560      451      492      683     1015     1244 
    1242     1085      830      513      303      328      487      766 
    1000      846      529      451      522      670      924     1131 
    1279     1334     1109      785      710      777      758      746 
     918     1205     1385     1409     1269      977      814      861 
     874      854      870      842      799      714      504      383 
     495      666      847     1046     1107      994      824      722 
     708      676      765     1047     1161     1104     1185     1215 
     984      693      526      556      704      830     1020     1185 
    1065      785      603      621      792      943     1060     1159 
    1161     1081      903      677      572      521      476      697 
    1161     1391     1221      927      766      785      787      683 
     715      885      990     1048     1034      926      912      954 
     886      753      645      623      652      631      602      654 
     796      970     1015      897      920     1213     1405     1304 
    1097      885      734      679      600      531      724     1098 
    1170      912      799      872      907      939      916      766 
     730      923     1059      993      859      668      562      767 
     993      980      882      738      681      885      953      750 
     747      862      805      774      832      913     1058     1133 
    1059      972      911      814      747      815      951     1009 
     977      909      783      656      621      607      629      780 
    1009     1161     1155     1127     1223     1277     1055      795 
     847      907      642      503      722      901      918      807 
     579      530      730      824      723      650      646      684 
     818      989     1119     1154     1124     1148     1167     1098 
     989      834      681      600      594      785     1158     1341 
    1173     1011     1019      936      731      561      538      776 
    1031     1101     1148     1047      770      626      525      419 
