Origin Time       2018/04/09 06:38:00
Lat.              35.2
Long.             132.6
Depth. (km)       10
Mag.              3.8
Station Code      HRS008
Station Lat.      34.6029
Station Long.     132.7201
Station Height(m) 207
Record Time       2018/04/09 06:39:08
Sampling Freq(Hz) 100Hz
Duration Time(s)  60
Dir.              U-D
Scale Factor      7845(gal)/8223790
Max. Acc. (gal)   1.629
Last Correction   2018/04/09 06:39:08
Memo.             
[...]
    8139     8141     8143     8143     8141     8139     8139     8139 
    8144     8143     8141     8143     8143     8143     8143     8141 
    8139     8139     8139     8143     8141     8139     8139     8139 
    8143     8144     8143     8141     8141     8141     8144     8141 
    8139     8144     8144     8141     8139     8139     8141     8141 
    8141     8143     8143     8139     8139     8141     8139     8141 
    8143     8141     8141     8141     8143     8139     8139     8141 
    8143     8141     8141     8139     8139     8141     8144     8144 
    8139     8139     8141     8141     8141     8143     8139     8139 
    8139     8139     8144     8143     8143     8143     8139     8139 
    8143     8143     8141     8143     8144     8143     8141     8139 
    8141     8143     8141     8141     8143     8141     8141     8143 
    8139     8139     8143     8143     8141     8143     8143     8141 
    8139     8139     8141     8143     8143     8139     8139     8144 
    8143     8141     8141     8141     8141     8144     8144     8143 
    8143     8143     8139     8139     8141     8143     8141     8141 
    8143     8143     8141     8139     8139     8139     8139     8139 
    8141     8141     8139     8143     8141     8139     8141     8141 
    8141     8143     8143     8141     8139     8139     8141     8141 
    8143     8143     8143     8143     8141     8141     8141     8139 
    8141     8141     8141     8141     8141     8139     8144     8144 
    8143     8143     8143     8143     8139     8141     8144     8143 
    8139     8141     8144     8143     8141     8143     8144     8144 
    8144     8143     8143     8144     8143     8143     8143     8139 
    8141     8144     8144     8139     8141     8143     8139     8143 
    8144     8141     8141     8144     8141     8143     8144     8143 
    8139     8143     8144     8141     8139     8141     8139     8143 
    8144     8141     8139     8139     8143     8144     8143     8139 
    8139     8141     8141     8139     8139     8144     8144     8143 
    8143     8143     8143     8139     8139     8141     8143     8141 
    8141     8144     8143     8139     8141     8141     8139     8139 
    8141     8141     8139     8139     8139     8141     8144     8141 
    8141     8143     8143     8143     8141     8144     8144     8143 
    8139     8139     8139     8141     8141     8141     8141     8139 
    8143     8144     8143     8143     8143     8144     8144     8144 
    8143     8143     8141     8141     8143     8143     8143     8143 
    8141     8139     8139     8141     8141     8141     8143     8143 
    8141     8143     8144     8144     8139     8141     8143     8143 
    8144     8144     8143     8143     8143     8143     8143     8141 
    8143     8144     8143     8139     8139     8139     8141     8141 
    8143     8141     8141     8143     8143     8143     8139     8139 
    8141     8143     8144     8144     8141     8141     8141     8139 
    8137     8143     8144     8141     8139     8143     8144     8139 
    8139     8141     8143     8141     8141     8143     8141     8139 
    8139     8144     8147     8143     8139     8143     8143     8141 
    8143     8143     8141     8141     8141     8143     8141     8141 
    8143     8139     8141     8144     8144     8141     8143     8144 
    8144     8143     8141     8141     8141     8139     8143     8144 
    8141     8139     8143     8144     8141     8139     8141     8141 
    8139     8141     8144     8143     8141     8143     8143     8141 
    8141     8143     8141     8141     8141     8139     8141     8144 
    8143     8143     8143     8139     8141     8141     8139     8141 
    8141     8139     8139     8143     8143     8143     8139     8141 
    8143     8141     8141     8144     8144     8143     8143     8143 
    8143     8143     8143     8143     8141     8139     8141     8141 
    8139     8141     8141     8141     8143     8143     8143     8141 
    8139     8141     8143     8141     8139     8141     8143     8141 
    8141     8143     8143     8141     8141     8139     8139     8143 
    8141     8139     8141     8139     8139     8139     8139     8143 
    8144     8139     8139     8141     8141     8139     8139     8143 
    8143     8141     8141     8141     8139     8139     8139     8139 
    8141     8141     8141     8139     8139     8139     8141     8143 
    8143     8141     8141     8144     8143     8143     8143     8139 
    8139     8141     8141     8141     8143     8141     8139     8139 
    8143     8144     8143     8143     8139     8139     8141     8143 
    8143     8143     8141     8139     8143     8144     8141     8141 
    8143     8144     8143     8141     8141     8143     8139     8139 
    8139     8141     8144     8143     8137     8139     8143     8139 
    8139     8141     8141     8141     8139     8141     8143     8141 
    8139     8141     8139     8139     8141     8143     8141     8143 
    8143     8141     8141     8139     8141     8143     8143     8141 
    8139     8139     8141     8143     8143     8141     8143     8143 
    8141     8143     8141     8139     8139     8141     8139     8143 
    8143     8141     8141     8141     8139     8143     8143     8139 
    8139     8139     8141     8144     8143     8141     8143     8143 
    8141     8141     8139     8141     8143     8143     8143     8141 
    8143     8144     8147     8148     8148     8151     8158     8160 
    8156     8151     8151     8160     8168     8143     8105     8113 
    8160     8167     8117     8089     8117     8136     8097     8032 
    8019     8102     8221     8224     8109     8109     8248     8270 
    8132     8040     8125     8275     8236     8077     8101     8177 
    8147     8108     7979     7969     8260     8364     8182     8043 
    8075     8328     8367     7909     7798     8371     8486     7969 
    7951     8295     8255     8081     8067     7951     7819     8251 
    8692     8233     7788     8040     8210     8114     8059     8209 
    8487     8283     7792     7742     8124     8600     8418     7769 
    7920     8401     8225     8000     8235     8487     8251     7781 
    7799     8160     8278     8210     8071     7998     8252     8414 
    8206     8024     7971     8027     8091     8023     8122     8313 
    8328     8286     8149     8124     8247     8075     7959     8058 
    7989     8174     8444     8162     7919     8095     8228     8085 
    7958     8306     8520     8062     7912     8195     8159     8052 
    8144     8284     8232     8073     8143     8110     8139     8326 
    8043     7888     8083     7920     7973     8333     8372     8391 
    8302     8025     8063     8209     8236     8108     7840     7935 
    8310     8437     8283     8083     8100     8167     8213     8322 
    8007     7657     8010     8301     8174     8152     8125     8085 
    8124     8075     8098     8236     8351     8303     8070     8025 
    8149     8177     8182     8078     8029     8164     8097     8073 
    8345     8268     7938     8083     8329     8141     7929     8105 
    8472     8375     7912     7951     8243     8202     8051     8010 
    8098     8113     8066     8201     8301     8284     8253     8102 
    8004     8051     8097     8118     8040     8046     8290     8324 
    8111     8104     8208     8236     8155     8046     8199     8330 
    8120     7985     8019     8043     8125     8199     8186     8176 
    8276     8271     8040     7944     8028     8118     8132     8135 
    8270     8213     8104     8274     8179     8012     8111     8002 
    7996     8208     8102     8108     8436     8387     8070     8063 
    8194     8164     8040     8052     8205     8233     8101     8000 
    8113     8203     8067     8098     8244     8240     8293     8259 
    8001     7939     8070     8070     8131     8260     8208     8190 
    8232     8083     7971     8144     8259     8114     8029     8105 
    8203     8198     8141     8226     8266     8214     8149     7917 
    7882     8097     8094     8094     8303     8403     8298     8215 
    8160     7993     7997     8127     8101     8124     8139     8159 
    8213     8066     8048     8193     8109     8068     8177     8156 
    8132     8257     8319     8137     7935     8002     8229     8347 
    8253     8108     8070     8048     8043     8102     8137     8186 
    8257     8152     7996     8133     8341     8256     8116     8100 
    8086     8144     8235     8167     8067     8106     8176     8093 
    7931     7989     8279     8305     8002     7947     8154     8352 
    8464     8198     7923     8098     8199     8143     8182     8129 
    8168     8241     7992     7812     8089     8398     8283     8012 
    8044     8229     8171     8060     8136     8190     8174     8122 
    8163     8333     8243     8059     8070     8032     8058     8206 
    8253     8163     8005     8021     8141     8101     8133     8259 
    8244     8159     8091     8171     8191     8020     8131     8322 
    8152     8017     8168     8293     8181     8012     7993     8139 
    8294     8191     7993     8040     8118     8105     8176     8133 
    8023     8101     8198     8206     8158     8189     8275     8210 
    8156     8132     8077     8182     8307     8240     8075     8029 
    8101     8055     8031     8156     8230     8199     8087     8025 
    8114     8208     8228     8120     8073     8189     8095     7966 
    8203     8359     8149     8040     8144     8195     8087     7989 
    8212     8385     8160     8073     8191     8175     8097     8028 
    8073     8221     8218     8097     8087     8176     8221     8203 
    8117     8025     8043     8086     8110     8172     8164     8117 
    8272     8319     7979     7946     8313     8253     8028     8164 
    8286     8194     8102     8110     8176     8256     8208     7981 
    7950     8122     8023     7842     8073     8380     8317     8128 
    8082     8228     8302     8122     8116     8228     8152     8122 
    8128     8141     8266     8245     8070     8078     8237     8155 
    7935     8035     8179     8014     8006     8182     8182     8208 
    8218     8132     8182     8171     8129     8210     8125     8093 
    8264     8122     7896     8125     8311     8102     8101     8316 
    8267     8139     8075     8014     8033     8037     8132     8376 
    8276     7920     8019     8252     8101     8055     8235     8298 
    8229     8075     8073     8185     8117     8073     8163     8149 
    8048     8127     8271     8141     8031     8176     8256     8217 
    8133     8078     8137     8162     8100     8016     8082     8255 
    8144     8009     8179     8224     8132     8177     8174     8106 
    8066     8066     8174     8247     8164     8111     8131     8095 
    8144     8228     8214     8253     8175     8037     8067     8040 
    8136     8341     8182     8012     8118     8191     8147     8004 
    7971     8214     8347     8172     8014     8078     8128     8073 
    8136     8213     8186     8163     8078     8067     8245     8313 
    8214     8154     8139     8164     8139     8066     8186     8271 
    8073     7960     8013     8097     8264     8247     8001     8020 
    8191     8097     7996     8056     8208     8334     8206     8086 
    8162     8233     8166     8040     8190     8295     8089     8097 
    8302     8276     8007     7924     8213     8272     8087     8129 
    8144     8048     8062     8073     8077     8141     8147     8101 
    8139     8244     8281     8198     8078     8059     8174     8239 
    8127     8029     8154     8298     8174     8001     8060     8186 
    8160     8005     8006     8224     8344     8332     8163     7994 
    8110     8202     8125     8037     8081     8266     8194     8089 
    8190     8127     8163     8210     7940     7982     8290     8210 
    7962     8014     8262     8279     8163     8255     8283     8109 
    8067     8143     8125     8098     8110     8154     8147     8009 
    8104     8266     7996     7955     8263     8198     8163     8297 
    8139     8078     8152     8052     8124     8275     8182     8129 
    8133     8091     8144     8155     8131     8172     8109     8117 
    8253     8175     8085     8193     8167     8028     8043     8151 
    8247     8209     8108     8185     8253     8109     7994     8163 
    8290     8007     7890     8185     8233     8160     8213     8070 
    8040     8225     8133     8035     8259     8411     8239     7954 
    7946     8237     8286     8024     8009     8176     8174     8213 
    8194     8021     8071     8137     8083     8159     8139     8024 
    8067     8237     8294     8128     8073     8174     8168     8060 
    8009     8235     8406     8172     8062     8260     8266     8120 
    8177     8306     8260     8055     8078     8349     8240     8073 
    8303     8274     7947     7902     8035     7969     7792     7879 
    8052     7862     7720     8050     8182     7807     7782     8598 
    9409     8981     7913     8059     8915     8486     7249     7222 
    8210     8355     7835     8351     9373     9071     7850     7469 
    8014     8025     7356     7627     8853     9071     8058     7514 
    7847     7948     7473     7192     7962     9462     9850     8721 
    7843     7678     7515     7248     7123     7652     8497     8748 
    8575     8480     8579     8618     8214     7798     7874     8043 
    7983     7947     8190     8440     8205     7902     8334     8969 
    8878     8376     7947     7627     7485     7335     7353     7898 
    8360     8451     8760     9018     8595     8082     8093     8139 
    7897     7746     7886     8144     8363     8440     8191     7842 
    7842     7913     7813     7977     8502     8777     8454     8094 
    8025     7801     7497     7551     7951     8510     8768     8542 
    8388     8351     8078     7767     7753     8085     8376     8356 
    8310     8461     8648     8497     8143     8019     7811     7487 
    7548     7920     8271     8332     8343     8397     8001     7717 
    7920     7981     8176     8549     8522     8437     8437     8171 
    7874     7720     7731     8048     8276     8220     8302     8414 
    8328     8228     8132     8156     8225     7967     7758     7850 
    7867     7886     7855     7704     8054     8596     8533     8463 
    8669     8725     8769     8479     7981     8148     8375     8109 
    7879     7715     7804     8083     7825     7573     7905     8176 
    8218     8118     8175     8629     8576     8052     7986     7950 
    7654     7566     7688     7901     8129     8344     8540     8549 
    8525     8614     8550     8388     8279     8094     7981     8027 
    8100     8274     8391     8301     8244     8114     7815     7850 
    8060     7874     7788     8037     8066     7967     7982     8032 
    8253     8390     8132     8056     8356     8482     8334     8101 
    8081     8257     8201     8007     7912     8005     8221     8266 
    8294     8257     8012     8043     8199     8035     7942     8113 
    8278     8352     8240     8059     8094     8201     8152     8071 
    8139     8139     8031     8177     8279     8109     8078     8252 
    8479     8424     8073     8006     8147     8037     7763     7577 
    7697     8078     8352     8418     8426     8382     8105     7825 
    8058     8388     8271     8070     8144     8367     8332     8017 
    7923     8199     8454     8384     8195     8144     8186     8272 
    8236     8044     7985     7931     7765     7889     8206     8286 
    8174     8032     7946     7944     7990     8071     8082     8082 
    8276     8411     8388     8451     8424     8309     8205     8001 
    7935     7952     8014     8189     8029     7982     8444     8424 
    8010     8017     8063     7962     7990     8168     8387     8321 
    8189     8307     8286     8220     8317     8186     7871     7844 
    8104     8195     8040     7986     8082     8040     7838     7898 
    8317     8527     8302     8031     8051     8279     8340     8133 
    8027     8160     8252     8278     8251     8095     8062     8032 
    7928     8094     8160     8082     8360     8536     8293     7979 
    7832     8043     8291     8155     7990     8095     8181     8060 
    8020     8147     8118     8060     8141     8114     8171     8454 
    8490     8222     8104     8102     7987     8028     8177     8186 
    8332     8344     8004     7954     8078     7955     7889     7950 
    8082     8203     8105     8152     8382     8343     8266     8316 
    8301     8326     8343     8156     8014     8077     8017     7893 
    7989     8098     8094     8109     8152     8194     8156     8029 
    8005     8118     8181     8172     8151     8093     8113     8221 
    8214     8117     8067     8170     8341     8221     7948     7919 
    8116     8337     8291     8295     8459     8191     8040     8226 
    7981     7815     8083     8190     8160     8155     8181     8243 
    8125     7960     8016     8086     8182     8374     8380     8329 
    8280     8023     7851     7882     7974     8160     8252     8208 
    8209     8226     8137     7929     7888     8195     8401     8201 
    8089     8252     8259     8048     7879     7935     8194     8324 
    8286     8321     8263     8066     8039     8083     8082     8166 
    8185     8149     8232     8240     8195     8229     8043     7777 
    7901     8125     8237     8330     8286     8268     8240     8006 
    7920     8160     8357     8244     8001     7990     8159     8139 
    7987     8013     8137     8158     8091     8056     8251     8526 
    8414     8151     8174     8164     7948     7842     7917     8182 
    8411     8190     7996     8194     8191     8023     8124     8222 
    8213     8251     8176     8035     8066     8190     8135     7956 
    8001     8151     8129     8098     8168     8311     8355     8135 
    8040     8135     8059     8104     8336     8343     8160     8019 
    8051     8067     7987     8135     8230     8114     8135     8129 
    8194     8379     8217     8102     8232     8073     8027     8302 
    8262     8059     8033     8007     8064     8156     8147     8237 
    8298     8133     8006     8066     8077     7993     8043     8144 
    8118     8068     8075     8105     8144     8243     8368     8383 
    8283     8225     8220     8109     7963     7986     8168     8356 
    8275     8067     8179     8302     8170     8082     7993     7905 
    7997     8090     8046     8055     8217     8235     8078     8068 
    8189     8264     8208     8210     8360     8291     8109     8082 
    8063     8101     8100     7990     8100     8299     8233     8035 
    8010     8094     8082     8137     8182     8108     8241     8330 
    8239     8241     8001     7734     7901     8087     8236     8424 
    8424     8379     8187     7863     7892     8078     8143     8228 
    8310     8311     8189     8124     8117     7946     7979     8168 
