Origin Time       2018/04/09 06:38:00
Lat.              35.2
Long.             132.6
Depth. (km)       10
Mag.              3.8
Station Code      HRS008
Station Lat.      34.6029
Station Long.     132.7201
Station Height(m) 207
Record Time       2018/04/09 06:39:08
Sampling Freq(Hz) 100Hz
Duration Time(s)  60
Dir.              E-W
Scale Factor      7845(gal)/8223790
Max. Acc. (gal)   5.287
Last Correction   2018/04/09 06:39:08
Memo.             
[...]
   -2763    -2763    -2763    -2763    -2764    -2763    -2759    -2763 
   -2766    -2764    -2764    -2766    -2764    -2764    -2766    -2764 
   -2763    -2764    -2766    -2764    -2762    -2763    -2766    -2767 
   -2766    -2763    -2763    -2766    -2766    -2764    -2766    -2767 
   -2766    -2764    -2764    -2764    -2766    -2766    -2766    -2764 
   -2764    -2764    -2764    -2766    -2766    -2764    -2764    -2764 
   -2764    -2763    -2764    -2766    -2764    -2763    -2763    -2763 
   -2764    -2764    -2763    -2763    -2766    -2767    -2766    -2764 
   -2764    -2766    -2764    -2764    -2766    -2764    -2762    -2762 
   -2763    -2766    -2767    -2763    -2762    -2764    -2764    -2763 
   -2766    -2767    -2766    -2762    -2763    -2766    -2764    -2759 
   -2764    -2766    -2762    -2764    -2767    -2764    -2762    -2764 
   -2764    -2764    -2764    -2763    -2764    -2767    -2764    -2763 
   -2766    -2766    -2764    -2764    -2764    -2764    -2764    -2764 
   -2766    -2766    -2764    -2764    -2766    -2767    -2767    -2763 
   -2759    -2764    -2767    -2767    -2766    -2766    -2766    -2767 
   -2764    -2763    -2764    -2764    -2764    -2767    -2766    -2764 
   -2764    -2764    -2763    -2764    -2764    -2764    -2763    -2763 
   -2764    -2766    -2766    -2766    -2763    -2763    -2766    -2766 
   -2763    -2762    -2763    -2764    -2764    -2766    -2766    -2763 
   -2763    -2764    -2766    -2767    -2766    -2763    -2763    -2764 
   -2764    -2764    -2763    -2763    -2764    -2767    -2766    -2764 
   -2767    -2766    -2763    -2764    -2766    -2764    -2764    -2766 
   -2767    -2766    -2764    -2764    -2764    -2764    -2763    -2764 
   -2766    -2764    -2763    -2764    -2766    -2766    -2763    -2764 
   -2766    -2763    -2762    -2766    -2767    -2766    -2764    -2764 
   -2764    -2764    -2764    -2766    -2766    -2764    -2764    -2763 
   -2759    -2762    -2763    -2763    -2764    -2766    -2764    -2764 
   -2764    -2762    -2762    -2766    -2768    -2766    -2764    -2764 
   -2764    -2764    -2763    -2764    -2764    -2766    -2766    -2766 
   -2766    -2766    -2763    -2763    -2764    -2766    -2768    -2767 
   -2764    -2764    -2766    -2767    -2767    -2764    -2762    -2762 
   -2763    -2763    -2763    -2763    -2766    -2768    -2768    -2764 
   -2763    -2764    -2763    -2763    -2766    -2767    -2763    -2763 
   -2764    -2763    -2763    -2764    -2764    -2763    -2762    -2763 
   -2764    -2764    -2764    -2766    -2766    -2764    -2766    -2768 
   -2767    -2763    -2764    -2764    -2762    -2764    -2767    -2766 
   -2764    -2764    -2763    -2763    -2764    -2764    -2763    -2764 
   -2764    -2764    -2764    -2764    -2763    -2762    -2763    -2766 
   -2767    -2764    -2762    -2764    -2768    -2768    -2764    -2764 
   -2764    -2759    -2762    -2764    -2764    -2763    -2763    -2764 
   -2764    -2763    -2763    -2763    -2762    -2764    -2766    -2766 
   -2766    -2764    -2762    -2763    -2763    -2764    -2766    -2766 
   -2764    -2764    -2764    -2762    -2762    -2764    -2764    -2762 
   -2764    -2767    -2763    -2759    -2763    -2766    -2766    -2766 
   -2766    -2766    -2764    -2764    -2764    -2766    -2766    -2764 
   -2763    -2764    -2764    -2767    -2767    -2764    -2764    -2764 
   -2763    -2764    -2764    -2762    -2764    -2764    -2763    -2764 
   -2764    -2763    -2763    -2763    -2763    -2763    -2764    -2764 
   -2764    -2763    -2763    -2762    -2764    -2764    -2763    -2762 
   -2764    -2764    -2764    -2766    -2764    -2766    -2766    -2762 
   -2764    -2767    -2764    -2762    -2764    -2764    -2763    -2764 
   -2766    -2764    -2763    -2764    -2766    -2764    -2763    -2764 
   -2766    -2764    -2764    -2764    -2762    -2762    -2764    -2764 
   -2763    -2763    -2764    -2764    -2762    -2759    -2759    -2764 
   -2764    -2762    -2763    -2766    -2763    -2763    -2764    -2764 
   -2764    -2764    -2764    -2763    -2763    -2763    -2762    -2762 
   -2764    -2764    -2763    -2764    -2766    -2767    -2764    -2764 
   -2766    -2764    -2764    -2766    -2764    -2764    -2766    -2766 
   -2764    -2764    -2763    -2763    -2766    -2764    -2766    -2767 
   -2764    -2762    -2764    -2766    -2763    -2764    -2767    -2766 
   -2764    -2766    -2767    -2767    -2764    -2763    -2766    -2766 
   -2764    -2766    -2766    -2764    -2764    -2766    -2766    -2764 
   -2764    -2766    -2766    -2766    -2764    -2764    -2763    -2762 
   -2766    -2767    -2766    -2764    -2764    -2764    -2764    -2766 
   -2767    -2764    -2763    -2763    -2764    -2763    -2762    -2763 
   -2764    -2763    -2764    -2768    -2766    -2763    -2764    -2766 
   -2766    -2766    -2763    -2763    -2764    -2762    -2762    -2764 
   -2764    -2763    -2764    -2764    -2764    -2764    -2764    -2764 
   -2763    -2764    -2764    -2764    -2764    -2763    -2762    -2763 
   -2764    -2764    -2764    -2763    -2764    -2764    -2764    -2764 
   -2764    -2764    -2763    -2764    -2764    -2763    -2764    -2766 
   -2764    -2766    -2767    -2766    -2763    -2762    -2763    -2764 
   -2762    -2763    -2766    -2764    -2764    -2766    -2766    -2764 
   -2762    -2759    -2763    -2766    -2764    -2767    -2768    -2766 
   -2767    -2767    -2766    -2764    -2766    -2766    -2766    -2766 
   -2767    -2764    -2763    -2763    -2763    -2763    -2762    -2764 
   -2767    -2767    -2763    -2762    -2763    -2764    -2766    -2767 
   -2767    -2766    -2767    -2766    -2764    -2763    -2762    -2766 
   -2766    -2762    -2764    -2767    -2762    -2758    -2763    -2767 
   -2759    -2751    -2755    -2766    -2763    -2751    -2748    -2759 
   -2772    -2775    -2759    -2747    -2759    -2787    -2781    -2751 
   -2767    -2816    -2824    -2786    -2752    -2778    -2820    -2794 
   -2770    -2783    -2763    -2751    -2732    -2658    -2662    -2749 
   -2776    -2739    -2690    -2744    -2898    -2882    -2690    -2710 
   -2871    -2786    -2650    -2706    -2759    -2752    -2789    -2801 
   -2704    -2666    -2789    -2816    -2688    -2685    -2843    -2980 
   -2932    -2764    -2771    -2837    -2733    -2675    -2736    -2832 
   -2911    -2764    -2546    -2636    -2856    -2855    -2716    -2688 
   -2795    -2840    -2782    -2764    -2775    -2759    -2694    -2540 
   -2505    -2709    -2882    -2874    -2749    -2666    -2756    -2886 
   -2878    -2770    -2716    -2816    -2929    -2937    -2917    -2802 
   -2619    -2562    -2584    -2697    -2930    -2999    -2880    -2791 
   -2700    -2616    -2605    -2650    -2756    -2817    -2820    -2859 
   -2860    -2799    -2708    -2646    -2628    -2587    -2663    -2791 
   -2786    -2849    -2956    -2920    -2837    -2717    -2647    -2691 
   -2648    -2662    -2814    -2776    -2688    -2797    -2925    -2988 
   -2940    -2787    -2747    -2813    -2764    -2625    -2601    -2666 
   -2688    -2806    -2948    -2898    -2862    -2878    -2745    -2639 
   -2593    -2485    -2538    -2782    -2914    -2856    -2774    -2768 
   -2770    -2744    -2732    -2735    -2778    -2829    -2841    -2843 
   -2737    -2569    -2673    -2898    -2848    -2740    -2810    -2841 
   -2751    -2669    -2705    -2787    -2802    -2835    -2853    -2759 
   -2663    -2641    -2688    -2810    -2934    -2983    -2909    -2771 
   -2694    -2629    -2536    -2554    -2732    -2972    -3073    -2915 
   -2710    -2612    -2540    -2552    -2678    -2797    -2896    -2948 
   -2899    -2817    -2744    -2704    -2682    -2660    -2704    -2779 
   -2767    -2701    -2727    -2810    -2822    -2802    -2794    -2766 
   -2700    -2654    -2791    -2945    -2849    -2775    -2813    -2743 
   -2714    -2801    -2871    -2934    -2872    -2660    -2590    -2635 
   -2613    -2658    -2768    -2824    -2852    -2841    -2794    -2808 
   -2837    -2768    -2710    -2706    -2629    -2596    -2647    -2625 
   -2664    -2852    -2945    -2915    -2907    -2843    -2733    -2700 
   -2706    -2776    -2903    -2907    -2789    -2709    -2675    -2632 
   -2656    -2778    -2917    -2972    -2863    -2697    -2602    -2613 
   -2756    -2871    -2891    -2943    -2918    -2724    -2542    -2502 
   -2582    -2739    -2878    -2863    -2797    -2779    -2755    -2748 
   -2721    -2666    -2736    -2826    -2772    -2709    -2685    -2666 
   -2775    -2953    -2988    -2898    -2820    -2754    -2663    -2612 
   -2671    -2797    -2868    -2810    -2712    -2702    -2747    -2775 
   -2799    -2814    -2814    -2802    -2756    -2732    -2740    -2704 
   -2679    -2740    -2808    -2848    -2857    -2752    -2636    -2666 
   -2737    -2771    -2798    -2758    -2716    -2754    -2725    -2686 
   -2802    -2964    -3033    -2917    -2693    -2663    -2758    -2727 
   -2673    -2654    -2667    -2816    -2941    -2868    -2752    -2717 
   -2736    -2764    -2747    -2743    -2791    -2759    -2650    -2602 
   -2677    -2763    -2808    -2895    -2902    -2782    -2729    -2714 
   -2667    -2664    -2700    -2739    -2794    -2874    -2965    -2963 
   -2810    -2629    -2562    -2647    -2764    -2829    -2868    -2836 
   -2802    -2866    -2879    -2801    -2789    -2810    -2733    -2600 
   -2533    -2597    -2763    -2889    -2866    -2774    -2721    -2709 
   -2714    -2718    -2700    -2716    -2786    -2862    -2855    -2782 
   -2755    -2774    -2789    -2778    -2763    -2789    -2810    -2786 
   -2740    -2721    -2768    -2803    -2778    -2775    -2781    -2748 
   -2721    -2720    -2739    -2795    -2853    -2824    -2728    -2688 
   -2705    -2701    -2728    -2798    -2801    -2779    -2771    -2717 
   -2724    -2797    -2835    -2829    -2766    -2701    -2712    -2770 
   -2841    -2852    -2762    -2700    -2748    -2787    -2733    -2675 
   -2687    -2745    -2798    -2803    -2781    -2767    -2759    -2789 
   -2835    -2811    -2808    -2879    -2789    -2592    -2605    -2709 
   -2763    -2868    -2930    -2848    -2714    -2605    -2583    -2698 
   -2844    -2852    -2783    -2809    -2870    -2821    -2740    -2735 
   -2740    -2751    -2736    -2714    -2795    -2860    -2806    -2745 
   -2712    -2725    -2790    -2782    -2717    -2735    -2756    -2691 
   -2656    -2662    -2641    -2690    -2820    -2889    -2899    -2917 
   -2872    -2792    -2744    -2716    -2721    -2735    -2778    -2868 
   -2841    -2768    -2887    -2979    -2786    -2589    -2604    -2606 
   -2558    -2596    -2663    -2749    -2847    -2824    -2764    -2758 
   -2714    -2733    -2862    -2876    -2868    -2986    -2967    -2822 
   -2768    -2736    -2694    -2677    -2677    -2683    -2660    -2660 
   -2739    -2843    -2910    -2915    -2835    -2693    -2590    -2558 
   -2569    -2667    -2828    -2920    -2903    -2829    -2751    -2688 
   -2687    -2745    -2763    -2740    -2817    -2915    -2866    -2745 
   -2698    -2776    -2909    -2918    -2851    -2844    -2776    -2646 
   -2624    -2644    -2669    -2754    -2768    -2739    -2763    -2768 
   -2755    -2759    -2752    -2743    -2714    -2678    -2698    -2759 
   -2810    -2814    -2762    -2756    -2824    -2829    -2785    -2826 
   -2890    -2863    -2809    -2739    -2679    -2733    -2778    -2725 
   -2778    -2910    -2899    -2798    -2712    -2655    -2683    -2694 
   -2640    -2655    -2697    -2717    -2736    -2700    -2682    -2759 
   -2775    -2725    -2779    -2859    -2890    -2882    -2795    -2749 
   -2771    -2762    -2781    -2879    -2929    -2851    -2821    -2905 
   -2921    -2832    -2720    -2654    -2631    -2620    -2636    -2589 
   -2498    -2565    -2759    -2906    -2971    -2949    -2790    -2605 
   -2531    -2532    -2601    -2748    -2895    -3007    -3041    -2948 
   -2862    -2907    -2911    -2748    -2624    -2674    -2739    -2716 
   -2695    -2729    -2790    -2809    -2779    -2735    -2683    -2724 
   -2801    -2745    -2695    -2747    -2794    -2799    -2774    -2749 
   -2688    -2633    -2688    -2739    -2749    -2859    -2933    -2867 
   -2808    -2748    -2669    -2694    -2782    -2824    -2821    -2798 
   -2756    -2698    -2673    -2710    -2737    -2755    -2825    -2909 
   -2902    -2762    -2687    -2805    -2814    -2702    -2752    -2787 
   -2705    -2714    -2736    -2709    -2745    -2758    -2743    -2795 
   -2813    -2792    -2805    -2795    -2811    -2825    -2721    -2679 
   -2752    -2755    -2755    -2783    -2728    -2694    -2717    -2674 
   -2655    -2751    -2825    -2826    -2839    -2872    -2880    -2840 
   -2709    -2596    -2658    -2771    -2849    -2936    -2909    -2791 
   -2693    -2559    -2552    -2766    -2887    -2853    -2851    -2828 
   -2782    -2808    -2813    -2770    -2732    -2601    -2477    -2546 
   -2629    -2700    -2898    -2983    -2891    -2814    -2749    -2724 
   -2778    -2851    -2896    -2905    -2875    -2811    -2754    -2721 
   -2754    -2882    -3102    -3451    -3819    -3978    -3912    -3699 
   -3196    -2358    -1499     -920     -656     -552     -649    -1192 
   -1962    -2671    -3376    -3951    -4255    -4271    -3828    -3021 
   -2370    -2053    -1725    -1225     -866     -896    -1324    -2396 
   -4309    -6459    -7847    -7850    -6687    -5124    -3229     -804 
    1393     2439     1999      353    -1982    -4907    -7635    -8307 
   -6389    -3638    -1854     -947       49      657      -52    -1063 
   -1235    -1308    -2014    -3179    -4579    -5741    -6104    -5610 
   -4499    -3087    -1301     1034     2678     2042     -351    -3026 
   -5447    -7258    -7696    -6504    -4526    -2795    -1414      -36 
     905      299    -1937    -4364    -5923    -6629    -6274    -4475 
   -2000     -225      510      453     -298    -1441    -2822    -4317 
   -5332    -5576    -5127    -4041    -2770    -1869    -1344     -869 
    -483     -560    -1084    -1926    -3248    -4710    -5537    -5537 
   -4943    -4017    -3038    -2089    -1139     -292       40     -486 
   -1398    -2239    -3229    -4136    -4486    -4378    -3970    -3380 
   -2759    -2176    -1768    -1718    -2069    -2454    -2569    -2825 
   -3385    -3784    -3880    -3748    -3492    -3321    -3057    -2560 
   -2102    -1961    -2305    -3015    -3693    -4081    -4054    -3527 
   -2592    -1671    -1266    -1402    -1791    -2235    -2538    -2635 
   -2648    -2606    -2584    -2605    -2446    -2388    -2643    -2616 
   -2386    -2475    -2605    -2668    -2735    -2667    -2828    -3280 
   -3423    -3229    -3038    -2945    -3038    -3196    -3317    -3622 
   -3986    -4149    -4091    -3697    -3153    -2808    -2473    -2116 
   -1949    -1823    -1838    -2068    -2069    -2074    -2459    -2625 
   -2328    -2089    -2029    -1933    -2012    -2517    -2926    -2903 
   -2833    -2749    -2620    -2635    -2641    -2751    -3199    -3440 
   -3113    -2878    -3211    -3692    -3842    -3708    -3585    -3640 
   -3713    -3433    -2759    -2250    -2347    -2701    -2792    -2578 
   -2205    -1949    -1968    -1981    -1975    -2323    -2945    -3355 
   -3237    -2694    -2207    -2123    -2218    -2130    -1953    -2126 
   -2716    -3134    -3109    -2994    -2937    -2909    -2936    -3087 
   -3333    -3348    -3169    -3109    -2995    -2752    -2678    -2805 
   -3034    -3198    -3100    -3005    -3125    -3198    -3036    -2736 
   -2448    -2299    -2440    -2706    -2725    -2695    -2816    -2840 
   -2751    -2497    -2087    -1914    -2047    -2200    -2312    -2485 
   -2691    -2790    -2863    -2998    -2933    -2706    -2763    -3115 
   -3283    -3064    -2822    -2836    -2948    -2867    -2583    -2458 
   -2651    -2898    -3019    -3125    -3334    -3500    -3453    -3257 
   -3002    -2844    -2830    -2682    -2401    -2358    -2506    -2481 
   -2235    -2047    -2124    -2370    -2575    -2709    -2801    -2860 
   -2901    -2856    -2840    -2940    -2948    -2882    -2820    -2695 
   -2592    -2552    -2515    -2454    -2397    -2423    -2556    -2820 
   -3252    -3631    -3622    -3281    -2890    -2714    -2817    -2953 
   -3076    -3190    -3111    -2903    -2698    -2567    -2666    -2844 
   -2744    -2455    -2382    -2446    -2332    -2253    -2415    -2562 
   -2608    -2659    -2608    -2500    -2531    -2643    -2743    -2710 
   -2471    -2401    -2646    -2813    -2859    -2986    -3213    -3499 
   -3754    -3680    -3115    -2573    -2587    -2943    -3198    -3219 
   -3096    -2960    -2832    -2655    -2474    -2421    -2536    -2704 
   -2733    -2565    -2385    -2404    -2531    -2575    -2552    -2440 
   -2334    -2524    -2803    -2849    -2891    -2910    -2589    -2218 
   -2180    -2315    -2523    -2863    -3149    -3298    -3334    -3136 
   -2867    -2809    -2863    -2961    -3144    -3281    -3242    -2997 
   -2651    -2479    -2504    -2559    -2795    -3149    -3222    -3118 
   -3030    -2790    -2544    -2594    -2755    -2781    -2667    -2466 
   -2332    -2370    -2400    -2259    -2076    -2079    -2286    -2475 
   -2524    -2601    -2910    -3330    -3477    -3254    -2918    -2751 
   -2905    -3075    -2976    -2894    -2899    -2955    -3222    -3355 
   -3198    -3114    -3029    -2839    -2744    -2686    -2542    -2412 
   -2373    -2461    -2654    -2799    -2880    -2853    -2627    -2377 
   -2196    -2084    -2215    -2425    -2423    -2354    -2405    -2600 
   -2930    -3215    -3300    -3284    -3244    -3088    -2813    -2650 
   -2739    -2882    -2933    -2955    -2956    -2964    -2984    -2915 
   -2783    -2660    -2596    -2668    -2880    -3145    -3317    -3213 
   -2895    -2650    -2493    -2342    -2350    -2444    -2431    -2506 
   -2658    -2565    -2451    -2589    -2697    -2632    -2606    -2774 
   -3044    -3111    -2871    -2640    -2567    -2490    -2473    -2662 
   -2976    -3235    -3262    -3090    -2984    -2990    -2924    -2704 
   -2524    -2628    -2828    -2894    -2943    -2965    -2820    -2636 
   -2579    -2662    -2882    -3046    -3001    -2944    -2903    -2679 
   -2419    -2315    -2290    -2322    -2435    -2554    -2641    -2725 
   -2783    -2844    -3018    -3152    -3017    -2802    -2748    -2754 
   -2674    -2565    -2590    -2697    -2690    -2710    -2878    -2982 
   -3022    -3063    -3040    -2980    -2890    -2872    -2967    -2903 
   -2675    -2481    -2355    -2378    -2552    -2816    -3053    -2994 
   -2776    -2700    -2586    -2459    -2598    -2759    -2694    -2584 
   -2559    -2744    -3065    -3069    -2736    -2569    -2688    -2764 
   -2739    -2797    -2926    -3051    -3140    -3065    -2843    -2656 
   -2551    -2477    -2407    -2404    -2636    -3026    -3272    -3202 
   -2882    -2648    -2677    -2749    -2701    -2597    -2559    -2624 
   -2697    -2743    -2803    -2878    -2909    -2886    -2835    -2749 
   -2702    -2701    -2641    -2613    -2628    -2577    -2623    -2882 
   -3153    -3175    -2896    -2662    -2736    -2863    -2806    -2693 
   -2654    -2636    -2687    -2857    -2889    -2664    -2452    -2463 
   -2694    -2890    -2867    -2844    -2894    -2801    -2619    -2563 
