Origin Time       2018/04/09 06:38:00
Lat.              35.2
Long.             132.6
Depth. (km)       10
Mag.              3.8
Station Code      TTR007
Station Lat.      35.2826
Station Long.     133.4876
Station Height(m) 155
Record Time       2018/04/09 06:39:13
Sampling Freq(Hz) 100Hz
Duration Time(s)  60
Dir.              N-S
Scale Factor      7845(gal)/8223790
Max. Acc. (gal)   2.967
Last Correction   2018/04/09 06:39:13
Memo.             
[...]
     502      499      495      496      499      496      498      498 
     495      499      500      496      496      499      495      495 
     500      502      500      499      500      499      499      498 
     496      496      498      495      496      498      495      495 
     499      502      500      498      499      500      503      500 
     495      496      499      496      496      502      499      496 
     500      503      499      493      498      498      495      495 
     499      498      496      498      499      500      500      498 
     496      498      499      503      503      498      496      496 
     498      496      495      498      503      500      496      498 
     499      499      500      500      498      495      498      499 
     498      498      496      496      498      499      500      502 
     502      499      498      502      500      495      495      498 
     495      498      502      500      498      496      496      496 
     496      496      499      503      500      495      492      493 
     496      493      496      504      502      493      493      493 
     495      498      500      500      498      495      498      499 
     498      498      500      496      492      493      498      499 
     502      498      495      498      498      495      496      500 
     499      496      496      493      495      500      500      499 
     496      491      495      499      499      500      499      496 
     495      496      498      498      498      496      495      496 
     498      496      496      496      493      495      498      499 
     500      498      492      498      503      500      500      500 
     495      493      496      500      500      496      492      495 
     500      498      498      500      496      495      503      503 
     495      495      500      499      495      498      499      495 
     493      498      498      495      498      502      502      496 
     492      495      500      502      500      495      495      498 
     498      496      500      504      504      496      495      499 
     496      496      499      496      495      499      502      498 
     493      498      499      495      496      498      495      498 
     500      499      500      500      498      498      500      499 
     493      496      500      496      493      495      495      498 
     500      498      496      499      502      503      499      499 
     499      496      493      496      498      496      496      500 
     500      496      495      498      499      499      498      495 
     498      499      495      496      500      495      491      499 
     503      499      498      500      499      499      500      499 
     499      498      498      499      498      498      499      499 
     499      496      493      493      498      498      495      498 
     503      499      496      500      498      495      496      496 
     496      498      503      502      496      495      493      491 
     493      496      499      500      498      498      500      498 
     492      496      499      495      493      495      498      496 
     495      498      498      493      495      500      499      496 
     500      502      499      498      499      499      495      498 
     502      499      498      499      499      496      493      496 
     499      499      498      499      498      496      500      502 
     498      496      496      499      502      499      498      499 
     498      499      502      499      496      498      499      499 
     496      496      499      499      496      493      498      502 
     500      500      500      499      498      498      496      492 
     493      499      500      498      498      500      499      492 
     495      500      500      499      499      498      495      498 
     498      496      499      500      499      500      499      496 
     495      495      496      498      495      498      502      499 
     502      504      500      499      502      503      503      502 
     499      496      491      488      484      481      486      500 
     517      523      515      498      479      475      491      514 
     515      506      513      502      453      432      487      569 
     575      484      437      503      538      472      444      525 
     571      503      436      446      511      549      506      475 
     499      467      411      496      623      587      480      493 
     530      454      400      477      568      525      419      493 
     635      517      380      508      594      517      526      561 
     454      365      427      495      486      503      548      532 
     463      425      471      517      475      427      469      545 
     548      496      503      548      553      560      558      531 
     545      523      469      526      553      423      364      436 
     468      433      361      334      432      530      557      604 
     618      540      523      603      645      614      561      550 
     585      538      422      433      499      425      341      382 
     437      429      376      356      403      432      429      457 
     480      513      548      513      564      730      699      546 
     592      679      658      681      685      629      648      614 
     423      288      265      248      271      310      263      217 
     268      332      357      432      550      576      550      579 
     607      654      773      857      810      685      626      707 
     770      629      446      437      444      319      210      225 
     276      270      245      263      261      253      344      453 
     502      579      672      676      662      750      835      757 
     664      720      726      588      531      532      442      383 
     429      430      364      341      332      268      245      319 
     363      295      256      359      480      581      719      756 
     681      704      765      693      588      566      566      515 
     480      575      662      546      392      379      378      361 
     369      306      257      344      413      398      463      577 
     594      540      553      610      595      575      623      637 
     598      544      434      373      425      434      411      506 
     608      550      459      423      391      457      594      576 
     506      553      591      594      569      460      427      495 
     441      361      406      432      395      376      396      460 
     506      480      475      564      641      615      618      702 
     683      581      589      643      594      469      357      356 
     476      459      240      178      344      429      383      392 
     506      616      621      545      503      517      553      626 
     658      600      566      579      538      525      604      645 
     602      556      427      253      270      395      361      303 
     396      471      433      400      425      499      546      496 
     479      583      660      656      677      677      569      517 
     595      591      476      461      564      568      437      379 
     450      476      414      359      342      370      409      407 
     413      433      429      463      537      545      537      622 
     688      662      646      646      599      548      540      545 
     540      522      486      419      388      411      392      344 
     373      421      405      383      440      540      572      544 
     525      492      464      517      598      611      596      589 
     589      598      548      459      488      569      492      380 
     399      423      394      409      446      457      469      499 
     492      445      457      521      522      526      608      637 
     565      510      515      545      564      533      483      472 
     480      456      417      411      444      504      533      473 
     449      540      566      504      508      531      493      456 
     446      453      479      503      529      566      576      530 
     484      483      472      430      438      487      475      436 
     436      464      540      608      579      540      569      542 
     448      430      500      544      488      395      375      454 
     564      607      565      532      550      556      522      476 
     461      499      490      430      453      483      436      448 
     496      441      396      473      530      530      561      576 
     568      579      548      492      500      533      529      473 
     383      383      515      569      502      503      560      549 
     508      479      450      459      496      521      522      490 
     429      388      376      388      444      523      553      518 
     469      469      556      654      666      648      645      585 
     484      419      449      533      508      411      433      454 
     367      368      459      464      450      492      530      521 
     464      463      557      604      544      480      498      538 
     517      530      623      629      550      493      423      391 
     444      496      514      467      400      436      491      464 
     438      461      508      560      549      487      492      549 
     526      463      495      562      526      480      514      556 
     568      553      548      561      491      407      471      513 
     415      399      469      446      410      448      483      479 
     440      394      417      511      604      625      596      598 
     592      529      467      490      577      592      515      530 
     611      537      409      440      490      425      372      379 
     383      405      460      500      506      502      479      490 
     573      599      514      490      575      608      522      446 
     495      579      546      425      379      453      491      441 
     484      612      627      572      565      532      448      392 
     394      438      434      364      387      476      484      500 
     550      532      511      538      583      626      634      652 
     695      608      444      414      440      383      360      413 
     432      446      477      432      394      463      530      549 
     565      538      471      425      387      373      456      564 
     619      660      662      604      581      594      553      493 
     487      506      488      444      415      394      386      414 
     414      396      467      499      390      346      445      510 
     540      619      684      665      588      533      558      594 
     565      535      553      571      531      430      368      442 
     511      446      382      410      442      415      383      418 
     477      476      453      464      502      533      533      526 
     525      508      532      581      602      629      626      565 
     548      576      550      486      487      522      493      446 
     423      392      365      372      398      433      469      476 
     459      502      566      506      400      425      486      503 
     572      639      616      588      608      607      552      476 
     445      488      522      464      440      518      529      445 
     444      471      444      456      506      523      496      451 
     487      573      540      486      526      499      396      387 
     459      504      484      487      548      549      515      529 
     513      490      542      560      486      449      504      557 
     525      460      451      517      583      566      513      506 
     538      569      526      387      315      360      365      367 
     476      568      566      568      550      490      490      552 
     589      553      475      459      495      510      529      571 
     584      544      508      486      411      349      403      481 
     479      523      635      616      521      532      532      430 
     383      390      355      388      511      560      506      436 
     427      557      697      635      484      510      602      513 
     383      395      464      588      715      664      553      546 
     483      372      348      344      375      461      467      368 
     295      357      525      614      576      577      648      648 
     575      566      604      579      545      552      519      461 
     432      382      321      337      427      491      491      481 
     508      565      560      444      434      616      649      498 
     533      665      572      454      463      387      360      519 
     518      386      473      561      445      422      523      491 
     425      471      488      515      638      629      459      344 
     340      491      675      599      453      602      816      702 
     471      530      683      600      459      340      214      403 
     680      510      394      792     1179     1437     1755     1614 
     897      133     -807    -1891    -2214    -1776    -1379     -700 
     689     1939     2369     2309     2039     1478      675     -228 
   -1019    -1229     -730      -35      649     1657     2913     3608 
    3196     2230     1420      544     -587    -1321    -1230     -810 
    -746     -888     -496      214      436      446      869     1302 
    1117      467       21      -21      -41       76      639     1125 
    1104     1092     1564     2116     2097     1690     1401     1007 
     210     -702    -1200     -874     -176       17     -193     -291 
    -346     -373     -178        0       23      291      648      486 
     251      780     1601     1859     1790     1842     1898     1798 
    1410      820      599      670      263     -278      -81      511 
     760      625      355        4     -553    -1246    -1694    -1615 
   -1201     -800     -224      676     1424     1844     2050     1902 
    1777     2042     1996     1312      673      415      502      795 
     747      379      373      537      279     -106     -248     -216 
     -44      117      121       93       82       60       78      103 
     155      346      665      985     1263     1490     1486     1147 
     711      546      658      621      395      395      542      456 
     106     -201     -122      224      429      591      922     1046 
     741      500      679      955      900      521      237      289 
     278      -62     -180      126      205     -148     -410     -159 
     471      845      815      958     1229     1092      692      415 
     319      464      785     1051     1250     1320     1058      706 
     677      868      846      351     -310     -548     -492     -646 
    -730     -282      472      957      827      542      850     1362 
    1224      837      976     1219      886      340      203      413 
     530      433      442      598      496      276      432      642 
     340     -122     -203     -114     -190     -230      103      661 
     901      812      943     1271     1255     1005     1015     1084 
     761      295      232      508      618      372       49       67 
     392      425       44     -166       17      302      450      351 
     251      562      947      835      627      826     1078      912 
     325     -172      -29      481      733      761      884     1098 
    1206     1042      767      594      272     -180     -221       52 
     -22     -352     -314       89      390      490      753     1297 
    1586     1323     1015      950      741      244      -91       23 
     351      688     1003     1120     1065     1039      895      565 
     259      -86     -481     -571     -403     -421     -471     -101 
     484      792      808      773      788      861      963     1017 
     987     1005     1138     1154      950      789      800      841 
     727      372       -5      -70       86      -32     -444     -526 
     -82      375      461      279       99      159      407      540 
     626      892     1074      949      741      720      976     1277 
    1230      961      908      961      774      464      291      251 
     184       18      -55       47       65      -52      -47      129 
     229      151      221      602      801      611      513      599 
     515      325      368      657      877      903      932     1077 
    1258     1368     1328     1098      711      368      220       14 
    -375     -461      -72      141      -83      -97      363      643 
     506      450      629      708      469      126      216      704 
     872      668      770     1151     1264     1161     1104      970 
     692      407      135      -64       -9      212      309      251 
     229      283      271       82     -101       37      415      603 
     487      376      545      913     1096      978      920     1026 
     961      675      532      656      673      441      352      566 
     718      579      318      148       72      -93     -265     -101 
     261      419      500      734      916      812      565      475 
     550      514      298      214      391      471      357      518 
    1058     1431     1251      849      738      753      375     -141 
    -110      309      445      289      278      411      432      392 
     460      599      696      677      606      579      450      187 
     108      211      197      175      365      653      873      884 
     673      558      642      646      571      622      710      718 
     780      880      793      615      562      479      268      164 
     241      317      245       47      -17      252      588      591 
     357      259      317      305      311      506      743      859 
     903      931      946      880      704      607      661      654 
     552      496      423      286      225      305      386      288 
      91       86      214      199      178      338      423      378 
     468      652      773      895      954      838      664      610 
     730      876      834      675      604      571      461      387 
     359      218      101      178      295      337      309      232 
     257      407      460      413      468      583      646      689 
     672      584      521      453      467      723      938      819 
     614      515      491      637      834      804      666      642 
     558      225      -76      -45       97       54      -36       74 
     340      522      532      549      673      791      807      723 
     607      473      336      353      546      723      814      830 
     882     1060     1034      657      441      477      326       72 
      18       40      -22      -64       40      237      417      508 
     506      583      808      919      861      843      837      800 
     800      695      441      305      352      396      369      311 
     283      334      398      418      484      608      658      588 
