Origin Time       2018/04/09 06:38:00
Lat.              35.2
Long.             132.6
Depth. (km)       10
Mag.              3.8
Station Code      TTR007
Station Lat.      35.2826
Station Long.     133.4876
Station Height(m) 155
Record Time       2018/04/09 06:39:13
Sampling Freq(Hz) 100Hz
Duration Time(s)  60
Dir.              E-W
Scale Factor      7845(gal)/8223790
Max. Acc. (gal)   1.658
Last Correction   2018/04/09 06:39:13
Memo.             
[...]
   -3570    -3565    -3566    -3569    -3572    -3573    -3572    -3570 
   -3565    -3561    -3565    -3572    -3572    -3569    -3566    -3565 
   -3568    -3569    -3569    -3570    -3572    -3569    -3566    -3569 
   -3569    -3568    -3568    -3568    -3566    -3565    -3569    -3570 
   -3570    -3572    -3569    -3566    -3569    -3572    -3573    -3570 
   -3568    -3568    -3572    -3570    -3566    -3570    -3572    -3568 
   -3568    -3572    -3570    -3566    -3565    -3566    -3568    -3565 
   -3566    -3573    -3574    -3573    -3569    -3563    -3565    -3568 
   -3566    -3568    -3570    -3570    -3568    -3563    -3565    -3569 
   -3569    -3569    -3569    -3568    -3566    -3568    -3569    -3569 
   -3570    -3570    -3566    -3563    -3568    -3573    -3574    -3566 
   -3559    -3565    -3572    -3569    -3566    -3569    -3572    -3568 
   -3565    -3568    -3568    -3569    -3574    -3574    -3568    -3562 
   -3563    -3568    -3569    -3569    -3570    -3570    -3569    -3565 
   -3566    -3570    -3569    -3568    -3566    -3569    -3573    -3566 
   -3565    -3572    -3574    -3570    -3568    -3566    -3566    -3569 
   -3572    -3573    -3570    -3563    -3562    -3568    -3569    -3570 
   -3572    -3568    -3568    -3566    -3565    -3569    -3570    -3568 
   -3569    -3570    -3569    -3568    -3569    -3568    -3566    -3568 
   -3569    -3570    -3570    -3569    -3570    -3576    -3569    -3561 
   -3563    -3568    -3569    -3566    -3565    -3569    -3570    -3569 
   -3568    -3566    -3565    -3569    -3572    -3573    -3570    -3563 
   -3559    -3563    -3569    -3572    -3573    -3573    -3569    -3563 
   -3565    -3572    -3576    -3573    -3570    -3572    -3568    -3563 
   -3569    -3573    -3566    -3563    -3569    -3570    -3568    -3565 
   -3565    -3568    -3569    -3569    -3572    -3573    -3569    -3569 
   -3572    -3568    -3566    -3565    -3565    -3568    -3566    -3565 
   -3568    -3568    -3566    -3570    -3576    -3574    -3568    -3568 
   -3573    -3573    -3570    -3565    -3561    -3562    -3565    -3566 
   -3568    -3570    -3572    -3569    -3568    -3565    -3563    -3566 
   -3570    -3573    -3572    -3569    -3565    -3565    -3568    -3568 
   -3572    -3574    -3570    -3568    -3569    -3569    -3565    -3565 
   -3573    -3576    -3569    -3563    -3568    -3572    -3569    -3568 
   -3568    -3566    -3566    -3569    -3570    -3569    -3566    -3566 
   -3566    -3566    -3566    -3568    -3570    -3570    -3568    -3565 
   -3566    -3570    -3568    -3566    -3569    -3570    -3570    -3566 
   -3563    -3563    -3566    -3569    -3568    -3565    -3568    -3573 
   -3570    -3568    -3568    -3568    -3562    -3565    -3573    -3572 
   -3566    -3568    -3570    -3568    -3566    -3573    -3576    -3572 
   -3569    -3566    -3565    -3565    -3566    -3569    -3568    -3565 
   -3566    -3572    -3572    -3568    -3568    -3570    -3568    -3562 
   -3565    -3573    -3572    -3565    -3563    -3566    -3568    -3569 
   -3570    -3569    -3566    -3566    -3570    -3568    -3563    -3570 
   -3576    -3565    -3559    -3568    -3572    -3566    -3565    -3570 
   -3569    -3568    -3570    -3570    -3565    -3566    -3570    -3569 
   -3563    -3566    -3572    -3568    -3563    -3569    -3569    -3563 
   -3566    -3570    -3572    -3565    -3562    -3568    -3572    -3570 
   -3572    -3568    -3565    -3563    -3563    -3566    -3572    -3570 
   -3566    -3570    -3573    -3572    -3573    -3569    -3563    -3566 
   -3568    -3565    -3566    -3569    -3572    -3572    -3566    -3566 
   -3566    -3565    -3568    -3572    -3576    -3574    -3569    -3565 
   -3568    -3569    -3566    -3568    -3570    -3569    -3566    -3565 
   -3566    -3568    -3570    -3573    -3570    -3568    -3568    -3572 
   -3569    -3565    -3568    -3569    -3568    -3570    -3574    -3570 
   -3569    -3573    -3577    -3584    -3588    -3582    -3581    -3588 
   -3591    -3586    -3584    -3582    -3574    -3555    -3538    -3526 
   -3519    -3523    -3528    -3519    -3504    -3515    -3559    -3596 
   -3592    -3580    -3597    -3628    -3627    -3597    -3577    -3580 
   -3570    -3541    -3526    -3541    -3555    -3554    -3551    -3544 
   -3527    -3537    -3604    -3661    -3618    -3511    -3489    -3615 
   -3712    -3589    -3429    -3551    -3825    -3835    -3551    -3368 
   -3483    -3677    -3692    -3542    -3440    -3491    -3555    -3542 
   -3499    -3469    -3473    -3476    -3478    -3576    -3680    -3570 
   -3433    -3573    -3753    -3645    -3469    -3526    -3699    -3769 
   -3699    -3551    -3451    -3530    -3746    -3789    -3520    -3311 
   -3456    -3673    -3632    -3465    -3451    -3580    -3612    -3473 
   -3334    -3380    -3622    -3807    -3682    -3465    -3501    -3663 
   -3699    -3663    -3669    -3717    -3746    -3669    -3559    -3593 
   -3647    -3510    -3346    -3366    -3440    -3434    -3372    -3368 
   -3511    -3638    -3584    -3503    -3510    -3527    -3574    -3640 
   -3645    -3634    -3659    -3665    -3618    -3577    -3663    -3866 
   -3921    -3721    -3584    -3662    -3688    -3523    -3325    -3273 
   -3392    -3470    -3402    -3375    -3457    -3511    -3473    -3385 
   -3402    -3572    -3622    -3469    -3485    -3788    -4012    -3921 
   -3624    -3406    -3528    -3839    -3904    -3732    -3655    -3694 
   -3670    -3546    -3465    -3511    -3485    -3292    -3211    -3333 
   -3395    -3343    -3365    -3462    -3488    -3446    -3484    -3638 
   -3793    -3856    -3828    -3774    -3713    -3674    -3701    -3716 
   -3680    -3659    -3601    -3464    -3403    -3501    -3607    -3596 
   -3510    -3393    -3316    -3423    -3620    -3605    -3391    -3333 
   -3519    -3642    -3591    -3585    -3685    -3697    -3584    -3515 
   -3584    -3719    -3797    -3715    -3557    -3541    -3677    -3750 
   -3680    -3582    -3477    -3353    -3338    -3440    -3505    -3500 
   -3497    -3522    -3544    -3511    -3446    -3447    -3510    -3586 
   -3650    -3647    -3634    -3708    -3757    -3685    -3612    -3627 
   -3678    -3693    -3636    -3569    -3581    -3624    -3589    -3477 
   -3368    -3336    -3376    -3414    -3427    -3488    -3619    -3712 
   -3674    -3581    -3558    -3592    -3620    -3620    -3582    -3588 
   -3685    -3705    -3570    -3499    -3573    -3618    -3593    -3530 
   -3424    -3445    -3620    -3680    -3582    -3530    -3524    -3499 
   -3496    -3530    -3595    -3645    -3597    -3514    -3503    -3559 
   -3613    -3612    -3573    -3568    -3593    -3580    -3565    -3592 
   -3585    -3507    -3465    -3532    -3600    -3570    -3568    -3673 
   -3757    -3715    -3580    -3516    -3620    -3674    -3535    -3437 
   -3520    -3593    -3550    -3496    -3501    -3546    -3534    -3424 
   -3385    -3483    -3544    -3515    -3510    -3566    -3640    -3684 
   -3653    -3603    -3619    -3676    -3704    -3690    -3658    -3653 
   -3673    -3653    -3570    -3515    -3551    -3558    -3464    -3415 
   -3451    -3456    -3429    -3430    -3442    -3449    -3489    -3566 
   -3603    -3584    -3628    -3748    -3761    -3661    -3663    -3744 
   -3727    -3636    -3580    -3566    -3550    -3527    -3522    -3516 
   -3496    -3477    -3426    -3338    -3354    -3500    -3574    -3508 
   -3485    -3592    -3701    -3699    -3658    -3704    -3770    -3728 
   -3626    -3562    -3563    -3618    -3626    -3508    -3400    -3442 
   -3537    -3520    -3459    -3511    -3626    -3651    -3582    -3499 
   -3468    -3522    -3574    -3534    -3535    -3666    -3738    -3653 
   -3553    -3561    -3681    -3746    -3630    -3523    -3576    -3624 
   -3530    -3396    -3406    -3553    -3597    -3466    -3399    -3511 
   -3634    -3613    -3499    -3457    -3549    -3640    -3615    -3562 
   -3607    -3686    -3673    -3618    -3639    -3689    -3640    -3532 
   -3510    -3554    -3541    -3501    -3515    -3538    -3532    -3537 
   -3541    -3550    -3605    -3627    -3544    -3450    -3468    -3578 
   -3658    -3632    -3554    -3504    -3518    -3562    -3582    -3584 
   -3620    -3677    -3659    -3569    -3542    -3619    -3645    -3547 
   -3470    -3532    -3640    -3622    -3489    -3397    -3431    -3535 
   -3585    -3568    -3561    -3568    -3561    -3554    -3539    -3528 
   -3570    -3639    -3701    -3765    -3765    -3647    -3538    -3557 
   -3580    -3503    -3437    -3446    -3483    -3534    -3546    -3484 
   -3470    -3573    -3650    -3619    -3550    -3546    -3612    -3611 
   -3520    -3535    -3659    -3690    -3643    -3662    -3669    -3573 
   -3516    -3570    -3607    -3551    -3429    -3330    -3349    -3474 
   -3603    -3627    -3546    -3483    -3549    -3696    -3734    -3613 
   -3538    -3613    -3681    -3596    -3478    -3559    -3736    -3705 
   -3566    -3559    -3588    -3518    -3423    -3407    -3465    -3474 
   -3454    -3558    -3659    -3574    -3511    -3607    -3634    -3573 
   -3628    -3776    -3798    -3628    -3457    -3484    -3603    -3577 
   -3465    -3466    -3555    -3586    -3522    -3464    -3547    -3690 
   -3673    -3518    -3453    -3538    -3607    -3544    -3461    -3485 
   -3555    -3572    -3622    -3719    -3719    -3608    -3541    -3568 
   -3582    -3554    -3566    -3619    -3647    -3622    -3563    -3553 
   -3608    -3638    -3588    -3466    -3345    -3353    -3469    -3519 
   -3500    -3547    -3600    -3588    -3603    -3642    -3638    -3657 
   -3693    -3642    -3551    -3559    -3655    -3688    -3586    -3503 
   -3547    -3574    -3520    -3504    -3537    -3543    -3549    -3569 
   -3526    -3416    -3384    -3505    -3672    -3700    -3596    -3566 
   -3649    -3674    -3586    -3507    -3520    -3568    -3574    -3588 
   -3651    -3688    -3630    -3554    -3565    -3604    -3566    -3495 
   -3480    -3485    -3440    -3431    -3541    -3619    -3551    -3485 
   -3532    -3580    -3538    -3535    -3653    -3734    -3672    -3604 
   -3640    -3694    -3655    -3569    -3563    -3618    -3611    -3593 
   -3593    -3530    -3468    -3456    -3426    -3429    -3488    -3510 
   -3489    -3489    -3537    -3605    -3600    -3537    -3593    -3703 
   -3676    -3601    -3577    -3588    -3667    -3693    -3570    -3507 
   -3584    -3639    -3619    -3563    -3497    -3492    -3553    -3554 
   -3527    -3591    -3646    -3584    -3503    -3480    -3487    -3526 
   -3577    -3593    -3576    -3538    -3504    -3544    -3646    -3688 
   -3600    -3477    -3473    -3549    -3580    -3595    -3622    -3609 
   -3596    -3624    -3615    -3581    -3615    -3677    -3674    -3599 
   -3491    -3416    -3416    -3477    -3550    -3565    -3530    -3554 
   -3603    -3581    -3562    -3580    -3549    -3504    -3526    -3605 
   -3634    -3563    -3532    -3634    -3740    -3690    -3542    -3507 
   -3574    -3569    -3507    -3497    -3539    -3570    -3511    -3422 
   -3478    -3615    -3640    -3627    -3690    -3708    -3584    -3453 
   -3491    -3628    -3650    -3550    -3524    -3608    -3645    -3562 
   -3476    -3511    -3607    -3613    -3530    -3464    -3492    -3612 
   -3689    -3595    -3445    -3445    -3568    -3615    -3526    -3473 
   -3600    -3742    -3672    -3507    -3530    -3681    -3689    -3558 
   -3487    -3499    -3528    -3572    -3618    -3630    -3601    -3528 
   -3447    -3438    -3508    -3605    -3646    -3573    -3492    -3492 
   -3496    -3534    -3678    -3773    -3703    -3562    -3514    -3607 
   -3676    -3591    -3495    -3503    -3523    -3520    -3534    -3527 
   -3541    -3636    -3700    -3624    -3519    -3541    -3634    -3600 
   -3447    -3380    -3406    -3416    -3473    -3595    -3669    -3700 
   -3736    -3730    -3707    -3713    -3615    -3431    -3422    -3565 
   -3613    -3554    -3524    -3586    -3630    -3530    -3451    -3543 
   -3645    -3627    -3554    -3473    -3414    -3446    -3523    -3522 
   -3511    -3612    -3712    -3667    -3576    -3608    -3672    -3572 
   -3443    -3511    -3653    -3667    -3591    -3557    -3585    -3581 
   -3534    -3538    -3612    -3704    -3721    -3582    -3380    -3333 
   -3484    -3658    -3704    -3618    -3488    -3450    -3535    -3572 
   -3489    -3468    -3546    -3577    -3578    -3601    -3578    -3580 
   -3653    -3666    -3591    -3544    -3566    -3636    -3677    -3626 
   -3604    -3661    -3634    -3532    -3514    -3532    -3480    -3433 
   -3504    -3600    -3519    -3334    -3331    -3514    -3634    -3615 
   -3570    -3638    -3798    -3828    -3643    -3480    -3538    -3713 
   -3751    -3573    -3456    -3620    -3748    -3530    -3312    -3414 
   -3549    -3469    -3298    -3277    -3551    -3827    -3673    -3354 
   -3430    -3782    -3885    -3619    -3376    -3518    -3840    -3850 
   -3559    -3495    -3708    -3726    -3516    -3391    -3411    -3570 
   -3774    -3792    -3634    -3500    -3375    -3183    -3137    -3392 
   -3609    -3511    -3411    -3537    -3638    -3653    -3839    -4129 
   -4187    -3809    -3122    -2794    -3246    -3750    -3708    -3666 
   -3840    -3755    -3485    -3388    -3487    -3689    -3802    -3753 
   -3847    -4087    -3921    -3277    -2903    -3109    -3226    -2899 
   -2802    -3473    -4207    -4014    -3322    -3375    -4140    -4393 
   -3769    -3173    -3071    -2953    -2643    -2702    -3424    -4436 
   -5186    -5306    -4830    -4137    -3395    -2691    -2467    -2848 
   -3317    -3511    -3555    -3647    -3730    -3639    -3473    -3489 
   -3667    -3653    -3258    -2841    -2882    -3296    -3743    -4081 
   -4200    -4064    -3888    -3813    -3669    -3445    -3391    -3451 
   -3341    -3075    -2863    -2808    -3064    -3738    -4275    -4132 
   -3828    -3921    -4032    -3916    -3929    -4008    -3767    -3468 
   -3518    -3615    -3402    -3177    -3269    -3530    -3657    -3292 
   -2666    -2748    -3604    -4031    -3535    -3069    -3302    -3557 
   -3276    -3076    -3457    -3940    -4069    -4041    -4215    -4498 
   -4418    -4067    -4095    -4382    -4237    -3689    -3257    -3079 
   -2841    -2412    -2272    -2720    -3177    -3303    -3537    -3877 
   -3825    -3535    -3497    -3659    -3530    -3019    -2828    -3365 
   -3970    -4153    -4256    -4442    -4521    -4413    -4021    -3431 
   -3051    -3114    -3418    -3511    -3191    -2997    -3541    -4298 
   -4275    -3618    -3206    -3106    -2843    -2685    -3153    -3798 
   -3863    -3433    -2980    -2801    -3103    -3705    -4151    -4303 
   -4241    -4180    -4356    -4479    -4213    -3850    -3612    -3312 
   -3055    -3168    -3503    -3661    -3661    -3715    -3645    -3208 
   -2693    -2589    -2963    -3345    -3273    -2957    -2874    -3044 
   -3260    -3447    -3797    -4444    -4843    -4588    -4166    -3927 
   -3893    -4205    -4504    -4268    -3825    -3681    -3628    -3334 
   -2911    -2740    -2994    -3248    -3068    -2776    -2811    -2994 
   -3060    -3190    -3565    -3859    -3705    -3458    -3704    -4207 
   -4263    -3873    -3651    -3824    -4066    -4091    -3924    -3796 
   -3819    -3744    -3402    -3026    -2915    -3223    -3757    -3962 
   -3595    -3068    -2914    -3206    -3504    -3511    -3464    -3522 
   -3530    -3520    -3662    -3808    -3815    -3807    -3889    -3897 
   -3492    -2986    -3184    -3677    -3565    -3355    -3731    -4166 
   -4062    -3682    -3592    -3684    -3385    -2972    -3249    -3889 
   -4003    -3736    -3719    -3820    -3581    -3281    -3430    -3713 
   -3572    -3275    -3296    -3358    -3067    -2799    -3090    -3620 
   -3742    -3658    -3859    -4066    -3973    -3912    -4052    -4021 
   -3619    -3253    -3423    -3896    -3989    -3578    -3173    -3217 
   -3477    -3368    -3030    -3107    -3565    -3731    -3385    -3144 
   -3414    -3757    -3851    -3902    -4003    -3984    -3753    -3492 
   -3395    -3379    -3402    -3496    -3453    -3241    -3264    -3627 
   -3958    -3971    -3754    -3646    -3740    -3659    -3319    -3215 
   -3519    -3842    -3932    -3863    -3817    -3851    -3773    -3415 
   -2957    -2805    -3033    -3229    -3223    -3312    -3599    -3899 
   -3967    -3744    -3624    -3836    -4036    -3932    -3681    -3584 
   -3613    -3473    -3226    -3267    -3688    -4001    -3751    -3244 
   -3118    -3400    -3514    -3196    -2979    -3314    -3726    -3711 
   -3597    -3776    -3978    -3874    -3757    -3921    -4021    -3789 
   -3566    -3604    -3705    -3592    -3280    -3106    -3199    -3326 
   -3330    -3207    -3105    -3279    -3592    -3707    -3727    -3819 
   -3815    -3796    -3981    -4098    -3866    -3562    -3561    -3748 
   -3719    -3456    -3306    -3299    -3237    -3211    -3369    -3530 
   -3534    -3544    -3657    -3773    -3867    -3855    -3653    -3580 
   -3809    -3827    -3393    -3061    -3102    -3240    -3323    -3381 
   -3426    -3469    -3497    -3542    -3666    -3882    -4151    -4263 
   -4048    -3763    -3766    -3899    -3771    -3458    -3391    -3557 
   -3516    -3134    -2740    -2743    -3153    -3437    -3281    -3090 
   -3234    -3578    -3807    -3743    -3605    -3757    -4112    -4317 
   -4275    -4116    -3958    -3892    -3921    -3835    -3530    -3295 
   -3321    -3369    -3240    -3088    -3096    -3173    -3114    -3021 
   -3188    -3524    -3665    -3566    -3530    -3694    -3798    -3692 
   -3692    -3956    -4110    -3878    -3568    -3596    -3856    -3946 
   -3780    -3588    -3535    -3543    -3466    -3354    -3355    -3393 
   -3312    -3250    -3316    -3329    -3276    -3355    -3544    -3697 
   -3774    -3811    -3782    -3673    -3549    -3462    -3399    -3397 
   -3520    -3697    -3809    -3858    -3877    -3892    -3869    -3747 
   -3639    -3658    -3638    -3418    -3164    -3088    -3130    -3160 
   -3279    -3510    -3550    -3368    -3327    -3532    -3828    -4124 
   -4255    -4047    -3626    -3375    -3466    -3643    -3661    -3626 
   -3661    -3684    -3593    -3433    -3357    -3396    -3393    -3284 
   -3204    -3226    -3272    -3360    -3600    -3893    -4020    -3970 
   -3831    -3672    -3645    -3769    -3844    -3796    -3688    -3539 
   -3426    -3375    -3271    -3150    -3165    -3299    -3414    -3481 
   -3561    -3665    -3738    -3731    -3677    -3678    -3712    -3658 
   -3588    -3653    -3778    -3788    -3748    -3842    -3890    -3618 
   -3221    -3033    -3051    -3136    -3276    -3451    -3535    -3566 
   -3631    -3657    -3694    -3796    -3794    -3713    -3699    -3674 
   -3622    -3647    -3680    -3628    -3543    -3454    -3410    -3485 
   -3597    -3576    -3424    -3396    -3618    -3740    -3568    -3481 
   -3638    -3653    -3387    -3152    -3180    -3334    -3419    -3574 
   -3883    -4055    -3947    -3842    -3861    -3828    -3711    -3543 
   -3346    -3271    -3391    -3476    -3348    -3260    -3466    -3708 
   -3667    -3495    -3468    -3631    -3823    -3784    -3534    -3434 
   -3569    -3634    -3551    -3543    -3681    -3738    -3563    -3385 
   -3454    -3588    -3570    -3538    -3627    -3705    -3638    -3492 
   -3439    -3538    -3640    -3600    -3522    -3530    -3555    -3563 
