Origin Time       2018/04/09 06:38:00
Lat.              35.2
Long.             132.6
Depth. (km)       10
Mag.              3.8
Station Code      TTR007
Station Lat.      35.2826
Station Long.     133.4876
Station Height(m) 155
Record Time       2018/04/09 06:39:13
Sampling Freq(Hz) 100Hz
Duration Time(s)  60
Dir.              U-D
Scale Factor      7845(gal)/8223790
Max. Acc. (gal)   0.853
Last Correction   2018/04/09 06:39:13
Memo.             
[...]
   -1043    -1039    -1042    -1046    -1042    -1039    -1042    -1044 
   -1042    -1039    -1043    -1042    -1042    -1043    -1043    -1043 
   -1044    -1043    -1042    -1043    -1042    -1042    -1042    -1039 
   -1039    -1042    -1042    -1044    -1044    -1039    -1039    -1043 
   -1044    -1046    -1043    -1039    -1043    -1044    -1042    -1043 
   -1046    -1043    -1039    -1046    -1047    -1043    -1039    -1039 
   -1042    -1042    -1039    -1042    -1044    -1044    -1043    -1046 
   -1047    -1043    -1042    -1042    -1039    -1039    -1043    -1043 
   -1042    -1042    -1044    -1044    -1042    -1039    -1039    -1042 
   -1044    -1043    -1044    -1043    -1042    -1042    -1042    -1046 
   -1047    -1044    -1039    -1042    -1044    -1046    -1043    -1042 
   -1044    -1043    -1039    -1042    -1044    -1044    -1042    -1044 
   -1044    -1039    -1039    -1043    -1042    -1043    -1046    -1046 
   -1046    -1043    -1039    -1039    -1044    -1044    -1043    -1044 
   -1046    -1044    -1044    -1043    -1039    -1038    -1042    -1046 
   -1044    -1043    -1043    -1042    -1042    -1046    -1047    -1042 
   -1039    -1039    -1039    -1044    -1046    -1042    -1043    -1044 
   -1044    -1044    -1043    -1039    -1039    -1042    -1042    -1044 
   -1043    -1042    -1042    -1042    -1039    -1043    -1044    -1044 
   -1043    -1042    -1042    -1042    -1042    -1042    -1044    -1047 
   -1044    -1039    -1043    -1043    -1042    -1042    -1042    -1043 
   -1044    -1044    -1042    -1039    -1043    -1044    -1043    -1039 
   -1039    -1043    -1043    -1046    -1047    -1043    -1039    -1042 
   -1042    -1043    -1046    -1046    -1043    -1043    -1046    -1047 
   -1043    -1039    -1042    -1044    -1044    -1044    -1042    -1039 
   -1042    -1043    -1042    -1042    -1044    -1043    -1043    -1046 
   -1046    -1043    -1043    -1044    -1039    -1039    -1042    -1044 
   -1043    -1043    -1044    -1043    -1039    -1042    -1044    -1043 
   -1043    -1042    -1039    -1044    -1044    -1042    -1044    -1046 
   -1042    -1039    -1039    -1039    -1042    -1043    -1043    -1044 
   -1044    -1043    -1039    -1042    -1042    -1039    -1039    -1042 
   -1042    -1043    -1046    -1043    -1042    -1042    -1043    -1042 
   -1039    -1042    -1043    -1043    -1043    -1044    -1043    -1042 
   -1043    -1042    -1039    -1043    -1046    -1042    -1042    -1044 
   -1043    -1043    -1044    -1047    -1044    -1042    -1043    -1042 
   -1038    -1039    -1043    -1043    -1043    -1042    -1042    -1043 
   -1042    -1044    -1044    -1039    -1043    -1044    -1039    -1039 
   -1046    -1044    -1039    -1042    -1043    -1042    -1039    -1038 
   -1042    -1047    -1044    -1039    -1039    -1039    -1043    -1046 
   -1042    -1039    -1039    -1039    -1043    -1044    -1043    -1043 
   -1043    -1043    -1044    -1043    -1043    -1042    -1039    -1043 
   -1044    -1043    -1043    -1043    -1039    -1042    -1044    -1044 
   -1043    -1043    -1043    -1039    -1039    -1044    -1046    -1046 
   -1046    -1043    -1042    -1044    -1046    -1043    -1042    -1042 
   -1042    -1042    -1042    -1042    -1043    -1046    -1044    -1039 
   -1042    -1043    -1039    -1039    -1043    -1043    -1043    -1043 
   -1039    -1039    -1044    -1042    -1039    -1043    -1044    -1044 
   -1044    -1043    -1043    -1042    -1042    -1044    -1044    -1042 
   -1043    -1044    -1044    -1043    -1042    -1044    -1044    -1039 
   -1042    -1046    -1044    -1039    -1042    -1042    -1039    -1039 
   -1043    -1044    -1042    -1039    -1043    -1043    -1039    -1042 
   -1044    -1043    -1042    -1042    -1042    -1043    -1044    -1044 
   -1044    -1044    -1046    -1047    -1048    -1053    -1057    -1057 
   -1055    -1055    -1053    -1051    -1050    -1044    -1026    -1007 
    -994     -999    -1020    -1051    -1067    -1047    -1009    -1004 
   -1051    -1104    -1111    -1094    -1077    -1032     -959     -932 
   -1004    -1096    -1093    -1023     -996    -1019    -1013     -987 
   -1034    -1128    -1105     -993    -1023    -1152    -1104     -934 
    -963    -1185    -1233    -1009     -847     -996    -1260    -1210 
    -893     -864    -1129    -1138     -936     -990    -1148    -1013 
    -846    -1008    -1201    -1086     -896     -962    -1146    -1111 
   -1007    -1117    -1125     -913     -957    -1123    -1009     -953 
   -1136    -1170    -1021     -972     -994    -1000    -1074    -1128 
   -1036     -977    -1069    -1105    -1023    -1008    -1081    -1078 
   -1000     -973     -981    -1005    -1084    -1111    -1048    -1031 
   -1063    -1113    -1147    -1109    -1097    -1102    -1004     -949 
    -993     -978     -999    -1067    -1000     -947    -1023    -1017 
    -958     -986    -1031    -1119    -1213    -1112     -957     -951 
    -942     -938    -1104    -1258    -1216    -1098     -996     -931 
   -1008    -1193    -1248    -1073     -890     -907     -987    -1000 
   -1039    -1067    -1039    -1044     -935     -792    -1031    -1355 
   -1223     -972     -986    -1060    -1085    -1050     -929     -999 
   -1223    -1101     -804     -874    -1117    -1188    -1181    -1117 
    -980     -949    -1026    -1051    -1080    -1150    -1063     -858 
    -881    -1093    -1132    -1013    -1017    -1131    -1117     -997 
   -1016    -1117    -1042     -877     -935    -1135    -1156    -1000 
    -915     -989    -1050    -1015    -1065    -1169    -1088     -973 
   -1060    -1154    -1090    -1017    -1036    -1060    -1043    -1059 
   -1044     -959    -1000    -1096     -997     -920    -1080    -1163 
   -1047    -1012    -1065    -1019     -978    -1065    -1109    -1034 
   -1021    -1048     -984     -985    -1136    -1156     -999    -1016 
   -1129    -1030     -969    -1107    -1112     -978     -943     -978 
   -1000    -1007    -1016    -1069    -1100    -1105    -1119    -1015 
    -890    -1005    -1142    -1053     -980    -1065    -1111    -1070 
   -1069    -1100    -1089    -1042    -1016    -1000     -978    -1012 
   -1063    -1065    -1057     -999     -934    -1042    -1159    -1053 
    -958    -1019    -1051    -1055    -1116    -1101    -1028    -1051 
   -1043     -982    -1039    -1074    -1013    -1048    -1065     -999 
   -1050    -1093    -1000     -987    -1036    -1044    -1081    -1073 
   -1011    -1036    -1092    -1050    -1000    -1030    -1032     -973 
   -1021    -1127    -1075     -999    -1063    -1135    -1112    -1016 
    -908     -965    -1139    -1112     -966    -1004    -1088    -1053 
   -1019    -1047    -1107    -1105     -980     -929    -1053    -1098 
   -1042    -1077    -1081    -1000    -1019    -1060    -1007    -1023 
   -1092    -1043     -993    -1036    -1026    -1023    -1146    -1167 
    -990     -918    -1017    -1075    -1051    -1026    -1050    -1100 
   -1031     -892     -977    -1169    -1132    -1042    -1121    -1127 
    -980     -966    -1080    -1047     -949    -1009    -1096    -1021 
    -958    -1053    -1089     -993    -1004    -1089    -1062    -1026 
   -1057    -1085    -1107    -1086    -1021     -993     -986     -966 
   -1020    -1119    -1111    -1055    -1050    -1024     -969     -989 
   -1097    -1158    -1084     -986     -959     -966    -1011    -1074 
   -1071    -1053    -1098    -1101    -1005     -955    -1046    -1131 
   -1111    -1098    -1100    -1036     -981     -969     -961    -1020 
   -1104    -1060    -1013    -1101    -1129    -1020     -984    -1026 
   -1035    -1069    -1075     -972     -942    -1060    -1127    -1081 
   -1071    -1100    -1047     -973     -999    -1013     -972    -1013 
   -1071    -1020    -1024    -1143    -1140    -1024    -1032    -1084 
   -1007     -959    -1059    -1111    -1038     -970     -999    -1112 
   -1170    -1069     -978    -1031    -1069    -1008     -972    -1024 
   -1096    -1067     -970     -973    -1053    -1075    -1080    -1115 
   -1081     -963     -926    -1031    -1102    -1051    -1032    -1093 
   -1111    -1050     -967     -982    -1107    -1140    -1019     -958 
   -1028    -1048    -1009    -1042    -1090    -1023     -954    -1073 
   -1223    -1183    -1065    -1020     -981     -924     -967    -1062 
   -1036     -977    -1071    -1143    -1008     -976    -1140    -1111 
    -947    -1016    -1148    -1096    -1030    -1031    -1004     -993 
   -1005    -1020    -1101    -1111     -982     -963    -1062    -1063 
   -1026    -1057    -1084    -1088    -1044     -985    -1043    -1097 
   -1004     -985    -1090    -1050     -918     -961    -1133    -1196 
   -1081     -951     -955    -1042    -1059    -1026    -1046    -1077 
   -1081    -1084    -1074    -1080    -1102    -1038     -927     -940 
   -1032    -1074    -1062    -1036    -1067    -1093    -1021    -1034 
   -1131    -1032     -905    -1042    -1140    -1005     -928    -1019 
   -1107    -1053     -935    -1000    -1208    -1210    -1000     -919 
   -1031    -1059     -969    -1009    -1132    -1105    -1036    -1053 
   -1043    -1000    -1008    -1050    -1065    -1026    -1021    -1069 
   -1053    -1026    -1050    -1042    -1058    -1119    -1081    -1017 
   -1067    -1080     -992    -1015    -1132    -1107     -958     -903 
    -990    -1074    -1044     -990    -1053    -1100    -1004     -994 
   -1089    -1039     -973    -1035    -1046    -1036    -1111    -1119 
   -1059    -1060    -1065    -1036    -1021    -1026    -1042    -1015 
    -977    -1042    -1131    -1093    -1011    -1046    -1127    -1059 
    -932     -974    -1053     -977     -961    -1125    -1185    -1065 
    -999    -1046    -1059    -1030    -1046    -1071    -1043    -1008 
   -1000     -993     -992    -1020    -1063    -1080    -1059    -1034 
   -1009     -996    -1058    -1165    -1155    -1036    -1016    -1092 
   -1034     -919     -999    -1123    -1073     -992    -1030    -1094 
   -1069     -989    -1009    -1100    -1042     -966    -1088    -1131 
   -1011    -1000    -1042    -1039    -1057    -1026    -1009    -1060 
   -1043    -1015    -1053    -1013     -989    -1067    -1075    -1043 
   -1084    -1094    -1086    -1104    -1019     -916     -984    -1081 
   -1077    -1094    -1120    -1058     -986     -966     -965     -996 
   -1053    -1062    -1055    -1090    -1089    -1034    -1028    -1058 
   -1051    -1021    -1023    -1047    -1039    -1024    -1046    -1075 
   -1102    -1075     -970     -963    -1089    -1053     -888     -945 
   -1132    -1140    -1058    -1075    -1133    -1107    -1024    -1020 
   -1085    -1059     -962     -949    -1024    -1088    -1057     -992 
   -1053    -1133    -1034     -928    -1007    -1102    -1080    -1032 
   -1039    -1039    -1008    -1012    -1036    -1048    -1093    -1102 
   -1030    -1009    -1053    -1075    -1081    -1048    -1044    -1094 
   -1053     -963     -981    -1051    -1065    -1036    -1016     -987 
    -969    -1026    -1104    -1117    -1100    -1085    -1047    -1015 
   -1051    -1096    -1069    -1024     -974     -929    -1000    -1107 
   -1069    -1007    -1053    -1071     -994     -978    -1092    -1173 
   -1069     -922     -961    -1093    -1081     -999    -1097    -1244 
   -1124     -946    -1000    -1081    -1017     -926     -943    -1031 
   -1026     -982    -1069    -1119    -1035    -1063    -1125    -1031 
    -980    -1077    -1148    -1084     -970    -1015    -1139    -1109 
   -1036    -1019     -951     -945    -1070    -1075     -934     -938 
   -1088    -1115    -1023    -1016    -1084    -1084    -1026    -1039 
   -1107    -1070    -1019    -1080    -1077     -984     -987    -1017 
   -1026    -1124    -1154    -1013     -958    -1032    -1026    -1009 
   -1063    -1070    -1043    -1019     -992    -1039    -1135    -1140 
   -1074    -1031     -999     -966     -999    -1034     -980     -989 
   -1132    -1121     -939     -982    -1179    -1117     -958    -1026 
   -1109    -1047    -1015    -1044    -1044    -1028    -1062    -1150 
   -1132     -958     -892    -1030    -1100    -1021    -1019    -1115 
   -1093     -985     -982     -994     -962    -1065    -1169    -1071 
   -1016    -1060    -1031    -1015    -1032    -1007    -1016    -1050 
   -1078    -1117    -1073    -1043    -1129    -1109     -976     -970 
   -1013     -967     -973    -1050    -1021     -939    -1003    -1170 
   -1213    -1113    -1057    -1096    -1131    -1089     -950     -874 
   -1017    -1131    -1011     -909     -970    -1067    -1159    -1104 
    -880     -936    -1206    -1034     -737    -1046    -1433    -1279 
   -1038     -939     -838    -1007    -1305    -1189     -912     -951 
   -1048     -943     -884     -962    -1026    -1085    -1060     -929 
    -977    -1081    -1043    -1144    -1256    -1053     -936    -1243 
   -1490    -1248     -924     -918     -901     -770     -796     -864 
    -981    -1255    -1175     -803     -903    -1140    -1044    -1251 
   -1561    -1162     -823    -1086     -954     -575     -908    -1274 
   -1071    -1047    -1243    -1111     -986    -1112     -994     -666 
    -691     -947    -1058    -1179    -1323    -1312    -1325    -1405 
   -1275     -919     -730     -873     -897     -606     -519     -810 
   -1094    -1316    -1528    -1614    -1586    -1414    -1044     -619 
    -410     -549     -614     -477     -843    -1549    -1713    -1642 
   -1781    -1503     -796     -588     -847     -642     -148     -349 
    -967    -1192    -1321    -1576    -1642    -1530    -1165     -712 
    -764     -954     -718     -726    -1271    -1404    -1019    -1086 
   -1453    -1260     -916    -1135    -1281     -862     -584     -664 
    -673     -745     -989    -1189    -1372    -1520    -1574    -1644 
   -1541    -1115     -652     -376     -364     -495     -579     -777 
   -1208    -1532    -1416    -1204    -1370    -1452    -1109    -1015 
   -1185     -972     -723     -799     -777     -693     -787     -901 
   -1109    -1398    -1429    -1345    -1343    -1113     -764     -706 
    -789     -785     -796     -961    -1254    -1422    -1327    -1252 
   -1334    -1313    -1078     -746     -513     -602     -911    -1123 
   -1185    -1179    -1159    -1213    -1185     -993     -967    -1065 
    -978     -919    -1013    -1058    -1109    -1169    -1105    -1065 
   -1125    -1081     -955    -1053    -1281    -1105     -638     -526 
    -792     -961     -882     -877    -1198    -1471    -1375    -1293 
   -1366    -1263    -1015     -837     -842     -993     -977     -764 
    -745     -970    -1139    -1151    -1154    -1271    -1347    -1206 
   -1060    -1019     -938     -932     -911     -660     -733    -1225 
   -1252     -973    -1125    -1323    -1229    -1115     -977     -873 
    -940     -999     -986    -1007    -1063    -1127    -1073     -936 
   -1028    -1263    -1204     -931     -855     -908     -896     -959 
   -1039     -967     -984    -1136    -1092    -1036    -1219    -1212 
    -973     -967    -1070    -1070    -1166    -1235    -1058     -943 
   -1062    -1111    -1063    -1173    -1235     -989     -787     -851 
    -881     -882     -990    -1016    -1043    -1133    -1077    -1102 
   -1285    -1179     -993    -1139    -1259    -1127     -939     -762 
    -788    -1012    -1063    -1032    -1112    -1107    -1055    -1039 
    -961    -1017    -1174    -1063     -882     -924     -974    -1065 
   -1289    -1264     -967     -896    -1093    -1170    -1069    -1024 
   -1038     -935     -811     -857     -974    -1005     -997    -1115 
   -1381    -1466    -1227    -1077    -1107     -954     -737     -807 
   -1021    -1113    -1044     -888     -788     -807     -866     -974 
   -1146    -1305    -1405    -1367    -1177    -1017     -966    -1000 
   -1067     -939     -693     -805    -1201    -1290    -1113    -1081 
   -1112    -1098    -1142    -1093     -920     -907     -993     -905 
    -822     -994    -1230    -1277    -1179    -1105    -1101    -1117 
   -1074     -973     -966     -990     -897     -926    -1111    -1123 
   -1057    -1107    -1065     -922     -896     -955    -1000    -1009 
   -1000    -1065    -1094    -1069    -1201    -1285    -1094     -950 
    -963     -934     -874     -845     -924    -1102    -1089     -953 
   -1053    -1202    -1117    -1058    -1201    -1230    -1013     -939 
   -1132    -1178    -1008    -1000    -1146    -1129     -972     -924 
   -1009    -1017     -909     -959    -1161    -1150    -1067    -1219 
   -1259    -1039     -911     -822     -708     -862    -1053     -981 
   -1031    -1250    -1198    -1073    -1205    -1221    -1000     -992 
   -1097     -965     -884    -1003     -966     -853     -955    -1071 
   -1039    -1065    -1185    -1250    -1232    -1166    -1071     -949 
    -859     -888     -924     -938    -1070    -1175    -1044     -950 
   -1058    -1104    -1026     -980     -982    -1050    -1163    -1185 
   -1112    -1107    -1121    -1007     -977    -1133    -1173    -1020 
    -913     -915     -950     -980    -1030    -1138    -1171     -996 
    -799     -812     -977    -1096    -1123    -1170    -1230    -1216 
   -1175    -1124    -1062    -1059    -1038     -963     -942     -938 
    -912     -949    -1032    -1067    -1047    -1073    -1156    -1135 
    -985     -899     -909     -923     -913     -935    -1047    -1135 
   -1107    -1159    -1306    -1287    -1179    -1133     -990     -835 
    -880     -934     -903     -957    -1058    -1107    -1135    -1127 
   -1080    -1057    -1111    -1131    -1020     -976    -1050    -1008 
    -907     -939    -1016    -1039    -1031     -976     -932    -1028 
   -1189    -1217    -1136    -1111    -1098    -1051    -1081    -1107 
   -1042    -1067    -1193    -1179    -1019     -859     -820     -880 
    -873     -814     -896    -1085    -1173    -1154    -1190    -1277 
   -1269    -1098     -892     -850     -928     -969    -1016    -1101 
   -1127    -1109    -1102    -1074    -1030     -990    -1004    -1084 
   -1081     -954     -889     -942     -976     -973    -1020    -1105 
   -1161    -1204    -1233    -1163    -1008     -909     -957    -1053 
   -1046    -1038    -1136    -1117     -907     -868    -1067    -1113 
    -981     -961    -1013    -1046    -1081    -1048    -1021    -1111 
   -1119    -1039    -1088    -1139    -1063    -1053    -1121    -1062 
    -949     -986    -1080    -1043     -922     -838     -862    -1015 
   -1192    -1223    -1120    -1080    -1147    -1135    -1011     -961 
    -936     -861     -943    -1138    -1170    -1117    -1136    -1183 
   -1159    -1020     -938    -1031    -1070     -977     -940     -923 
    -876     -918    -1015    -1063    -1115    -1224    -1266    -1142 
   -1032    -1039     -996     -907     -913     -990    -1065    -1070 
   -1005    -1038    -1151    -1143    -1038     -985    -1019    -1051 
    -992     -924     -976    -1059    -1074    -1065    -1034     -977 
   -1003    -1081    -1071    -1053    -1094    -1069    -1080    -1181 
   -1116    -1009    -1104    -1125     -981     -958    -1000     -949 
    -929     -984    -1053    -1116    -1105    -1071    -1112    -1124 
   -1053    -1015    -1017    -1031    -1053    -1026     -982    -1005 
