Origin Time       2018/04/09 06:38:00
Lat.              35.2
Long.             132.6
Depth. (km)       10
Mag.              3.8
Station Code      TTR009
Station Lat.      35.1708
Station Long.     133.3113
Station Height(m) 300
Record Time       2018/04/09 06:39:08
Sampling Freq(Hz) 100Hz
Duration Time(s)  60
Dir.              N-S
Scale Factor      7845(gal)/8223790
Max. Acc. (gal)   1.513
Last Correction   2018/04/09 06:39:08
Memo.             
[...]
   -6646    -6642    -6640    -6643    -6644    -6644    -6643    -6643 
   -6643    -6644    -6647    -6647    -6646    -6643    -6642    -6642 
   -6642    -6642    -6643    -6647    -6646    -6642    -6642    -6642 
   -6642    -6642    -6643    -6643    -6642    -6640    -6642    -6644 
   -6644    -6640    -6642    -6643    -6640    -6640    -6642    -6643 
   -6643    -6643    -6643    -6642    -6643    -6642    -6640    -6643 
   -6643    -6640    -6643    -6646    -6644    -6644    -6644    -6643 
   -6642    -6640    -6642    -6646    -6647    -6646    -6644    -6644 
   -6644    -6642    -6640    -6642    -6643    -6643    -6644    -6647 
   -6644    -6642    -6643    -6642    -6642    -6642    -6643    -6644 
   -6646    -6644    -6643    -6646    -6646    -6643    -6643    -6646 
   -6643    -6642    -6646    -6644    -6640    -6642    -6646    -6643 
   -6642    -6644    -6644    -6642    -6643    -6643    -6642    -6642 
   -6643    -6643    -6644    -6646    -6644    -6643    -6643    -6640 
   -6640    -6642    -6644    -6644    -6644    -6644    -6643    -6643 
   -6646    -6644    -6642    -6642    -6644    -6646    -6646    -6643 
   -6642    -6640    -6642    -6643    -6646    -6646    -6647    -6643 
   -6642    -6644    -6644    -6646    -6646    -6642    -6642    -6647 
   -6647    -6643    -6646    -6647    -6640    -6640    -6647    -6644 
   -6643    -6644    -6643    -6644    -6644    -6643    -6642    -6643 
   -6643    -6644    -6647    -6646    -6643    -6643    -6643    -6642 
   -6644    -6644    -6642    -6644    -6647    -6643    -6642    -6642 
   -6639    -6642    -6646    -6646    -6644    -6643    -6643    -6644 
   -6646    -6642    -6642    -6644    -6643    -6643    -6646    -6643 
   -6640    -6643    -6644    -6643    -6644    -6644    -6646    -6646 
   -6644    -6646    -6646    -6643    -6642    -6644    -6643    -6643 
   -6647    -6646    -6644    -6646    -6644    -6643    -6643    -6642 
   -6642    -6643    -6644    -6643    -6642    -6640    -6644    -6646 
   -6643    -6642    -6644    -6646    -6644    -6644    -6644    -6643 
   -6643    -6642    -6642    -6643    -6646    -6644    -6646    -6647 
   -6646    -6643    -6644    -6646    -6643    -6643    -6644    -6643 
   -6642    -6642    -6642    -6643    -6646    -6644    -6643    -6644 
   -6643    -6642    -6646    -6646    -6643    -6643    -6642    -6639 
   -6640    -6643    -6643    -6644    -6646    -6644    -6647    -6646 
   -6642    -6640    -6642    -6640    -6640    -6646    -6646    -6642 
   -6640    -6643    -6644    -6642    -6642    -6644    -6644    -6643 
   -6644    -6647    -6646    -6644    -6644    -6646    -6644    -6642 
   -6642    -6644    -6644    -6644    -6646    -6644    -6643    -6640 
   -6639    -6643    -6644    -6642    -6643    -6643    -6643    -6644 
   -6647    -6646    -6644    -6643    -6642    -6642    -6643    -6644 
   -6643    -6642    -6643    -6643    -6644    -6644    -6642    -6642 
   -6642    -6642    -6646    -6647    -6646    -6644    -6643    -6642 
   -6643    -6643    -6640    -6642    -6643    -6644    -6646    -6644 
   -6642    -6639    -6640    -6643    -6644    -6644    -6644    -6644 
   -6643    -6642    -6643    -6644    -6643    -6642    -6643    -6643 
   -6644    -6644    -6643    -6642    -6643    -6644    -6643    -6644 
   -6643    -6642    -6644    -6644    -6643    -6644    -6644    -6642 
   -6640    -6642    -6642    -6642    -6642    -6643    -6643    -6644 
   -6647    -6644    -6642    -6639    -6639    -6640    -6642    -6643 
   -6646    -6647    -6644    -6642    -6642    -6640    -6642    -6643 
   -6643    -6643    -6644    -6643    -6643    -6647    -6647    -6643 
   -6640    -6643    -6644    -6640    -6643    -6647    -6644    -6642 
   -6642    -6640    -6639    -6642    -6644    -6644    -6644    -6642 
   -6642    -6643    -6643    -6643    -6644    -6643    -6640    -6642 
   -6640    -6642    -6646    -6647    -6643    -6640    -6642    -6644 
   -6642    -6642    -6643    -6644    -6642    -6642    -6644    -6644 
   -6643    -6643    -6643    -6643    -6643    -6644    -6643    -6643 
   -6643    -6642    -6642    -6643    -6643    -6644    -6647    -6647 
   -6644    -6642    -6643    -6643    -6643    -6647    -6647    -6644 
   -6644    -6644    -6643    -6643    -6643    -6643    -6646    -6644 
   -6642    -6642    -6642    -6639    -6643    -6647    -6644    -6643 
   -6644    -6643    -6642    -6640    -6643    -6644    -6644    -6644 
   -6644    -6643    -6640    -6642    -6644    -6646    -6647    -6646 
   -6643    -6642    -6643    -6642    -6643    -6646    -6646    -6646 
   -6644    -6643    -6642    -6644    -6644    -6644    -6646    -6644 
   -6642    -6643    -6642    -6639    -6642    -6644    -6642    -6642 
   -6644    -6644    -6643    -6642    -6643    -6644    -6644    -6643 
   -6644    -6644    -6643    -6646    -6644    -6643    -6643    -6642 
   -6642    -6642    -6644    -6647    -6647    -6644    -6640    -6639 
   -6642    -6642    -6643    -6644    -6643    -6640    -6643    -6646 
   -6644    -6642    -6644    -6643    -6642    -6646    -6647    -6646 
   -6644    -6643    -6643    -6644    -6644    -6644    -6644    -6642 
   -6640    -6643    -6646    -6646    -6643    -6640    -6640    -6643 
   -6643    -6643    -6646    -6646    -6642    -6642    -6644    -6644 
   -6643    -6643    -6644    -6643    -6643    -6644    -6644    -6644 
   -6643    -6643    -6642    -6640    -6643    -6646    -6644    -6643 
   -6644    -6643    -6643    -6642    -6642    -6646    -6648    -6644 
   -6642    -6644    -6646    -6647    -6646    -6643    -6642    -6642 
   -6644    -6646    -6646    -6644    -6643    -6644    -6647    -6646 
   -6643    -6642    -6640    -6639    -6642    -6644    -6643    -6642 
   -6640    -6644    -6656    -6660    -6660    -6667    -6675    -6663 
   -6632    -6612    -6628    -6660    -6664    -6635    -6600    -6583 
   -6601    -6650    -6682    -6671    -6650    -6637    -6605    -6552 
   -6536    -6608    -6801    -7029    -7022    -6646    -6214    -6150 
   -6417    -6686    -6836    -6945    -6982    -6886    -6635    -6249 
   -6044    -6385    -6978    -7127    -6723    -6361    -6463    -6822 
   -7026    -6845    -6408    -6270    -6650    -6939    -6690    -6343 
   -6453    -6880    -7069    -6771    -6207    -5859    -6038    -6509 
   -6889    -7207    -7565    -7607    -6995    -6127    -5640    -5719 
   -6219    -6860    -7287    -7263    -6945    -6777    -6766    -6465 
   -6002    -6089    -6775    -7264    -7110    -6677    -6370    -6285 
   -6427    -6562    -6515    -6578    -6815    -6812    -6594    -6633 
   -6867    -6845    -6648    -6606    -6543    -6331    -6301    -6489 
   -6621    -6781    -7102    -7337    -7183    -6706    -6292    -6181 
   -6276    -6439    -6612    -6789    -6945    -6932    -6666    -6315 
   -6115    -6203    -6551    -6964    -7153    -7044    -6825    -6594 
   -6315    -6108    -6238    -6666    -6998    -7075    -6985    -6737 
   -6469    -6378    -6427    -6500    -6569    -6669    -6793    -6901 
   -6972    -6932    -6732    -6460    -6218    -6088    -6249    -6763 
   -7288    -7358    -6971    -6478    -6153    -6110    -6336    -6631 
   -6751    -6764    -6897    -7021    -6905    -6621    -6328    -6185 
   -6303    -6538    -6741    -6926    -7041    -6988    -6787    -6536 
   -6316    -6242    -6394    -6624    -6781    -6885    -6906    -6839 
   -6741    -6571    -6323    -6181    -6393    -6840    -7059    -7005 
   -6947    -6828    -6550    -6303    -6246    -6297    -6447    -6777 
   -7034    -6945    -6708    -6540    -6462    -6492    -6555    -6548 
   -6559    -6709    -6894    -6912    -6777    -6642    -6569    -6569 
   -6556    -6439    -6320    -6393    -6675    -6988    -7137    -7071 
   -6855    -6561    -6299    -6222    -6365    -6616    -6828    -6917 
   -6880    -6766    -6635    -6511    -6411    -6372    -6417    -6575 
   -6775    -6891    -6917    -6866    -6718    -6524    -6326    -6191 
   -6252    -6524    -6860    -7084    -7105    -6974    -6799    -6624 
   -6455    -6370    -6426    -6484    -6474    -6613    -6863    -6889 
   -6741    -6671    -6669    -6662    -6635    -6551    -6454    -6446 
   -6556    -6709    -6808    -6856    -6832    -6690    -6550    -6493 
   -6436    -6434    -6616    -6859    -6934    -6814    -6667    -6573 
   -6417    -6290    -6462    -6820    -7028    -6933    -6621    -6416 
   -6480    -6573    -6539    -6538    -6709    -6934    -6959    -6775 
   -6540    -6311    -6272    -6525    -6782    -6889    -6951    -6925 
   -6759    -6521    -6309    -6257    -6413    -6679    -6886    -6903 
   -6814    -6759    -6673    -6524    -6416    -6435    -6578    -6743 
   -6839    -6874    -6848    -6732    -6521    -6295    -6257    -6475 
   -6696    -6739    -6764    -6864    -6880    -6739    -6559    -6413 
   -6338    -6448    -6706    -6870    -6893    -6898    -6825    -6588 
   -6342    -6290    -6404    -6559    -6756    -6919    -6880    -6716 
   -6616    -6579    -6531    -6509    -6590    -6704    -6728    -6728 
   -6721    -6635    -6569    -6579    -6569    -6575    -6691    -6805 
   -6782    -6689    -6631    -6588    -6551    -6613    -6729    -6770 
   -6729    -6628    -6528    -6543    -6597    -6548    -6512    -6620 
   -6755    -6754    -6646    -6562    -6561    -6640    -6739    -6737 
   -6662    -6651    -6691    -6720    -6711    -6632    -6551    -6613 
   -6748    -6732    -6582    -6467    -6447    -6546    -6713    -6760 
   -6686    -6702    -6799    -6725    -6442    -6262    -6408    -6687 
   -6852    -6895    -6885    -6843    -6762    -6596    -6394    -6330 
   -6482    -6687    -6727    -6697    -6758    -6775    -6655    -6566 
   -6605    -6652    -6627    -6604    -6629    -6652    -6629    -6601 
   -6648    -6747    -6739    -6625    -6596    -6671    -6687    -6629 
   -6601    -6561    -6509    -6563    -6624    -6569    -6566    -6729 
   -6868    -6791    -6610    -6536    -6571    -6642    -6716    -6732 
   -6694    -6651    -6610    -6571    -6534    -6593    -6748    -6766 
   -6686    -6752    -6787    -6571    -6336    -6349    -6509    -6631 
   -6755    -6889    -6853    -6701    -6628    -6623    -6604    -6582 
   -6547    -6531    -6650    -6825    -6828    -6700    -6650    -6642 
   -6548    -6471    -6504    -6575    -6679    -6789    -6760    -6673 
   -6728    -6798    -6683    -6535    -6516    -6505    -6426    -6432 
   -6628    -6891    -7034    -6966    -6731    -6492    -6313    -6189 
   -6258    -6592    -6951    -7117    -7123    -7013    -6705    -6300 
   -6095    -6169    -6361    -6623    -6907    -7094    -7113    -6886 
   -6481    -6210    -6261    -6482    -6666    -6785    -6879    -6921 
   -6878    -6724    -6484    -6297    -6304    -6513    -6768    -6872 
   -6825    -6764    -6690    -6577    -6525    -6556    -6556    -6551 
   -6650    -6759    -6752    -6697    -6694    -6716    -6650    -6501 
   -6401    -6451    -6640    -6820    -6848    -6785    -6744    -6677 
   -6520    -6430    -6531    -6669    -6694    -6720    -6791    -6755 
   -6635    -6602    -6589    -6547    -6586    -6687    -6743    -6720 
   -6616    -6500    -6492    -6590    -6650    -6646    -6673    -6737 
   -6771    -6731    -6621    -6529    -6535    -6616    -6637    -6581 
   -6655    -6886    -6970    -6760    -6482    -6370    -6426    -6547 
   -6612    -6567    -6613    -6839    -6916    -6689    -6475    -6527 
   -6717    -6790    -6698    -6579    -6509    -6540    -6679    -6764 
   -6711    -6628    -6601    -6635    -6679    -6682    -6648    -6635 
   -6679    -6673    -6534    -6455    -6586    -6759    -6770    -6637 
   -6566    -6655    -6739    -6660    -6536    -6562    -6656    -6643 
   -6593    -6625    -6698    -6752    -6766    -6729    -6673    -6637 
   -6602    -6550    -6544    -6593    -6612    -6632    -6691    -6697 
   -6667    -6677    -6673    -6608    -6574    -6632    -6664    -6586 
   -6531    -6620    -6725    -6751    -6733    -6685    -6617    -6559 
   -6546    -6608    -6693    -6737    -6725    -6651    -6598    -6633 
   -6650    -6581    -6547    -6628    -6701    -6659    -6628    -6700 
   -6758    -6758    -6716    -6619    -6538    -6538    -6594    -6639 
   -6623    -6615    -6666    -6686    -6646    -6601    -6590    -6635 
   -6675    -6616    -6575    -6681    -6744    -6637    -6574    -6686 
   -6775    -6701    -6612    -6620    -6600    -6540    -6593    -6679 
   -6660    -6610    -6623    -6679    -6711    -6667    -6601    -6602 
   -6644    -6629    -6592    -6635    -6711    -6702    -6667    -6697 
   -6702    -6631    -6594    -6651    -6693    -6639    -6563    -6563 
   -6616    -6606    -6539    -6610    -6829    -6895    -6721    -6556 
   -6534    -6535    -6467    -6417    -6556    -6832    -6985    -6886 
   -6670    -6547    -6538    -6490    -6444    -6583    -6826    -6929 
   -6835    -6666    -6535    -6494    -6534    -6569    -6573    -6647 
   -6812    -6864    -6704    -6528    -6488    -6502    -6531    -6620 
   -6743    -6815    -6789    -6693    -6616    -6554    -6485    -6493 
   -6596    -6628    -6539    -6484    -6516    -6535    -6520    -6574 
   -6782    -7003    -6945    -6642    -6381    -6289    -6315    -6307 
   -6238    -6309    -6627    -7140    -7681    -8017    -8082    -7834 
   -7165    -6211    -5385    -5065    -5404    -6272    -7261    -7903 
   -7979    -7491    -6578    -5607    -5057    -5184    -5879    -6772 
   -7434    -7607    -7339    -6837    -6313    -5987    -5933    -6115 
   -6555    -7191    -7672    -7593    -6979    -6274    -5825    -5679 
   -5800    -6234    -6902    -7452    -7607    -7377    -6947    -6546 
   -6285    -6176    -6265    -6615    -7059    -7236    -7061    -6822 
   -6650    -6416    -6169    -6061    -6135    -6419    -6736    -6772 
   -6637    -6639    -6700    -6629    -6513    -6474    -6511    -6685 
   -6952    -7076    -6990    -6916    -6960    -6917    -6651    -6497 
   -6729    -6901    -6546    -6039    -5940    -6184    -6477    -6721 
   -6966    -7177    -7169    -6951    -6663    -6219    -5651    -5405 
   -5786    -6440    -6810    -6932    -7198    -7457    -7294    -6898 
   -6701    -6756    -6835    -6710    -6382    -6062    -5967    -6227 
   -6860    -7551    -7720    -7195    -6500    -6083    -5898    -5864 
   -6126    -6771    -7508    -7789    -7441    -6858    -6409    -6133 
   -5991    -5994    -6241    -6710    -7089    -7164    -6933    -6454 
   -5973    -5788    -5944    -6392    -6984    -7411    -7493    -7176 
   -6616    -6224    -6102    -6184    -6608    -7233    -7709    -7882 
   -7642    -6941    -6018    -5383    -5255    -5366    -5771    -6708 
   -7700    -8071    -7711    -6874    -5987    -5509    -5548    -5948 
   -6679    -7577    -8091    -7879    -7190    -6396    -5684    -5327 
   -5651    -6531    -7387    -7756    -7608    -7179    -6693    -6231 
   -5772    -5512    -5852    -6606    -7146    -7327    -7295    -7040 
   -6559    -6046    -5892    -6186    -6527    -6782    -7169    -7501 
   -7346    -6696    -6006    -5692    -5748    -5971    -6415    -7152 
   -7719    -7631    -7113    -6623    -6281    -6069    -6103    -6448 
   -6844    -6934    -6801    -6798    -6949    -7006    -6924    -6875 
   -6853    -6556    -5950    -5614    -5975    -6646    -6994    -6959 
   -6840    -6706    -6489    -6370    -6521    -6754    -6867    -6960 
   -7113    -7125    -6775    -6308    -6270    -6625    -6831    -6767 
   -6754    -6907    -6979    -6650    -6046    -5705    -5879    -6311 
   -6731    -7130    -7446    -7392    -6922    -6384    -6030    -5864 
   -5890    -6195    -6822    -7512    -7744    -7352    -6766    -6331 
   -5934    -5632    -5831    -6640    -7503    -7717    -7260    -6736 
   -6473    -6269    -6037    -6088    -6635    -7285    -7372    -6933 
   -6550    -6408    -6454    -6597    -6609    -6544    -6559    -6517 
   -6409    -6427    -6623    -6936    -7160    -7048    -6656    -6204 
   -5881    -5880    -6216    -6700    -7089    -7196    -7098    -6995 
   -6848    -6628    -6490    -6516    -6639    -6651    -6474    -6374 
   -6490    -6617    -6677    -6767    -6852    -6839    -6736    -6610 
   -6535    -6497    -6488    -6602    -6728    -6598    -6323    -6351 
   -6782    -7187    -7215    -6988    -6760    -6563    -6282    -6015 
   -6053    -6482    -7032    -7326    -7234    -6947    -6691    -6465 
   -6186    -6057    -6335    -6824    -7071    -6919    -6617    -6465 
   -6478    -6528    -6617    -6756    -6862    -6837    -6658    -6444 
   -6313    -6258    -6296    -6505    -6835    -7060    -6984    -6717 
   -6548    -6540    -6604    -6691    -6711    -6682    -6739    -6774 
   -6617    -6465    -6569    -6799    -6824    -6667    -6615    -6639 
   -6551    -6407    -6386    -6608    -6967    -7113    -6907    -6623 
   -6431    -6235    -6107    -6288    -6689    -6964    -7022    -7002 
   -6944    -6751    -6399    -6168    -6350    -6728    -6829    -6640 
   -6569    -6727    -6762    -6536    -6370    -6450    -6620    -6743 
   -6782    -6743    -6705    -6717    -6735    -6697    -6624    -6627 
   -6655    -6550    -6405    -6397    -6563    -6883    -7142    -7114 
   -6910    -6710    -6511    -6278    -6123    -6208    -6475    -6754 
   -7011    -7182    -7098    -6775    -6415    -6205    -6230    -6423 
   -6555    -6521    -6588    -6895    -7086    -6898    -6624    -6582 
   -6635    -6554    -6423    -6443    -6651    -6875    -6879    -6687 
   -6597    -6696    -6693    -6470    -6305    -6392    -6586    -6673 
   -6647    -6666    -6748    -6771    -6702    -6615    -6579    -6571 
   -6540    -6596    -6824    -6999    -6895    -6681    -6642    -6690 
   -6540    -6311    -6408    -6770    -6952    -6836    -6617    -6492 
   -6490    -6544    -6648    -6767    -6814    -6768    -6670    -6590 
   -6561    -6544    -6543    -6606    -6709    -6743    -6673    -6556 
   -6465    -6460    -6567    -6710    -6790    -6813    -6837    -6782 
   -6569    -6385    -6469    -6720    -6875    -6876    -6791    -6679 
   -6608    -6610    -6613    -6563    -6517    -6494    -6457    -6474 
   -6566    -6627    -6683    -6777    -6759    -6596    -6517    -6604 
   -6706    -6744    -6736    -6686    -6639    -6646    -6647    -6609 
   -6606    -6652    -6694    -6741    -6793    -6750    -6578    -6420 
   -6430    -6578    -6729    -6817    -6779    -6577    -6345    -6312 
   -6509    -6725    -6844    -6917    -6903    -6708    -6400    -6197 
   -6254    -6500    -6751    -6906    -6984    -7032    -6971    -6710 
   -6434    -6382    -6489    -6577    -6644    -6774    -6907    -6899 
   -6787    -6702    -6592    -6404    -6250    -6277    -6501    -6737 
   -6813    -6768    -6720    -6690    -6620    -6528    -6566    -6751 
   -6902    -6859    -6602    -6320    -6250    -6412    -6690    -6959 
   -7099    -7047    -6839    -6578    -6338    -6165    -6164    -6436 
   -6863    -7123    -7080    -6883    -6664    -6411    -6154    -6043 
   -6200    -6567    -6924    -7102    -7109    -7018    -6840    -6623 
   -6493    -6474    -6465    -6435    -6502    -6702    -6828    -6766 
   -6673    -6647    -6625    -6559    -6488    -6504    -6635    -6763 
