Origin Time       2018/04/09 06:38:00
Lat.              35.2
Long.             132.6
Depth. (km)       10
Mag.              3.8
Station Code      TTR009
Station Lat.      35.1708
Station Long.     133.3113
Station Height(m) 300
Record Time       2018/04/09 06:39:08
Sampling Freq(Hz) 100Hz
Duration Time(s)  60
Dir.              U-D
Scale Factor      7845(gal)/8223790
Max. Acc. (gal)   1.401
Last Correction   2018/04/09 06:39:08
Memo.             
   -1923    -1921    -1923    -1925    -1925    -1926    -1927    -1925 
   -1923    -1926    -1927    -1926    -1925    -1923    -1922    -1925 
   -1927    -1926    -1925    -1923    -1923    -1923    -1923    -1925 
   -1926    -1926    -1923    -1922    -1923    -1926    -1923    -1922 
   -1925    -1926    -1926    -1927    -1926    -1923    -1922    -1925 
   -1926    -1926    -1923    -1921    -1923    -1926    -1925    -1925 
   -1925    -1925    -1923    -1923    -1926    -1926    -1926    -1926 
   -1926    -1925    -1925    -1926    -1926    -1925    -1923    -1923 
   -1926    -1926    -1923    -1925    -1926    -1923    -1925    -1929 
   -1929    -1926    -1923    -1923    -1923    -1923    -1923    -1925 
   -1926    -1923    -1923    -1925    -1927    -1926    -1923    -1922 
   -1923    -1925    -1925    -1925    -1925    -1925    -1925    -1926 
   -1926    -1926    -1926    -1925    -1923    -1925    -1923    -1923 
   -1925    -1926    -1926    -1925    -1925    -1926    -1925    -1926 
   -1929    -1925    -1922    -1926    -1927    -1925    -1923    -1926 
   -1925    -1925    -1925    -1923    -1922    -1926    -1926    -1925 
   -1926    -1926    -1925    -1925    -1926    -1926    -1925    -1925 
   -1925    -1926    -1926    -1923    -1922    -1926    -1927    -1926 
   -1927    -1926    -1923    -1926    -1930    -1925    -1922    -1923 
   -1925    -1925    -1927    -1926    -1922    -1921    -1925    -1927 
   -1927    -1926    -1925    -1925    -1927    -1929    -1927    -1925 
   -1923    -1923    -1925    -1925    -1925    -1923    -1922    -1926 
   -1929    -1926    -1923    -1926    -1926    -1923    -1925    -1925 
   -1923    -1923    -1926    -1926    -1923    -1922    -1923    -1925 
   -1926    -1923    -1923    -1923    -1923    -1925    -1926    -1926 
   -1926    -1925    -1923    -1925    -1925    -1926    -1926    -1925 
   -1925    -1926    -1923    -1922    -1926    -1925    -1925    -1926 
   -1925    -1922    -1923    -1923    -1923    -1925    -1926    -1925 
   -1923    -1923    -1925    -1926    -1926    -1923    -1925    -1929 
   -1927    -1926    -1927    -1926    -1923    -1923    -1925    -1925 
   -1925    -1926    -1923    -1923    -1927    -1927    -1923    -1923 
   -1926    -1926    -1925    -1923    -1925    -1925    -1925    -1926 
   -1926    -1926    -1925    -1923    -1923    -1923    -1925    -1923 
   -1923    -1925    -1925    -1926    -1925    -1923    -1925    -1927 
   -1925    -1925    -1925    -1926    -1927    -1929    -1926    -1925 
   -1927    -1925    -1922    -1923    -1926    -1926    -1925    -1925 
   -1926    -1927    -1925    -1925    -1926    -1923    -1922    -1926 
   -1925    -1923    -1925    -1925    -1925    -1927    -1927    -1925 
   -1925    -1925    -1923    -1922    -1923    -1923    -1925    -1925 
   -1923    -1927    -1927    -1923    -1922    -1923    -1923    -1925 
   -1926    -1926    -1926    -1926    -1925    -1922    -1925    -1926 
   -1925    -1923    -1925    -1926    -1925    -1926    -1927    -1925 
   -1923    -1925    -1926    -1925    -1925    -1925    -1925    -1925 
   -1926    -1925    -1925    -1926    -1926    -1926    -1925    -1925 
   -1925    -1925    -1923    -1925    -1927    -1925    -1922    -1923 
   -1926    -1926    -1926    -1923    -1923    -1925    -1923    -1925 
   -1925    -1925    -1926    -1925    -1922    -1925    -1925    -1923 
   -1925    -1927    -1926    -1923    -1925    -1926    -1926    -1923 
   -1922    -1925    -1926    -1925    -1923    -1925    -1926    -1926 
   -1925    -1923    -1923    -1923    -1923    -1926    -1926    -1923 
   -1925    -1926    -1926    -1926    -1923    -1923    -1923    -1925 
   -1927    -1927    -1926    -1926    -1927    -1927    -1926    -1926 
   -1925    -1922    -1923    -1925    -1925    -1923    -1923    -1926 
   -1927    -1925    -1922    -1923    -1926    -1927    -1926    -1925 
   -1926    -1926    -1923    -1925    -1926    -1926    -1927    -1925 
   -1923    -1925    -1923    -1922    -1923    -1925    -1926    -1925 
   -1925    -1926    -1926    -1923    -1923    -1925    -1925    -1926 
   -1925    -1925    -1926    -1923    -1923    -1925    -1925    -1922 
   -1925    -1925    -1925    -1926    -1925    -1925    -1927    -1927 
   -1923    -1925    -1925    -1923    -1923    -1925    -1923    -1925 
   -1925    -1925    -1925    -1926    -1926    -1925    -1925    -1923 
   -1923    -1925    -1923    -1925    -1926    -1927    -1927    -1923 
   -1925    -1926    -1926    -1925    -1926    -1923    -1925    -1926 
   -1926    -1923    -1923    -1926    -1925    -1923    -1923    -1925 
   -1927    -1926    -1926    -1925    -1925    -1925    -1925    -1923 
   -1923    -1923    -1922    -1925    -1927    -1925    -1923    -1925 
   -1925    -1922    -1923    -1926    -1925    -1925    -1923    -1923 
   -1922    -1921    -1923    -1925    -1923    -1926    -1926    -1923 
   -1923    -1926    -1926    -1923    -1923    -1925    -1921    -1922 
   -1925    -1926    -1925    -1923    -1925    -1925    -1923    -1923 
   -1926    -1926    -1925    -1926    -1925    -1923    -1922    -1922 
   -1926    -1929    -1925    -1923    -1926    -1926    -1925    -1926 
   -1925    -1923    -1923    -1925    -1925    -1923    -1923    -1925 
   -1926    -1926    -1925    -1925    -1926    -1923    -1922    -1922 
   -1925    -1926    -1925    -1925    -1926    -1925    -1925    -1923 
   -1923    -1926    -1925    -1922    -1925    -1926    -1925    -1923 
   -1923    -1925    -1925    -1923    -1925    -1926    -1923    -1922 
   -1923    -1923    -1922    -1922    -1922    -1925    -1925    -1925 
   -1926    -1925    -1923    -1925    -1927    -1925    -1923    -1923 
   -1925    -1925    -1925    -1923    -1922    -1923    -1925    -1925 
   -1925    -1925    -1925    -1926    -1925    -1925    -1925    -1923 
   -1922    -1922    -1923    -1926    -1925    -1925    -1923    -1926 
   -1927    -1927    -1927    -1925    -1923    -1925    -1923    -1923 
   -1926    -1925    -1922    -1923    -1925    -1923    -1925    -1923 
   -1923    -1926    -1926    -1923    -1922    -1923    -1925    -1926 
   -1927    -1926    -1922    -1922    -1922    -1925    -1929    -1926 
   -1923    -1925    -1925    -1923    -1925    -1923    -1923    -1925 
   -1927    -1929    -1926    -1925    -1925    -1925    -1927    -1926 
   -1925    -1923    -1923    -1925    -1923    -1925    -1923    -1923 
   -1926    -1926    -1925    -1925    -1923    -1925    -1929    -1927 
   -1925    -1923    -1922    -1923    -1925    -1925    -1923    -1925 
   -1926    -1926    -1925    -1923    -1925    -1929    -1935    -1938 
   -1938    -1938    -1942    -1960    -1987    -1998    -1961    -1896 
   -1883    -1953    -2020    -1975    -1833    -1753    -1848    -1999 
   -1966    -1788    -1787    -2019    -2060    -1645    -1183    -1282 
   -2006    -2772    -2921    -2376    -1663    -1293    -1327    -1601 
   -2057    -2579    -2859    -2636    -1880     -880     -456    -1323 
   -2787    -3249    -2316    -1221    -1097    -1849    -2623    -2667 
   -1890    -1047    -1159    -2290    -3146    -2578    -1256     -810 
   -1630    -2593    -2562    -1715    -1250    -1701    -2293    -2290 
   -1899    -1641    -1721    -2020    -2292    -2332    -2116    -1765 
   -1549    -1657    -1848    -1922    -2050    -2170    -1982    -1618 
   -1606    -2126    -2612    -2344    -1449     -951    -1534    -2554 
   -2875    -2238    -1345    -1081    -1684    -2469    -2519    -1826 
   -1308    -1525    -2128    -2508    -2338    -1755    -1323    -1512 
   -2114    -2444    -2243    -1838    -1556    -1590    -1919    -2180 
   -2180    -2101    -1981    -1706    -1497    -1703    -2146    -2303 
   -2085    -1772    -1559    -1696    -2177    -2373    -2011    -1679 
   -1753    -1927    -1949    -1948    -2039    -2050    -1875    -1736 
   -1752    -1810    -1937    -2115    -2137    -2018    -1929    -1833 
   -1744    -1859    -2139    -2188    -1844    -1541    -1732    -2191 
   -2338    -2018    -1620    -1601    -1949    -2174    -1987    -1698 
   -1695    -1922    -2116    -2160    -2029    -1796    -1696    -1867 
   -2135    -2200    -1964    -1713    -1769    -1989    -2022    -1926 
   -1961    -1999    -1837    -1721    -1902    -2087    -1985    -1813 
   -1823    -1941    -1981    -1956    -1965    -1949    -1842    -1768 
   -1891    -2133    -2173    -1900    -1679    -1790    -2019    -2079 
   -1984    -1898    -1902    -1937    -1900    -1791    -1728    -1775 
   -1890    -2026    -2106    -2015    -1881    -1935    -2062    -2000 
   -1813    -1742    -1818    -1919    -2034    -2147    -2121    -1910 
   -1705    -1741    -1988    -2130    -1977    -1772    -1807    -1973 
   -1995    -1894    -1848    -1892    -1956    -1984    -1968    -1926 
   -1859    -1830    -1927    -2091    -2142    -2011    -1822    -1749 
   -1837    -1958    -1949    -1813    -1752    -1918    -2134    -2077 
   -1809    -1736    -1958    -2147    -2088    -1883    -1742    -1777 
   -1930    -2096    -2162    -1979    -1677    -1664    -1958    -2147 
   -2039    -1796    -1675    -1823    -2092    -2161    -2010    -1898 
   -1883    -1807    -1748    -1933    -2207    -2196    -1915    -1668 
   -1657    -1871    -2102    -2138    -1935    -1671    -1669    -1960 
   -2137    -2025    -1871    -1837    -1922    -2050    -2064    -1969 
   -1875    -1804    -1826    -1972    -2092    -2033    -1837    -1759 
   -1868    -1935    -1895    -1898    -1960    -1998    -1984    -1937 
   -1884    -1871    -1918    -1953    -1922    -1918    -1971    -1989 
   -1980    -1965    -1891    -1787    -1798    -1933    -2008    -1937 
   -1891    -1935    -1895    -1803    -1865    -2003    -2007    -1944 
   -1975    -1992    -1891    -1856    -1945    -1949    -1880    -1929 
   -2016    -1953    -1826    -1829    -1960    -2041    -1930    -1775 
   -1813    -2016    -2120    -1977    -1757    -1750    -1952    -2084 
   -2034    -1939    -1891    -1895    -1938    -1949    -1915    -1925 
   -1933    -1872    -1877    -1985    -2010    -1880    -1752    -1786 
   -1979    -2173    -2149    -1878    -1686    -1815    -2031    -2045 
   -1908    -1763    -1718    -1883    -2137    -2191    -1981    -1715 
   -1653    -1891    -2187    -2172    -1868    -1729    -1927    -2072 
   -1929    -1786    -1830    -1933    -1996    -1989    -1872    -1768 
   -1868    -2107    -2199    -1980    -1661    -1641    -1948    -2181 
   -2102    -1868    -1737    -1810    -1956    -2023    -1949    -1800 
   -1802    -2045    -2189    -1945    -1651    -1773    -2104    -2134 
   -1906    -1829    -1942    -1965    -1869    -1865    -1954    -1954 
   -1852    -1817    -1953    -2115    -2057    -1826    -1691    -1777 
   -2016    -2193    -2107    -1833    -1715    -1857    -1945    -1881 
   -1933    -2049    -1953    -1780    -1846    -2043    -2053    -1877 
   -1763    -1815    -1962    -2065    -2014    -1857    -1786    -1903 
   -2042    -2001    -1921    -1984    -2011    -1877    -1795    -1883 
   -2014    -2031    -1903    -1784    -1864    -2057    -2060    -1840 
   -1737    -1885    -2041    -2068    -2019    -1912    -1788    -1794 
   -1942    -2025    -1927    -1772    -1738    -1918    -2143    -2106 
   -1849    -1732    -1845    -1971    -2034    -2091    -2014    -1783 
   -1745    -2008    -2147    -1949    -1748    -1792    -1929    -1956 
   -1885    -1888    -2011    -2042    -1911    -1871    -1993    -2052 
   -1944    -1790    -1741    -1841    -2020    -2154    -2062    -1768 
   -1622    -1831    -2106    -2101    -1887    -1761    -1850    -2038 
   -2135    -2038    -1850    -1744    -1784    -1964    -2137    -2064 
   -1771    -1648    -1899    -2144    -2015    -1791    -1876    -2084 
   -2034    -1836    -1799    -1900    -1979    -2027    -2004    -1871 
   -1800    -1930    -2070    -1987    -1818    -1823    -1926    -1922 
   -1863    -1908    -2042    -2046    -1857    -1757    -1908    -2072 
   -2025    -1864    -1822    -1949    -2039    -1945    -1794    -1803 
   -1980    -2101    -2006    -1811    -1755    -1867    -1999    -2074 
   -2042    -1856    -1733    -1863    -1999    -1917    -1852    -1995 
   -2061    -1878    -1746    -1863    -2027    -2023    -1914    -1880 
   -1922    -1906    -1902    -2053    -2158    -1927    -1626    -1750 
   -2149    -2201    -1825    -1595    -1815    -2133    -2142    -1890 
   -1661    -1683    -1998    -2277    -2097    -1641    -1525    -1883 
   -2241    -2204    -1934    -1800    -1856    -1934    -1960    -1958 
   -1942    -1885    -1865    -1972    -2072    -2012    -1859    -1764 
   -1826    -1981    -2019    -1899    -1859    -2010    -2064    -1877 
   -1745    -1868    -2010    -1942    -1826    -1873    -1973    -1989 
   -1948    -1895    -1894    -1956    -1999    -1965    -1902    -1871 
   -1894    -1927    -1938    -1949    -1960    -1922    -1833    -1818 
   -1969    -2077    -1938    -1765    -1819    -2019    -2085    -1910 
   -1772    -1883    -2015    -1992    -1942    -1933    -1923    -1926 
   -1921    -1890    -1906    -1960    -1934    -1858    -1885    -1972 
   -1927    -1815    -1852    -1987    -2033    -1984    -1938    -1902 
   -1884    -1941    -2004    -1949    -1846    -1842    -1903    -1971 
   -2034    -1981    -1815    -1768    -1910    -2026    -1991    -1933 
   -1921    -1883    -1856    -1915    -1998    -1998    -1903    -1841 
   -1900    -1960    -1949    -1975    -1987    -1838    -1710    -1881 
   -2163    -2130    -1811    -1660    -1854    -2039    -1953    -1817 
   -1883    -2062    -2096    -1941    -1841    -1926    -1979    -1871 
   -1842    -2003    -2076    -1935    -1810    -1854    -1956    -1966 
   -1896    -1821    -1826    -1960    -2085    -2016    -1836    -1799 
   -1929    -2020    -2000    -1969    -1956    -1895    -1806    -1826 
   -1995    -2096    -1969    -1786    -1771    -1871    -1962    -2016 
   -1996    -1880    -1767    -1802    -1980    -2077    -1969    -1854 
   -1919    -2023    -2006    -1935    -1918    -1937    -1961    -2016 
   -2068    -2001    -1856    -1740    -1686    -1783    -2030    -2130 
   -1934    -1709    -1761    -1992    -2029    -1823    -1744    -1912 
   -2057    -2049    -2060    -2166    -2168    -1914    -1591    -1491 
   -1696    -2043    -2230    -2120    -1930    -1921    -2031    -2007 
   -1776    -1610    -1771    -2123    -2288    -2166    -1998    -1868 
   -1668    -1548    -1760    -2052    -2016    -1796    -1755    -1900 
   -1999    -1984    -1995    -2025    -1888    -1680    -1722    -1987 
   -2165    -2133    -1958    -1799    -1858    -2091    -2180    -2034 
   -1900    -1966    -2068    -2001    -1904    -1910    -1868    -1698 
   -1567    -1661    -1935    -2111    -2065    -1960    -1861    -1709 
   -1636    -1806    -2047    -2087    -1988    -1973    -2003    -1975 
   -2000    -2062    -1969    -1858    -2000    -2174    -2029    -1737 
   -1669    -1817    -1972    -2085    -2106    -1953    -1755    -1757 
   -2006    -2189    -2057    -1826    -1773    -1810    -1815    -1899 
   -2038    -1988    -1745    -1649    -1819    -1941    -1848    -1814 
   -2011    -2207    -2160    -1961    -1846    -1873    -1956    -1993 
   -1933    -1899    -2057    -2257    -2182    -1863    -1640    -1658 
   -1788    -1952    -2107    -2098    -1904    -1773    -1854    -1961 
   -1915    -1813    -1799    -1844    -1821    -1764    -1844    -1993 
   -1979    -1818    -1773    -1949    -2095    -2020    -1958    -2038 
   -2058    -1949    -1865    -1980    -2195    -2119    -1749    -1624 
   -1904    -2126    -2011    -1894    -1966    -1935    -1759    -1775 
   -1992    -2079    -1923    -1710    -1618    -1734    -2023    -2231 
   -2133    -1859    -1719    -1799    -1968    -2073    -2076    -2023 
   -1980    -1966    -1927    -1880    -1890    -1900    -1938    -2076 
   -2101    -1858    -1651    -1749    -2034    -2212    -2098    -1833 
   -1714    -1784    -1935    -2046    -1975    -1796    -1729    -1776 
   -1858    -1949    -1937    -1811    -1811    -1979    -2061    -1965 
   -1841    -1836    -1956    -2079    -2065    -1934    -1872    -1972 
   -2070    -2019    -1898    -1830    -1868    -1996    -2070    -1980 
   -1869    -1938    -2089    -2064    -1887    -1818    -1865    -1880 
   -1918    -1966    -1867    -1726    -1769    -1915    -1934    -1809 
   -1748    -1871    -2025    -2039    -1944    -1842    -1849    -1988 
   -2097    -2068    -1991    -1930    -1849    -1810    -1915    -2007 
   -1894    -1740    -1807    -2037    -2181    -2130    -1946    -1781 
   -1815    -1993    -2018    -1863    -1781    -1845    -1937    -1972 
   -1948    -1908    -1844    -1814    -1972    -2157    -2069    -1837 
   -1753    -1849    -1981    -1992    -1904    -1868    -1903    -1956 
   -1975    -1885    -1796    -1911    -2126    -2150    -1949    -1784 
   -1838    -1961    -1961    -1915    -1919    -1904    -1858    -1859 
   -1895    -1885    -1850    -1912    -2062    -2079    -1919    -1833 
   -1887    -1946    -1935    -1871    -1878    -1998    -2057    -1965 
   -1837    -1830    -1953    -2020    -1935    -1841    -1873    -1939 
   -1958    -1973    -1966    -1919    -1884    -1872    -1921    -2033 
   -2038    -1885    -1809    -1922    -2011    -1923    -1825    -1880 
   -1960    -1898    -1790    -1803    -1912    -1975    -1961    -1965 
   -2015    -2015    -1927    -1859    -1904    -1984    -1984    -1911 
   -1864    -1934    -2052    -2064    -1975    -1888    -1849    -1871 
   -1915    -1906    -1831    -1817    -1910    -1961    -1894    -1865 
   -1969    -2076    -2058    -1953    -1831    -1780    -1869    -1991 
   -1987    -1878    -1823    -1912    -2053    -2062    -1899    -1729 
   -1767    -2012    -2160    -1998    -1736    -1671    -1819    -1991 
   -2045    -2011    -1985    -1966    -1935    -1907    -1887    -1894 
   -1938    -1984    -1989    -1949    -1898    -1880    -1884    -1880 
   -1912    -1993    -1981    -1868    -1857    -1961    -2000    -1973 
   -1977    -1973    -1898    -1837    -1883    -1973    -1995    -1907 
   -1744    -1721    -1956    -2141    -2020    -1854    -1876    -1929 
   -1877    -1833    -1898    -1992    -1964    -1852    -1807    -1873 
   -2007    -2079    -1975    -1809    -1772    -1881    -2031    -2149 
   -2166    -2043    -1881    -1826    -1914    -2049    -2076    -1938 
   -1826    -1907    -2020    -1954    -1794    -1765    -1877    -1945 
   -1923    -1884    -1826    -1771    -1784    -1856    -1948    -2008 
   -1973    -1891    -1858    -1891    -1941    -1968    -2011    -2077 
   -2031    -1877    -1833    -1977    -2128    -2068    -1877    -1817 
   -1864    -1854    -1852    -1938    -1971    -1867    -1775    -1836 
   -1961    -1989    -1922    -1867    -1875    -1930    -1993    -2053 
   -2092    -2008    -1791    -1680    -1837    -2041    -2001    -1815 
   -1790    -1953    -2081    -2069    -1949    -1817    -1821    -1968 
   -2064    -2015    -1918    -1869    -1923    -2066    -2120    -1956 
   -1763    -1760    -1878    -1948    -1948    -1944    -1925    -1877 
   -1885    -1952    -1949    -1898    -1890    -1908    -1930    -1968 
   -1995    -2003    -1975    -1884    -1809    -1868    -1989    -1979 
