Origin Time       2018/04/09 06:38:00
Lat.              35.2
Long.             132.6
Depth. (km)       10
Mag.              3.8
Station Code      TTR009
Station Lat.      35.1708
Station Long.     133.3113
Station Height(m) 300
Record Time       2018/04/09 06:39:08
Sampling Freq(Hz) 100Hz
Duration Time(s)  60
Dir.              E-W
Scale Factor      7845(gal)/8223790
Max. Acc. (gal)   1.592
Last Correction   2018/04/09 06:39:08
Memo.             
   -1460    -1464    -1467    -1464    -1460    -1460    -1464    -1467 
   -1463    -1462    -1464    -1460    -1457    -1462    -1467    -1466 
   -1464    -1464    -1463    -1459    -1460    -1463    -1466    -1467 
   -1466    -1464    -1462    -1460    -1463    -1463    -1463    -1467 
   -1467    -1466    -1466    -1464    -1462    -1462    -1462    -1462 
   -1462    -1462    -1464    -1467    -1466    -1464    -1467    -1464 
   -1460    -1460    -1462    -1462    -1463    -1463    -1463    -1463 
   -1466    -1464    -1460    -1463    -1463    -1460    -1460    -1463 
   -1462    -1462    -1464    -1466    -1463    -1463    -1463    -1460 
   -1463    -1466    -1466    -1467    -1466    -1463    -1466    -1462 
   -1457    -1459    -1464    -1466    -1466    -1463    -1462    -1459 
   -1459    -1462    -1463    -1464    -1464    -1463    -1460    -1460 
   -1462    -1463    -1464    -1467    -1466    -1462    -1462    -1463 
   -1464    -1466    -1464    -1464    -1466    -1464    -1462    -1463 
   -1464    -1463    -1463    -1462    -1463    -1466    -1464    -1462 
   -1463    -1463    -1462    -1460    -1463    -1463    -1463    -1463 
   -1463    -1462    -1462    -1464    -1464    -1463    -1462    -1462 
   -1464    -1464    -1462    -1463    -1464    -1462    -1460    -1463 
   -1464    -1460    -1460    -1463    -1464    -1464    -1463    -1460 
   -1462    -1464    -1467    -1464    -1463    -1464    -1463    -1459 
   -1462    -1466    -1463    -1463    -1463    -1462    -1464    -1463 
   -1462    -1464    -1464    -1462    -1462    -1464    -1463    -1464 
   -1466    -1463    -1462    -1462    -1462    -1464    -1464    -1463 
   -1463    -1464    -1463    -1463    -1463    -1463    -1463    -1464 
   -1463    -1463    -1466    -1468    -1464    -1460    -1460    -1463 
   -1463    -1462    -1463    -1464    -1464    -1464    -1466    -1464 
   -1462    -1463    -1463    -1462    -1462    -1464    -1464    -1464 
   -1464    -1464    -1463    -1463    -1462    -1462    -1464    -1464 
   -1460    -1462    -1466    -1466    -1463    -1462    -1463    -1466 
   -1466    -1463    -1462    -1462    -1460    -1462    -1464    -1466 
   -1467    -1464    -1462    -1460    -1462    -1464    -1464    -1464 
   -1463    -1463    -1466    -1463    -1459    -1460    -1460    -1460 
   -1463    -1463    -1462    -1460    -1460    -1462    -1462    -1462 
   -1462    -1463    -1463    -1464    -1464    -1462    -1462    -1464 
   -1464    -1462    -1462    -1463    -1464    -1463    -1464    -1466 
   -1462    -1460    -1462    -1462    -1464    -1463    -1462    -1462 
   -1463    -1463    -1464    -1464    -1463    -1463    -1464    -1462 
   -1460    -1462    -1463    -1464    -1463    -1460    -1462    -1464 
   -1462    -1460    -1463    -1463    -1462    -1463    -1463    -1463 
   -1464    -1462    -1462    -1466    -1466    -1463    -1462    -1460 
   -1459    -1462    -1463    -1463    -1464    -1464    -1463    -1462 
   -1464    -1466    -1464    -1464    -1463    -1462    -1463    -1466 
   -1464    -1460    -1462    -1463    -1460    -1457    -1460    -1462 
   -1462    -1463    -1464    -1464    -1460    -1459    -1462    -1463 
   -1464    -1468    -1468    -1463    -1462    -1462    -1460    -1460 
   -1464    -1464    -1460    -1462    -1467    -1466    -1464    -1463 
   -1463    -1462    -1463    -1464    -1462    -1462    -1464    -1462 
   -1462    -1464    -1464    -1464    -1462    -1462    -1464    -1462 
   -1460    -1464    -1467    -1464    -1462    -1463    -1463    -1460 
   -1462    -1462    -1462    -1463    -1464    -1464    -1462    -1460 
   -1463    -1464    -1463    -1462    -1464    -1464    -1463    -1462 
   -1462    -1462    -1464    -1463    -1460    -1460    -1463    -1463 
   -1463    -1463    -1463    -1463    -1463    -1463    -1464    -1462 
   -1464    -1467    -1464    -1460    -1463    -1463    -1462    -1463 
   -1463    -1463    -1463    -1460    -1460    -1463    -1464    -1464 
   -1463    -1462    -1460    -1462    -1463    -1463    -1463    -1463 
   -1462    -1463    -1464    -1462    -1462    -1462    -1462    -1462 
   -1463    -1464    -1463    -1460    -1462    -1464    -1463    -1462 
   -1463    -1464    -1463    -1463    -1463    -1464    -1463    -1462 
   -1462    -1462    -1463    -1463    -1459    -1459    -1463    -1464 
   -1466    -1467    -1466    -1464    -1464    -1462    -1462    -1462 
   -1460    -1462    -1466    -1464    -1463    -1464    -1464    -1460 
   -1459    -1462    -1463    -1462    -1463    -1464    -1462    -1462 
   -1463    -1463    -1463    -1460    -1462    -1463    -1462    -1464 
   -1466    -1466    -1467    -1467    -1462    -1463    -1464    -1462 
   -1462    -1467    -1464    -1459    -1457    -1460    -1462    -1463 
   -1466    -1464    -1466    -1470    -1464    -1457    -1460    -1464 
   -1463    -1463    -1463    -1463    -1463    -1464    -1464    -1463 
   -1462    -1463    -1466    -1466    -1464    -1463    -1464    -1466 
   -1464    -1460    -1460    -1462    -1463    -1463    -1462    -1462 
   -1464    -1466    -1464    -1463    -1460    -1459    -1459    -1463 
   -1466    -1464    -1464    -1466    -1464    -1462    -1460    -1462 
   -1463    -1460    -1462    -1466    -1467    -1464    -1463    -1462 
   -1462    -1463    -1466    -1466    -1463    -1463    -1463    -1462 
   -1460    -1462    -1463    -1463    -1463    -1462    -1462    -1464 
   -1463    -1462    -1463    -1463    -1460    -1462    -1463    -1462 
   -1463    -1463    -1463    -1464    -1464    -1460    -1460    -1463 
   -1463    -1462    -1464    -1464    -1462    -1463    -1464    -1462 
   -1460    -1462    -1462    -1463    -1463    -1463    -1463    -1462 
   -1462    -1463    -1463    -1463    -1464    -1466    -1463    -1463 
   -1463    -1460    -1462    -1463    -1462    -1463    -1464    -1462 
   -1462    -1463    -1462    -1460    -1463    -1464    -1464    -1466 
   -1466    -1463    -1462    -1464    -1463    -1463    -1464    -1462 
   -1462    -1463    -1464    -1463    -1462    -1462    -1460    -1460 
   -1462    -1463    -1462    -1462    -1462    -1460    -1463    -1466 
   -1464    -1462    -1462    -1460    -1463    -1466    -1464    -1464 
   -1463    -1462    -1463    -1464    -1463    -1463    -1463    -1462 
   -1464    -1463    -1462    -1462    -1462    -1462    -1463    -1462 
   -1462    -1463    -1463    -1463    -1466    -1467    -1463    -1460 
   -1464    -1462    -1459    -1463    -1466    -1464    -1464    -1462 
   -1462    -1464    -1463    -1463    -1464    -1466    -1466    -1464 
   -1462    -1462    -1463    -1463    -1464    -1464    -1464    -1467 
   -1470    -1471    -1478    -1483    -1487    -1494    -1506    -1513 
   -1502    -1486    -1489    -1495    -1476    -1441    -1428    -1440 
   -1453    -1437    -1397    -1410    -1501    -1534    -1408    -1230 
   -1178    -1236    -1298    -1401    -1645    -1964    -2069    -1722 
   -1094     -697     -857    -1398    -1941    -2289    -2342    -1945 
   -1161     -396     -120     -618    -1781    -2914    -3132    -2239 
   -1035     -329     -126     -334    -1150    -2342    -3113    -2863 
   -1811     -658       51        9     -783    -1896    -2683    -2687 
   -2147    -1617    -1084     -468     -283     -853    -1871    -2728 
   -2731    -1869    -1078     -807     -643     -743    -1540    -2374 
   -2389    -1795    -1242     -905     -712     -873    -1518    -2150 
   -2182    -1655    -1112    -1059    -1395    -1516    -1289    -1221 
   -1429    -1543    -1478    -1513    -1842    -2106    -1791    -1111 
    -629     -615    -1074    -1777    -2324    -2346    -1921    -1486 
   -1129     -827     -793    -1051    -1455    -1850    -2012    -1876 
   -1543    -1244    -1259    -1429    -1436    -1364    -1348    -1368 
   -1470    -1629    -1698    -1615    -1448    -1344    -1367    -1316 
   -1185    -1263    -1462    -1582    -1696    -1719    -1551    -1362 
   -1352    -1521    -1575    -1387    -1340    -1579    -1738    -1651 
   -1493    -1314    -1140    -1111    -1175    -1282    -1572    -1872 
   -1911    -1744    -1452    -1212    -1271    -1451    -1401    -1228 
   -1271    -1479    -1617    -1713    -1717    -1497    -1250    -1167 
   -1266    -1595    -1961    -1911    -1489    -1254    -1300    -1270 
   -1193    -1305    -1575    -1772    -1680    -1409    -1220    -1162 
   -1266    -1505    -1703    -1842    -1852    -1590    -1254    -1086 
   -1084    -1217    -1453    -1734    -1915    -1836    -1541    -1205 
   -1013    -1075    -1273    -1480    -1692    -1810    -1788    -1715 
   -1537    -1256    -1090    -1158    -1351    -1520    -1688    -1852 
   -1749    -1399    -1197    -1250    -1379    -1476    -1528    -1543 
   -1493    -1426    -1374    -1301    -1364    -1556    -1593    -1557 
   -1647    -1653    -1483    -1356    -1304    -1228    -1235    -1363 
   -1470    -1532    -1593    -1634    -1648    -1549    -1348    -1230 
   -1202    -1240    -1435    -1594    -1535    -1533    -1703    -1732 
   -1528    -1321    -1255    -1386    -1598    -1647    -1605    -1615 
   -1509    -1296    -1259    -1368    -1397    -1377    -1431    -1552 
   -1598    -1513    -1410    -1355    -1370    -1444    -1460    -1494 
   -1658    -1767    -1688    -1447    -1152    -1070    -1200    -1347 
   -1584    -1826    -1781    -1537    -1379    -1344    -1312    -1293 
   -1420    -1614    -1626    -1472    -1381    -1435    -1552    -1567 
   -1464    -1428    -1431    -1395    -1405    -1412    -1385    -1451 
   -1509    -1441    -1417    -1494    -1503    -1418    -1378    -1431 
   -1534    -1632    -1642    -1518    -1364    -1328    -1375    -1426 
   -1501    -1561    -1583    -1574    -1491    -1386    -1382    -1431 
   -1390    -1325    -1413    -1576    -1657    -1672    -1566    -1343 
   -1256    -1360    -1436    -1437    -1459    -1475    -1439    -1359 
   -1332    -1462    -1591    -1543    -1502    -1566    -1530    -1378 
   -1308    -1391    -1517    -1614    -1705    -1725    -1583    -1371 
   -1227    -1156    -1159    -1321    -1618    -1821    -1746    -1466 
   -1217    -1178    -1300    -1437    -1521    -1598    -1691    -1655 
   -1428    -1255    -1294    -1417    -1505    -1528    -1501    -1509 
   -1559    -1525    -1414    -1355    -1437    -1603    -1675    -1582 
   -1421    -1352    -1447    -1489    -1301    -1151    -1285    -1530 
   -1617    -1506    -1386    -1416    -1524    -1556    -1517    -1509 
   -1468    -1350    -1297    -1371    -1495    -1556    -1514    -1501 
   -1516    -1448    -1387    -1401    -1455    -1580    -1699    -1669 
   -1499    -1290    -1215    -1350    -1513    -1547    -1530    -1561 
   -1578    -1457    -1254    -1192    -1367    -1588    -1640    -1598 
   -1568    -1463    -1350    -1350    -1379    -1436    -1591    -1663 
   -1476    -1243    -1224    -1355    -1489    -1587    -1630    -1640 
   -1570    -1352    -1196    -1290    -1455    -1548    -1606    -1560 
   -1443    -1451    -1489    -1379    -1317    -1460    -1571    -1472 
   -1343    -1378    -1524    -1560    -1459    -1487    -1634    -1590 
   -1404    -1328    -1375    -1445    -1495    -1534    -1522    -1449 
   -1420    -1451    -1424    -1355    -1391    -1513    -1553    -1497 
   -1453    -1470    -1549    -1605    -1480    -1287    -1350    -1588 
   -1564    -1355    -1428    -1614    -1476    -1232    -1235    -1404 
   -1567    -1644    -1630    -1586    -1478    -1301    -1262    -1437 
   -1564    -1472    -1355    -1401    -1517    -1548    -1493    -1439 
   -1417    -1471    -1544    -1451    -1331    -1439    -1603    -1655 
   -1626    -1491    -1325    -1271    -1312    -1378    -1475    -1614 
   -1711    -1675    -1517    -1297    -1197    -1308    -1405    -1417 
   -1503    -1597    -1615    -1605    -1479    -1273    -1217    -1328 
   -1443    -1526    -1647    -1771    -1714    -1431    -1193    -1177 
   -1225    -1266    -1393    -1595    -1729    -1692    -1563    -1503 
   -1468    -1383    -1344    -1391    -1495    -1603    -1614    -1549 
   -1486    -1425    -1354    -1248    -1201    -1359    -1566    -1571 
   -1449    -1445    -1572    -1625    -1559    -1460    -1334    -1290 
   -1413    -1524    -1497    -1479    -1602    -1687    -1486    -1169 
   -1139    -1393    -1563    -1533    -1568    -1757    -1814    -1606 
   -1352    -1219    -1200    -1275    -1399    -1517    -1588    -1597 
   -1568    -1498    -1367    -1256    -1293    -1453    -1593    -1605 
   -1509    -1368    -1267    -1336    -1554    -1707    -1664    -1507 
   -1355    -1250    -1273    -1383    -1491    -1636    -1738    -1706 
   -1566    -1329    -1177    -1255    -1410    -1534    -1561    -1483 
   -1475    -1525    -1474    -1362    -1277    -1281    -1431    -1597 
   -1618    -1588    -1606    -1622    -1556    -1398    -1275    -1293 
   -1367    -1444    -1561    -1621    -1526    -1443    -1483    -1443 
   -1286    -1308    -1462    -1456    -1429    -1557    -1634    -1602 
   -1582    -1495    -1332    -1243    -1294    -1449    -1563    -1559 
   -1539    -1494    -1387    -1351    -1405    -1456    -1497    -1514 
   -1487    -1460    -1467    -1494    -1528    -1513    -1421    -1391 
   -1479    -1509    -1449    -1453    -1513    -1490    -1412    -1368 
   -1378    -1428    -1476    -1518    -1586    -1618    -1532    -1394 
   -1327    -1324    -1332    -1391    -1513    -1591    -1613    -1606 
   -1501    -1387    -1408    -1418    -1374    -1457    -1570    -1509 
   -1397    -1372    -1358    -1327    -1398    -1614    -1755    -1620 
   -1443    -1479    -1509    -1371    -1236    -1244    -1383    -1551 
   -1647    -1642    -1568    -1495    -1414    -1250    -1129    -1263 
   -1537    -1674    -1657    -1640    -1629    -1528    -1332    -1179 
   -1217    -1385    -1539    -1610    -1586    -1557    -1580    -1528 
   -1385    -1345    -1463    -1540    -1490    -1453    -1416    -1331 
   -1368    -1483    -1522    -1559    -1617    -1636    -1514    -1239 
   -1078    -1215    -1493    -1736    -1858    -1846    -1703    -1386 
    -931     -556     -493     -845    -1470    -2053    -2421    -2559 
   -2331    -1713     -990     -538     -657    -1250    -1854    -2297 
   -2586    -2470    -1768     -749       40      184     -340    -1302 
   -2265    -2690    -2440    -1833    -1189     -735     -720    -1213 
   -1896    -2317    -2384    -2220    -1807    -1209     -666     -365 
    -438     -850    -1383    -1926    -2300    -2173    -1590     -973 
    -557     -410     -584    -1104    -1958    -2810    -3123    -2772 
   -2001    -1109     -359      -55     -432    -1254    -2031    -2578 
   -2764    -2404    -1711    -1039     -545     -461     -761    -1030 
   -1291    -1746    -2081    -2061    -1819    -1468    -1206    -1119 
   -1035    -1115    -1605    -2092    -2095    -1803    -1534    -1227 
    -924     -880    -1069    -1318    -1580    -1734    -1721    -1665 
   -1651    -1726    -1819    -1728    -1516    -1332    -1063     -810 
    -896    -1185    -1382    -1602    -2011    -2417    -2415    -1732 
    -702     -131     -387     -987    -1387    -1648    -1946    -2170 
   -2170    -1848    -1374    -1201    -1301    -1310    -1389    -1738 
   -2022    -1984    -1736    -1368     -905     -535     -553     -905 
   -1336    -1894    -2466    -2601    -2218    -1632    -1088     -633 
    -421     -766    -1579    -2346    -2635    -2289    -1660    -1258 
   -1058     -760     -405     -365     -869    -1593    -1981    -1942 
   -1792    -1645    -1363    -1053    -1112    -1664    -2161    -2101 
   -1759    -1594    -1528    -1230     -846     -908    -1416    -1881 
   -2123    -2147    -1840    -1301     -884     -751     -885    -1248 
   -1597    -1703    -1674    -1595    -1441    -1246    -1112    -1196 
   -1452    -1651    -1706    -1677    -1703    -1783    -1658    -1405 
   -1364    -1405    -1344    -1390    -1543    -1579    -1599    -1672 
   -1647    -1551    -1420    -1219    -1112    -1179    -1341    -1575 
   -1741    -1653    -1298     -923     -870    -1067    -1181    -1316 
   -1757    -2284    -2439    -2134    -1582    -1053     -784     -761 
    -866    -1178    -1748    -2336    -2587    -2335    -1710    -1008 
    -540     -459     -726    -1389    -2307    -2855    -2632    -1858 
    -978     -407     -280     -449     -851    -1418    -1912    -2172 
   -2151    -1845    -1431    -1136     -874     -695     -992    -1661 
   -2143    -2247    -2107    -1861    -1615    -1381    -1197    -1194 
   -1327    -1412    -1455    -1545    -1606    -1541    -1356    -1142 
   -1032    -1143    -1405    -1602    -1738    -1895    -1868    -1610 
   -1413    -1321    -1212    -1190    -1313    -1479    -1694    -1900 
   -1846    -1397     -842     -607     -665     -828    -1233    -1859 
   -2361    -2482    -2104    -1424     -967     -859     -912    -1210 
   -1752    -2236    -2347    -1900    -1255     -992    -1055    -1121 
   -1229    -1524    -1926    -2065    -1757    -1382    -1235    -1210 
   -1217    -1274    -1452    -1746    -1864    -1680    -1440    -1206 
   -1034    -1174    -1410    -1447    -1516    -1628    -1564    -1491 
   -1518    -1471    -1331    -1266    -1399    -1584    -1574    -1467 
   -1456    -1445    -1363    -1354    -1439    -1455    -1441    -1582 
   -1792    -1784    -1521    -1262    -1158    -1152    -1204    -1382 
   -1740    -2069    -2023    -1661    -1320    -1073     -919     -977 
   -1278    -1676    -1927    -1891    -1741    -1617    -1370    -1011 
    -843     -963    -1236    -1609    -1965    -2073    -1918    -1637 
   -1304    -1038     -962    -1073    -1363    -1715    -1858    -1765 
   -1606    -1437    -1293    -1308    -1486    -1610    -1613    -1656 
   -1675    -1502    -1304    -1198    -1094    -1113    -1327    -1528 
   -1717    -1927    -1923    -1642    -1260     -934     -801     -897 
   -1196    -1680    -2150    -2330    -2133    -1641    -1111     -831 
    -835    -1030    -1387    -1802    -2033    -1917    -1568    -1273 
   -1178    -1188    -1237    -1344    -1429    -1479    -1574    -1647 
   -1629    -1547    -1459    -1456    -1499    -1466    -1417    -1436 
   -1456    -1474    -1543    -1582    -1447    -1208    -1131    -1306 
   -1520    -1652    -1794    -1910    -1837    -1567    -1269    -1085 
   -1119    -1345    -1540    -1568    -1520    -1482    -1437    -1333 
   -1240    -1273    -1377    -1491    -1601    -1648    -1676    -1725 
   -1624    -1332    -1162    -1302    -1528    -1572    -1459    -1370 
   -1408    -1494    -1517    -1447    -1262    -1050    -1070    -1402 
   -1795    -2001    -2014    -1887    -1591    -1175     -830     -777 
   -1101    -1554    -1822    -1912    -1953    -1854    -1552    -1235 
   -1075    -1069    -1156    -1305    -1487    -1657    -1760    -1777 
   -1711    -1605    -1445    -1209    -1086    -1230    -1444    -1541 
   -1584    -1617    -1530    -1269    -1048    -1120    -1317    -1422 
   -1535    -1723    -1890    -1945    -1800    -1493    -1260    -1267 
   -1441    -1637    -1723    -1624    -1420    -1233    -1109    -1070 
   -1158    -1358    -1543    -1661    -1783    -1786    -1547    -1293 
   -1208    -1193    -1188    -1296    -1549    -1799    -1900    -1845 
