Origin Time       2018/04/09 06:38:00
Lat.              35.2
Long.             132.6
Depth. (km)       10
Mag.              3.8
Station Code      SMN008
Station Lat.      34.8523
Station Long.     132.5308
Station Height(m) 335
Record Time       2018/04/09 06:38:55
Sampling Freq(Hz) 100Hz
Duration Time(s)  60
Dir.              U-D
Scale Factor      7845(gal)/8223790
Max. Acc. (gal)   4.436
Last Correction   2018/04/09 06:38:55
Memo.             
[...]
   14274    14276    14273    14274    14276    14274    14270    14270 
   14273    14274    14274    14276    14276    14274    14273    14273 
   14274    14274    14274    14274    14274    14273    14273    14272 
   14272    14273    14276    14274    14273    14274    14274    14272 
   14272    14273    14273    14274    14276    14273    14272    14273 
   14273    14274    14276    14273    14273    14273    14273    14274 
   14276    14276    14276    14274    14273    14273    14276    14274 
   14273    14274    14276    14274    14276    14276    14274    14274 
   14276    14274    14272    14274    14276    14274    14272    14272 
   14274    14274    14276    14274    14273    14274    14276    14276 
   14276    14276    14274    14274    14274    14273    14274    14276 
   14274    14274    14276    14274    14273    14276    14276    14274 
   14274    14274    14273    14274    14274    14272    14273    14276 
   14273    14273    14273    14273    14273    14274    14274    14272 
   14273    14276    14276    14276    14274    14276    14276    14274 
   14274    14276    14273    14274    14276    14274    14273    14273 
   14274    14276    14276    14274    14274    14274    14274    14272 
   14273    14276    14274    14273    14274    14274    14274    14274 
   14274    14276    14274    14273    14276    14274    14274    14276 
   14274    14273    14274    14273    14273    14274    14274    14274 
   14273    14272    14272    14273    14274    14276    14276    14276 
   14274    14273    14273    14273    14273    14272    14272    14274 
   14273    14273    14276    14276    14273    14273    14273    14273 
   14276    14274    14272    14274    14277    14274    14273    14274 
   14277    14277    14273    14272    14274    14273    14270    14270 
   14276    14276    14276    14276    14273    14270    14272    14273 
   14276    14276    14273    14274    14274    14273    14273    14274 
   14274    14274    14273    14272    14276    14276    14273    14274 
   14276    14270    14269    14273    14274    14273    14273    14274 
   14273    14272    14273    14272    14273    14276    14277    14274 
   14274    14276    14274    14274    14277    14276    14274    14274 
   14274    14274    14276    14273    14273    14273    14274    14277 
   14277    14274    14273    14273    14272    14274    14276    14273 
   14273    14273    14274    14274    14273    14273    14277    14276 
   14273    14276    14277    14274    14274    14273    14273    14276 
   14276    14274    14276    14276    14274    14274    14277    14278 
   14276    14274    14276    14274    14272    14274    14278    14277 
   14274    14274    14274    14276    14277    14274    14273    14274 
   14273    14272    14272    14276    14277    14276    14272    14273 
   14276    14274    14273    14274    14276    14274    14273    14276 
   14277    14273    14274    14273    14272    14276    14276    14273 
   14276    14276    14270    14272    14276    14274    14274    14273 
   14272    14270    14274    14277    14274    14274    14274    14272 
   14273    14276    14273    14273    14276    14274    14272    14273 
   14277    14276    14272    14272    14276    14276    14276    14276 
   14272    14270    14274    14277    14277    14276    14273    14272 
   14273    14274    14274    14274    14274    14272    14272    14276 
   14274    14273    14274    14276    14273    14270    14270    14274 
   14278    14276    14270    14274    14277    14273    14274    14276 
   14273    14270    14274    14277    14274    14274    14274    14273 
   14273    14276    14276    14274    14273    14273    14274    14276 
   14276    14276    14276    14274    14274    14277    14276    14272 
   14274    14276    14274    14272    14273    14276    14274    14273 
   14276    14277    14276    14276    14273    14270    14273    14277 
   14276    14273    14274    14273    14270    14273    14274    14274 
   14274    14273    14270    14273    14274    14273    14274    14274 
   14276    14277    14273    14273    14276    14274    14276    14277 
   14276    14276    14274    14274    14273    14272    14273    14274 
   14274    14272    14272    14274    14274    14273    14274    14274 
   14272    14270    14272    14274    14274    14273    14274    14273 
   14273    14274    14272    14274    14277    14274    14274    14276 
   14273    14272    14274    14274    14273    14274    14274    14274 
   14273    14273    14274    14277    14274    14273    14274    14273 
   14272    14273    14273    14274    14276    14274    14273    14273 
   14273    14274    14277    14276    14276    14273    14270    14272 
   14276    14276    14273    14273    14273    14274    14273    14274 
   14276    14274    14276    14276    14276    14277    14274    14273 
   14276    14277    14276    14276    14276    14274    14273    14276 
   14277    14273    14273    14277    14276    14272    14273    14276 
   14276    14273    14273    14276    14276    14274    14274    14273 
   14273    14274    14274    14274    14273    14273    14274    14276 
   14274    14270    14270    14274    14277    14274    14273    14277 
   14276    14273    14274    14276    14276    14274    14273    14273 
   14274    14274    14276    14276    14273    14273    14276    14276 
   14273    14274    14277    14277    14274    14272    14273    14273 
   14270    14273    14274    14270    14270    14273    14274    14274 
   14273    14273    14274    14276    14274    14273    14272    14272 
   14273    14273    14276    14274    14270    14272    14277    14276 
   14270    14272    14276    14276    14274    14273    14272    14273 
   14274    14277    14277    14274    14274    14273    14270    14273 
   14274    14273    14273    14274    14273    14269    14272    14277 
   14274    14272    14273    14273    14274    14273    14273    14274 
   14274    14273    14273    14272    14272    14272    14273    14274 
   14274    14276    14273    14272    14274    14274    14272    14273 
   14274    14273    14273    14276    14277    14273    14270    14274 
   14274    14273    14273    14276    14274    14273    14273    14276 
   14277    14274    14273    14274    14274    14274    14274    14274 
   14274    14272    14272    14273    14273    14270    14272    14272 
   14273    14276    14273    14272    14276    14276    14273    14273 
   14274    14273    14273    14274    14274    14274    14276    14273 
   14272    14273    14273    14272    14276    14276    14270    14272 
   14274    14274    14274    14274    14274    14274    14276    14274 
   14273    14274    14276    14276    14274    14273    14276    14277 
   14273    14269    14274    14277    14274    14273    14273    14276 
   14274    14272    14274    14278    14277    14273    14273    14276 
   14274    14276    14278    14277    14276    14274    14273    14274 
   14274    14273    14272    14276    14278    14276    14273    14273 
   14274    14273    14273    14274    14274    14274    14274    14272 
   14273    14274    14274    14274    14274    14274    14274    14274 
   14274    14274    14274    14274    14273    14272    14273    14273 
   14274    14276    14274    14273    14274    14273    14274    14274 
   14274    14276    14276    14276    14274    14272    14273    14274 
   14274    14273    14276    14274    14273    14273    14273    14273 
   14276    14276    14273    14274    14277    14274    14273    14273 
   14272    14273    14277    14274    14272    14274    14274    14273 
   14276    14276    14273    14273    14272    14272    14276    14273 
   14273    14274    14274    14274    14276    14276    14276    14273 
   14272    14273    14273    14273    14276    14277    14274    14272 
   14273    14274    14273    14276    14276    14270    14272    14274 
   14273    14273    14274    14274    14274    14273    14273    14274 
   14274    14274    14274    14276    14276    14274    14276    14274 
   14273    14272    14274    14276    14273    14273    14276    14276 
   14274    14273    14273    14273    14276    14274    14272    14273 
   14276    14274    14276    14277    14274    14273    14274    14272 
   14274    14276    14273    14273    14274    14274    14276    14274 
   14274    14276    14276    14276    14274    14273    14274    14276 
   14274    14274    14276    14274    14273    14273    14274    14276 
   14276    14274    14274    14276    14274    14273    14274    14274 
   14273    14274    14274    14273    14274    14277    14276    14274 
   14274    14273    14274    14276    14274    14274    14274    14274 
   14276    14277    14274    14274    14276    14274    14274    14277 
   14276    14274    14274    14274    14274    14274    14276    14276 
   14274    14276    14274    14274    14277    14276    14273    14277 
   14278    14272    14272    14274    14273    14273    14276    14277 
   14276    14274    14276    14277    14276    14274    14276    14274 
   14273    14274    14274    14273    14274    14274    14274    14274 
   14276    14276    14273    14272    14273    14276    14274    14274 
   14276    14277    14273    14273    14274    14276    14274    14276 
   14277    14274    14273    14274    14274    14274    14272    14272 
   14276    14277    14274    14276    14276    14273    14273    14273 
   14272    14273    14274    14273    14272    14274    14274    14274 
   14276    14276    14273    14273    14277    14274    14273    14276 
   14276    14272    14274    14274    14272    14272    14273    14273 
   14274    14274    14273    14273    14274    14274    14274    14274 
   14276    14276    14274    14274    14276    14274    14273    14276 
   14276    14273    14273    14276    14277    14274    14273    14274 
   14276    14274    14273    14274    14276    14277    14274    14272 
   14273    14274    14274    14276    14277    14276    14274    14276 
   14276    14274    14272    14273    14276    14276    14273    14272 
   14274    14276    14274    14274    14276    14277    14274    14274 
   14274    14273    14273    14273    14274    14274    14274    14276 
   14274    14273    14273    14274    14276    14273    14273    14274 
   14274    14274    14274    14274    14272    14272    14272    14270 
   14273    14276    14276    14274    14276    14276    14273    14272 
   14274    14276    14273    14273    14274    14272    14274    14277 
   14273    14274    14280    14276    14270    14273    14274    14272 
   14272    14274    14274    14273    14274    14276    14274    14272 
   14273    14276    14274    14276    14276    14274    14274    14274 
   14274    14273    14273    14273    14273    14273    14274    14274 
   14272    14274    14276    14274    14274    14276    14274    14273 
   14273    14274    14276    14276    14273    14274    14276    14274 
   14274    14276    14274    14276    14274    14270    14272    14276 
   14274    14273    14274    14274    14272    14273    14273    14274 
   14276    14277    14276    14273    14273    14276    14274    14273 
   14273    14273    14272    14270    14272    14274    14273    14270 
   14272    14272    14273    14274    14273    14272    14273    14274 
   14274    14274    14274    14273    14272    14273    14274    14274 
   14272    14270    14273    14274    14273    14273    14273    14273 
   14272    14273    14273    14273    14276    14274    14272    14272 
   14272    14273    14273    14273    14273    14273    14276    14276 
   14274    14274    14273    14272    14274    14276    14273    14270 
   14273    14276    14273    14273    14274    14273    14273    14272 
   14270    14274    14273    14272    14273    14274    14273    14273 
   14274    14274    14274    14276    14274    14273    14274    14276 
   14274    14273    14273    14272    14272    14274    14276    14274 
   14273    14274    14276    14274    14273    14273    14274    14274 
   14273    14276    14274    14273    14274    14273    14272    14274 
   14274    14273    14274    14276    14273    14273    14274    14273 
   14273    14273    14273    14273    14273    14272    14273    14273 
   14272    14273    14274    14273    14272    14274    14273    14272 
   14272    14273    14274    14274    14270    14272    14274    14274 
   14273    14272    14273    14274    14273    14273    14274    14274 
   14273    14272    14274    14276    14273    14272    14272    14273 
   14273    14272    14272    14272    14272    14274    14274    14273 
   14274    14276    14273    14274    14274    14270    14269    14272 
   14276    14276    14277    14277    14273    14272    14273    14273 
   14276    14276    14274    14276    14276    14273    14274    14273 
   14272    14273    14274    14274    14274    14273    14273    14273 
   14272    14273    14274    14274    14274    14274    14273    14273 
   14276    14273    14272    14274    14274    14273    14272    14269 
   14272    14274    14274    14272    14273    14272    14270    14273 
   14278    14276    14272    14272    14274    14273    14270    14270 
   14272    14273    14272    14272    14273    14274    14276    14277 
   14288    14331    14420    14520    14513    14361    14234    14377 
   14840    15133    14400    12881    12206    12991    14184    15110 
   15774    16094    15641    13736    11178    10201    11854    15431 
   18625    18924    16371    13026    11079    11001    11952    14197 
   17230    18731    17054    13567    11574    11480    12687    15029 
   15986    15213    14467    13662    13073    13378    14466    15236 
   14787    14318    14416    14040    13506    13705    14376    15234 
   15754    15071    13621    12918    13536    14305    14473    14628 
   14774    14837    14418    13004    12603    14346    15859    15437 
   14027    13521    14141    14359    14037    14369    15026    14697 
   14052    14342    14323    13458    13570    14489    14750    14570 
   14210    13755    13587    13887    14804    15140    14305    14231 
   14740    14200    13730    13983    14094    14486    14965    14652 
   14403    14262    13545    13300    13927    14704    14941    14388 
   14103    14206    14047    14084    14185    14319    14774    14785 
   14403    14274    14033    13729    13899    14349    14832    15153 
   14713    13751    13329    13678    14173    14493    14995    15457 
   14752    13355    12962    13581    14224    14604    14975    15130 
   14391    13528    13745    14206    14246    14404    14442    14407 
   14615    14335    13898    14234    14604    14392    14121    14172 
   14393    14364    14262    14492    14481    14045    14058    14396 
   14191    13903    14056    14243    14597    14790    14220    13853 
   14065    14183    14316    14424    14257    14183    14350    14416 
   14281    14179    14268    14469    14449    14056    13932    14377 
   14529    14235    14280    14484    14343    14061    13787    13779 
   14378    14909    14754    14401    14075    13918    14134    14161 
   14040    14243    14547    14821    14728    14264    14080    13883 
   13690    14122    14539    14623    14755    14570    13994    13524 
   13587    14270    14778    14702    14627    14555    14115    13718 
   13879    14265    14493    14638    14561    14432    14418    13990 
   13501    13713    14463    15075    14735    14080    14165    14080 
   13668    14092    14840    14854    14469    14207    13952    13784 
   14010    14404    14638    14611    14376    14220    14291    14481 
   14435    14173    14104    13956    13930    14388    14477    14300 
   14326    14000    13810    14193    14418    14567    14659    14264 
   14103    14195    13910    13991    14473    14598    14535    14376 
   14265    14337    14183    13946    13986    14319    14644    14472 
   14298    14473    14337    14098    14143    14226    14311    14357 
   14368    14373    14195    13887    13815    14118    14503    14736 
   14580    14135    14041    14156    14057    14079    14316    14378 
   14370    14555    14473    14076    14108    14413    14430    14403 
   14515    14412    14108    14068    14196    14156    14187    14401 
   14527    14384    14065    13986    14179    14164    14133    14399 
   14470    14338    14420    14399    14108    13888    13913    14372 
   14902    14790    14301    13944    13882    14064    14123    14283 
   14694    14628    14193    14058    14033    14133    14516    14589 
   14222    14085    14258    14195    14045    14373    14769    14636 
   14189    14014    14278    14381    14164    14014    13891    13998 
   14462    14774    14735    14430    13940    13636    13871    14339 
   14569    14780    14883    14288    13522    13587    14281    14729 
   14754    14720    14451    13863    13792    14220    14193    14143 
   14538    14575    14196    13977    14150    14493    14403    14112 
   14110    14250    14569    14669    14353    14331    14342    13960 
   13780    14006    14393    14643    14511    14284    14229    14184 
   13971    13795    14062    14503    14656    14764    14710    14203 
   13838    13869    13983    14192    14288    14323    14627    14648 
   14230    14137    14152    14165    14598    14543    14164    14295 
   14023    13898    14366    14165    14094    14521    14323    14210 
   14635    14602    14057    13829    14273    14770    14646    14351 
   14187    13829    13657    13917    14311    14724    14889    14588 
   14023    13798    14107    14210    14111    14391    14392    13957 
   14073    14571    14584    14127    14038    14620    14797    14314 
   14285    14731    14543    13404    12895    14216    15433    14805 
   14044    14801    15518    14370    12949    13664    15036    14350 
   13077    13826    15017    14422    13533    13740    14251    14886 
   14994    14010    13586    14058    14395    14717    14755    14746 
   14994    14021    12768    13350    13936    13868    14823    15403 
   14841    14420    13844    13876    14906    14872    14288    14326 
   13984    14008    14877    14739    13654    13304    13990    14875 
   14912    14200    13945    14112    14083    14206    14311    13999 
   13932    14308    14512    14476    14519    14486    14156    14068 
   14517    14747    14304    13778    13803    14072    14170    14358 
   14527    14374    14131    14131    14647    15040    14323    13555 
   13948    14283    14116    14411    14550    14215    14087    14137 
   14609    14993    14320    13751    14100    14409    14292    14231 
   14470    14489    14000    13784    14176    14488    14382    14181 
   14195    14351    14262    14049    14156    14239    14293    14862 
   15121    14481    13984    13902    13806    14011    14346    14534 
   14700    14214    13336    13339    14004    14764    15236    14629 
   13888    14131    14337    14418    14909    14731    13965    13845 
   14113    14288    14434    14393    14258    14040    13768    13976 
   14374    14489    14662    14638    14343    14341    14353    14143 
   14080    14177    14175    14037    14202    14688    14655    14080 
   13782    13876    14142    14496    14577    14563    14677    14115 
