Origin Time       2018/04/09 06:38:00
Lat.              35.2
Long.             132.6
Depth. (km)       10
Mag.              3.8
Station Code      SMN008
Station Lat.      34.8523
Station Long.     132.5308
Station Height(m) 335
Record Time       2018/04/09 06:38:55
Sampling Freq(Hz) 100Hz
Duration Time(s)  60
Dir.              E-W
Scale Factor      7845(gal)/8223790
Max. Acc. (gal)   3.511
Last Correction   2018/04/09 06:38:55
Memo.             
[...]
   -1250    -1251    -1251    -1251    -1252    -1251    -1251    -1255 
   -1255    -1251    -1251    -1255    -1254    -1251    -1252    -1251 
   -1250    -1252    -1252    -1252    -1252    -1251    -1251    -1254 
   -1252    -1251    -1252    -1252    -1254    -1254    -1252    -1250 
   -1248    -1250    -1252    -1252    -1252    -1252    -1251    -1252 
   -1251    -1251    -1255    -1256    -1252    -1251    -1252    -1250 
   -1250    -1252    -1256    -1254    -1251    -1251    -1250    -1251 
   -1254    -1254    -1254    -1252    -1252    -1254    -1252    -1252 
   -1254    -1252    -1250    -1252    -1252    -1251    -1252    -1252 
   -1250    -1250    -1251    -1250    -1250    -1254    -1254    -1254 
   -1254    -1252    -1248    -1252    -1254    -1251    -1251    -1254 
   -1254    -1251    -1251    -1254    -1254    -1250    -1250    -1254 
   -1252    -1250    -1251    -1254    -1252    -1252    -1255    -1252 
   -1251    -1251    -1250    -1252    -1251    -1248    -1254    -1255 
   -1251    -1252    -1255    -1254    -1251    -1251    -1252    -1254 
   -1254    -1250    -1250    -1252    -1252    -1254    -1254    -1251 
   -1251    -1251    -1254    -1255    -1252    -1250    -1252    -1252 
   -1248    -1251    -1254    -1252    -1251    -1251    -1254    -1252 
   -1251    -1254    -1255    -1252    -1250    -1252    -1254    -1251 
   -1251    -1254    -1255    -1252    -1252    -1252    -1251    -1251 
   -1250    -1251    -1256    -1256    -1250    -1251    -1254    -1250 
   -1250    -1250    -1250    -1251    -1252    -1254    -1255    -1254 
   -1251    -1248    -1250    -1251    -1251    -1250    -1250    -1252 
   -1252    -1251    -1251    -1250    -1250    -1251    -1250    -1250 
   -1254    -1254    -1250    -1250    -1252    -1251    -1252    -1254 
   -1254    -1251    -1250    -1251    -1250    -1251    -1254    -1251 
   -1250    -1255    -1251    -1248    -1251    -1250    -1250    -1252 
   -1251    -1251    -1254    -1254    -1252    -1251    -1251    -1250 
   -1251    -1251    -1250    -1251    -1252    -1251    -1255    -1255 
   -1252    -1254    -1252    -1252    -1254    -1252    -1250    -1251 
   -1254    -1252    -1250    -1252    -1255    -1251    -1250    -1251 
   -1250    -1250    -1250    -1250    -1251    -1252    -1254    -1254 
   -1252    -1251    -1251    -1254    -1255    -1251    -1250    -1251 
   -1250    -1248    -1254    -1256    -1254    -1251    -1251    -1252 
   -1252    -1248    -1250    -1255    -1254    -1250    -1251    -1254 
   -1250    -1247    -1254    -1255    -1250    -1248    -1254    -1256 
   -1255    -1252    -1252    -1252    -1248    -1250    -1251    -1251 
   -1252    -1250    -1248    -1252    -1252    -1251    -1254    -1254 
   -1252    -1252    -1254    -1251    -1250    -1251    -1251    -1250 
   -1251    -1251    -1251    -1251    -1251    -1254    -1254    -1251 
   -1250    -1252    -1252    -1252    -1251    -1251    -1250    -1248 
   -1252    -1254    -1251    -1250    -1250    -1250    -1255    -1255 
   -1251    -1250    -1252    -1252    -1252    -1250    -1251    -1252 
   -1251    -1252    -1254    -1252    -1252    -1254    -1254    -1252 
   -1251    -1252    -1254    -1252    -1251    -1252    -1252    -1254 
   -1254    -1254    -1251    -1251    -1254    -1254    -1251    -1251 
   -1250    -1251    -1251    -1250    -1251    -1254    -1252    -1252 
   -1254    -1252    -1252    -1252    -1251    -1252    -1252    -1251 
   -1251    -1251    -1251    -1251    -1251    -1252    -1252    -1252 
   -1251    -1250    -1252    -1254    -1251    -1251    -1254    -1252 
   -1252    -1254    -1254    -1251    -1250    -1251    -1251    -1251 
   -1251    -1251    -1252    -1254    -1254    -1252    -1251    -1251 
   -1250    -1250    -1252    -1254    -1252    -1251    -1251    -1254 
   -1255    -1254    -1252    -1252    -1250    -1247    -1250    -1252 
   -1254    -1252    -1252    -1254    -1254    -1254    -1254    -1251 
   -1251    -1252    -1250    -1250    -1252    -1254    -1252    -1252 
   -1252    -1252    -1251    -1250    -1251    -1252    -1251    -1250 
   -1251    -1252    -1251    -1254    -1255    -1255    -1254    -1254 
   -1254    -1251    -1250    -1255    -1255    -1250    -1251    -1252 
   -1250    -1250    -1252    -1251    -1251    -1254    -1254    -1251 
   -1250    -1250    -1251    -1252    -1252    -1251    -1251    -1251 
   -1252    -1254    -1255    -1252    -1254    -1254    -1250    -1250 
   -1254    -1254    -1250    -1250    -1252    -1252    -1254    -1252 
   -1250    -1250    -1251    -1250    -1251    -1254    -1251    -1250 
   -1252    -1252    -1252    -1252    -1251    -1251    -1254    -1252 
   -1251    -1251    -1252    -1252    -1252    -1254    -1254    -1252 
   -1252    -1254    -1252    -1254    -1252    -1250    -1250    -1252 
   -1254    -1254    -1252    -1252    -1252    -1255    -1254    -1251 
   -1251    -1252    -1252    -1251    -1250    -1252    -1254    -1252 
   -1252    -1252    -1254    -1255    -1254    -1252    -1252    -1250 
   -1250    -1252    -1252    -1251    -1251    -1251    -1252    -1251 
   -1250    -1251    -1251    -1251    -1251    -1252    -1254    -1251 
   -1252    -1255    -1252    -1252    -1254    -1251    -1250    -1252 
   -1254    -1251    -1251    -1251    -1251    -1251    -1251    -1251 
   -1252    -1254    -1252    -1251    -1252    -1250    -1251    -1251 
   -1251    -1252    -1252    -1252    -1254    -1252    -1251    -1251 
   -1250    -1248    -1251    -1252    -1252    -1252    -1251    -1250 
   -1254    -1255    -1252    -1251    -1254    -1252    -1250    -1252 
   -1254    -1250    -1250    -1251    -1252    -1254    -1254    -1252 
   -1252    -1252    -1251    -1251    -1254    -1252    -1250    -1250 
   -1255    -1254    -1250    -1250    -1251    -1251    -1252    -1254 
   -1251    -1251    -1254    -1254    -1250    -1251    -1252    -1254 
   -1255    -1254    -1252    -1252    -1250    -1252    -1255    -1252 
   -1252    -1254    -1252    -1252    -1254    -1254    -1251    -1251 
   -1251    -1251    -1251    -1251    -1251    -1252    -1251    -1251 
   -1252    -1251    -1251    -1252    -1251    -1252    -1254    -1251 
   -1250    -1251    -1252    -1252    -1252    -1251    -1254    -1255 
   -1254    -1254    -1254    -1251    -1252    -1252    -1250    -1251 
   -1251    -1252    -1254    -1252    -1254    -1254    -1252    -1252 
   -1251    -1251    -1250    -1251    -1252    -1252    -1254    -1254 
   -1251    -1252    -1252    -1251    -1252    -1254    -1252    -1252 
   -1251    -1250    -1254    -1252    -1250    -1255    -1255    -1250 
   -1251    -1254    -1251    -1251    -1252    -1251    -1251    -1251 
   -1252    -1255    -1255    -1252    -1252    -1252    -1252    -1252 
   -1252    -1252    -1252    -1250    -1250    -1250    -1250    -1250 
   -1251    -1252    -1252    -1252    -1251    -1251    -1251    -1251 
   -1251    -1250    -1254    -1254    -1250    -1250    -1252    -1251 
   -1251    -1252    -1252    -1252    -1252    -1251    -1250    -1250 
   -1251    -1252    -1251    -1251    -1250    -1250    -1251    -1248 
   -1250    -1252    -1251    -1251    -1251    -1251    -1251    -1250 
   -1251    -1254    -1251    -1250    -1251    -1251    -1251    -1250 
   -1250    -1251    -1251    -1251    -1252    -1251    -1251    -1250 
   -1251    -1252    -1251    -1251    -1252    -1250    -1250    -1250 
   -1251    -1251    -1252    -1252    -1251    -1251    -1252    -1252 
   -1252    -1252    -1250    -1251    -1254    -1252    -1251    -1250 
   -1248    -1251    -1254    -1250    -1251    -1254    -1252    -1252 
   -1254    -1251    -1250    -1254    -1254    -1251    -1251    -1251 
   -1251    -1251    -1251    -1250    -1252    -1252    -1248    -1250 
   -1254    -1251    -1248    -1250    -1250    -1250    -1250    -1251 
   -1251    -1252    -1252    -1252    -1254    -1254    -1251    -1250 
   -1252    -1252    -1250    -1250    -1251    -1250    -1248    -1250 
   -1255    -1255    -1251    -1250    -1252    -1251    -1248    -1252 
   -1252    -1250    -1252    -1252    -1248    -1251    -1252    -1251 
   -1254    -1255    -1252    -1252    -1252    -1252    -1254    -1255 
   -1254    -1251    -1252    -1254    -1251    -1251    -1252    -1251 
   -1251    -1251    -1251    -1251    -1251    -1252    -1254    -1252 
   -1251    -1251    -1251    -1251    -1250    -1251    -1252    -1252 
   -1254    -1254    -1251    -1251    -1251    -1252    -1254    -1251 
   -1248    -1250    -1251    -1252    -1254    -1254    -1251    -1250 
   -1252    -1251    -1248    -1248    -1250    -1250    -1251    -1248 
   -1248    -1252    -1252    -1251    -1252    -1252    -1250    -1251 
   -1254    -1252    -1251    -1252    -1252    -1251    -1248    -1251 
   -1254    -1252    -1252    -1251    -1251    -1252    -1251    -1251 
   -1251    -1250    -1250    -1251    -1251    -1252    -1254    -1254 
   -1251    -1251    -1255    -1264    -1279    -1282    -1252    -1212 
   -1237    -1327    -1408    -1364    -1073     -820    -1120    -1586 
   -1498    -1255    -1318    -1332    -1171     -920     -687     -838 
   -1312    -1810    -1975    -1594    -1216    -1067     -985     -858 
    -643    -1036    -1775    -2031    -1949    -1836    -1803     -807 
     540      302     -464    -1489    -3003    -3229    -2033     -525 
     198     -112     -707    -1401    -1520    -1413    -2285    -2515 
    -850      387     -479    -2076    -2871    -2538    -1194      153 
    -131    -1672    -1841     -579     -441    -1494    -2015    -1636 
   -1188    -1013     -650     -301     -521    -1325    -2214    -2389 
   -2098    -1941    -1460     -552      183      -20    -1194    -1915 
   -1954    -2219    -2089    -1476    -1080     -383      124     -490 
   -1443    -2027    -1995    -1594    -1658    -1632     -677      -10 
    -587    -1215    -1348    -1528    -1533    -1405    -1479    -1652 
   -1375     -496     -432    -1308    -1749    -1744    -1457    -1259 
   -1436    -1281    -1155    -1453    -1378    -1026    -1031    -1121 
    -911     -810    -1318    -1915    -1822    -1213     -688     -535 
    -886    -1470    -1622    -1634    -1919    -1576     -810     -792 
    -966     -780    -1038    -1907    -2199    -1413     -893    -1031 
    -851     -855    -1351    -1426    -1393    -1567    -1258     -739 
    -845    -1329    -1549    -1535    -1386    -1031    -1053    -1682 
   -1796    -1150     -974    -1456    -1715    -1444    -1039     -877 
    -996    -1247    -1230     -936     -760     -788    -1165    -1799 
   -1958    -1385    -1023    -1447    -1526     -919     -977    -1505 
   -1405    -1262    -1308     -945     -854    -1404    -1603    -1323 
   -1065     -832    -1000    -1576    -1632    -1331    -1479    -1578 
   -1136     -823     -855     -764     -828    -1308    -1547    -1588 
   -1707    -1324    -1035    -1453    -1402     -999    -1297    -1572 
   -1306    -1163    -1294    -1244    -1012    -1212    -1591    -1362 
   -1038    -1304    -1482     -897     -519    -1070    -1306    -1140 
   -1625    -1852    -1360    -1069    -1008    -1059    -1221    -1332 
   -1421    -1398    -1382    -1347    -1042     -873    -1205    -1594 
   -1485    -1140    -1088    -1150    -1085    -1155    -1420    -1391 
   -1185    -1397    -1386     -945    -1120    -1476    -1394    -1256 
    -945     -932    -1405    -1528    -1537    -1518    -1144    -1240 
   -1682    -1378     -963    -1105    -1163    -1058    -1031    -1055 
   -1267    -1493    -1431    -1219    -1175    -1220     -982     -916 
   -1323    -1410    -1291    -1355    -1154    -1104    -1418    -1413 
   -1162    -1129    -1462    -1723    -1457    -1125    -1117    -1150 
   -1174    -1360    -1297     -920    -1069    -1476    -1296    -1107 
   -1347    -1302     -877     -912    -1394    -1603    -1671    -1648 
   -1152     -764     -924    -1097    -1246    -1520    -1356     -961 
   -1098    -1282    -1251    -1541    -1593    -1208    -1289    -1485 
   -1301    -1345    -1387     -957     -702     -967    -1294    -1422 
   -1436    -1379    -1201    -1193    -1521    -1561    -1216    -1024 
   -1023    -1175    -1212    -1005    -1239    -1547    -1206    -1075 
   -1345    -1320    -1255    -1232    -1120    -1278    -1552    -1420 
   -1067    -1142    -1455    -1385    -1267    -1331    -1240    -1088 
    -999    -1151    -1548    -1576    -1189    -1021    -1247    -1259 
    -920    -1088    -1545    -1371    -1177    -1425    -1421    -1262 
   -1254    -1053     -947    -1228    -1277    -1136    -1329    -1275 
    -912    -1216    -1609    -1267    -1047    -1333    -1618    -1613 
   -1310    -1107     -996     -905    -1189    -1345    -1146    -1243 
   -1364    -1174    -1080    -1324    -1680    -1642    -1416    -1356 
   -1128    -1034    -1290    -1212     -974    -1051    -1042     -911 
   -1024    -1291    -1586    -1629    -1308    -1304    -1517    -1439 
   -1509    -1437     -951     -980    -1193    -1101    -1331    -1332 
   -1070    -1348    -1366    -1198    -1378    -1112     -919    -1225 
   -1154     -954    -1233    -1533    -1379    -1196    -1216    -1143 
   -1263    -1540    -1440    -1348    -1364    -1113    -1183    -1462 
   -1385    -1761    -2407    -2535    -2798    -2816    -1694     -382 
     471     1282     2006     2193     1228     -874    -2779    -3283 
   -3153    -4183    -4932    -2451      685      832      684     2011 
    1155    -1676    -2288    -1520    -2007    -3430    -4102    -1857 
     538     -773    -1658     -929    -2247    -2300     -641    -1688 
   -2330     -974     -693      -54      876     -317    -2141    -2887 
   -2667    -2100    -2335    -2702    -1456      263     1000     1352 
     857     -311     -723    -1019    -1737    -2135    -2249    -2160 
   -1665    -1436    -2191    -2612    -1576     -996    -1652    -1622 
    -777     -409     -641    -1080    -1485    -1800    -1836    -1541 
   -1340    -1026     -540     -626     -938     -897     -989    -1043 
    -585     -268     -830    -2025    -2594    -1985    -1534    -1937 
   -2335    -2224    -1360     -191      101     -203     -569    -1220 
   -1539    -1494    -1833    -2273    -2473    -2173    -1044     -341 
    -874     -838      136     -174    -1625    -1679     -693    -1059 
   -1799    -1293     -920    -1075    -1016    -1197    -1617    -1819 
   -1707    -1389    -1416    -1958    -2205    -1748    -1277     -886 
    -370     -352     -531     -629    -1401    -1985    -1513    -1158 
   -1185    -1088    -1166    -1274    -1412    -1771    -1580    -1298 
   -1780    -1590     -754    -1120    -1605     -924     -561     -820 
    -502      -56     -344     -981    -1509    -1764    -1775    -1557 
   -1359    -2018    -2628    -1980    -1460    -1402     -932     -882 
   -1552    -1845    -1371     -710     -402     -571     -815    -1026 
   -1698    -2184    -1985    -1628     -810     -342    -1123    -1264 
    -454     -657    -1367    -1285    -1399    -1930    -1683    -1196 
    -750     -182    -1038    -2265    -1583     -897    -1471    -1840 
   -1737    -1081     -418    -1136    -1699     -997    -1139    -1917 
   -1535    -1185    -1775    -1657     -741     -603     -799     -588 
    -827    -1549    -1723    -1422    -1474    -1610    -1308    -1219 
   -1588    -1426     -493      -75     -999    -2178    -2215    -1362 
    -773     -728     -939    -1545    -2038    -1571    -1034    -1144 
    -945     -784    -1644    -2241    -1451     -430     -480    -1084 
   -1185    -1426    -2045    -1528     -314     -545    -1975    -2635 
   -2123    -1300     -211      714       37    -1544    -1833    -1020 
   -1026    -1883    -1858    -1594    -2435    -2272     -842     -990 
   -1698     -923     -436    -1088    -1337    -1016     -669     -295 
    -540    -1368    -1530    -1347    -1877    -2270    -1759    -1291 
   -1229    -1143    -1301    -1601    -1629    -1517    -1221     -920 
    -873    -1104    -1379     -849     -560    -1740    -1927     -519 
    -510    -1409    -1086     -888    -1418    -1081     -669    -1661 
   -2554    -2093    -1594    -1413     -811     -888    -1605    -1090 
    -390     -903     -973     -344     -778    -1942    -2238    -1925 
   -1836    -1210     -289     -868    -2193    -2141    -1355    -1183 
    -841     -270     -854    -1648    -1150     -715    -1154    -1316 
   -1363    -1732    -1507    -1060    -1340    -1368     -722     -549 
    -899     -990    -1039    -1425    -1725    -1803    -1718    -1350 
   -1247    -1482    -1429    -1334    -1362    -1143     -999    -1402 
   -1895    -1566     -801     -896    -1344     -953     -626    -1291 
   -1807    -1440    -1179    -1267    -1039     -861     -947     -884 
   -1142    -1826    -1836    -1117     -689     -756    -1074    -1462 
   -1652    -1559    -1225    -1028    -1375    -1723    -1564    -1413 
   -1347    -1129    -1314    -1648    -1521    -1525    -1630    -1298 
    -888     -661     -657     -864     -929     -929    -1182    -1223 
   -1042    -1557    -2034    -1334     -842    -1313    -1464    -1250 
   -1252    -1124     -997    -1470    -1954    -1598    -1060     -838 
    -668     -992    -1491    -1466    -1405    -1313    -1175    -1375 
   -1127     -353     -560    -1648    -1844    -1347    -1370    -1575 
   -1679    -1582    -1188    -1080    -1077    -1069    -1470    -1522 
    -864     -355     -440    -1127    -1842    -1958    -1821    -1649 
   -1362    -1260    -1368    -1270     -730     -454    -1078    -1664 
   -1448     -958     -855    -1281    -1622    -1467    -1152     -969 
   -1116    -1489    -1576    -1279    -1173    -1424    -1370    -1146 
   -1221     -950     -607    -1263    -1923    -1385     -727     -911 
   -1413    -1790    -1915    -1459     -550     -364    -1161    -1507 
   -1285    -1329    -1258    -1243    -1699    -1626    -1004    -1024 
   -1401    -1433    -1429    -1408    -1243    -1304    -1352    -1009 
    -962    -1293    -1310    -1444    -1672    -1210     -831    -1282 
   -1740    -1574    -1065     -959    -1084     -587     -444    -1297 
   -1603    -1260    -1521    -1935    -1498     -851     -918    -1128 
   -1105    -1243    -1414    -1426    -1232     -913     -967    -1428 
   -1547    -1147    -1069    -1451    -1559    -1377    -1313    -1563 
   -1823    -1296     -637    -1100    -1641    -1230     -750     -693 
    -741     -769    -1000    -1532    -1810    -1522    -1185    -1405 
   -1929    -1880    -1305    -1081    -1142     -776     -576    -1363 
   -1989    -1470     -978    -1347    -1617    -1313    -1202    -1193 
    -807     -696     -922    -1000    -1334    -1641    -1294    -1086 
   -1399    -1374    -1013    -1051    -1312    -1383    -1449    -1499 
   -1509    -1705    -1534     -811     -756    -1435    -1431     -932 
   -1008    -1163     -864     -788    -1255    -1717    -1647    -1279 
   -1312    -1628    -1497    -1062     -942    -1038    -1107    -1264 
   -1517    -1658    -1391     -916     -896    -1341    -1807    -1903 
   -1517    -1048     -723     -741    -1175    -1266     -816     -719 
   -1230    -1772    -2039    -1784    -1003     -639     -872     -935 
