Origin Time       2018/04/09 06:38:00
Lat.              35.2
Long.             132.6
Depth. (km)       10
Mag.              3.8
Station Code      SMN008
Station Lat.      34.8523
Station Long.     132.5308
Station Height(m) 335
Record Time       2018/04/09 06:38:55
Sampling Freq(Hz) 100Hz
Duration Time(s)  60
Dir.              N-S
Scale Factor      7845(gal)/8223790
Max. Acc. (gal)   4.217
Last Correction   2018/04/09 06:38:55
Memo.             
[...]
   -4962    -4962    -4959    -4959    -4965    -4968    -4965    -4963 
   -4963    -4959    -4958    -4962    -4961    -4958    -4961    -4965 
   -4963    -4962    -4963    -4961    -4959    -4963    -4966    -4963 
   -4959    -4958    -4961    -4963    -4965    -4965    -4962    -4959 
   -4962    -4963    -4963    -4963    -4963    -4962    -4962    -4963 
   -4962    -4963    -4965    -4961    -4956    -4959    -4963    -4965 
   -4966    -4965    -4962    -4959    -4961    -4962    -4962    -4959 
   -4959    -4963    -4965    -4963    -4963    -4965    -4965    -4963 
   -4963    -4963    -4962    -4962    -4963    -4962    -4961    -4965 
   -4963    -4962    -4965    -4963    -4963    -4966    -4962    -4959 
   -4963    -4963    -4962    -4963    -4965    -4962    -4962    -4965 
   -4965    -4962    -4961    -4963    -4965    -4963    -4962    -4962 
   -4963    -4962    -4961    -4965    -4968    -4965    -4962    -4962 
   -4962    -4962    -4963    -4963    -4962    -4961    -4963    -4965 
   -4963    -4963    -4966    -4963    -4959    -4962    -4962    -4963 
   -4966    -4963    -4962    -4965    -4962    -4959    -4961    -4961 
   -4961    -4961    -4961    -4962    -4962    -4961    -4963    -4962 
   -4961    -4963    -4966    -4963    -4961    -4965    -4965    -4962 
   -4961    -4962    -4963    -4963    -4961    -4958    -4962    -4965 
   -4962    -4961    -4962    -4962    -4963    -4963    -4962    -4961 
   -4962    -4963    -4963    -4961    -4961    -4965    -4963    -4961 
   -4963    -4966    -4963    -4961    -4962    -4963    -4962    -4961 
   -4962    -4962    -4961    -4963    -4965    -4962    -4959    -4961 
   -4963    -4965    -4962    -4962    -4968    -4968    -4959    -4959 
   -4966    -4965    -4959    -4959    -4965    -4966    -4963    -4962 
   -4963    -4963    -4963    -4963    -4961    -4959    -4962    -4962 
   -4961    -4962    -4961    -4959    -4963    -4963    -4961    -4963 
   -4966    -4963    -4962    -4962    -4965    -4962    -4958    -4963 
   -4966    -4963    -4963    -4963    -4962    -4965    -4963    -4962 
   -4963    -4963    -4961    -4961    -4959    -4962    -4962    -4962 
   -4963    -4965    -4961    -4961    -4963    -4963    -4963    -4965 
   -4962    -4961    -4962    -4962    -4963    -4961    -4959    -4962 
   -4963    -4961    -4961    -4965    -4966    -4962    -4959    -4965 
   -4966    -4961    -4959    -4961    -4958    -4961    -4965    -4965 
   -4965    -4965    -4962    -4963    -4965    -4961    -4958    -4961 
   -4962    -4962    -4965    -4965    -4962    -4961    -4962    -4963 
   -4963    -4962    -4961    -4962    -4961    -4961    -4962    -4962 
   -4963    -4963    -4963    -4962    -4962    -4963    -4963    -4959 
   -4959    -4963    -4963    -4962    -4962    -4965    -4965    -4963 
   -4961    -4959    -4961    -4965    -4963    -4959    -4962    -4966 
   -4962    -4958    -4962    -4962    -4961    -4962    -4963    -4961 
   -4962    -4963    -4961    -4961    -4962    -4959    -4961    -4962 
   -4961    -4959    -4961    -4962    -4961    -4961    -4962    -4963 
   -4963    -4961    -4963    -4963    -4959    -4961    -4963    -4961 
   -4959    -4961    -4962    -4963    -4962    -4958    -4959    -4962 
   -4962    -4962    -4963    -4963    -4961    -4961    -4962    -4961 
   -4962    -4963    -4961    -4961    -4962    -4962    -4961    -4961 
   -4962    -4961    -4961    -4961    -4959    -4961    -4962    -4962 
   -4963    -4963    -4959    -4961    -4963    -4961    -4959    -4961 
   -4963    -4962    -4961    -4962    -4961    -4961    -4963    -4962 
   -4959    -4961    -4962    -4959    -4962    -4962    -4959    -4962 
   -4966    -4962    -4959    -4962    -4962    -4961    -4963    -4963 
   -4961    -4962    -4963    -4962    -4961    -4961    -4962    -4962 
   -4962    -4963    -4961    -4958    -4962    -4962    -4961    -4963 
   -4961    -4961    -4963    -4962    -4961    -4961    -4959    -4962 
   -4965    -4963    -4962    -4965    -4963    -4961    -4961    -4962 
   -4962    -4962    -4961    -4961    -4963    -4962    -4962    -4963 
   -4962    -4959    -4959    -4963    -4963    -4961    -4961    -4963 
   -4965    -4961    -4961    -4963    -4962    -4959    -4962    -4963 
   -4962    -4963    -4963    -4961    -4962    -4961    -4961    -4961 
   -4962    -4965    -4961    -4959    -4962    -4962    -4961    -4963 
   -4965    -4963    -4963    -4962    -4962    -4962    -4963    -4963 
   -4962    -4961    -4961    -4963    -4963    -4962    -4963    -4965 
   -4965    -4962    -4961    -4962    -4962    -4961    -4963    -4965 
   -4962    -4961    -4962    -4963    -4963    -4961    -4962    -4965 
   -4965    -4962    -4961    -4961    -4959    -4961    -4963    -4962 
   -4963    -4963    -4961    -4961    -4962    -4961    -4962    -4962 
   -4962    -4965    -4962    -4961    -4962    -4962    -4962    -4963 
   -4963    -4962    -4961    -4959    -4962    -4966    -4963    -4961 
   -4962    -4963    -4963    -4962    -4961    -4962    -4962    -4961 
   -4961    -4963    -4962    -4959    -4961    -4962    -4961    -4961 
   -4961    -4961    -4961    -4961    -4962    -4963    -4961    -4961 
   -4965    -4963    -4961    -4961    -4961    -4961    -4961    -4961 
   -4962    -4962    -4961    -4959    -4961    -4963    -4963    -4962 
   -4963    -4963    -4962    -4962    -4961    -4962    -4963    -4963 
   -4963    -4963    -4961    -4958    -4962    -4963    -4959    -4962 
   -4968    -4965    -4961    -4959    -4961    -4965    -4965    -4961 
   -4965    -4966    -4959    -4959    -4965    -4962    -4959    -4962 
   -4963    -4965    -4963    -4962    -4961    -4962    -4962    -4962 
   -4961    -4962    -4965    -4965    -4961    -4961    -4961    -4961 
   -4961    -4961    -4961    -4965    -4965    -4961    -4962    -4965 
   -4961    -4958    -4958    -4961    -4962    -4961    -4961    -4963 
   -4963    -4962    -4961    -4958    -4959    -4961    -4961    -4961 
   -4961    -4962    -4962    -4965    -4965    -4962    -4961    -4962 
   -4961    -4959    -4961    -4961    -4962    -4963    -4965    -4965 
   -4961    -4959    -4962    -4963    -4962    -4962    -4966    -4966 
   -4965    -4965    -4962    -4959    -4962    -4962    -4962    -4965 
   -4963    -4961    -4962    -4962    -4962    -4962    -4963    -4965 
   -4961    -4959    -4963    -4961    -4961    -4965    -4962    -4961 
   -4963    -4963    -4962    -4963    -4965    -4961    -4959    -4963 
   -4965    -4962    -4962    -4959    -4958    -4961    -4965    -4963 
   -4962    -4963    -4963    -4963    -4963    -4963    -4962    -4959 
   -4959    -4962    -4963    -4961    -4961    -4963    -4963    -4962 
   -4961    -4959    -4959    -4962    -4963    -4962    -4963    -4963 
   -4962    -4965    -4968    -4963    -4961    -4961    -4961    -4961 
   -4961    -4963    -4963    -4963    -4962    -4961    -4961    -4962 
   -4961    -4959    -4959    -4963    -4963    -4961    -4965    -4965 
   -4961    -4961    -4962    -4961    -4962    -4963    -4962    -4962 
   -4963    -4963    -4965    -4963    -4963    -4962    -4962    -4962 
   -4961    -4961    -4962    -4963    -4962    -4959    -4962    -4963 
   -4962    -4963    -4963    -4961    -4962    -4963    -4961    -4959 
   -4962    -4965    -4963    -4962    -4965    -4966    -4963    -4962 
   -4963    -4962    -4961    -4963    -4963    -4962    -4962    -4963 
   -4961    -4959    -4962    -4962    -4962    -4963    -4962    -4961 
   -4961    -4961    -4962    -4966    -4963    -4961    -4963    -4963 
   -4961    -4962    -4963    -4963    -4963    -4963    -4961    -4958 
   -4959    -4962    -4962    -4961    -4962    -4963    -4962    -4961 
   -4962    -4963    -4961    -4959    -4962    -4961    -4961    -4962 
   -4962    -4962    -4963    -4963    -4961    -4962    -4962    -4962 
   -4963    -4963    -4965    -4962    -4959    -4962    -4963    -4962 
   -4962    -4966    -4965    -4961    -4961    -4963    -4963    -4963 
   -4963    -4965    -4963    -4962    -4961    -4959    -4961    -4962 
   -4963    -4963    -4965    -4965    -4963    -4962    -4961    -4961 
   -4963    -4962    -4961    -4963    -4965    -4963    -4962    -4963 
   -4966    -4963    -4959    -4959    -4963    -4963    -4963    -4963 
   -4962    -4963    -4963    -4963    -4963    -4963    -4962    -4961 
   -4961    -4961    -4961    -4962    -4962    -4963    -4965    -4963 
   -4962    -4962    -4961    -4962    -4962    -4961    -4962    -4966 
   -4966    -4965    -4963    -4962    -4961    -4962    -4963    -4962 
   -4962    -4963    -4963    -4965    -4965    -4962    -4961    -4962 
   -4962    -4959    -4961    -4963    -4962    -4962    -4962    -4962 
   -4963    -4963    -4962    -4962    -4962    -4961    -4961    -4965 
   -4965    -4965    -4966    -4963    -4962    -4965    -4966    -4961 
   -4961    -4962    -4962    -4963    -4966    -4966    -4965    -4962 
   -4961    -4961    -4968    -4988    -5027    -5063    -5057    -5024 
   -5038    -5152    -5321    -5335    -4989    -4563    -4542    -4766 
   -4814    -4889    -5069    -4955    -4857    -5232    -5441    -4814 
   -3801    -3674    -4922    -5881    -5375    -4617    -4550    -4920 
   -5275    -5309    -4877    -4197    -4719    -6590    -7187    -5316 
   -3167    -3306    -4931    -5722    -5599    -5081    -4738    -5271 
   -5944    -5594    -4185    -3283    -3878    -4864    -5367    -5347 
   -5337    -5949    -5921    -4044    -2457    -3558    -5767    -6388 
   -5602    -5070    -5070    -4994    -5386    -6134    -5598    -4205 
   -3696    -3890    -4256    -4959    -5818    -6423    -6349    -5404 
   -4027    -3173    -3566    -4874    -5856    -5968    -5795    -5152 
   -4351    -4623    -4938    -4386    -4322    -4680    -4679    -4945 
   -5501    -5788    -5709    -5362    -5192    -4956    -4021    -3615 
   -4723    -5519    -5229    -5441    -5811    -5337    -4988    -4760 
   -4082    -3874    -4791    -5846    -5468    -4506    -4708    -5076 
   -4934    -5162    -5428    -5098    -4494    -4258    -4662    -5209 
   -5331    -5243    -5312    -5347    -5297    -5012    -4338    -4392 
   -5355    -5432    -4587    -4579    -5190    -4882    -4407    -5078 
   -5528    -5015    -4814    -4888    -4644    -4369    -4494    -5065 
   -5339    -5173    -5281    -5597    -5697    -5251    -4341    -3950 
   -4546    -5351    -5433    -5040    -5169    -5459    -5003    -4393 
   -4371    -4531    -4698    -5189    -5544    -5103    -4519    -4756 
   -5240    -5314    -5478    -5574    -5076    -4571    -4645    -4926 
   -4801    -4453    -4641    -5293    -5462    -4962    -4683    -4764 
   -4561    -4504    -4876    -5027    -5150    -5263    -4962    -5003 
   -5394    -5146    -4818    -5135    -5268    -4900    -4891    -5173 
   -4969    -4800    -5221    -5329    -4743    -4384    -4645    -5001 
   -5219    -5193    -4947    -4909    -4770    -4437    -4668    -5051 
   -4947    -4909    -5193    -5179    -4765    -4869    -5456    -5198 
   -4396    -4653    -5568    -5374    -4504    -4757    -5452    -5300 
   -5067    -4951    -4519    -4535    -5148    -5410    -5051    -4700 
   -4716    -4770    -4872    -5107    -4869    -4359    -4590    -5377 
   -5578    -5146    -5049    -5259    -5066    -4831    -5116    -5255 
   -4935    -4953    -5081    -4715    -4723    -5179    -4858    -4287 
   -4621    -5282    -5335    -4857    -4737    -5011    -4909    -4868 
   -5147    -5054    -4745    -4672    -4716    -4704    -4826    -5215 
   -5425    -5343    -5186    -5011    -5057    -5103    -4899    -4989 
   -5289    -5103    -4693    -4662    -4699    -4665    -5119    -5485 
   -4955    -4441    -4648    -5000    -5069    -4994    -5013    -4942 
   -4615    -4625    -5155    -5377    -5304    -5350    -4934    -4484 
   -4887    -5324    -5124    -4947    -5092    -4903    -4673    -5113 
   -5211    -4807    -4861    -4803    -4622    -5038    -5324    -4969 
   -4693    -4764    -4822    -4950    -5211    -5268    -4978    -4588 
   -4649    -5044    -5040    -4891    -5134    -5412    -5393    -5100 
   -4776    -4764    -4804    -4611    -4611    -4963    -5107    -4904 
   -4958    -5184    -4847    -4495    -5044    -5428    -4986    -4970 
   -5188    -4878    -4946    -5355    -5169    -4860    -5015    -5080 
   -4770    -4675    -4834    -4762    -4745    -4994    -5070    -5143 
   -5212    -4966    -4982    -5135    -4793    -4557    -4851    -5161 
   -5086    -4901    -4827    -4702    -4878    -5289    -5412    -5448 
   -5089    -4393    -4507    -5117    -5217    -5178    -5393    -5177 
   -4473    -4550    -5134    -4788    -4461    -5098    -5219    -4542 
   -4553    -5221    -5418    -5103    -4808    -4610    -4672    -5182 
   -5535    -5136    -4571    -4603    -4974    -5166    -5296    -5387 
   -4988    -4514    -4764    -5220    -5292    -5144    -4930    -4843 
   -4777    -4661    -4874    -5142    -5004    -4835    -4814    -4723 
   -4785    -4951    -5039    -5341    -5397    -4982    -4868    -4826 
   -4592    -4876    -5273    -5134    -5162    -5194    -4851    -4862 
   -4831    -4688    -4996    -4932    -4788    -5381    -5715    -5255 
   -4689    -4414    -4263    -4349    -4980    -5613    -5522    -4827 
   -4464    -5208    -6014    -5703    -5150    -4872    -4368    -3804 
   -3541    -3910    -4422    -4222    -4760    -6947    -8001    -6431 
   -4996    -5760    -6459    -3937     -542    -1363    -4634    -5589 
   -5397    -6382    -7482    -7198    -5310    -4228    -5525    -5265 
   -2432    -2128    -3916    -5096    -6860    -6581    -4090    -4526 
   -6107    -5854    -5385    -4567    -4236    -5158    -4869    -4220 
   -4900    -4707    -4036    -4800    -5166    -4988    -5778    -5422 
   -4151    -4907    -5873    -5798    -6100    -5429    -4139    -4218 
   -4266    -3808    -4275    -5148    -5420    -5607    -6192    -6255 
   -5117    -3630    -3368    -4695    -5701    -5377    -4895    -4801 
   -5216    -5841    -5765    -4866    -3613    -3407    -4707    -5611 
   -5670    -5171    -4040    -4014    -5012    -5022    -4710    -4968 
   -5292    -5869    -6241    -5641    -5140    -5252    -4726    -3653 
   -3427    -4171    -4955    -5564    -6065    -5733    -4819    -4770 
   -5694    -6112    -5069    -3940    -4279    -4841    -4544    -4604 
   -5119    -4868    -4445    -4716    -4843    -4861    -5493    -5752 
   -5270    -5009    -4770    -4572    -4787    -4672    -4641    -5397 
   -5809    -5514    -5053    -4706    -5070    -5452    -4807    -3967 
   -3850    -4500    -5208    -5201    -5328    -5908    -5702    -5123 
   -5112    -4738    -4044    -4544    -5463    -5267    -5317    -6065 
   -5541    -4220    -3411    -2774    -3187    -4958    -6259    -6392 
   -6018    -5756    -5476    -4824    -4399    -4283    -4121    -4336 
   -4943    -5413    -5445    -5086    -4880    -5298    -5481    -4956 
   -5089    -5769    -5989    -5984    -5044    -3577    -3655    -4167 
   -3403    -3177    -4356    -5312    -5929    -6258    -5767    -5757 
   -6097    -5460    -5373    -5769    -4650    -3609    -4099    -4769 
   -5287    -5308    -4279    -4136    -5200    -5065    -4535    -4907 
   -4654    -4469    -5417    -5691    -5294    -5485    -5270    -4202 
   -3699    -4411    -5205    -4909    -4529    -5204    -5623    -5205 
   -5418    -6106    -5780    -4857    -4518    -4514    -4633    -5124 
   -5312    -4885    -4429    -4540    -5204    -5443    -5494    -5800 
   -4869    -3381    -3757    -4955    -5174    -5151    -5424    -5391 
   -5054    -5012    -4989    -4483    -4137    -4391    -4947    -5212 
   -5143    -5594    -5719    -4914    -5070    -5793    -5116    -4225 
   -4872    -5698    -4708    -3527    -4445    -5462    -4897    -4841 
   -5359    -4722    -4384    -5219    -5390    -4941    -5051    -5201 
   -5088    -5246    -5231    -4741    -4604    -4914    -4823    -4222 
   -4140    -5043    -6031    -6106    -4943    -3765    -4093    -5347 
   -5954    -5585    -5078    -4633    -4490    -5189    -5373    -4905 
   -5676    -6183    -4797    -3835    -4321    -4978    -5350    -5194 
   -4449    -3965    -4266    -4676    -4695    -4907    -5371    -5271 
   -4927    -5208    -5467    -5113    -4974    -5475    -5815    -5327 
   -4675    -4425    -4017    -3958    -5082    -5962    -5622    -5537 
   -5710    -4833    -4233    -4525    -4241    -4135    -4872    -5200 
   -5128    -5348    -5343    -4862    -4860    -5220    -5039    -4710 
   -4602    -4657    -4799    -4710    -4777    -5090    -5136    -5420 
   -5991    -5521    -4284    -4261    -5150    -5105    -4734    -5103 
   -5470    -5481    -4982    -4217    -4464    -5136    -5150    -5268 
   -5417    -5135    -4984    -4804    -4326    -4303    -4972    -5335 
   -5044    -4947    -5081    -4935    -4779    -4931    -5155    -5019 
   -4549    -4283    -4553    -5268    -5859    -5625    -4955    -4923 
   -5223    -4927    -4398    -4271    -4734    -5460    -5529    -5166 
   -4997    -4687    -4657    -4997    -4665    -4228    -4723    -5135 
   -4860    -5270    -6076    -5664    -5078    -5093    -4580    -4128 
   -4461    -4781    -5007    -5252    -5100    -5031    -5564    -5714 
   -4816    -3913    -3896    -4650    -5607    -5623    -4958    -5216 
   -5605    -4864    -4340    -4811    -5032    -4579    -4395    -4818 
   -5370    -5613    -5529    -5381    -4984    -4418    -4534    -5096 
   -5201    -5188    -5103    -4710    -4656    -4770    -4731    -5026 
   -5368    -5053    -4514    -4741    -5224    -5032    -4994    -5486 
   -5296    -4417    -4248    -4903    -5327    -5336    -5042    -4471 
   -4517    -5148    -4972    -4518    -5142    -5906    -5900    -5478 
   -4699    -3967    -4153    -5188    -5692    -5032    -4568    -4757 
   -4684    -4699    -5182    -5347    -5017    -4823    -4851    -4669 
   -4634    -5163    -5390    -5228    -5402    -5275    -4715    -4611 
   -4679    -4467    -4666    -5414    -5632    -5182    -4891    -4776 
   -4757    -4877    -4814    -4630    -4418    -4340    -4999    -5850 
   -5827    -5296    -4731    -4388    -4753    -4884    -4423    -4852 
   -5715    -5745    -5532    -5321    -4787    -4386    -4496    -4666 
   -4660    -4849    -5181    -5502    -5571    -4889    -4236    -4699 
   -5277    -4878    -4558    -4972    -5279    -5113    -4715    -4808 
   -5617    -5783    -5101    -4870    -4693    -4168    -4419    -5157 
   -5437    -5350    -4851    -4625    -5209    -5262    -4612    -4662 
   -5065    -4830    -4495    -4858    -5305    -4837    -4280    -4738 
   -5409    -5435    -5159    -5098    -5140    -4972    -4882    -5071 
   -5124    -5046    -4934    -4457    -4278    -4966    -5513    -5481 
   -5265    -4843    -4612    -4792    -4878    -5003    -5138    -4725 
   -4540    -5027    -5046    -4823    -5381    -5895    -5395    -4687 
   -4698    -4814    -4471    -4199    -4434    -5266    -5946    -5585 
   -5012    -4993    -5020    -4962    -4826    -4437    -4529    -5332 
   -5508    -4884    -4563    -4499    -4522    -4827    -5113    -5202 
   -5071    -5022    -5216    -5103    -4900    -5065    -5067    -4861 
   -4999    -5023    -4648    -4793    -5312    -5309    -5112    -4903 
