Origin Time       2018/04/09 06:38:00
Lat.              35.2
Long.             132.6
Depth. (km)       10
Mag.              3.8
Station Code      TTRH02
Station Lat.      35.2313
Station Long.     133.3909
Station Height(m) 310
Record Time       2018/04/09 06:39:10
Sampling Freq(Hz) 100Hz
Duration Time(s)  120
Dir.              1
Scale Factor      2942(gal)/8224139
Max. Acc. (gal)   0.395
Last Correction   2018/04/09 06:38:55
Memo.             
[...]
   12436    12434    12429    12430    12434    12430    12430    12434 
   12434    12432    12430    12432    12434    12437    12436    12433 
   12432    12432    12434    12436    12432    12433    12437    12433 
   12432    12436    12434    12433    12433    12430    12430    12434 
   12434    12430    12433    12434    12433    12433    12433    12430 
   12432    12434    12434    12433    12434    12433    12433    12434 
   12432    12432    12434    12434    12436    12434    12433    12433 
   12432    12432    12433    12433    12432    12432    12432    12434 
   12437    12434    12432    12432    12432    12432    12433    12434 
   12434    12434    12434    12434    12430    12430    12434    12433 
   12430    12432    12432    12432    12433    12432    12432    12432 
   12433    12434    12433    12429    12430    12434    12433    12432 
   12433    12433    12432    12432    12436    12436    12434    12434 
   12432    12432    12432    12432    12433    12433    12432    12433 
   12432    12429    12430    12432    12432    12433    12434    12432 
   12432    12433    12433    12433    12432    12432    12433    12433 
   12434    12436    12433    12432    12432    12432    12430    12433 
   12434    12432    12432    12433    12432    12430    12432    12433 
   12432    12430    12432    12433    12432    12432    12434    12433 
   12433    12434    12432    12429    12432    12436    12433    12430 
   12430    12434    12433    12432    12432    12433    12432    12432 
   12432    12432    12433    12433    12433    12433    12434    12436 
   12434    12433    12436    12434    12432    12432    12432    12433 
   12433    12430    12430    12432    12432    12430    12432    12433 
   12433    12430    12434    12436    12432    12433    12434    12433 
   12433    12433    12430    12430    12432    12432    12433    12436 
   12434    12432    12432    12436    12434    12429    12429    12434 
   12436    12433    12433    12433    12433    12430    12430    12434 
   12437    12433    12430    12433    12434    12432    12432    12433 
   12433    12433    12433    12432    12433    12434    12433    12434 
   12434    12434    12436    12434    12432    12432    12432    12432 
   12432    12430    12433    12434    12434    12434    12433    12433 
   12433    12433    12433    12433    12433    12434    12437    12434 
   12432    12433    12433    12433    12434    12434    12434    12433 
   12433    12432    12432    12433    12433    12432    12433    12433 
   12433    12433    12433    12432    12434    12436    12436    12434 
   12433    12433    12433    12433    12433    12432    12433    12432 
   12430    12434    12434    12432    12434    12434    12432    12434 
   12434    12432    12430    12432    12434    12434    12432    12433 
   12434    12433    12432    12433    12432    12430    12433    12436 
   12434    12432    12433    12433    12432    12433    12433    12433 
   12432    12432    12432    12434    12434    12433    12433    12434 
   12434    12433    12434    12433    12433    12436    12436    12433 
   12433    12433    12432    12434    12434    12432    12432    12436 
   12436    12433    12433    12436    12434    12434    12436    12433 
   12432    12433    12433    12433    12434    12433    12430    12433 
   12437    12434    12434    12436    12433    12433    12436    12434 
   12433    12433    12433    12436    12434    12433    12434    12434 
   12434    12434    12433    12434    12434    12432    12433    12434 
   12433    12430    12433    12436    12434    12433    12433    12432 
   12432    12432    12432    12433    12434    12433    12433    12434 
   12437    12436    12433    12433    12433    12433    12434    12433 
   12432    12432    12433    12433    12433    12434    12433    12432 
   12433    12433    12434    12437    12436    12433    12433    12434 
   12432    12433    12437    12434    12432    12432    12433    12436 
   12434    12433    12434    12434    12436    12434    12432    12433 
   12433    12430    12433    12434    12432    12433    12436    12434 
   12433    12434    12433    12432    12430    12433    12437    12436 
   12433    12432    12432    12433    12432    12432    12433    12434 
   12433    12432    12432    12432    12432    12434    12434    12432 
   12432    12432    12432    12432    12436    12437    12434    12434 
   12434    12434    12434    12433    12430    12433    12436    12434 
   12433    12436    12433    12430    12433    12434    12432    12432 
   12434    12433    12433    12436    12433    12432    12433    12433 
   12433    12434    12432    12432    12434    12433    12432    12432 
   12433    12433    12434    12433    12432    12434    12432    12429 
   12430    12432    12433    12434    12433    12434    12434    12433 
   12433    12434    12436    12434    12436    12436    12430    12421 
   12417    12424    12440    12459    12455    12402    12336    12357 
   12496    12641    12669    12577    12430    12258    12106    12091 
   12274    12545    12733    12706    12453    12198    12181    12349 
   12538    12691    12729    12619    12471    12352    12240    12164 
   12148    12198    12317    12430    12596    12830    12773    12451 
   12401    12529    12490    12460    12448    12398    12425    12361 
   12248    12295    12290    12160    12248    12444    12375    12457 
   12849    12818    12402    12316    12509    12553    12530    12514 
   12302    12171    12441    12650    12424    12218    12263    12272 
   12397    12661    12675    12494    12387    12313    12220    12360 
   12642    12595    12465    12533    12430    12312    12424    12409 
   12301    12374    12514    12536    12374    12278    12429    12486 
   12430    12494    12501    12438    12488    12478    12287    12212 
   12436    12683    12599    12384    12414    12398    12252    12353 
   12430    12345    12448    12559    12472    12405    12498    12577 
   12433    12274    12301    12502    12764    12734    12436    12293 
   12330    12355    12378    12430    12436    12391    12356    12367 
   12344    12235    12298    12533    12586    12476    12401    12397 
   12534    12677    12557    12360    12363    12464    12564    12507 
   12245    12185    12460    12665    12530    12258    12208    12432 
   12626    12553    12445    12522    12565    12457    12298    12163 
   12239    12519    12576    12429    12453    12479    12393    12387 
   12410    12440    12555    12652    12532    12286    12259    12395 
   12475    12523    12494    12382    12298    12266    12322    12415 
   12434    12465    12544    12487    12386    12418    12425    12432 
   12522    12490    12405    12452    12468    12398    12375    12378 
   12425    12519    12526    12471    12460    12460    12488    12507 
   12440    12390    12351    12333    12421    12420    12341    12425 
   12468    12382    12467    12560    12451    12413    12437    12401 
   12429    12445    12407    12447    12484    12449    12420    12388 
   12383    12410    12375    12357    12433    12528    12552    12442 
   12390    12480    12455    12355    12425    12515    12452    12386 
   12378    12393    12474    12523    12455    12399    12448    12465 
   12415    12442    12484    12440    12407    12422    12418    12399 
   12422    12452    12379    12313    12383    12479    12506    12472 
   12429    12401    12341    12352    12496    12577    12540    12503 
   12457    12380    12356    12353    12347    12467    12609    12525 
   12374    12376    12383    12313    12351    12479    12478    12407 
   12444    12464    12432    12486    12521    12463    12397    12332 
   12336    12429    12469    12441    12474    12506    12398    12307 
   12371    12428    12422    12463    12518    12491    12438    12426 
   12411    12391    12449    12542    12501    12398    12424    12441 
   12368    12413    12536    12483    12359    12418    12492    12422 
   12409    12467    12395    12278    12320    12474    12533    12496 
   12514    12478    12287    12233    12428    12575    12549    12432 
   12379    12455    12494    12492    12514    12440    12333    12339 
   12397    12441    12496    12506    12447    12393    12337    12320 
   12390    12511    12576    12469    12344    12391    12440    12366 
   12380    12511    12521    12451    12453    12425    12361    12432 
   12507    12425    12399    12475    12440    12367    12428    12479 
   12440    12433    12415    12357    12367    12429    12492    12506 
   12451    12368    12313    12370    12495    12499    12426    12457 
   12487    12407    12370    12425    12434    12440    12577    12609 
   12421    12316    12330    12326    12380    12488    12486    12434 
   12483    12522    12460    12372    12353    12424    12491    12484 
   12429    12384    12390    12440    12479    12488    12480    12415 
   12366    12438    12501    12436    12425    12515    12461    12332 
   12348    12391    12393    12457    12502    12422    12328    12333 
   12405    12451    12461    12467    12415    12411    12484    12442 
   12398    12488    12528    12453    12438    12464    12407    12386 
   12441    12496    12537    12453    12320    12368    12499    12487 
   12402    12379    12391    12424    12459    12449    12430    12432 
   12444    12475    12488    12455    12387    12326    12372    12490 
   12478    12422    12496    12465    12279    12293    12467    12480 
   12417    12442    12434    12417    12476    12495    12482    12503 
   12461    12321    12298    12471    12518    12397    12388    12410 
   12360    12414    12515    12505    12467    12444    12403    12407 
   12455    12449    12410    12442    12523    12519    12399    12360 
   12449    12445    12393    12440    12456    12380    12383    12476 
   12490    12425    12402    12436    12406    12357    12403    12429 
   12438    12492    12474    12379    12353    12453    12525    12482 
   12461    12472    12418    12391    12475    12467    12320    12313 
   12430    12457    12429    12418    12417    12428    12441    12425 
   12394    12440    12526    12521    12465    12453    12463    12418 
   12391    12424    12410    12417    12463    12440    12432    12449 
   12422    12399    12434    12503    12490    12426    12453    12482 
   12405    12371    12436    12433    12345    12352    12445    12471 
   12449    12482    12525    12445    12329    12397    12509    12459 
   12413    12463    12448    12401    12421    12379    12333    12440 
   12479    12370    12376    12469    12467    12434    12456    12459 
   12394    12386    12469    12492    12444    12415    12398    12370 
   12360    12418    12494    12509    12482    12452    12421    12402 
   12409    12399    12422    12498    12475    12383    12432    12544 
   12459    12333    12449    12544    12428    12353    12383    12413 
   12447    12475    12442    12403    12453    12447    12332    12360 
   12502    12514    12455    12452    12425    12340    12366    12478 
   12482    12428    12420    12399    12383    12442    12479    12448 
   12441    12420    12394    12445    12475    12460    12487    12483 
   12397    12386    12456    12440    12420    12418    12370    12417 
   12505    12434    12361    12436    12483    12428    12409    12457 
   12463    12422    12422    12424    12375    12367    12442    12506 
   12509    12494    12433    12376    12397    12390    12380    12436 
   12456    12429    12429    12453    12494    12498    12407    12348 
   12394    12449    12482    12488    12498    12480    12378    12360 
   12455    12444    12352    12364    12421    12437    12469    12476 
   12430    12397    12398    12411    12414    12476    12541    12436 
   12353    12467    12495    12384    12376    12422    12407    12444 
   12509    12445    12351    12378    12426    12409    12410    12487 
   12529    12460    12380    12391    12459    12445    12357    12414 
   12550    12488    12361    12403    12468    12457    12440    12403 
   12405    12483    12486    12390    12384    12478    12502    12471 
   12448    12393    12318    12309    12415    12560    12577    12478 
   12383    12317    12294    12344    12425    12519    12580    12455 
   12297    12383    12498    12475    12475    12459    12401    12402 
   12441    12463    12420    12386    12452    12457    12370    12395 
   12479    12471    12496    12522    12387    12302    12384    12432 
   12474    12586    12560    12441    12463    12447    12314    12321 
   12417    12433    12414    12426    12449    12405    12378    12495 
   12576    12448    12317    12414    12553    12437    12253    12357 
   12484    12382    12402    12541    12507    12425    12384    12356 
   12361    12409    12588    12757    12637    12382    12218    12189 
   12303    12452    12538    12496    12343    12320    12549    12796 
   12897    13005    13089    12907    12607    12452    12314    12164 
   12131    12060    11890    11773    11743    11886    12303    12707 
   12700    12475    12494    12699    12696    12437    12241    12156 
   12051    12070    12210    12321    12459    12533    12303    12031 
   12290    12973    13313    12915    12226    11880    11874    12024 
   12348    12779    13282    13464    12648    11449    11341    12391 
   13358    13536    13297    13074    12569    11738    11502    12089 
   12673    12843    12667    12410    12322    12204    11890    11790 
   12360    13157    13150    12303    11642    11676    12058    12461 
   12698    12617    12460    12509    12388    11924    11888    12424 
   12721    12661    12615    12591    12429    12247    12430    12711 
   12645    12722    13055    12915    12428    12280    12433    12430 
   12306    12445    12646    12569    12410    12286    12198    12264 
   12456    12509    12237    12177    12664    12798    12283    11981 
   12164    12513    12618    12356    12198    12379    12613    12548 
   12151    12063    12592    12888    12582    12272    12258    12418 
   12460    12433    12681    12931    12731    12267    12071    12244 
   12501    12677    12718    12621    12398    12253    12240    12144 
   12208    12359    12181    12118    12433    12618    12671    12661 
   12421    12410    12650    12532    12375    12577    12561    12193 
   12094    12260    12299    12359    12627    12677    12302    12185 
   12424    12341    12309    12866    13193    12787    12415    12388 
   12295    12271    12602    12773    12457    12191    12310    12410 
   12091    11880    12172    12393    12424    12467    12445    12510 
   12629    12614    12426    12140    12047    12197    12339    12533 
   12812    12919    12723    12361    12191    12330    12537    12631 
   12510    12293    12213    12321    12441    12440    12432    12374 
   12225    12236    12421    12501    12538    12648    12540    12320 
   12325    12448    12673    12781    12429    12225    12567    12679 
   12382    12316    12525    12652    12518    12172    12043    12395 
   12694    12561    12456    12565    12484    12245    12276    12415 
   12349    12382    12629    12583    12213    12186    12590    12764 
   12483    12294    12440    12449    12324    12452    12486    12237 
   12240    12440    12463    12526    12564    12278    12114    12371 
   12603    12656    12703    12556    12198    12163    12484    12522 
   12295    12387    12680    12583    12260    12348    12510    12286 
   12340    12776    12744    12341    12367    12638    12480    12156 
   12221    12498    12614    12523    12345    12295    12403    12402 
   12278    12245    12337    12410    12391    12478    12668    12638 
   12383    12166    12160    12320    12398    12375    12484    12704 
   12758    12595    12467    12402    12275    12262    12367    12391 
   12452    12528    12415    12353    12496    12532    12451    12495 
   12533    12422    12390    12490    12456    12343    12378    12474 
   12452    12395    12468    12521    12507    12518    12403    12334 
   12518    12649    12495    12229    12155    12289    12438    12514 
   12472    12425    12553    12673    12560    12428    12399    12328 
   12321    12387    12298    12239    12372    12463    12440    12321 
   12248    12447    12572    12347    12135    12334    12760    12804 
   12515    12433    12555    12596    12609    12641    12506    12352 
   12422    12472    12356    12318    12449    12564    12519    12352 
   12301    12472    12478    12286    12384    12591    12488    12397 
   12541    12572    12356    12143    12123    12256    12391    12488 
   12538    12534    12541    12449    12233    12154    12330    12540 
   12429    12193    12367    12610    12501    12370    12262    12259 
   12552    12613    12387    12449    12565    12386    12266    12329 
   12363    12447    12518    12360    12293    12502    12573    12484 
   12602    12764    12685    12515    12405    12387    12441    12432 
   12380    12379    12411    12479    12506    12479    12484    12461 
   12382    12367    12482    12549    12409    12279    12353    12422 
   12299    12164    12314    12598    12700    12733    12726    12487 
   12252    12305    12388    12287    12293    12487    12507    12414 
   12482    12465    12263    12189    12239    12244    12449    12758 
   12663    12459    12580    12629    12364    12225    12383    12428 
   12282    12267    12364    12411    12410    12355    12337    12480 
   12595    12482    12355    12424    12571    12630    12540    12395 
   12351    12321    12266    12376    12583    12615    12556    12541 
   12442    12306    12305    12409    12530    12576    12502    12397 
   12407    12505    12517    12523    12555    12456    12387    12426 
   12383    12347    12442    12475    12375    12353    12447    12460 
   12285    12148    12316    12501    12375    12256    12367    12494 
   12519    12486    12451    12479    12526    12465    12357    12312 
   12363    12563    12626    12403    12289    12332    12366    12418 
   12402    12374    12457    12550    12537    12406    12356    12501 
   12588    12533    12525    12517    12405    12368    12433    12402 
   12340    12379    12456    12532    12565    12549    12561    12479 
   12302    12371    12573    12498    12326    12397    12534    12451 
   12276    12301    12425    12457    12406    12283    12274    12428 
   12448    12360    12411    12514    12482    12399    12405    12421 
   12437    12505    12515    12461    12448    12492    12492    12394 
   12361    12399    12375    12355    12339    12298    12391    12553 
   12544    12457    12483    12532    12476    12390    12367    12406 
   12459    12448    12438    12501    12494    12452    12484    12467 
   12398    12370    12295    12228    12357    12537    12513    12447 
   12483    12503    12461    12390    12374    12397    12324    12279 
   12372    12468    12561    12603    12467    12347    12429    12572 
   12631    12572    12438    12336    12299    12297    12349    12440 
   12499    12529    12530    12515    12507    12469    12390    12341 
