Origin Time       2018/04/09 06:38:00
Lat.              35.2
Long.             132.6
Depth. (km)       10
Mag.              3.8
Station Code      TTRH02
Station Lat.      35.2313
Station Long.     133.3909
Station Height(m) 410
Record Time       2018/04/09 06:39:10
Sampling Freq(Hz) 100Hz
Duration Time(s)  120
Dir.              4
Scale Factor      7845(gal)/8223790
Max. Acc. (gal)   2.869
Last Correction   2018/04/09 06:38:55
Memo.             
[...]
    3022     3021     3022     3022     3022     3028     3037     3036 
    3030     3032     3029     3028     3025     3019     3024     3028 
    3028     3029     3028     3026     3032     3032     3024     3026 
    3030     3030     3030     3026     3024     3028     3026     3025 
    3032     3034     3032     3029     3030     3032     3029     3026 
    3029     3028     3022     3022     3022     3026     3033     3036 
    3034     3033     3028     3024     3022     3024     3028     3030 
    3032     3030     3032     3032     3029     3028     3026     3025 
    3026     3028     3025     3029     3029     3024     3024     3024 
    3028     3036     3038     3034     3028     3024     3022     3021 
    3024     3029     3033     3033     3028     3022     3022     3025 
    3028     3029     3030     3030     3029     3028     3025     3024 
    3026     3029     3030     3032     3030     3032     3030     3024 
    3021     3025     3028     3028     3032     3034     3030     3025 
    3024     3022     3025     3025     3024     3029     3036     3036 
    3033     3030     3028     3029     3028     3025     3028     3030 
    3028     3022     3019     3024     3030     3030     3025     3029 
    3032     3028     3028     3030     3034     3036     3029     3021 
    3025     3028     3028     3029     3026     3026     3030     3025 
    3024     3029     3032     3026     3025     3028     3030     3033 
    3033     3029     3028     3026     3025     3029     3032     3032 
    3030     3032     3030     3024     3019     3024     3029     3029 
    3028     3030     3033     3033     3029     3028     3028     3029 
    3028     3025     3026     3033     3033     3029     3028     3029 
    3029     3026     3024     3024     3030     3033     3032     3032 
    3034     3033     3026     3021     3025     3028     3028     3036 
    3038     3034     3033     3025     3013     3013     3022     3032 
    3036     3038     3037     3030     3026     3021     3018     3024 
    3029     3030     3032     3030     3029     3026     3024     3028 
    3032     3029     3028     3033     3032     3029     3028     3024 
    3022     3028     3028     3029     3033     3032     3030     3026 
    3024     3025     3022     3019     3028     3033     3034     3034 
    3032     3032     3033     3032     3026     3022     3022     3022 
    3025     3029     3029     3028     3032     3030     3026     3029 
    3029     3026     3028     3029     3029     3030     3029     3024 
    3025     3028     3026     3029     3030     3029     3032     3032 
    3030     3026     3018     3021     3026     3025     3029     3034 
    3037     3036     3029     3022     3026     3032     3028     3022 
    3028     3036     3034     3028     3022     3022     3024     3025 
    3028     3032     3037     3041     3038     3030     3026     3021 
    3018     3024     3029     3034     3040     3034     3026     3022 
    3018     3015     3025     3036     3038     3036     3034     3029 
    3024     3021     3019     3019     3025     3034     3038     3040 
    3037     3025     3021     3025     3026     3028     3030     3029 
    3032     3033     3025     3024     3030     3026     3025     3034 
    3034     3032     3034     3030     3025     3028     3028     3024 
    3024     3030     3036     3037     3038     3033     3024     3021 
    3019     3021     3030     3038     3037     3033     3026     3022 
    3024     3028     3032     3032     3033     3036     3032     3026 
    3019     3019     3028     3032     3032     3032     3029     3029 
    3029     3026     3026     3030     3034     3033     3033     3030 
    3026     3022     3025     3030     3034     3034     3029     3026 
    3025     3025     3026     3029     3030     3030     3029     3025 
    3026     3033     3036     3030     3026     3026     3026     3026 
    3030     3033     3030     3028     3026     3025     3024     3026 
    3032     3034     3036     3033     3026     3026     3028     3022 
    3021     3029     3033     3032     3034     3034     3029     3026 
    3026     3024     3022     3028     3033     3033     3030     3026 
    3024     3021     3025     3030     3032     3036     3038     3029 
    3024     3026     3024     3025     3028     3030     3034     3033 
    3028     3025     3025     3029     3026     3022     3026     3029 
    3030     3030     3028     3029     3030     3028     3022     3021 
    3030     3037     3029     3019     3026     3030     3026     3026 
    3030     3029     3026     3028     3030     3030     3028     3024 
    3024     3026     3028     3028     3030     3032     3029     3026 
    3028     3028     3032     3042     3048     3045     3030     3019 
    3026     3041     3059     3053     2982     2880     2851     2947 
    3095     3169     3144     3076     3003     2959     3002     3109 
    3134     2995     2829     2856     3057     3218     3300     3418 
    3395     2956     2373     2223     2624     3153     3392     3272 
    2998     2798     2791     3126     3666     3794     3427     3184 
    3238     3256     2897     2189     1807     2087     2566     3052 
    3442     3333     3015     3163     3558     3661     3505     3335 
    3356     3395     2886     2112     2006     2470     2833     3022 
    3140     3150     3149     3306     3545     3526     3315     3267 
    3246     3095     2926     2627     2270     2398     3019     3343 
    3140     2953     2945     3129     3555     3678     3257     2790 
    2498     2331     2358     2579     2825     2768     2604     2994 
    3699     4063     4122     3989     3794     3640     3237     2731 
    2538     2501     2309     1858     1501     1810     2548     3100 
    3349     3434     3748     4405     4657     4097     3385     3188 
    3192     2817     2386     2263     2108     1950     2142     2660 
    3366     3819     3505     2832     2633     2926     3308     3643 
    3771     3611     3218     2694     2431     2646     2965     3094 
    3103     3053     2928     2818     2764     2659     2654     2991 
    3414     3569     3504     3361     3198     3119     3098     2963 
    2872     3080     3250     2991     2635     2698     2980     3010 
    2940     2948     2855     2755     2848     3083     3254     3187 
    3080     3148     3233     3221     3117     3046     3150     3238 
    3082     2808     2644     2610     2655     2851     3088     3106 
    3037     3106     3240     3354     3322     3114     2980     2886 
    2735     2849     3119     3111     3056     3157     3283     3460 
    3399     2961     2758     2872     2853     2863     3025     3071 
    3038     2964     2818     2766     2799     2933     3264     3419 
    3150     2837     2744     2882     3111     3063     2893     3036 
    3260     3262     3172     3132     3146     3084     2899     2840 
    2982     3067     3067     3102     3083     2992     2949     2956 
    3034     3202     3273     3118     2886     2767     2813     2879 
    2929     3056     3126     3044     2893     2775     2876     3172 
    3358     3319     3173     3037     3015     3136     3298     3315 
    3078     2852     2874     2837     2683     2747     2880     2926 
    2995     2997     3033     3221     3249     3105     3032     2967 
    2941     3118     3330     3321     3113     2884     2822     2940 
    3059     3121     3142     3037     2884     2875     2897     2801 
    2793     3034     3281     3284     3145     3053     3015     2918 
    2878     3056     3181     3092     2974     2864     2866     3022 
    3071     3037     3115     3165     3146     3164     3079     2880 
    2813     2936     3145     3241     3049     2818     2891     3141 
    3280     3231     3080     2974     2914     2895     2948     2914 
    2821     2893     3025     3111     3244     3294     3154     2987 
    2944     2994     3065     3157     3173     2967     2625     2512 
    2785     3146     3321     3241     2970     2770     2839     3137 
    3406     3379     3177     3009     2913     3036     3280     3234 
    2982     2878     2829     2745     2829     3087     3299     3275 
    3052     2928     2928     2867     2895     3090     3172     3045 
    2889     2797     2790     2938     3175     3296     3268     3127 
    2887     2778     2936     3075     3103     3186     3213     3091 
    2948     2911     3041     3160     3094     2982     2953     3001 
    3098     3111     3007     2925     2890     2887     2976     3098 
    3098     2995     2980     3068     3014     2797     2781     3063 
    3322     3443     3420     3186     3015     3095     3071     2856 
    2785     2872     2926     2945     2968     2922     2833     2867 
    2974     3048     3264     3489     3325     2984     2863     2830 
    2805     2930     3117     3156     3091     3086     3080     2979 
    2951     3051     3018     2843     2871     3091     3181     3114 
    2945     2817     3011     3281     3241     3192     3322     3279 
    3079     2938     2795     2760     2891     2965     2983     2990 
    2909     2882     2995     3084     3099     3099     3088     3061 
    3038     3068     3110     3053     2952     2943     3011     3053 
    3038     2933     2812     2909     3100     3121     3168     3276 
    3165     2990     3021     3137     3187     3118     2894     2727 
    2824     3005     3033     2976     3003     3040     2976     2979 
    3148     3288     3235     3060     2893     2812     2866     2986 
    3037     3051     3032     2937     2986     3223     3284     3141 
    3102     3168     3103     2907     2806     2864     2983     3068 
    3061     2986     2909     2945     3107     3191     3099     2944 
    2898     3026     3133     3067     2956     2918     2943     2961 
    2988     3107     3225     3186     3098     3132     3146     2980 
    2930     3086     2994     2709     2700     2926     3165     3271 
    3110     2938     3018     3071     2971     3019     3202     3203 
    2992     2899     3061     3094     2936     3046     3287     3206 
    2982     2875     2836     2870     2932     2897     2903     3080 
    3241     3214     3080     3024     3071     3086     3071     3073 
    3003     2924     2938     2957     2963     2975     2965     2997 
    3010     2976     3106     3304     3322     3221     2987     2731 
    2786     2959     2978     3021     3059     2944     2867     2984 
    3165     3238     3211     3132     3015     2932     2930     2967 
    3002     3061     3082     2943     2806     2902     3126     3265 
    3241     3148     3088     3015     2949     2983     3053     3087 
    3102     3006     2832     2856     3017     3037     3006     3059 
    3123     3125     3015     2872     2862     3034     3223     3173 
    2983     2924     2961     3032     3100     3041     2965     3075 
    3188     3046     2839     2901     3059     2992     2876     2890 
    2924     3076     3368     3468     3319     3117     2917     2879 
    3076     3165     2975     2771     2736     2864     3038     3117 
    3110     3049     2971     2955     2976     3018     3103     3138 
    3006     2794     2722     2898     3242     3496     3433     3163 
    2949     2901     3001     3072     2940     2752     2729     2871 
    3051     3106     3079     3191     3369     3345     3144     3001 
    3007     3001     2876     2801     2830     2898     3013     3052 
    2999     3042     3110     3087     3102     3114     3048     3103 
    3167     2949     2718     2762     2926     3055     3091     3080 
    3134     3177     3111     3017     2982     2998     3018     3030 
    3114     3191     3080     2980     3065     3044     2867     2844 
    2949     3002     3041     3095     3133     3140     3053     2918 
    2913     3038     3141     3164     3117     3024     2911     2828 
    2882     2999     3051     3154     3241     3127     3024     3048 
    2987     2809     2775     3024     3318     3300     2963     2786 
    3028     3242     3161     3069     3065     2917     2635     2643 
    3026     3276     3217     3041     2849     2864     3115     3279 
    3288     3208     2965     2737     2839     3141     3250     3107 
    2944     2890     2938     3046     3140     3140     3055     2972 
    2944     2964     3011     3088     3200     3264     3141     2816 
    2577     2725     3071     3248     3257     3150     2910     2797 
    2943     3095     3167     3199     3144     3075     2986     2843 
    2883     3087     3056     2841     2786     2879     3046     3271 
    3433     3504     3366     2870     2469     2675     3218     3555 
    3456     3051     2602     2280     2436     3127     3573     3343 
    2832     2475     2628     3190     3591     3744     3863     3827 
    3603     3411     3365     3343     3092     2623     2236     2034 
    1919     1976     2303     2562     2380     2047     2026     2417 
    3257     4406     5211     4838     3287     1946     2107     3105 
    3477     3090     2566     2070     1711     1908     2963     4494 
    5497     5360     4479     3653     3357     3437     3392     3046 
    2299     1163      642     1529     2983     4072     4534     4062 
    3046     2477     2577     3040     3557     3692     3186     2031 
     635       21      793     2548     4356     5186     4812     3954 
    3190     2716     2733     3171     3526     3453     3235     3368 
    3524     2880     1884     1894     3041     4225     4536     3780 
    2516     1705     1861     2764     3855     4552     4538     3890 
    2847     2056     2311     3268     3813     3570     2797     1977 
    1628     1472     1159     1321     2253     3245     3785     3935 
    3948     3967     3773     3249     2752     2725     3400     4411 
    4765     4027     2918     2312     2272     2438     2744     3146 
    3437     3434     2787     1659     1263     2295     3874     4644 
    4164     3234     2768     2806     2994     3069     2864     2434 
    2047     1964     2203     2698     3461     4141     4155     3559 
    2968     2689     2585     2660     3041     3488     3662     3496 
    3115     2822     2894     3096     3003     2862     3119     3443 
    3408     3094     2594     2185     2361     3141     4023     4365 
    3928     3094     2288     1829     1929     2435     3118     3654 
    3623     3134     2632     2324     2334     2654     3026     3302 
    3453     3388     3156     2917     2662     2366     2293     2724 
    3553     4334     4646     4402     3742     2851     2097     1900 
    2214     2862     3778     4251     3699     2714     2103     2216 
    2836     3206     2983     2508     2184     2173     2420     2786 
    3145     3483     3843     3982     3709     3381     3379     3662 
    3889     3635     2947     2266     1819     1780     2204     2813 
    3397     3715     3569     3304     3213     3103     2938     2847 
    2836     2887     2843     2720     2901     3385     3731     3559 
    2848     2330     2697     3289     3200     2663     2317     2469 
    2887     3060     3056     3172     3244     3240     3469     3877 
    3886     3280     2697     2570     2558     2563     2944     3612 
    3928     3468     2759     2648     2963     3153     3204     3017 
    2569     2234     2138     2259     2624     2967     3073     3176 
    3491     3767     3728     3600     3595     3468     3138     2806 
    2508     2304     2416     2853     3261     3415     3439     3276 
    2856     2601     2650     2691     2809     3082     3207     3159 
    3240     3515     3586     3150     2498     2120     2346     3036 
    3465     3387     3329     3389     3217     2839     2533     2585 
    3056     3476     3416     3123     3032     3095     3076     3125 
    3381     3484     3246     3082     3208     3261     2967     2505 
    2199     2193     2353     2524     2832     3311     3623     3549 
    3235     2963     3011     3326     3445     3125     2625     2367 
    2519     2818     2957     3024     3230     3510     3738     3813 
    3555     3059     2681     2516     2532     2709     2840     2841 
    2886     3056     3257     3358     3373     3415     3423     3268 
    3002     2803     2731     2590     2355     2397     2839     3335 
    3685     3885     3854     3518     3017     2683     2708     2916 
    2984     2805     2604     2602     2691     2732     2893     3230 
    3442     3329     3061     2924     2943     2851     2542     2205 
    2154     2632     3393     3858     3955     3900     3581     2988 
    2578     2687     3064     3302     3334     3222     2972     2743 
    2714     2763     2798     2949     3168     3376     3568     3543 
    3222     2763     2452     2546     2825     2936     3007     3190 
    3287     3246     3223     3262     3279     3157     2951     2821 
    2674     2475     2509     2797     3055     3179     3227     3238 
    3234     3237     3256     3188     2928     2598     2516     2783 
    3103     3223     3242     3311     3345     3330     3481     3751 
    3798     3380     2592     1919     1771     2041     2470     2926 
    3234     3331     3356     3334     3223     3130     3176     3254 
    3129     2890     2829     2883     2810     2652     2566     2648 
    2955     3352     3599     3665     3662     3530     3161     2782 
    2674     2789     3014     3241     3238     3002     2839     2895 
    3011     3025     2991     2970     2884     2701     2571     2789 
    3327     3715     3680     3314     2855     2662     2795     2970 
    3059     3098     3100     3025     2856     2790     2982     3250 
    3365     3192     2785     2600     2840     3022     2921     2802 
    2785     2895     3107     3190     3115     3133     3294     3381 
    3262     3040     2893     2847     2837     2921     3130     3280 
    3256     3167     3051     2851     2702     2805     3063     3190 
    3064     2797     2624     2774     3157     3496     3703     3720 
    3483     3202     3067     2929     2717     2650     2799     2890 
    2675     2343     2315     2663     3053     3260     3318     3342 
    3404     3442     3392     3300     3171     3002     2901     2863 
    2798     2704     2686     2911     3222     3264     3129     3036 
    2999     3046     3063     2953     2878     2898     2928     2947 
    2898     2844     3041     3380     3477     3338     3248     3277 
    3277     3117     2868     2717     2702     2732     2774     2801 
    2798     2841     2959     3121     3303     3387     3254     3034 
    2943     3015     3165     3300     3368     3310     3072     2782 
    2727     2944     3091     2940     2662     2521     2590     2745 
    2868     2947     3013     3138     3342     3495     3481     3316 
    3068     2917     3014     3211     3312     3306     3204     3048 
    2955     2986     3090     3137     3091     3025     2924     2752 
    2600     2570     2682     2866     2997     3051     3148     3295 
    3334     3218     3100     3048     2937     2829     2916     3075 
