Origin Time       2018/04/09 06:38:00
Lat.              35.2
Long.             132.6
Depth. (km)       10
Mag.              3.8
Station Code      TTRH02
Station Lat.      35.2313
Station Long.     133.3909
Station Height(m) 410
Record Time       2018/04/09 06:39:10
Sampling Freq(Hz) 100Hz
Duration Time(s)  120
Dir.              5
Scale Factor      7845(gal)/8223790
Max. Acc. (gal)   3.077
Last Correction   2018/04/09 06:38:55
Memo.             
[...]
   -3052    -3053    -3055    -3049    -3048    -3051    -3048    -3051 
   -3055    -3052    -3051    -3051    -3051    -3056    -3055    -3048 
   -3048    -3051    -3049    -3049    -3049    -3053    -3056    -3059 
   -3060    -3055    -3049    -3051    -3048    -3044    -3051    -3052 
   -3052    -3056    -3057    -3055    -3052    -3052    -3052    -3049 
   -3052    -3053    -3046    -3051    -3060    -3056    -3049    -3049 
   -3051    -3051    -3053    -3056    -3052    -3048    -3052    -3053 
   -3056    -3057    -3051    -3045    -3049    -3052    -3048    -3048 
   -3051    -3052    -3055    -3056    -3055    -3052    -3052    -3055 
   -3049    -3045    -3049    -3048    -3048    -3052    -3046    -3045 
   -3057    -3059    -3055    -3059    -3057    -3049    -3046    -3049 
   -3048    -3046    -3052    -3052    -3049    -3052    -3055    -3056 
   -3055    -3051    -3049    -3052    -3049    -3046    -3048    -3049 
   -3051    -3053    -3051    -3048    -3055    -3055    -3051    -3048 
   -3048    -3052    -3056    -3056    -3056    -3055    -3051    -3049 
   -3051    -3053    -3053    -3053    -3049    -3048    -3051    -3049 
   -3048    -3056    -3056    -3049    -3048    -3052    -3052    -3048 
   -3051    -3057    -3056    -3052    -3049    -3045    -3049    -3056 
   -3055    -3053    -3048    -3045    -3051    -3049    -3048    -3053 
   -3048    -3048    -3055    -3055    -3057    -3056    -3046    -3042 
   -3044    -3049    -3055    -3053    -3052    -3052    -3051    -3055 
   -3056    -3053    -3052    -3053    -3052    -3051    -3052    -3052 
   -3048    -3053    -3057    -3055    -3055    -3053    -3048    -3048 
   -3048    -3046    -3046    -3048    -3052    -3056    -3059    -3053 
   -3048    -3052    -3057    -3055    -3051    -3048    -3049    -3051 
   -3052    -3051    -3049    -3051    -3056    -3055    -3051    -3055 
   -3056    -3049    -3049    -3051    -3052    -3052    -3048    -3046 
   -3048    -3048    -3053    -3059    -3053    -3052    -3055    -3055 
   -3057    -3056    -3051    -3048    -3046    -3049    -3055    -3053 
   -3052    -3056    -3052    -3046    -3053    -3053    -3046    -3048 
   -3051    -3053    -3055    -3053    -3055    -3051    -3049    -3055 
   -3057    -3057    -3055    -3048    -3046    -3049    -3051    -3052 
   -3053    -3051    -3049    -3051    -3049    -3053    -3059    -3055 
   -3051    -3053    -3051    -3046    -3046    -3044    -3045    -3053 
   -3056    -3052    -3052    -3052    -3049    -3051    -3055    -3053 
   -3052    -3049    -3045    -3045    -3048    -3048    -3051    -3056 
   -3057    -3057    -3057    -3055    -3055    -3051    -3046    -3046 
   -3046    -3048    -3055    -3055    -3051    -3049    -3048    -3052 
   -3057    -3055    -3052    -3055    -3052    -3046    -3045    -3048 
   -3049    -3051    -3052    -3053    -3053    -3053    -3055    -3052 
   -3048    -3049    -3052    -3051    -3049    -3051    -3049    -3048 
   -3051    -3055    -3057    -3052    -3049    -3055    -3056    -3052 
   -3051    -3048    -3040    -3046    -3057    -3055    -3049    -3049 
   -3051    -3055    -3055    -3053    -3049    -3046    -3052    -3056 
   -3052    -3046    -3042    -3045    -3049    -3048    -3049    -3060 
   -3056    -3046    -3055    -3059    -3052    -3048    -3048    -3048 
   -3045    -3045    -3051    -3053    -3055    -3053    -3052    -3055 
   -3052    -3048    -3055    -3059    -3051    -3049    -3055    -3052 
   -3046    -3045    -3049    -3055    -3056    -3057    -3056    -3051 
   -3049    -3046    -3046    -3053    -3052    -3048    -3053    -3059 
   -3053    -3049    -3051    -3053    -3055    -3051    -3048    -3048 
   -3048    -3049    -3052    -3053    -3055    -3055    -3055    -3056 
   -3055    -3052    -3049    -3048    -3046    -3045    -3046    -3049 
   -3052    -3055    -3059    -3061    -3053    -3046    -3046    -3046 
   -3048    -3048    -3049    -3053    -3055    -3052    -3055    -3055 
   -3049    -3048    -3049    -3052    -3056    -3057    -3052    -3051 
   -3049    -3048    -3053    -3055    -3051    -3049    -3051    -3053 
   -3051    -3046    -3051    -3056    -3052    -3052    -3053    -3049 
   -3048    -3051    -3051    -3051    -3053    -3053    -3055    -3056 
   -3052    -3051    -3053    -3055    -3053    -3048    -3048    -3056 
   -3053    -3052    -3056    -3049    -3045    -3052    -3056    -3057 
   -3055    -3052    -3052    -3053    -3051    -3048    -3053    -3056 
   -3048    -3045    -3052    -3055    -3052    -3049    -3051    -3048 
   -3046    -3049    -3048    -3053    -3059    -3053    -3048    -3052 
   -3055    -3052    -3045    -3046    -3056    -3053    -3048    -3048 
   -3044    -3045    -3052    -3055    -3056    -3055    -3052    -3053 
   -3053    -3051    -3052    -3059    -3067    -3076    -3092    -3111 
   -3125    -3122    -3094    -3075    -3126    -3210    -3168    -2917 
   -2659    -2689    -2918    -2984    -2875    -2953    -3240    -3285 
   -2983    -2866    -3241    -3635    -3501    -3011    -2708    -2677 
   -2636    -2598    -2821    -3163    -3223    -3051    -3049    -3392 
   -3812    -3817    -3283    -2747    -2624    -2752    -2862    -2724 
   -2447    -2562    -3080    -3512    -3646    -3472    -3387    -3859 
   -4131    -3373    -2552    -2681    -3087    -2884    -2168    -1622 
   -1894    -2670    -2999    -2848    -2863    -3196    -3647    -3962 
   -3842    -3389    -3071    -3177    -3489    -3516    -3218    -2932 
   -2813    -2793    -2650    -2423    -2633    -3391    -3794    -3150 
   -2351    -2585    -3427    -3666    -3033    -2505    -3022    -3889 
   -3754    -2759    -2195    -2706    -3379    -2965    -2247    -2814 
   -3952    -3913    -2721    -1934    -2613    -3724    -3604    -2606 
   -2304    -3177    -4066    -3643    -2543    -2493    -3406    -3782 
   -3269    -2859    -3207    -3655    -3161    -2112    -1942    -2733 
   -3150    -2802    -2569    -2867    -3338    -3593    -3480    -3296 
   -3379    -3368    -3051    -3055    -3407    -3285    -2812    -2741 
   -2991    -3114    -2978    -2724    -2741    -3057    -3140    -2828 
   -2602    -2793    -3154    -3271    -3109    -3037    -3335    -3713 
   -3543    -2906    -2601    -2903    -3268    -3140    -2673    -2544 
   -2883    -3094    -2960    -2868    -3083    -3469    -3626    -3420 
   -3186    -3156    -3194    -3021    -2702    -2681    -2957    -3100 
   -3033    -2960    -3002    -3087    -3069    -3048    -3127    -3159 
   -3137    -3183    -3179    -3033    -2901    -2862    -2802    -2820 
   -3046    -3177    -3041    -2895    -2886    -3051    -3229    -3095 
   -2951    -3187    -3399    -3389    -3435    -3360    -3102    -2948 
   -2766    -2590    -2739    -2938    -2967    -3045    -3018    -2787 
   -2743    -2938    -3138    -3227    -3173    -3186    -3346    -3385 
   -3298    -3214    -3129    -3127    -3103    -2929    -2847    -2887 
   -2864    -2809    -2771    -2893    -3222    -3381    -3262    -3207 
   -3190    -3040    -2951    -2970    -2924    -2821    -2745    -2768 
   -2957    -3190    -3279    -3226    -3181    -3280    -3423    -3372 
   -3107    -2795    -2712    -2963    -3144    -3019    -2910    -2957 
   -3049    -3110    -3038    -2938    -3003    -3109    -3088    -2955 
   -2833    -2948    -3194    -3198    -3068    -3087    -3172    -3246 
   -3226    -3057    -2955    -2890    -2748    -2840    -3148    -3240 
   -3137    -3063    -3022    -3105    -3267    -3206    -3011    -3025 
   -3134    -3045    -2849    -2847    -3100    -3329    -3244    -3005 
   -2963    -3069    -3019    -2806    -2713    -2852    -3029    -3030 
   -2922    -2880    -3001    -3285    -3469    -3345    -3140    -3017 
   -2987    -3121    -3163    -2928    -2890    -3195    -3298    -3076 
   -2882    -2895    -3084    -3187    -3046    -2929    -2972    -2979 
   -2906    -2902    -3026    -3164    -3169    -3060    -2953    -2968 
   -3133    -3208    -3094    -3064    -3092    -2959    -2883    -3028 
   -3160    -3160    -3123    -3153    -3226    -3202    -3119    -3130 
   -3106    -2932    -2833    -2943    -3125    -3165    -3009    -2893 
   -2916    -2960    -3078    -3191    -3095    -2926    -2821    -2713 
   -2744    -2925    -3063    -3211    -3331    -3275    -3223    -3269 
   -3262    -3194    -3075    -2952    -2926    -2874    -2710    -2724 
   -3046    -3289    -3230    -3177    -3276    -3302    -3144    -2921 
   -2840    -3005    -3148    -3032    -2909    -2971    -3064    -3117 
   -3098    -3007    -2975    -3022    -3113    -3168    -3021    -2763 
   -2721    -2936    -3119    -3083    -2974    -3052    -3299    -3442 
   -3281    -2957    -2898    -3192    -3322    -3041    -2795    -2860 
   -3001    -3041    -2974    -2948    -3140    -3322    -3179    -2940 
   -2986    -3217    -3249    -2987    -2748    -2802    -3072    -3269 
   -3140    -2890    -2947    -3153    -3144    -2991    -2893    -2987 
   -3215    -3183    -2866    -2795    -3140    -3407    -3225    -2871 
   -2833    -3088    -3188    -3057    -2997    -3013    -3033    -3095 
   -3042    -2992    -3126    -3103    -2911    -2971    -3078    -2991 
   -3010    -3098    -3003    -2921    -2999    -3127    -3241    -3260 
   -3176    -3115    -3098    -3119    -3202    -3230    -3102    -2889 
   -2805    -2943    -3064    -2994    -2930    -3019    -3106    -3007 
   -2795    -2733    -2997    -3345    -3338    -3075    -3013    -3076 
   -2983    -2878    -2945    -3090    -3169    -3129    -3034    -2983 
   -2987    -3051    -3159    -3217    -3173    -3076    -3041    -3100 
   -3102    -2938    -2790    -2948    -3323    -3402    -3025    -2727 
   -2933    -3304    -3291    -3003    -2921    -3029    -2986    -2795 
   -2749    -3006    -3318    -3298    -2952    -2713    -2887    -3237 
   -3376    -3267    -3079    -2982    -3032    -3076    -3014    -2979 
   -3067    -3123    -3057    -3046    -3073    -2960    -2922    -3111 
   -3132    -2853    -2748    -3028    -3348    -3346    -3029    -2820 
   -3067    -3349    -3141    -2836    -2955    -3244    -3280    -2998 
   -2733    -2844    -3045    -2949    -2880    -3152    -3439    -3385 
   -3107    -2998    -3103    -3057    -2856    -2855    -3013    -3065 
   -2964    -2798    -2813    -3126    -3331    -3169    -3002    -3140 
   -3360    -3289    -2960    -2758    -2872    -3103    -3138    -2979 
   -2994    -3245    -3288    -3068    -2937    -2902    -2941    -3061 
   -2965    -2775    -2917    -3130    -3129    -3129    -3173    -3238 
   -3303    -3132    -2871    -2903    -3055    -3042    -2995    -3022 
   -3021    -2945    -2891    -2976    -3218    -3422    -3364    -3146 
   -3072    -3122    -3003    -2736    -2662    -2874    -3144    -3164 
   -2921    -2848    -3095    -3237    -3129    -3040    -3056    -3146 
   -3207    -3014    -2775    -2920    -3258    -3330    -3110    -2886 
   -2917    -3173    -3281    -3005    -2697    -2859    -3294    -3348 
   -2990    -2802    -3003    -3277    -3246    -2920    -2764    -3057 
   -3379    -3271    -2934    -2822    -2956    -3095    -3150    -3114 
   -3080    -3141    -3102    -2905    -2829    -2893    -2911    -2967 
   -3100    -3149    -3156    -3210    -3188    -3086    -3009    -3014 
   -3127    -3195    -3076    -2911    -2864    -2943    -3076    -3177 
   -3183    -3122    -3099    -3099    -2997    -2866    -2911    -3053 
   -3017    -2870    -2890    -3041    -3123    -3130    -3133    -3183 
   -3256    -3226    -3102    -3040    -3060    -3018    -2864    -2756 
   -2847    -3041    -3187    -3175    -2988    -2980    -3230    -3207 
   -2926    -2951    -3227    -3350    -3213    -2864    -2646    -2895 
   -3233    -3230    -3094    -3011    -2980    -3029    -3040    -2961 
   -2967    -3107    -3203    -3095    -2897    -2928    -3198    -3316 
   -3115    -2859    -2902    -3217    -3296    -2984    -2822    -3038 
   -3208    -3076    -2882    -2918    -3142    -3206    -2947    -2721 
   -2895    -3275    -3372    -3059    -2828    -3084    -3399    -3208 
   -2806    -2786    -3148    -3342    -3011    -2658    -2906    -3334 
   -3231    -2870    -2882    -3171    -3267    -3102    -2949    -2988 
   -3059    -2929    -2797    -2963    -3217    -3154    -2930    -2992 
   -3202    -3177    -3071    -3129    -3249    -3206    -2899    -2664 
   -2914    -3334    -3383    -3134    -2910    -2884    -3048    -3140 
   -2978    -2821    -2959    -3173    -3144    -2994    -2990    -3146 
   -3245    -3127    -2990    -3022    -3075    -3005    -2903    -2847 
   -2843    -2961    -3187    -3343    -3302    -3096    -2979    -3091 
   -3123    -2947    -2887    -2976    -2988    -2920    -2845    -2905 
   -3169    -3250    -2943    -2808    -3160    -3551    -3574    -3241 
   -2887    -2862    -2986    -2994    -3084    -3200    -2922    -2524 
   -2745    -3483    -3817    -3431    -3021    -2992    -3024    -2898 
   -2686    -2664    -2988    -3127    -2724    -2389    -2697    -3465 
   -3983    -3682    -3117    -3308    -3844    -3470    -2265    -1557 
   -1956    -2608    -2474    -1919    -2382    -3947    -4698    -3775 
   -2803    -3283    -4623    -5042    -3724    -2043    -1726    -2367 
   -2555    -2392    -2899    -3888    -4187    -3539    -2849    -2851 
   -3503    -4222    -4180    -3092    -1734    -1078    -1440    -2532 
   -3481    -3565    -3028    -2277    -1588    -1502    -2130    -3360 
   -5135    -6277    -5410    -3245    -1755    -1867    -2933    -3777 
   -3933    -3639    -2925    -1728     -626     -599    -1996    -3917 
   -4961    -4718    -4056    -3708    -3381    -2682    -2053    -2234 
   -3213    -4240    -4498    -3657    -2479    -2137    -2393    -2185 
   -1854    -2513    -3871    -4587    -4009    -2802    -2147    -2300 
   -2501    -2501    -2859    -3800    -4842    -4949    -3391    -1456 
   -1297    -2741    -3912    -3871    -3133    -2856    -3276    -3246 
   -2339    -1620    -2057    -3319    -3888    -3018    -2172    -2724 
   -3719    -3604    -2628    -2220    -2862    -3703    -3927    -3585 
   -3510    -4172    -4639    -3981    -2731    -1880    -1888    -2589 
   -3167    -3036    -2585    -2435    -2550    -2601    -2705    -3227 
   -4132    -4781    -4453    -3335    -2466    -2243    -2096    -1840 
   -2012    -2718    -3335    -3469    -3202    -2732    -2511    -2772 
   -3007    -2998    -3299    -3975    -4342    -4041    -3268    -2482 
   -2272    -2632    -2951    -3052    -3080    -3029    -2990    -2921 
   -2740    -2758    -3237    -3906    -4174    -3870    -3416    -2972 
   -2474    -2227    -2419    -2947    -3692    -4198    -4033    -3453 
   -2876    -2500    -2435    -2535    -2559    -2477    -2270    -1998 
   -2050    -2488    -2859    -3146    -3512    -3735    -3827    -3910 
   -3673    -3060    -2555    -2571    -3157    -3655    -3403    -3055 
   -3384    -3761    -3474    -2922    -2648    -2702    -2994    -3192 
   -2872    -2346    -2263    -2465    -2524    -2601    -2995    -3711 
   -4255    -4122    -3715    -3570    -3423    -2974    -2512    -2585 
   -3229    -3650    -3296    -2659    -2411    -2474    -2336    -2003 
   -2157    -3022    -3773    -3680    -3067    -2721    -2922    -3195 
   -3095    -2894    -2929    -3157    -3580    -3935    -3713    -3208 
   -3002    -2976    -3044    -3339    -3599    -3554    -3338    -2987 
   -2454    -2073    -2215    -2697    -3086    -3136    -2874    -2671 
   -2700    -2709    -2920    -3512    -3793    -3483    -3098    -2916 
   -2972    -3126    -3080    -2997    -3221    -3549    -3549    -3284 
   -3098    -3067    -3118    -3119    -2871    -2528    -2448    -2556 
   -2604    -2655    -2911    -3271    -3362    -3233    -3279    -3461 
   -3534    -3489    -3262    -2938    -2891    -3105    -3109    -2794 
   -2650    -2951    -3292    -3240    -2874    -2647    -2872    -3203 
   -3136    -2868    -2721    -2574    -2467    -2668    -3102    -3507 
   -3771    -3808    -3647    -3569    -3558    -3204    -2617    -2471 
   -2841    -3041    -2778    -2527    -2749    -3250    -3418    -3030 
   -2637    -2801    -3214    -3256    -2894    -2546    -2670    -3271 
   -3626    -3333    -2936    -2889    -3005    -3045    -3084    -3308 
   -3622    -3719    -3561    -3400    -3262    -2979    -2666    -2555 
   -2604    -2687    -2735    -2664    -2521    -2463    -2547    -2698 
   -2886    -3188    -3530    -3673    -3600    -3491    -3439    -3446 
   -3465    -3510    -3551    -3357    -2980    -2798    -2833    -2837 
   -2729    -2577    -2521    -2552    -2531    -2654    -3188    -3739 
   -3674    -3181    -2971    -3134    -3176    -2956    -2822    -2967 
   -3208    -3235    -2986    -2794    -2874    -3065    -3202    -3208 
   -3150    -3202    -3260    -3045    -2666    -2562    -2814    -3005 
   -2979    -3034    -3268    -3532    -3622    -3303    -2808    -2704 
   -2955    -3092    -3084    -3156    -3217    -3072    -2810    -2727 
   -2925    -3142    -3203    -3160    -2992    -2884    -3136    -3457 
   -3326    -2859    -2578    -2691    -2909    -2944    -2953    -3140 
   -3346    -3430    -3441    -3420    -3364    -3264    -3067    -2772 
   -2540    -2571    -2876    -3184    -3156    -2787    -2489    -2562 
   -2878    -3121    -3184    -3256    -3388    -3368    -3113    -2828 
   -2789    -3009    -3242    -3314    -3250    -3215    -3265    -3180 
   -2891    -2717    -2825    -2974    -2999    -3051    -3258    -3468 
   -3445    -3207    -2957    -2890    -3079    -3357    -3399    -3187 
   -3069    -3118    -2964    -2596    -2552    -3045    -3535    -3507 
   -3056    -2706    -2825    -3092    -2959    -2602    -2578    -2856 
   -2988    -2767    -2471    -2543    -2999    -3375    -3385    -3265 
   -3264    -3400    -3528    -3345    -2911    -2741    -2897    -2992 
   -2922    -2910    -3163    -3524    -3655    -3510    -3248    -3111 
   -3284    -3466    -3287    -2955    -2747    -2616    -2551    -2520 
   -2438    -2498    -2860    -3215    -3267    -3122    -3057    -3141 
   -3171    -3030    -2943    -3051    -3148    -3146    -3191    -3279 
   -3323    -3349    -3308    -3092    -2840    -2797    -2941    -3130 
   -3281    -3230    -2943    -2668    -2636    -2916    -3335    -3456 
   -3169    -2937    -2968    -2990    -2890    -2867    -3038    -3273 
   -3315    -3121    -2976    -3013    -3005    -2868    -2814    -2876 
   -2868    -2817    -2901    -3088    -3219    -3214    -3094    -2987 
   -2998    -3048    -3106    -3260    -3441    -3558    -3497    -3048 
   -2583    -2798    -3468    -3807    -3580    -3113    -2781    -2597 
   -2317    -2093    -2290    -2775    -3103    -3110    -2933    -2829 
   -3005    -3379    -3647    -3699    -3615    -3469    -3339    -3253 
   -3202    -3186    -3114    -2883    -2578    -2389    -2434    -2686 
   -2987    -3161    -3142    -3001    -2906    -3007    -3188    -3184 
   -3046    -3040    -3150    -3184    -3100    -3001    -3019    -3169 
   -3302    -3307    -3283    -3295    -3164    -2890    -2825    -3010 
   -3125    -3068    -2949    -2910    -3037    -3199    -3215    -3095 
   -2917    -2737    -2612    -2629    -2832    -3086    -3196    -3150 
   -3086    -3114    -3246    -3415    -3485    -3298    -2944    -2758 
