Origin Time       2018/04/09 06:38:00
Lat.              35.2
Long.             132.6
Depth. (km)       10
Mag.              3.8
Station Code      TTRH02
Station Lat.      35.2313
Station Long.     133.3909
Station Height(m) 410
Record Time       2018/04/09 06:39:10
Sampling Freq(Hz) 100Hz
Duration Time(s)  120
Dir.              6
Scale Factor      7845(gal)/8223790
Max. Acc. (gal)   2.331
Last Correction   2018/04/09 06:38:55
Memo.             
[...]
   11333    11333    11334    11330    11327    11330    11331    11331 
   11335    11338    11333    11330    11330    11331    11333    11334 
   11333    11331    11333    11331    11331    11335    11333    11334 
   11337    11331    11327    11331    11331    11330    11334    11337 
   11335    11335    11334    11331    11330    11329    11329    11333 
   11335    11333    11333    11334    11335    11334    11330    11327 
   11329    11330    11333    11337    11338    11337    11333    11329 
   11327    11327    11331    11337    11335    11333    11335    11334 
   11327    11327    11331    11331    11327    11327    11331    11335 
   11340    11338    11334    11330    11329    11331    11335    11331 
   11329    11333    11331    11330    11333    11333    11335    11337 
   11334    11331    11330    11326    11329    11335    11338    11334 
   11330    11331    11331    11330    11329    11330    11331    11334 
   11335    11334    11330    11329    11330    11333    11334    11334 
   11333    11333    11334    11335    11334    11331    11330    11330 
   11330    11331    11334    11338    11338    11330    11329    11330 
   11326    11331    11337    11331    11331    11333    11333    11335 
   11335    11330    11329    11330    11331    11333    11334    11337 
   11334    11331    11334    11333    11326    11329    11337    11337 
   11333    11331    11334    11334    11333    11334    11331    11329 
   11335    11337    11333    11335    11335    11333    11333    11333 
   11330    11330    11335    11337    11333    11333    11335    11333 
   11330    11330    11329    11331    11333    11330    11331    11334 
   11335    11334    11333    11331    11334    11334    11330    11329 
   11331    11333    11334    11337    11334    11333    11334    11331 
   11333    11335    11330    11329    11333    11335    11331    11327 
   11331    11334    11335    11337    11337    11334    11333    11331 
   11329    11326    11326    11330    11335    11340    11340    11333 
   11325    11326    11333    11331    11330    11335    11338    11337 
   11333    11329    11329    11331    11330    11330    11335    11338 
   11333    11331    11334    11330    11329    11331    11333    11334 
   11333    11331    11334    11334    11331    11334    11335    11331 
   11331    11334    11333    11331    11330    11330    11334    11338 
   11334    11333    11334    11330    11327    11335    11340    11334 
   11330    11333    11334    11330    11329    11333    11334    11334 
   11333    11333    11334    11334    11334    11333    11330    11331 
   11334    11331    11330    11333    11335    11333    11330    11333 
   11335    11337    11334    11331    11334    11335    11327    11326 
   11333    11331    11333    11338    11335    11333    11334    11333 
   11330    11331    11333    11334    11331    11330    11335    11334 
   11333    11335    11333    11330    11333    11331    11331    11338 
   11340    11335    11330    11326    11326    11329    11334    11338 
   11335    11335    11340    11335    11327    11330    11331    11329 
   11333    11335    11331    11333    11338    11337    11333    11334 
   11334    11330    11329    11330    11333    11338    11337    11331 
   11327    11330    11330    11331    11337    11338    11335    11337 
   11335    11331    11330    11330    11331    11334    11333    11333 
   11337    11334    11333    11334    11333    11331    11333    11334 
   11334    11329    11327    11330    11331    11331    11337    11338 
   11335    11334    11333    11329    11326    11327    11331    11334 
   11334    11334    11334    11334    11330    11329    11331    11333 
   11334    11334    11335    11331    11327    11327    11331    11333 
   11333    11335    11338    11331    11329    11331    11331    11333 
   11335    11335    11333    11329    11330    11334    11331    11333 
   11337    11334    11333    11331    11329    11331    11334    11333 
   11330    11329    11329    11331    11335    11338    11337    11335 
   11334    11331    11329    11327    11329    11333    11334    11334 
   11335    11334    11330    11326    11329    11330    11330    11334 
   11338    11335    11334    11334    11330    11330    11330    11333 
   11335    11334    11334    11333    11330    11331    11330    11331 
   11335    11333    11331    11333    11331    11330    11331    11335 
   11335    11330    11329    11333    11333    11333    11333    11331 
   11331    11335    11334    11330    11331    11334    11334    11334 
   11334    11334    11333    11331    11333    11333    11331    11330 
   11330    11331    11334    11334    11333    11333    11334    11335 
   11334    11331    11330    11331    11330    11327    11325    11318 
   11303    11276    11248    11230    11234    11259    11269    11217 
   11113    11095    11350    11840    12182    12060    11678    11426 
   11232    10875    10713    11240    11997    12037    11354    10779 
   10658    10706    10840    11188    11588    11691    11475    11261 
   11219    11225    11198    11153    11028    10989    11408    11981 
   11983    11507    11248    11518    11878    11654    11065    11003 
   11475    11724    11510    11076    10929    11462    11770    10936 
   10201    10666    11308    11480    11655    11719    11529    11588 
   11704    11205    10606    10855    11549    11838    11742    11438 
   10972    10858    11221    11269    10964    11310    12170    12302 
   11591    10929    10908    11470    11669    10957    10503    11169 
   11901    11588    10866    10835    11375    11682    11483    11153 
   11236    11931    12384    11484    10249    10666    12013    12035 
   10851    10413    11277    12181    11993    11053    10632    11275 
   11983    11437    10341    10656    11963    12079    11028    10609 
   11233    11815    11565    10840    10719    11484    12089    11836 
   11340    11277    11481    11514    11306    11156    11338    11429 
   11038    10910    11399    11699    11538    11346    11236    11168 
   11175    11075    10941    11275    11820    11751    11286    11209 
   11422    11404    11175    11025    11187    11691    11954    11437 
   10845    11040    11465    11345    11097    11342    11716    11651 
   11334    11107    11010    11092    11373    11583    11468    11310 
   11385    11357    11098    11059    11295    11400    11310    11271 
   11360    11506    11627    11653    11542    11273    11078    11203 
   11321    11200    11265    11531    11496    11294    11335    11389 
   11230    11091    11070    11210    11510    11556    11354    11325 
   11245    11033    11098    11260    11308    11504    11634    11453 
   11330    11380    11438    11480    11411    11317    11331    11277 
   11199    11311    11460    11496    11462    11364    11292    11287 
   11271    11245    11129    11006    11109    11263    11341    11507 
   11564    11375    11348    11448    11335    11287    11450    11421 
   11169    11130    11327    11404    11367    11414    11449    11400 
   11419    11380    11134    11030    11290    11597    11553    11190 
   11009    11223    11407    11273    11194    11465    11762    11696 
   11371    11173    11218    11290    11318    11271    11152    11263 
   11542    11538    11329    11225    11198    11200    11261    11364 
   11485    11483    11260    11106    11196    11279    11322    11423 
   11458    11483    11511    11281    11009    11215    11600    11524 
   11245    11280    11418    11364    11330    11429    11431    11314 
   11265    11192    11003    11060    11443    11689    11592    11352 
   11236    11314    11321    11126    11032    11192    11410    11619 
   11647    11300    11094    11377    11524    11272    11210    11448 
   11487    11323    11314    11381    11318    11303    11371    11232 
   11067    11260    11526    11454    11245    11275    11411    11348 
   11280    11433    11464    11236    11152    11268    11269    11280 
   11448    11445    11249    11232    11446    11601    11518    11353 
   11206    11117    11209    11348    11376    11445    11557    11422 
   11133    11101    11288    11431    11461    11392    11273    11161 
   11186    11433    11557    11349    11222    11292    11168    10979 
   11163    11520    11680    11659    11464    11206    11206    11350 
   11296    11257    11460    11541    11333    11137    11122    11271 
   11434    11458    11362    11238    11217    11335    11412    11358 
   11311    11300    11295    11372    11364    11187    11237    11557 
   11603    11290    11146    11280    11323    11365    11549    11462 
   11164    11279    11515    11286    11087    11327    11456    11288 
   11237    11291    11291    11396    11450    11215    11137    11481 
   11607    11271    11092    11207    11244    11299    11476    11515 
   11516    11638    11530    11124    10979    11302    11574    11439 
   11200    11199    11319    11381    11358    11238    11199    11307 
   11284    11180    11249    11342    11380    11466    11411    11226 
   11271    11387    11331    11377    11446    11323    11325    11452 
   11387    11340    11433    11314    11103    11254    11511    11406 
   11202    11265    11412    11445    11434    11344    11191    11222 
   11349    11256    11200    11492    11681    11479    11254    11148 
   11097    11190    11308    11313    11416    11562    11399    11202 
   11294    11326    11195    11273    11516    11497    11263    11226 
   11353    11331    11221    11250    11389    11538    11584    11334 
   11032    11149    11493    11524    11310    11261    11388    11433 
   11337    11234    11226    11379    11554    11410    11001    10914 
   11365    11735    11574    11283    11230    11265    11256    11259 
   11284    11325    11458    11565    11418    11234    11268    11288 
   11223    11323    11388    11173    11178    11634    11743    11283 
   11098    11273    11265    11236    11327    11288    11335    11581 
   11500    11118    11144    11483    11450    11182    11230    11448 
   11369    11190    11302    11462    11470    11469    11357    11203 
   11303    11364    11099    11010    11367    11653    11519    11240 
   11198    11418    11585    11485    11237    11161    11362    11473 
   11250    11051    11217    11538    11549    11225    11084    11286 
   11415    11380    11349    11290    11319    11488    11402    11152 
   11252    11442    11314    11202    11345    11480    11495    11434 
   11284    11188    11237    11265    11249    11376    11562    11523 
   11287    11187    11286    11357    11308    11279    11398    11491 
   11357    11171    11101    11183    11429    11566    11399    11284 
   11434    11457    11261    11211    11286    11340    11437    11392 
   11118    11084    11442    11607    11346    11142    11227    11400 
   11479    11302    11041    11226    11703    11707    11264    11126 
   11367    11476    11361    11159    10978    11133    11580    11701 
   11399    11240    11287    11203    11128    11233    11375    11507 
   11543    11379    11271    11322    11273    11186    11232    11325 
   11407    11465    11484    11446    11333    11210    11188    11264 
   11354    11441    11508    11472    11358    11252    11186    11186 
   11261    11384    11429    11326    11256    11303    11308    11286 
   11354    11402    11337    11291    11310    11334    11406    11437 
   11291    11165    11271    11391    11292    11227    11402    11554 
   11518    11371    11227    11290    11487    11322    10925    11048 
   11506    11635    11558    11457    11256    11159    11229    11205 
   11122    11245    11489    11588    11461    11222    11133    11331 
   11542    11421    11164    11248    11523    11479    11198    11110 
   11290    11514    11535    11310    11155    11306    11503    11438 
   11209    11122    11319    11533    11392    11043    11049    11510 
   11724    11318    11006    11341    11682    11402    10980    11128 
   11676    11831    11317    10804    10971    11430    11449    11284 
   11442    11608    11443    11182    11040    11068    11333    11566 
   11396    11205    11414    11554    11427    11458    11535    11279 
   10994    11124    11425    11527    11470    11329    11213    11264 
   11310    11210    11148    11261    11445    11470    11286    11146 
   11279    11526    11488    11171    11072    11318    11485    11410 
   11423    11620    11669    11507    11380    11286    11149    11149 
   11291    11308    11165    11088    11215    11383    11340    11196 
   11276    11475    11506    11473    11446    11364    11387    11356 
   10932    10581    10887    11506    11873    11917    11732    11383 
   11053    11048    11510    12005    11865    11194    10829    10986 
   11065    11068    11481    11894    11637    11005    10536    10403 
   10886    11834    12283    11932    11605    11761    11800    11129 
   10451    10885    11863    11780    10666    10195    11022    11774 
   11140    10083    10543    12301    13247    12604    11588    11168 
   11234    11353    11090    10727    11144    11871    11439    10233 
   10207    11580    12571    12397    11739    11003    10509    10770 
   11257    11284    11419    11767    11399    10489    10180    10767 
   11728    12449    12495    11897    11064    10528    10706    11423 
   12260    13035    13023    11569     9670     8889     9543    10917 
   12190    12650    12118    11368    11124    11083    10882    10962 
   11470    11796    11761    11635    11335    10785    10389    10628 
   11361    11911    12082    12297    12352    11584    10459    10112 
   10666    11466    11948    11904    11678    11488    10930    10137 
    9960    10629    11693    12600    12700    12017    11362    11022 
   10766    10712    11092    11804    12328    12063    11190    10605 
   10708    11134    11430    11458    11422    11533    11562    11168 
   10694    10774    11345    11853    11831    11206    10625    10787 
   11348    11659    11762    11684    11345    11156    11206    11047 
   10983    11653    12436    12275    11381    10642    10442    10825 
   11514    11819    11665    11657    11574    10902    10435    10856 
   11415    11642    11902    11973    11527    11140    10909    10473 
   10501    11271    11796    11794    11874    11978    11595    10839 
   10347    10462    11074    11808    12195    12104    11701    11250 
   11079    11155    11213    11329    11603    11734    11438    11009 
   10881    10968    11063    11246    11612    11936    11819    11294 
   10926    10935    10979    11013    11318    11776    11854    11450 
   11098    11102    11099    10886    11065    11759    12044    11684 
   11269    10990    10945    11265    11466    11253    11331    11823 
   11799    11259    11075    11310    11502    11499    11290    11013 
   11080    11507    11699    11407    11160    11271    11213    10832 
   10889    11456    11653    11372    11183    11065    10936    11099 
   11464    11731    11963    12118    11778    11021    10639    10791 
   10986    11371    11951    11915    11290    11040    11240    11303 
   11250    11365    11566    11651    11611    11526    11376    11099 
   10783    10577    10600    11106    11904    12114    11664    11488 
   11587    11253    10889    11091    11379    11464    11551    11367 
   10989    11134    11608    11583    11207    11101    11237    11389 
   11495    11465    11429    11539    11506    11136    10945    11207 
   11365    11203    11180    11348    11349    11295    11433    11515 
   11442    11504    11537    11311    11254    11480    11407    11095 
   11087    11190    11164    11275    11381    11267    11302    11450 
   11213    10939    11217    11645    11703    11583    11479    11400 
   11392    11288    11064    11078    11385    11628    11603    11439 
   11298    11254    11322    11306    11038    10841    11045    11377 
   11492    11453    11411    11477    11589    11391    10991    11072 
   11595    11778    11487    11227    11218    11346    11414    11338 
   11394    11661    11670    11279    10944    10905    11022    11196 
   11446    11712    11743    11442    11142    11067    11065    11041 
   11036    11115    11400    11754    11696    11206    10971    11260 
   11545    11545    11491    11524    11608    11614    11345    10976 
   10993    11314    11348    11072    11007    11277    11546    11603 
   11539    11454    11344    11340    11495    11492    11240    11105 
   11199    11179    10959    10948    11254    11556    11718    11731 
   11578    11479    11506    11318    10937    10882    11206    11479 
   11578    11566    11360    11136    11176    11295    11226    11176 
   11392    11705    11797    11495    11041    10975    11179    11078 
   10843    11067    11719    12209    12112    11601    11186    11115 
   11136    10975    10820    10984    11399    11615    11438    11222 
   11249    11368    11315    11124    11121    11379    11580    11549 
   11408    11341    11438    11549    11430    11186    11097    11130 
   11149    11291    11618    11835    11738    11487    11225    10928 
   10789    10983    11321    11570    11722    11784    11632    11303 
   10984    10801    10847    11115    11452    11595    11446    11256 
   11281    11489    11628    11506    11272    11318    11639    11715 
   11391    11142    11198    11194    10941    10837    11219    11745 
   11831    11508    11283    11337    11402    11288    11122    11169 
   11411    11419    11094    10984    11286    11488    11453    11535 
   11591    11354    11141    11155    11259    11399    11412    11157 
   10956    11118    11358    11346    11295    11473    11643    11503 
   11246    11198    11354    11570    11632    11427    11286    11368 
   11367    11245    11219    11290    11361    11330    11202    11205 
   11375    11450    11369    11326    11391    11431    11292    11098 
   11153    11369    11377    11230    11264    11385    11340    11337 
   11529    11596    11466    11381    11256    11040    11097    11419 
   11502    11327    11272    11329    11323    11310    11369    11437 
   11450    11443    11435    11357    11233    11199    11219    11202 
   11273    11454    11439    11195    11167    11429    11493    11276 
   11169    11225    11279    11360    11372    11257    11268    11416 
   11404    11190    11130    11462    11815    11659    11244    11225 
   11439    11308    11032    11084    11380    11574    11460    11091 
   10851    11052    11481    11724    11700    11604    11565    11483 
   11257    11052    11061    11210    11268    11196    11187    11348 
   11515    11543    11520    11453    11257    11117    11214    11361 
   11388    11358    11322    11310    11322    11230    11095    11196 
   11475    11551    11466    11541    11651    11511    11280    11199 
   11196    11146    11094    11111    11241    11434    11507    11402 
   11310    11333    11340    11253    11211    11276    11325    11348 
   11439    11502    11422    11358    11419    11460    11414    11315 
   11179    11151    11348    11551    11514    11372    11271    11115 
