Origin Time       2018/04/09 06:38:00
Lat.              35.2
Long.             132.6
Depth. (km)       10
Mag.              3.8
Station Code      TTRH02
Station Lat.      35.2313
Station Long.     133.3909
Station Height(m) 310
Record Time       2018/04/09 06:39:10
Sampling Freq(Hz) 100Hz
Duration Time(s)  120
Dir.              3
Scale Factor      2942(gal)/8224139
Max. Acc. (gal)   0.272
Last Correction   2018/04/09 06:38:55
Memo.             
[...]
 -129055  -129054  -129053  -129051  -129051  -129053  -129053  -129050 
 -129053  -129057  -129055  -129053  -129051  -129053  -129054  -129057 
 -129058  -129054  -129053  -129053  -129054  -129055  -129058  -129057 
 -129053  -129051  -129054  -129058  -129057  -129055  -129054  -129054 
 -129055  -129055  -129053  -129053  -129054  -129053  -129053  -129054 
 -129055  -129055  -129055  -129054  -129051  -129053  -129054  -129053 
 -129055  -129057  -129054  -129051  -129053  -129051  -129053  -129057 
 -129057  -129054  -129054  -129053  -129053  -129053  -129053  -129054 
 -129054  -129054  -129054  -129054  -129055  -129055  -129054  -129055 
 -129054  -129055  -129057  -129053  -129051  -129055  -129055  -129053 
 -129054  -129057  -129055  -129053  -129054  -129054  -129053  -129054 
 -129055  -129055  -129055  -129055  -129055  -129057  -129057  -129054 
 -129054  -129055  -129054  -129055  -129055  -129053  -129054  -129055 
 -129053  -129051  -129053  -129054  -129054  -129055  -129057  -129054 
 -129054  -129055  -129057  -129058  -129057  -129055  -129053  -129053 
 -129054  -129053  -129053  -129055  -129055  -129054  -129055  -129057 
 -129054  -129055  -129055  -129053  -129054  -129054  -129051  -129051 
 -129054  -129055  -129053  -129050  -129053  -129057  -129057  -129055 
 -129054  -129053  -129054  -129055  -129054  -129053  -129053  -129051 
 -129053  -129055  -129055  -129054  -129053  -129053  -129054  -129055 
 -129054  -129054  -129054  -129051  -129053  -129054  -129051  -129054 
 -129058  -129054  -129053  -129054  -129054  -129051  -129049  -129053 
 -129055  -129053  -129051  -129053  -129054  -129054  -129051  -129054 
 -129055  -129051  -129050  -129053  -129054  -129054  -129051  -129053 
 -129054  -129055  -129053  -129053  -129054  -129055  -129053  -129053 
 -129053  -129054  -129053  -129051  -129051  -129054  -129055  -129055 
 -129053  -129054  -129057  -129055  -129055  -129055  -129050  -129051 
 -129057  -129053  -129051  -129055  -129055  -129051  -129053  -129057 
 -129054  -129050  -129051  -129053  -129055  -129058  -129055  -129053 
 -129054  -129055  -129055  -129055  -129051  -129049  -129053  -129055 
 -129054  -129054  -129053  -129054  -129057  -129055  -129054  -129053 
 -129053  -129054  -129055  -129054  -129053  -129051  -129053  -129054 
 -129053  -129051  -129053  -129051  -129053  -129054  -129051  -129050 
 -129051  -129055  -129055  -129053  -129053  -129053  -129053  -129053 
 -129054  -129054  -129051  -129051  -129054  -129053  -129051  -129051 
 -129051  -129053  -129054  -129054  -129054  -129054  -129054  -129054 
 -129053  -129053  -129054  -129054  -129055  -129055  -129054  -129053 
 -129054  -129054  -129053  -129054  -129055  -129054  -129054  -129057 
 -129055  -129054  -129055  -129055  -129051  -129051  -129055  -129055 
 -129050  -129051  -129057  -129060  -129057  -129055  -129054  -129055 
 -129054  -129053  -129055  -129055  -129051  -129054  -129057  -129057 
 -129054  -129054  -129054  -129053  -129053  -129053  -129053  -129055 
 -129055  -129051  -129053  -129054  -129053  -129054  -129055  -129051 
 -129051  -129054  -129053  -129053  -129053  -129050  -129050  -129054 
 -129055  -129053  -129054  -129053  -129053  -129054  -129054  -129051 
 -129054  -129057  -129054  -129053  -129055  -129055  -129053  -129050 
 -129051  -129051  -129051  -129053  -129057  -129057  -129054  -129053 
 -129053  -129054  -129055  -129053  -129054  -129054  -129051  -129053 
 -129053  -129053  -129051  -129051  -129053  -129054  -129054  -129053 
 -129053  -129053  -129051  -129053  -129053  -129051  -129054  -129054 
 -129051  -129054  -129055  -129053  -129053  -129054  -129051  -129050 
 -129053  -129054  -129053  -129050  -129051  -129053  -129051  -129054 
 -129057  -129054  -129053  -129054  -129054  -129051  -129049  -129053 
 -129055  -129055  -129055  -129054  -129051  -129051  -129053  -129051 
 -129051  -129054  -129054  -129051  -129051  -129055  -129054  -129051 
 -129053  -129057  -129057  -129051  -129051  -129054  -129053  -129053 
 -129055  -129054  -129050  -129051  -129053  -129053  -129053  -129053 
 -129053  -129053  -129053  -129051  -129051  -129054  -129053  -129054 
 -129055  -129053  -129050  -129051  -129051  -129051  -129054  -129054 
 -129053  -129054  -129054  -129053  -129053  -129054  -129055  -129051 
 -129050  -129054  -129054  -129053  -129053  -129054  -129055  -129057 
 -129055  -129057  -129055  -129053  -129053  -129054  -129053  -129053 
 -129054  -129053  -129051  -129054  -129055  -129053  -129053  -129053 
 -129053  -129055  -129057  -129054  -129051  -129053  -129053  -129054 
 -129054  -129054  -129055  -129058  -129057  -129054  -129053  -129054 
 -129054  -129053  -129051  -129051  -129053  -129054  -129055  -129054 
 -129053  -129054  -129054  -129051  -129051  -129054  -129054  -129054 
 -129053  -129051  -129053  -129054  -129055  -129055  -129054  -129051 
 -129053  -129055  -129055  -129054  -129054  -129053  -129054  -129053 
 -129053  -129054  -129053  -129053  -129057  -129058  -129057  -129055 
 -129055  -129055  -129061  -129069  -129082  -129103  -129122  -129130 
 -129130  -129138  -129176  -129240  -129282  -129196  -128956  -128727 
 -128707  -128854  -128941  -128919  -128942  -128996  -128887  -128668 
 -128652  -128926  -129235  -129358  -129303  -129163  -129034  -128992 
 -129103  -129311  -129401  -129284  -129146  -129141  -129189  -129196 
 -129099  -128903  -128811  -128933  -129146  -129273  -129116  -128796 
 -128740  -128969  -129189  -129195  -128903  -128690  -128923  -129172 
 -128946  -128622  -128752  -129118  -129313  -129325  -129168  -129015 
 -129176  -129451  -129405  -129141  -129068  -129168  -129114  -128908 
 -128821  -128918  -129097  -129234  -129169  -128954  -128865  -128972 
 -129095  -129057  -128907  -128908  -129155  -129284  -128993  -128726 
 -128911  -129200  -129209  -129033  -128942  -129078  -129270  -129271 
 -129084  -128907  -129018  -129303  -129212  -128877  -128889  -129058 
 -128985  -128817  -128807  -129015  -129201  -129136  -128968  -128864 
 -128946  -129177  -129143  -128888  -128979  -129271  -129231  -128983 
 -128881  -129007  -129226  -129282  -129161  -129131  -129269  -129262 
 -129080  -129018  -129006  -128958  -129007  -129051  -129004  -128943 
 -128885  -128857  -128960  -129070  -129019  -128997  -129045  -129028 
 -129091  -129150  -129058  -129014  -129104  -129209  -129227  -129165 
 -129082  -128988  -128999  -129123  -129127  -129015  -128969  -128991 
 -129019  -129031  -129058  -129149  -129201  -129116  -128954  -128869 
 -128912  -128968  -128972  -128969  -129000  -129057  -129096  -129055 
 -128972  -129030  -129192  -129244  -129231  -129182  -129065  -128983 
 -129031  -129143  -129162  -129099  -129034  -128957  -128923  -128945 
 -128973  -129001  -129030  -129065  -129049  -128989  -129035  -129126 
 -129066  -128950  -128973  -129084  -129161  -129168  -129089  -129019 
 -129069  -129097  -129077  -129163  -129199  -129122  -129134  -129119 
 -128995  -128957  -129015  -129077  -129076  -128973  -128945  -129000 
 -128979  -128979  -129026  -129012  -129014  -129047  -129041  -129042 
 -129055  -129041  -129022  -128949  -128922  -129082  -129205  -129182 
 -129146  -129085  -129065  -129111  -129068  -129045  -129166  -129186 
 -129054  -129001  -129062  -129143  -129139  -129051  -129007  -128996 
 -128977  -128992  -128991  -128957  -129010  -129107  -129115  -129045 
 -128972  -129023  -129173  -129196  -129097  -129020  -129001  -129043 
 -129054  -128983  -128929  -128964  -129050  -129096  -129045  -128972 
 -129012  -129105  -129081  -129019  -129027  -129057  -129099  -129128 
 -129101  -129045  -128995  -129001  -129054  -129092  -129128  -129184 
 -129162  -129022  -128973  -129070  -129076  -129015  -129087  -129188 
 -129143  -129006  -128956  -129023  -129054  -129039  -129074  -129085 
 -129022  -128957  -128937  -128965  -129053  -129145  -129119  -129016 
 -128974  -129024  -129136  -129157  -129034  -128987  -129053  -129139 
 -129200  -129100  -128923  -128969  -129186  -129254  -129118  -128962 
 -128911  -128972  -129041  -129053  -129050  -129028  -129007  -129038 
 -129084  -129116  -129107  -129033  -129004  -129038  -129054  -129084 
 -129084  -129015  -128997  -129022  -129016  -129047  -129092  -129069 
 -129061  -129114  -129089  -129016  -129038  -129105  -129122  -129077 
 -129031  -129026  -129022  -129060  -129109  -129080  -129022  -128965 
 -128973  -129082  -129131  -129103  -129081  -129026  -129011  -129054 
 -129028  -129037  -129138  -129131  -129014  -128989  -129030  -129018 
 -129047  -129124  -129122  -129069  -129024  -128979  -128973  -129064 
 -129162  -129132  -129018  -128979  -129038  -129097  -129097  -129088 
 -129120  -129116  -129018  -128952  -128991  -129066  -129119  -129103 
 -129054  -129046  -129022  -129015  -129078  -129070  -128996  -129045 
 -129150  -129104  -128949  -128915  -129016  -129093  -129143  -129149 
 -129027  -128930  -129028  -129115  -129030  -129004  -129070  -129042 
 -129014  -129060  -129039  -129014  -129087  -129099  -129037  -129084 
 -129176  -129135  -129022  -128989  -129030  -129084  -129142  -129128 
 -129008  -128970  -129077  -129072  -128957  -128992  -129112  -129099 
 -129008  -128976  -128985  -129014  -129074  -129096  -129022  -128981 
 -129066  -129134  -129109  -129089  -129120  -129158  -129112  -129018 
 -129034  -129101  -129073  -129049  -129108  -129096  -128999  -129020 
 -129105  -129072  -129003  -129020  -129047  -129014  -128997  -129020 
 -129014  -129004  -129031  -129050  -129062  -129074  -129035  -128980 
 -129003  -129089  -129136  -129107  -129073  -129065  -129033  -129006 
 -129028  -129095  -129142  -129080  -129012  -129049  -129064  -129024 
 -129023  -129047  -129072  -129107  -129123  -129096  -129038  -128988 
 -128983  -129016  -129072  -129109  -129072  -129027  -129069  -129096 
 -129001  -128937  -129045  -129158  -129132  -129054  -129010  -129041 
 -129114  -129099  -129012  -128969  -129037  -129145  -129092  -128939 
 -128938  -129089  -129195  -129085  -128914  -128956  -129107  -129184 
 -129168  -129041  -128931  -128988  -129089  -129091  -129054  -129091 
 -129099  -129020  -129037  -129082  -128999  -128989  -129114  -129100 
 -128945  -128946  -129088  -129143  -129130  -129072  -128974  -129012 
 -129123  -129088  -129003  -129045  -129131  -129103  -129024  -129042 
 -129078  -129046  -129058  -129134  -129120  -129047  -129019  -128970 
 -128981  -129095  -129089  -129000  -129024  -129089  -129093  -129043 
 -128983  -129011  -129126  -129153  -129037  -128929  -128947  -129049 
 -129120  -129092  -129019  -129019  -129085  -129097  -129016  -128996 
 -129084  -129134  -129142  -129120  -129016  -128981  -129068  -129084 
 -129039  -129066  -129095  -129082  -129068  -129038  -129023  -129022 
 -129007  -129028  -129054  -129050  -129074  -129087  -129051  -129011 
 -128991  -129006  -129068  -129131  -129126  -129061  -129026  -129035 
 -129026  -128980  -128966  -129024  -129120  -129196  -129119  -128942 
 -128941  -129091  -129139  -129082  -129058  -129070  -129058  -129072 
 -129070  -129010  -129026  -129116  -129141  -129065  -128945  -128946 
 -129088  -129169  -129074  -128950  -129027  -129196  -129163  -129007 
 -128956  -129031  -129101  -129082  -129014  -128962  -129022  -129165 
 -129173  -129012  -128903  -128969  -129130  -129224  -129151  -129001 
 -128970  -129023  -129057  -129122  -129145  -129047  -129010  -129066 
 -129081  -129069  -129022  -128949  -128962  -129023  -129049  -129055 
 -129072  -129109  -129115  -129045  -128988  -129012  -129028  -129015 
 -129055  -129101  -129066  -129030  -129050  -129073  -129080  -129076 
 -129087  -129104  -129037  -128972  -129058  -129154  -129115  -129050 
 -129055  -129064  -129046  -129073  -129104  -129053  -129022  -129069 
 -129085  -129066  -129022  -128954  -129014  -129135  -129074  -128925 
 -128950  -129091  -129123  -129068  -129008  -128958  -129014  -129154 
 -129184  -129074  -128997  -129053  -129124  -129104  -129070  -129072 
 -129092  -129105  -129038  -128960  -129001  -129097  -129108  -129054 
 -129027  -129060  -129105  -129054  -128937  -128939  -129069  -129145 
 -129088  -128989  -128995  -129095  -129122  -129042  -128983  -129023 
 -129120  -129165  -129085  -128997  -129038  -129088  -129041  -129010 
 -129077  -129165  -129118  -128938  -128864  -129000  -129189  -129234 
 -129107  -128979  -128942  -128997  -129104  -129119  -129078  -129131 
 -129161  -129051  -128958  -129023  -129095  -129078  -129099  -129058 
 -128910  -128889  -128996  -129060  -129043  -128974  -128935  -128987 
 -129100  -129172  -129124  -129030  -129008  -129115  -129205  -129092 
 -128957  -129042  -129201  -129213  -129107  -129030  -129069  -129158 
 -129150  -129038  -128957  -128960  -128976  -128954  -128929  -128956 
 -129011  -129047  -129053  -129008  -128973  -129061  -129166  -129077 
 -128981  -129099  -129189  -129119  -129076  -129088  -129061  -129047 
 -129095  -129104  -129064  -129132  -129267  -129220  -128947  -128745 
 -128827  -129008  -129150  -129288  -129190  -128821  -128652  -128915 
 -129273  -129342  -129177  -129024  -128854  -128673  -128688  -128864 
 -129026  -129228  -129497  -129536  -129203  -128914  -128997  -129142 
 -129070  -129068  -129297  -129365  -129091  -128849  -128903  -129077 
 -129072  -128829  -128660  -128865  -129257  -129385  -129051  -128467 
 -128297  -128942  -129667  -129595  -129045  -128852  -129060  -129103 
 -128939  -128946  -129122  -129238  -129234  -129064  -128773  -128779 
 -129259  -129570  -129213  -128814  -129064  -129504  -129401  -128934 
 -128775  -129030  -129177  -129120  -129165  -129066  -128745  -128757 
 -129003  -128900  -128692  -128825  -129053  -129085  -129024  -129051 
 -129132  -129099  -128970  -128895  -128953  -129122  -129293  -129347 
 -129203  -128956  -128869  -129104  -129415  -129396  -129130  -129026 
 -129242  -129423  -129158  -128736  -128656  -128818  -128911  -128996 
 -129146  -129111  -128943  -128935  -128966  -128969  -129016  -129010 
 -129045  -129124  -129051  -129066  -129239  -129213  -129153  -129231 
 -129123  -128914  -128962  -129112  -129096  -129016  -128973  -128962 
 -128989  -128997  -129050  -129199  -129215  -129065  -129026  -129069 
 -128992  -128880  -128865  -128943  -129073  -129132  -129000  -128790 
 -128794  -129084  -129335  -129253  -129003  -128995  -129236  -129320 
 -129126  -129035  -129217  -129259  -129062  -129035  -129109  -129043 
 -128976  -128991  -129031  -129064  -129100  -129058  -128861  -128844 
 -129038  -129020  -128961  -129130  -129176  -128984  -128970  -129145 
 -129169  -129135  -129181  -129165  -129085  -129007  -128895  -128853 
 -129008  -129173  -129134  -129008  -129015  -129060  -128931  -128831 
 -128938  -129058  -129034  -128876  -128833  -128991  -129034  -128957 
 -129014  -129155  -129211  -129188  -129176  -129204  -129270  -129249 
 -129088  -129051  -129189  -129228  -129107  -128977  -128996  -129092 
 -129066  -129006  -129007  -129007  -129031  -129127  -129149  -128972 
 -128846  -128926  -129030  -129162  -129212  -128947  -128661  -128776 
 -129123  -129199  -129019  -129008  -129088  -129047  -129018  -128985 
 -128937  -128976  -129019  -129035  -129108  -129170  -129055  -128852 
 -128947  -129274  -129311  -129186  -129254  -129312  -129227  -129100 
 -129055  -129163  -129224  -129146  -129091  -128980  -128794  -128864 
 -129149  -129213  -129082  -129024  -128988  -128964  -129031  -129037 
 -128979  -128968  -128896  -128879  -129006  -128996  -128919  -129016 
 -129134  -129138  -129107  -129046  -129033  -129147  -129153  -129012 
 -129045  -129146  -129078  -129030  -129082  -129100  -129091  -129069 
 -128970  -128918  -129050  -129172  -129073  -128895  -128875  -129019 
 -129116  -129037  -128929  -128985  -129091  -129016  -128934  -129081 
 -129231  -129172  -129103  -129147  -129103  -128981  -129042  -129142 
 -129045  -128974  -129078  -129126  -129028  -128985  -128999  -128947 
 -128954  -129039  -129046  -129081  -129189  -129105  -128929  -129024 
 -129224  -129224  -129169  -129153  -129087  -129072  -129158  -129158 
 -129070  -129087  -129190  -129174  -129011  -128915  -128956  -128964 
 -128952  -129043  -129150  -129161  -129084  -129014  -129020  -129019 
 -128973  -128987  -129030  -128987  -128927  -128943  -128952  -128938 
 -128980  -129003  -128985  -129038  -129134  -129166  -129115  -129047 
 -129027  -128970  -128877  -128943  -129108  -129130  -129077  -129115 
 -129127  -129073  -129076  -129078  -129030  -129046  -129115  -129176 
 -129246  -129189  -129031  -129055  -129180  -129151  -129055  -129057 
 -129118  -129097  -129030  -129018  -128953  -128864  -128974  -129095 
 -129003  -129003  -129169  -129161  -128947  -128811  -128910  -129111 
 -129159  -129058  -129034  -129095  -129076  -129041  -129076  -129011 
 -128899  -128984  -129154  -129222  -129212  -129131  -129053  -129077 
 -129092  -128996  -128908  -128958  -129080  -129132  -129097  -129062 
 -129065  -129078  -129015  -128877  -128879  -129045  -129174  -129197 
 -129095  -128997  -129068  -129112  -129043  -129026  -129045  -129070 
 -129088  -129030  -128964  -129014  -129091  -129041  -128973  -128970 
 -128938  -128983  -129122  -129116  -129037  -129078  -129139  -129163 
 -129163  -129134  -129123  -129097  -129080  -129132  -129116  -129070 
 -129132  -129104  -128965  -129001  -129146  -129151  -129080  -129054 
 -129062  -129064  -129016  -128958  -128946  -128945  -128943  -129014 
 -129100  -129107  -129074  -129069  -129060  -129008  -128985  -128984 
 -128969  -129043  -129132  -129088  -129065  -129165  -129165  -129045 
 -129057  -129142  -129088  -128992  -129006  -129054  -129043  -129030 
 -129022  -128968  -128952  -128979  -128956  -128947  -129012  -129069 
 -129087  -129065  -129030  -129024  -129033  -129055  -129096  -129088 
 -129055  -129096  -129135  -129069  -129016  -129118  -129230  -129165 
 -129035  -128995  -129066  -129181  -129145  -129014  -129058  -129157 
 -129087  -129003  -129034  -129065  -129043  -129058  -129076  -129018 
 -129028  -129127  -129119  -129087  -129127  -129107  -129055  -129092 
 -129128  -129099  -129078  -129080  -129047  -128987  -128949  -128953 
 -128943  -128939  -129001  -129031  -128958  -128926  -128991  -129011 
 -128989  -129062  -129158  -129173  -129176  -129146  -129041  -129031 
 -129186  -129261  -129150  -129066  -129061  -128988  -128927  -128981 
 -129049  -129051  -129000  -128943  -128952  -128999  -128995  -128966 
 -128968  -129026  -129116  -129124  -129055  -129046  -129081  -129080 
 -129069  -129064  -129047  -129027  -128997  -129023  -129119  -129159 
 -129116  -129065  -129010  -128993  -129077  -129168  -129158  -129123 
 -129149  -129177  -129089  -128958  -129023  -129169  -129126  -129030 
 -129022  -129045  -129095  -129118  -129061  -129041  -129124  -129173 
 -129066  -128950  -129011  -129157  -129174  -129028  -128892  -128939 
 -129072  -129066  -128969  -128953  -129016  -129072  -129080  -129070 
 -129045  -128987  -128945  -128950  -128993  -129047  -129066  -129041 
 -129033  -129061  -129084  -129091  -129118  -129135  -129093  -129024 
 -128993  -129018  -129033  -129012  -129022  -129041  -129031  -129046 
