Origin Time       2018/04/09 06:38:00
Lat.              35.2
Long.             132.6
Depth. (km)       10
Mag.              3.8
Station Code      TTRH02
Station Lat.      35.2313
Station Long.     133.3909
Station Height(m) 310
Record Time       2018/04/09 06:39:10
Sampling Freq(Hz) 100Hz
Duration Time(s)  120
Dir.              2
Scale Factor      2942(gal)/8224139
Max. Acc. (gal)   0.371
Last Correction   2018/04/09 06:38:55
Memo.             
[...]
  168658   168654   168656   168655   168654   168654   168654   168654 
  168655   168655   168655   168658   168654   168651   168654   168654 
  168652   168652   168654   168655   168654   168652   168654   168654 
  168651   168651   168655   168656   168655   168654   168656   168656 
  168655   168655   168655   168655   168655   168652   168652   168656 
  168655   168652   168652   168654   168655   168656   168654   168652 
  168655   168656   168654   168655   168655   168652   168655   168659 
  168655   168654   168656   168654   168652   168654   168656   168658 
  168658   168658   168655   168654   168654   168654   168654   168655 
  168655   168655   168655   168655   168654   168655   168655   168654 
  168654   168658   168654   168650   168651   168652   168652   168655 
  168656   168655   168655   168654   168652   168655   168654   168655 
  168658   168654   168652   168656   168655   168652   168652   168654 
  168656   168658   168655   168652   168652   168654   168654   168654 
  168654   168654   168652   168652   168654   168654   168654   168651 
  168651   168652   168654   168655   168655   168655   168654   168654 
  168655   168654   168655   168655   168654   168654   168654   168654 
  168658   168658   168658   168658   168655   168654   168656   168656 
  168654   168655   168655   168655   168654   168652   168654   168654 
  168655   168655   168652   168654   168655   168652   168651   168654 
  168654   168652   168654   168654   168655   168654   168652   168654 
  168654   168655   168655   168655   168656   168658   168654   168651 
  168654   168656   168654   168655   168655   168652   168652   168654 
  168652   168651   168652   168652   168655   168656   168654   168652 
  168652   168650   168648   168650   168651   168652   168654   168654 
  168652   168655   168655   168652   168652   168655   168655   168652 
  168652   168654   168652   168654   168655   168656   168655   168652 
  168652   168655   168654   168655   168655   168654   168654   168654 
  168654   168655   168655   168656   168658   168655   168655   168656 
  168652   168650   168652   168655   168655   168654   168655   168654 
  168654   168655   168655   168655   168655   168654   168654   168655 
  168656   168656   168654   168652   168654   168655   168655   168655 
  168652   168652   168655   168654   168654   168656   168654   168654 
  168655   168655   168655   168652   168654   168656   168652   168650 
  168656   168655   168651   168658   168658   168651   168655   168656 
  168650   168651   168656   168655   168654   168654   168654   168655 
  168655   168654   168654   168656   168654   168651   168655   168658 
  168654   168654   168654   168651   168654   168655   168654   168651 
  168650   168654   168656   168654   168654   168654   168652   168654 
  168658   168656   168655   168654   168654   168654   168654   168655 
  168652   168654   168656   168654   168652   168655   168655   168654 
  168654   168652   168652   168654   168656   168655   168652   168652 
  168654   168654   168654   168654   168652   168654   168655   168655 
  168654   168654   168650   168648   168652   168655   168654   168654 
  168654   168652   168654   168655   168654   168652   168655   168655 
  168654   168654   168652   168650   168652   168655   168652   168652 
  168654   168652   168652   168655   168656   168655   168654   168655 
  168654   168651   168652   168654   168654   168652   168652   168654 
  168652   168652   168654   168654   168652   168652   168652   168652 
  168654   168655   168656   168654   168651   168654   168655   168654 
  168654   168654   168655   168655   168654   168655   168655   168654 
  168651   168650   168655   168658   168655   168654   168654   168656 
  168658   168655   168652   168651   168652   168655   168658   168656 
  168655   168654   168654   168655   168655   168654   168654   168652 
  168654   168656   168655   168651   168654   168655   168655   168654 
  168654   168655   168655   168654   168654   168654   168654   168655 
  168654   168652   168651   168652   168654   168655   168656   168656 
  168655   168655   168655   168655   168656   168655   168654   168654 
  168654   168656   168655   168654   168654   168655   168656   168655 
  168652   168652   168652   168654   168656   168656   168654   168654 
  168654   168652   168654   168655   168654   168654   168654   168654 
  168655   168655   168654   168654   168655   168654   168655   168655 
  168655   168655   168652   168651   168655   168656   168655   168652 
  168656   168656   168652   168654   168656   168652   168652   168656 
  168655   168656   168656   168654   168654   168655   168655   168655 
  168656   168656   168654   168654   168658   168656   168651   168651 
  168654   168654   168650   168643   168632   168615   168593   168578 
  168569   168565   168558   168535   168494   168496   168605   168810 
  169014   169132   169130   168990   168724   168466   168355   168378 
  168470   168683   168918   168840   168451   168254   168459   168696 
  168706   168736   168986   169167   168968   168623   168485   168446 
  168343   168386   168615   168745   168740   168732   168712   168612 
  168397   168238   168373   168593   168669   168812   168966   168910 
  168840   168832   168729   168682   168716   168538   168440   168759 
  168944   168721   168542   168488   168389   168461   168625   168578 
  168619   168891   168949   168713   168528   168507   168536   168520 
  168497   168687   168991   168987   168701   168504   168604   168814 
  168739   168546   168623   168698   168593   168619   168642   168434 
  168312   168389   168561   168817   168863   168646   168552   168666 
  168912   169086   168843   168551   168664   168763   168593   168431 
  168489   168689   168689   168540   168528   168625   168754   168756 
  168651   168747   168922   168829   168662   168619   168585   168548 
  168470   168401   168573   168794   168737   168569   168570   168690 
  168702   168589   168548   168686   168809   168664   168500   168615 
  168786   168825   168774   168713   168698   168697   168675   168639 
  168624   168613   168631   168670   168589   168473   168484   168593 
  168733   168791   168728   168659   168663   168654   168550   168497 
  168681   168874   168820   168745   168763   168685   168554   168523 
  168570   168605   168675   168786   168729   168529   168432   168501 
  168627   168678   168635   168633   168698   168644   168528   168643 
  168814   168764   168662   168650   168662   168646   168693   168758 
  168706   168664   168640   168546   168524   168585   168613   168629 
  168647   168683   168797   168801   168644   168640   168708   168617 
  168579   168647   168620   168615   168759   168820   168681   168540 
  168528   168656   168799   168736   168571   168590   168689   168667 
  168616   168625   168628   168648   168743   168770   168682   168596 
  168567   168592   168586   168571   168613   168651   168691   168733 
  168700   168620   168604   168605   168619   168733   168745   168578 
  168528   168621   168643   168651   168743   168782   168727   168663 
  168662   168689   168654   168617   168631   168650   168613   168570 
  168652   168739   168683   168639   168656   168628   168582   168593 
  168600   168577   168623   168752   168837   168763   168670   168693 
  168673   168583   168542   168586   168732   168789   168686   168629 
  168594   168524   168551   168643   168678   168667   168662   168696 
  168731   168617   168470   168539   168685   168724   168708   168683 
  168683   168716   168720   168716   168744   168708   168570   168488 
  168569   168696   168708   168644   168628   168673   168677   168625 
  168654   168682   168632   168655   168733   168741   168662   168543 
  168507   168612   168762   168804   168701   168659   168766   168778 
  168632   168507   168500   168565   168637   168709   168720   168700 
  168701   168629   168540   168548   168637   168712   168651   168585 
  168646   168662   168632   168632   168596   168610   168669   168662 
  168670   168698   168717   168739   168718   168640   168581   168596 
  168596   168624   168739   168781   168727   168652   168604   168606 
  168619   168628   168633   168663   168735   168717   168617   168632 
  168697   168644   168601   168659   168693   168696   168770   168763 
  168631   168575   168579   168604   168696   168739   168667   168621 
  168640   168598   168546   168596   168644   168663   168721   168716 
  168617   168610   168663   168647   168656   168700   168673   168625 
  168644   168708   168716   168619   168575   168724   168831   168694 
  168520   168535   168644   168702   168735   168678   168590   168663 
  168739   168669   168567   168525   168588   168713   168772   168701 
  168590   168550   168588   168651   168704   168713   168656   168606 
  168616   168604   168589   168697   168856   168824   168652   168554 
  168543   168588   168658   168669   168639   168662   168704   168736 
  168725   168639   168631   168679   168669   168687   168681   168598 
  168627   168728   168698   168642   168629   168605   168675   168701 
  168578   168581   168667   168601   168562   168640   168637   168636 
  168706   168683   168600   168583   168639   168670   168602   168589 
  168720   168798   168747   168696   168627   168548   168616   168732 
  168755   168723   168642   168578   168597   168613   168612   168686 
  168758   168682   168635   168721   168664   168513   168592   168756 
  168721   168619   168658   168755   168736   168629   168606   168669 
  168671   168590   168542   168604   168696   168678   168581   168586 
  168714   168759   168637   168540   168623   168755   168764   168654 
  168555   168559   168598   168617   168606   168610   168679   168770 
  168802   168716   168616   168605   168648   168710   168706   168659 
  168685   168717   168639   168555   168602   168635   168554   168594 
  168763   168720   168593   168694   168766   168640   168542   168589 
  168694   168698   168609   168571   168632   168754   168756   168566 
  168507   168670   168733   168647   168598   168625   168660   168696 
  168702   168671   168714   168751   168662   168601   168632   168636 
  168569   168524   168567   168644   168693   168675   168642   168714 
  168808   168729   168597   168588   168628   168667   168690   168651 
  168651   168725   168705   168616   168627   168629   168585   168662 
  168766   168720   168631   168612   168604   168588   168606   168660 
  168694   168686   168679   168667   168660   168639   168589   168617 
  168693   168686   168655   168671   168659   168647   168646   168582 
  168594   168716   168737   168660   168637   168687   168736   168693 
  168597   168602   168671   168674   168655   168687   168733   168679 
  168598   168610   168629   168623   168608   168562   168585   168683 
  168708   168663   168689   168739   168696   168648   168654   168643 
  168602   168581   168673   168770   168698   168606   168624   168650 
  168636   168627   168616   168610   168667   168717   168664   168596 
  168570   168612   168705   168724   168694   168691   168674   168625 
  168581   168569   168597   168673   168720   168659   168629   168694 
  168690   168670   168706   168643   168542   168571   168686   168764 
  168743   168683   168627   168619   168687   168728   168675   168579 
  168579   168656   168662   168646   168631   168604   168640   168664 
  168636   168686   168743   168718   168697   168678   168656   168606 
  168529   168578   168690   168720   168686   168628   168624   168674 
  168646   168589   168685   168766   168677   168620   168658   168663 
  168652   168655   168586   168535   168648   168721   168664   168647 
  168673   168674   168644   168633   168632   168643   168727   168774 
  168683   168588   168592   168629   168601   168567   168632   168720 
  168745   168690   168594   168613   168696   168664   168609   168625 
  168612   168569   168606   168679   168706   168712   168709   168698 
  168659   168608   168646   168727   168687   168625   168679   168686 
  168558   168480   168546   168678   168740   168690   168736   168879 
  168781   168565   168588   168643   168582   168623   168679   168647 
  168698   168708   168550   168570   168768   168755   168606   168581 
  168613   168608   168627   168689   168691   168633   168654   168712 
  168681   168647   168629   168586   168605   168606   168548   168597 
  168728   168723   168585   168612   168808   168833   168705   168706 
  168768   168685   168563   168527   168525   168536   168594   168763 
  168856   168700   168639   168822   168836   168598   168543   168708 
  168727   168597   168509   168517   168590   168623   168601   168524 
  168470   168640   168802   168660   168528   168594   168666   168739 
  168897   169047   168979   168736   168602   168581   168416   168158 
  168166   168442   168531   168339   168382   168833   169195   169268 
  169221   168975   168542   168281   168473   168944   169160   168876 
  168567   168544   168467   168313   168494   168882   168917   168586 
  168365   168427   168636   168874   168944   168647   168151   167960 
  168440   169233   169400   168674   167857   167741   168196   168636 
  168948   169287   169492   169226   168546   168039   168035   168331 
  168733   169134   169331   168991   168282   168123   168439   168204 
  167856   168548   169649   169692   168879   168525   168736   168720 
  168562   168762   169020   168898   168570   168372   168407   168579 
  168880   169152   169068   168697   168346   168222   168370   168696 
  168914   168714   168307   168147   168197   168296   168646   168944 
  168759   168654   168868   168844   168581   168353   168269   168507 
  168836   168914   168821   168612   168554   168939   169123   168685 
  168351   168450   168691   168955   168852   168454   168527   168960 
  168964   168529   168313   168524   168705   168559   168380   168374 
  168523   168899   169287   169423   169217   168644   168184   168211 
  168438   168538   168539   168540   168470   168408   168432   168432 
  168451   168643   168871   168874   168766   168698   168698   168767 
  168669   168500   168582   168631   168577   168740   168852   168712 
  168565   168556   168660   168663   168631   168767   168925   169037 
  169134   169165   168960   168442   168000   168092   168458   168498 
  168470   168871   169211   169032   168768   168723   168673   168577 
  168517   168482   168442   168439   168458   168338   168173   168158 
  168293   168500   168620   168593   168642   168933   169142   169044 
  168986   169030   168758   168220   168077   168494   169018   169294 
  169194   168863   168547   168434   168502   168534   168565   168720 
  168891   168821   168474   168237   168458   168856   168864   168685 
  168808   168972   168760   168461   168550   168836   168886   168606 
  168242   168200   168500   168775   168891   168826   168619   168546 
  168574   168521   168597   168693   168565   168596   168766   168629 
  168421   168407   168446   168523   168659   168801   168898   168916 
  168926   168955   168804   168521   168501   168779   168880   168590 
  168382   168555   168741   168718   168683   168777   168829   168662 
  168434   168423   168621   168754   168674   168517   168505   168697 
  168821   168678   168540   168646   168743   168669   168588   168617 
  168744   168856   168840   168656   168458   168373   168377   168466 
  168467   168462   168727   168880   168678   168662   168887   168891 
  168813   168816   168698   168525   168482   168446   168382   168488 
  168613   168596   168690   168937   168943   168646   168567   168697 
  168548   168399   168652   168821   168615   168615   168926   168967 
  168721   168590   168623   168621   168567   168555   168573   168608 
  168663   168693   168755   168793   168554   168259   168388   168629 
  168596   168596   168728   168817   168905   168856   168701   168736 
  168851   168779   168674   168735   168713   168508   168509   168714 
  168710   168509   168426   168531   168675   168702   168561   168470 
  168539   168586   168596   168678   168767   168751   168712   168764 
  168740   168667   168789   168843   168682   168725   168945   168943 
  168829   168774   168608   168408   168382   168332   168264   168454 
  168670   168650   168538   168579   168764   168775   168689   168724 
  168696   168617   168629   168637   168656   168694   168613   168625 
  168787   168702   168519   168600   168724   168670   168571   168538 
  168488   168443   168531   168639   168646   168693   168797   168768 
  168682   168702   168720   168689   168667   168655   168710   168770 
  168725   168689   168679   168620   168586   168616   168712   168763 
  168686   168737   168883   168729   168496   168600   168667   168448 
  168413   168600   168561   168389   168523   168787   168770   168701 
  168787   168783   168733   168763   168693   168542   168512   168554 
  168609   168721   168720   168566   168565   168718   168802   168759 
  168571   168421   168505   168666   168766   168791   168750   168694 
  168627   168624   168696   168690   168694   168745   168663   168589 
  168643   168682   168748   168829   168737   168596   168710   168930 
  168898   168670   168517   168527   168573   168542   168517   168632 
  168774   168725   168581   168509   168513   168600   168716   168737 
  168669   168632   168598   168521   168507   168477   168354   168366 
  168543   168640   168656   168658   168694   168813   168870   168777 
  168666   168600   168559   168687   168930   168922   168701   168552 
  168540   168608   168663   168677   168752   168889   168872   168732 
  168675   168654   168598   168507   168396   168417   168543   168594 
  168640   168736   168751   168747   168831   168851   168677   168470 
  168567   168885   168893   168663   168650   168702   168625   168571 
  168608   168642   168600   168593   168615   168488   168388   168512 
  168652   168592   168544   168682   168747   168687   168652   168605 
  168612   168766   168882   168808   168700   168691   168683   168658 
  168704   168718   168635   168644   168700   168559   168431   168548 
  168660   168635   168681   168781   168748   168654   168629   168647 
  168632   168578   168575   168600   168586   168648   168760   168751 
  168689   168710   168763   168763   168737   168714   168610   168448 
  168440   168593   168741   168777   168679   168617   168690   168737 
  168679   168651   168723   168771   168694   168579   168519   168498 
  168507   168571   168639   168644   168635   168608   168512   168466 
  168571   168754   168912   168924   168783   168701   168737   168763 
  168702   168578   168504   168573   168755   168852   168720   168566 
  168563   168581   168556   168555   168588   168623   168612   168558 
  168594   168732   168755   168644   168566   168588   168691   168764 
  168741   168708   168687   168639   168598   168652   168789   168831 
  168733   168662   168648   168605   168524   168496   168512   168477 
  168500   168660   168735   168650   168612   168647   168682   168696 
  168644   168631   168706   168735   168679   168613   168643   168754 
