Origin Time       2018/04/09 06:38:00
Lat.              35.2
Long.             132.6
Depth. (km)       10
Mag.              3.8
Station Code      HRSH07
Station Lat.      34.2883
Station Long.     132.6411
Station Height(m) 230
Record Time       2018/04/09 06:39:17
Sampling Freq(Hz) 100Hz
Duration Time(s)  120
Dir.              4
Scale Factor      7845(gal)/8223790
Max. Acc. (gal)   0.741
Last Correction   2018/04/09 06:39:02
Memo.             
[...]
    2168     2172     2174     2176     2176     2176     2174     2170 
    2169     2172     2173     2172     2173     2174     2174     2172 
    2172     2170     2166     2168     2173     2177     2177     2178 
    2174     2169     2169     2168     2169     2174     2174     2173 
    2173     2172     2172     2170     2170     2173     2174     2170 
    2170     2174     2176     2170     2170     2169     2165     2162 
    2161     2162     2162     2162     2161     2157     2151     2151 
    2149     2146     2150     2154     2165     2182     2180     2164 
    2178     2223     2250     2245     2223     2219     2236     2236 
    2203     2158     2135     2169     2249     2259     2143     2034 
    2083     2191     2176     2083     2054     2112     2188     2174 
    2099     2185     2407     2439     2273     2169     2165     2124 
    2002     1934     2096     2347     2378     2180     1971     1915 
    2035     2226     2320     2242     2176     2299     2381     2193 
    2091     2276     2332     2192     2128     2042     1877     1883 
    2107     2292     2228     2038     1965     2031     2151     2273 
    2305     2292     2344     2340     2227     2120     2062     2170 
    2332     2268     2187     2307     2316     2096     1972     2080 
    2182     2116     2085     2243     2339     2234     2174     2197 
    2106     1979     1965     2056     2247     2380     2259     2084 
    2135     2286     2258     2080     2018     2114     2189     2223 
    2234     2184     2192     2322     2311     2089     2019     2145 
    2160     2085     2145     2293     2319     2214     2127     2126 
    2177     2185     2097     2033     2108     2199     2215     2196 
    2164     2201     2272     2223     2143     2155     2100     1929 
    1907     2141     2338     2293     2258     2369     2313     2080 
    2010     2115     2195     2184     2116     2141     2319     2343 
    2101     2007     2154     2169     2061     2123     2231     2234 
    2307     2378     2258     2162     2246     2253     2122     2089 
    2158     2178     2145     2062     1976     2022     2149     2193 
    2201     2214     2168     2122     2096     2045     2100     2308 
    2416     2312     2214     2239     2266     2231     2155     2057 
    1996     2041     2173     2317     2376     2301     2199     2139 
    2031     1938     2027     2196     2249     2215     2234     2286 
    2247     2120     2045     2061     2068     2064     2116     2161 
    2170     2227     2273     2201     2137     2149     2114     2116 
    2284     2394     2282     2130     2095     2101     2110     2205 
    2351     2370     2257     2157     2110     2108     2196     2301 
    2280     2134     2022     2069     2165     2126     2060     2104 
    2108     2004     1984     2111     2224     2232     2250     2307 
    2259     2151     2139     2173     2174     2180     2191     2195 
    2224     2280     2313     2296     2199     2091     2070     2065 
    2114     2292     2353     2215     2130     2158     2174     2151 
    2104     2045     2006     2026     2101     2193     2272     2286 
    2162     2038     2046     2045     2050     2216     2338     2272 
    2227     2209     2157     2228     2326     2270     2250     2323 
    2280     2119     2073     2191     2254     2214     2207     2154 
    2006     2004     2172     2242     2204     2160     2054     1968 
    2037     2155     2230     2286     2262     2137     2064     2081 
    2101     2146     2223     2269     2295     2276     2196     2134 
    2100     2076     2088     2147     2208     2197     2160     2228 
    2290     2187     2130     2259     2307     2230     2247     2280 
    2181     2100     2108     2108     2131     2200     2218     2185 
    2139     2070     2064     2153     2157     2058     2039     2089 
    2137     2219     2259     2219     2204     2211     2162     2099 
    2089     2160     2276     2323     2253     2176     2195     2230 
    2196     2155     2126     2118     2172     2238     2293     2309 
    2227     2135     2135     2164     2133     2085     2133     2205 
    2147     2038     2058     2151     2165     2122     2096     2106 
    2116     2099     2138     2263     2304     2197     2137     2228 
    2288     2211     2188     2273     2280     2205     2208     2305 
    2342     2236     2149     2107     2018     2002     2114     2191 
    2170     2103     2031     1999     2023     2089     2166     2204 
    2195     2188     2185     2199     2253     2303     2308     2266 
    2188     2166     2226     2243     2220     2234     2170     2045 
    2054     2157     2205     2208     2207     2204     2189     2162 
    2147     2150     2150     2160     2133     2030     1980     2057 
    2196     2286     2246     2187     2187     2128     2080     2182 
    2263     2232     2242     2227     2127     2138     2235     2228 
    2182     2162     2096     2052     2100     2181     2235     2254 
    2293     2301     2174     2060     2134     2255     2253     2220 
    2235     2209     2158     2146     2130     2077     1992     1971 
    2120     2277     2227     2096     2081     2143     2153     2112 
    2119     2187     2243     2239     2204     2177     2195     2246 
    2253     2223     2224     2228     2187     2160     2197     2224 
    2207     2207     2207     2122     2039     2080     2160     2189 
    2203     2178     2103     2103     2177     2138     2039     2080 
    2195     2228     2214     2262     2303     2195     2065     2101 
    2201     2205     2137     2115     2188     2247     2209     2180 
    2232     2223     2110     2093     2196     2236     2241     2286 
    2273     2155     2045     2027     2089     2146     2155     2157 
    2164     2174     2168     2130     2165     2253     2224     2135 
    2123     2162     2189     2201     2226     2255     2239     2170 
    2134     2176     2207     2145     2068     2077     2126     2157 
    2187     2187     2157     2181     2205     2197     2243     2243 
    2133     2092     2174     2223     2188     2154     2149     2157 
    2197     2200     2146     2164     2218     2162     2097     2150 
    2199     2182     2197     2223     2211     2188     2164     2133 
    2115     2142     2184     2169     2153     2181     2203     2228 
    2266     2236     2164     2131     2137     2157     2155     2116 
    2131     2235     2320     2277     2137     2038     2070     2139 
    2116     2091     2120     2126     2169     2219     2193     2199 
    2214     2141     2116     2193     2203     2139     2165     2253 
    2301     2297     2243     2181     2160     2160     2173     2188 
    2172     2133     2101     2088     2077     2095     2205     2339 
    2319     2172     2081     2062     2074     2155     2261     2288 
    2207     2097     2058     2073     2110     2178     2211     2160 
    2141     2218     2263     2228     2223     2238     2209     2176 
    2131     2092     2151     2236     2238     2223     2227     2199 
    2164     2154     2133     2110     2127     2154     2157     2155 
    2177     2196     2164     2141     2165     2164     2154     2161 
    2141     2123     2142     2153     2180     2226     2193     2112 
    2112     2188     2218     2164     2145     2193     2235     2263 
    2235     2160     2166     2219     2200     2187     2203     2192 
    2191     2189     2173     2154     2120     2104     2130     2134 
    2085     2062     2099     2133     2165     2224     2238     2203 
    2224     2247     2199     2184     2227     2239     2216     2212 
    2232     2199     2128     2149     2191     2139     2092     2096 
    2114     2149     2153     2115     2100     2122     2164     2184 
    2165     2185     2219     2187     2123     2119     2168     2180 
    2193     2269     2313     2273     2218     2139     2077     2154 
    2276     2274     2208     2147     2108     2126     2187     2228 
    2209     2149     2114     2126     2123     2066     2025     2064 
    2134     2180     2211     2228     2241     2274     2290     2224 
    2141     2127     2170     2223     2239     2212     2218     2216 
    2170     2166     2177     2155     2151     2131     2073     2077 
    2133     2131     2135     2214     2208     2093     2068     2149 
    2181     2139     2141     2222     2280     2266     2227     2185 
    2173     2192     2195     2170     2168     2197     2230     2241 
    2203     2143     2095     2052     2069     2153     2191     2166 
    2162     2164     2138     2135     2142     2139     2172     2192 
    2157     2143     2172     2257     2380     2378     2238     2177 
    2215     2192     2146     2145     2154     2184     2188     2097 
    2019     2054     2100     2110     2158     2177     2145     2193 
    2257     2212     2182     2204     2181     2184     2224     2199 
    2149     2119     2114     2191     2274     2250     2184     2146 
    2100     2038     2038     2151     2257     2215     2147     2189 
    2224     2185     2173     2207     2214     2178     2135     2100 
    2097     2157     2242     2261     2239     2235     2170     2077 
    2093     2142     2143     2178     2232     2236     2219     2185 
    2166     2215     2204     2103     2066     2118     2158     2124 
    2095     2157     2168     2104     2174     2297     2303     2254 
    2189     2168     2226     2219     2160     2189     2228     2157 
    2079     2089     2114     2123     2153     2189     2200     2158 
    2095     2119     2241     2327     2297     2219     2184     2199 
    2201     2145     2089     2130     2181     2114     2039     2088 
    2151     2166     2208     2242     2200     2166     2218     2293 
    2303     2224     2135     2122     2131     2124     2147     2173 
    2182     2158     2081     2073     2143     2119     2047     2061 
    2083     2106     2170     2232     2303     2334     2285     2259 
    2276     2227     2160     2178     2224     2236     2227     2189 
    2150     2153     2182     2181     2118     2080     2110     2114 
    2095     2141     2201     2212     2193     2164     2115     2074 
    2122     2228     2255     2195     2119     2074     2092     2166 
    2234     2286     2313     2269     2191     2142     2134     2192 
    2274     2282     2211     2092     2000     2085     2242     2261 
    2227     2219     2153     2062     2049     2112     2176     2149 
    2080     2056     2023     1992     2084     2258     2338     2281 
    2205     2224     2286     2269     2236     2255     2258     2239 
    2219     2174     2137     2137     2149     2134     2097     2119 
    2193     2228     2218     2151     2085     2111     2164     2161 
    2126     2166     2288     2272     2133     2126     2164     2115 
    2147     2205     2153     2138     2189     2184     2178     2178 
    2099     2041     2097     2141     2172     2265     2276     2200 
    2204     2218     2154     2093     2104     2165     2192     2195 
    2227     2231     2196     2199     2216     2188     2155     2182 
    2241     2255     2224     2207     2160     2039     2026     2155 
    2138     1996     2030     2154     2095     1941     1962     2158 
    2282     2220     2199     2353     2382     2238     2257     2438 
    2502     2427     2377     2366     2250     2070     1949     1850 
    1802     1836     1845     1890     2070     2227     2317     2440 
    2509     2513     2546     2552     2544     2536     2370     2087 
    1908     1811     1688     1632     1653     1711     1895     2118 
    2154     2079     2153     2350     2353     2133     2081     2280 
    2363     2249     2258     2465     2544     2408     2308     2290 
    2215     2077     1958     1921     1981     2077     2176     2282 
    2335     2307     2251     2197     2149     2128     2180     2282 
    2235     2029     2000     2087     1966     1927     2204     2374 
    2249     2115     2058     1956     1900     2015     2203     2347 
    2369     2263     2130     1991     1946     2158     2412     2444 
    2454     2520     2390     2197     2250     2386     2381     2270 
    2093     1925     1873     1892     1942     2070     2208     2282 
    2380     2465     2293     1961     1912     2084     2057     2003 
    2195     2285     2106     2046     2193     2270     2277     2255 
    2118     1939     1934     2216     2587     2650     2385     2166 
    2062     1846     1601     1660     1925     2008     1934     1837 
    1698     1730     2072     2498     2789     2890     2848     2776 
    2793     2917     2925     2682     2438     2263     2039     1919 
    1890     1803     1722     1617     1556     1722     1892     1918 
    1987     1972     1779     1799     2111     2366     2452     2458 
    2462     2409     2222     2162     2396     2531     2413     2335 
    2226     1975     1900     2091     2253     2191     1972     1899 
    2069     2151     2054     2053     2108     2015     1988     2166 
    2277     2247     2308     2481     2504     2358     2363     2477 
    2408     2350     2523     2582     2344     2204     2284     2193 
    1922     1921     2150     2122     1794     1583     1556     1436 
    1395     1752     2176     2255     2093     1969     2060     2265 
    2313     2327     2558     2725     2577     2400     2415     2475 
    2466     2407     2315     2304     2411     2458     2377     2241 
    2141     2134     2149     2143     2157     2207     2216     2057 
    1845     1796     1814     1713     1671     1880     2053     2011 
    2014     2062     1998     1944     1984     2097     2231     2226 
    2139     2143     2196     2311     2469     2521     2555     2644 
    2614     2484     2446     2502     2465     2292     2228     2239 
    2068     1921     2029     2180     2300     2390     2300     2108 
    1958     1834     1833     1927     1880     1767     1807     1872 
    1853     1914     2107     2272     2273     2188     2215     2293 
    2262     2203     2164     2162     2228     2258     2350     2548 
    2578     2512     2497     2326     2153     2284     2448     2411 
    2331     2232     2091     2011     2002     2077     2158     2066 
    1960     1954     1837     1694     1811     2025     2066     2002 
    1954     2002     2100     2139     2257     2479     2492     2289 
    2224     2346     2446     2471     2479     2501     2506     2432 
    2323     2259     2162     1976     1836     1837     1895     1899 
    1838     1806     1860     1945     2058     2209     2273     2218 
    2187     2216     2257     2292     2262     2255     2342     2334 
    2203     2119     2120     2188     2265     2258     2231     2308 
    2420     2462     2461     2415     2286     2169     2135     2084 
    1985     1921     1975     2146     2226     2099     1988     2016 
    2056     2057     2070     2043     1948     1930     2045     2145 
    2197     2289     2338     2247     2149     2128     2088     2119 
    2290     2357     2299     2324     2394     2405     2361     2347 
    2398     2344     2139     2038     2089     2096     2015     1939 
    1945     1991     2008     2079     2219     2309     2347     2326 
    2187     2045     2007     2039     2118     2218     2276     2253 
    2207     2231     2280     2246     2168     2145     2228     2326 
    2278     2138     2043     1981     1972     2029     2025     2035 
    2166     2172     2025     2057     2247     2373     2459     2531 
    2493     2353     2238     2197     2188     2197     2150     2027 
    1941     1945     2022     2104     2103     2058     2022     1929 
    1834     1895     2099     2365     2574     2544     2380     2351 
    2405     2378     2326     2311     2297     2258     2224     2295 
    2403     2336     2168     2046     1911     1748     1622     1661 
    1933     2174     2127     1954     1939     2095     2282     2415 
    2469     2407     2254     2158     2187     2251     2257     2223 
    2250     2228     2097     2072     2124     2029     1887     1918 
    2052     2119     2168     2332     2536     2593     2498     2403 
    2380     2386     2385     2343     2222     2066     1962     1949 
    2027     2095     2076     2050     2076     2080     2026     1956 
    1938     1985     2046     2053     2031     2080     2128     2070 
    2056     2160     2247     2295     2374     2473     2521     2467 
    2342     2276     2332     2367     2255     2157     2253     2342 
    2215     2079     2110     2151     2060     1903     1899     2052 
    2111     2085     2108     2095     2050     2045     2052     2124 
    2263     2317     2274     2286     2322     2222     2107     2146 
    2207     2200     2208     2204     2115     2054     2141     2224 
    2193     2200     2296     2299     2170     2112     2196     2232 
    2161     2145     2165     2115     2065     2043     2031     2085 
    2168     2192     2188     2193     2192     2245     2320     2276 
    2195     2203     2199     2149     2133     2160     2197     2185 
    2077     1980     2006     2079     2097     2182     2384     2444 
    2286     2158     2146     2138     2089     2080     2170     2273 
    2289     2282     2334     2367     2293     2130     1981     1962 
    2018     2066     2134     2168     2119     2088     2104     2138 
    2223     2301     2278     2223     2200     2176     2185     2196 
    2127     2103     2154     2134     2096     2147     2245     2292 
    2207     2060     1993     2041     2142     2215     2257     2288 
    2247     2157     2145     2200     2234     2235     2199     2126 
    2062     2053     2128     2259     2323     2254     2158     2142 
    2158     2149     2150     2192     2220     2181     2108     2087 
    2147     2219     2231     2208     2201     2189     2128     2100 
    2197     2308     2276     2168     2172     2259     2220     2099 
    2124     2259     2359     2355     2214     2062     2030     2026 
    1980     1948     1992     2077     2114     2135     2207     2231 
    2145     2092     2153     2211     2164     2103     2168     2257 
    2255     2276     2340     2323     2224     2168     2193     2211 
    2185     2155     2116     2085     2099     2115     2150     2224 
    2215     2141     2131     2127     2174     2327     2338     2203 
    2178     2182     2108     2128     2245     2265     2218     2227 
    2239     2193     2146     2107     2057     2049     2101     2131 
    2112     2120     2145     2124     2101     2092     2099     2201 
    2335     2344     2278     2234     2174     2095     2053     2066 
    2149     2243     2258     2211     2143     2089     2088     2104 
    2069     2016     2026     2076     2130     2205     2300     2376 
    2378     2313     2234     2182     2207     2270     2300     2344 
    2392     2311     2150     2062     2031     2025     2096     2182 
    2166     2095     2073     2099     2138     2189     2182     2074 
