Origin Time       2018/04/09 06:38:00
Lat.              35.2
Long.             132.6
Depth. (km)       10
Mag.              3.8
Station Code      HRSH07
Station Lat.      34.2883
Station Long.     132.6411
Station Height(m) 230
Record Time       2018/04/09 06:39:17
Sampling Freq(Hz) 100Hz
Duration Time(s)  120
Dir.              5
Scale Factor      7845(gal)/8223790
Max. Acc. (gal)   0.966
Last Correction   2018/04/09 06:39:02
Memo.             
[...]
   -2640    -2640    -2646    -2647    -2640    -2640    -2640    -2637 
   -2639    -2640    -2643    -2643    -2639    -2640    -2641    -2636 
   -2636    -2641    -2639    -2639    -2644    -2646    -2644    -2643 
   -2639    -2636    -2637    -2637    -2637    -2644    -2647    -2640 
   -2639    -2643    -2641    -2639    -2641    -2643    -2640    -2640 
   -2641    -2644    -2641    -2639    -2640    -2639    -2637    -2641 
   -2641    -2640    -2643    -2640    -2639    -2641    -2640    -2637 
   -2639    -2641    -2643    -2640    -2640    -2643    -2643    -2637 
   -2631    -2636    -2643    -2641    -2640    -2641    -2639    -2640 
   -2641    -2640    -2639    -2640    -2641    -2644    -2641    -2636 
   -2637    -2640    -2640    -2640    -2639    -2636    -2639    -2641 
   -2640    -2640    -2640    -2640    -2641    -2639    -2639    -2640 
   -2641    -2640    -2639    -2637    -2637    -2641    -2640    -2640 
   -2639    -2637    -2640    -2647    -2644    -2640    -2640    -2636 
   -2633    -2637    -2640    -2641    -2647    -2646    -2640    -2640 
   -2640    -2637    -2639    -2641    -2643    -2641    -2641    -2643 
   -2644    -2639    -2637    -2640    -2643    -2641    -2639    -2640 
   -2641    -2644    -2644    -2640    -2640    -2641    -2637    -2639 
   -2641    -2640    -2639    -2641    -2641    -2641    -2641    -2640 
   -2641    -2640    -2640    -2643    -2643    -2640    -2640    -2637 
   -2635    -2641    -2644    -2640    -2637    -2643    -2646    -2643 
   -2640    -2637    -2637    -2640    -2637    -2639    -2643    -2641 
   -2639    -2641    -2640    -2637    -2641    -2643    -2639    -2643 
   -2646    -2639    -2636    -2641    -2646    -2641    -2639    -2641 
   -2641    -2639    -2640    -2643    -2643    -2640    -2637    -2637 
   -2637    -2640    -2643    -2644    -2641    -2640    -2640    -2641 
   -2639    -2637    -2640    -2643    -2641    -2643    -2643    -2643 
   -2639    -2637    -2640    -2640    -2641    -2643    -2639    -2639 
   -2641    -2637    -2636    -2640    -2643    -2641    -2641    -2644 
   -2644    -2640    -2637    -2639    -2641    -2641    -2640    -2639 
   -2641    -2643    -2640    -2640    -2643    -2641    -2636    -2636 
   -2640    -2640    -2637    -2640    -2641    -2639    -2640    -2643 
   -2640    -2639    -2643    -2644    -2640    -2639    -2637    -2633 
   -2631    -2631    -2624    -2623    -2635    -2651    -2655    -2662 
   -2671    -2643    -2605    -2631    -2690    -2694    -2666    -2659 
   -2652    -2623    -2581    -2555    -2579    -2641    -2681    -2708 
   -2749    -2714    -2586    -2554    -2678    -2744    -2660    -2559 
   -2493    -2463    -2565    -2760    -2828    -2729    -2602    -2498 
   -2489    -2671    -2870    -2832    -2646    -2536    -2506    -2504 
   -2573    -2681    -2737    -2749    -2743    -2706    -2621    -2486 
   -2444    -2589    -2690    -2651    -2681    -2785    -2783    -2714 
   -2679    -2602    -2493    -2502    -2614    -2708    -2693    -2547 
   -2450    -2566    -2756    -2818    -2806    -2778    -2612    -2432 
   -2540    -2790    -2806    -2664    -2596    -2547    -2504    -2555 
   -2608    -2619    -2690    -2700    -2556    -2528    -2717    -2825 
   -2748    -2705    -2691    -2589    -2551    -2640    -2716    -2708 
   -2578    -2405    -2346    -2431    -2646    -2829    -2821    -2731 
   -2663    -2655    -2702    -2725    -2710    -2673    -2646    -2636 
   -2562    -2509    -2636    -2743    -2616    -2531    -2686    -2758 
   -2608    -2544    -2660    -2751    -2714    -2558    -2431    -2538 
   -2731    -2701    -2594    -2673    -2727    -2581    -2469    -2573 
   -2747    -2770    -2693    -2677    -2668    -2608    -2579    -2614 
   -2679    -2754    -2749    -2659    -2601    -2562    -2525    -2590 
   -2686    -2674    -2597    -2583    -2667    -2732    -2698    -2681 
   -2749    -2790    -2685    -2485    -2424    -2586    -2731    -2702 
   -2637    -2602    -2548    -2535    -2575    -2567    -2563    -2655 
   -2721    -2700    -2701    -2691    -2602    -2547    -2582    -2652 
   -2685    -2662    -2694    -2778    -2772    -2674    -2579    -2559 
   -2604    -2652    -2673    -2682    -2689    -2624    -2546    -2600 
   -2683    -2690    -2690    -2651    -2563    -2542    -2616    -2648 
   -2563    -2548    -2689    -2745    -2654    -2605    -2639    -2690 
   -2728    -2700    -2617    -2552    -2523    -2533    -2600    -2708 
   -2809    -2810    -2646    -2489    -2533    -2651    -2700    -2747 
   -2778    -2705    -2592    -2559    -2605    -2664    -2709    -2673 
   -2542    -2470    -2527    -2605    -2671    -2754    -2803    -2732 
   -2570    -2498    -2571    -2656    -2671    -2627    -2583    -2592 
   -2613    -2606    -2598    -2648    -2695    -2633    -2577    -2664 
   -2775    -2771    -2697    -2656    -2648    -2606    -2597    -2678 
   -2732    -2724    -2709    -2643    -2566    -2579    -2617    -2619 
   -2614    -2623    -2682    -2752    -2704    -2540    -2436    -2524 
   -2629    -2539    -2450    -2567    -2685    -2663    -2664    -2731 
   -2762    -2729    -2677    -2659    -2679    -2717    -2720    -2670 
   -2662    -2650    -2563    -2570    -2717    -2786    -2701    -2643 
   -2674    -2687    -2658    -2619    -2596    -2610    -2598    -2500 
   -2432    -2531    -2675    -2660    -2581    -2578    -2602    -2596 
   -2558    -2548    -2613    -2682    -2706    -2736    -2771    -2728 
   -2594    -2531    -2625    -2764    -2833    -2816    -2754    -2694 
   -2624    -2543    -2554    -2678    -2771    -2748    -2668    -2586 
   -2501    -2477    -2550    -2590    -2543    -2529    -2586    -2619 
   -2590    -2579    -2636    -2668    -2643    -2651    -2694    -2731 
   -2770    -2772    -2732    -2702    -2683    -2651    -2623    -2628 
   -2643    -2613    -2567    -2556    -2562    -2596    -2659    -2677 
   -2654    -2632    -2605    -2616    -2675    -2713    -2712    -2709 
   -2713    -2643    -2539    -2551    -2614    -2633    -2623    -2567 
   -2560    -2640    -2674    -2658    -2652    -2648    -2654    -2641 
   -2616    -2658    -2736    -2713    -2585    -2544    -2643    -2689 
   -2652    -2662    -2686    -2659    -2625    -2617    -2644    -2718 
   -2735    -2633    -2574    -2609    -2637    -2652    -2673    -2662 
   -2608    -2583    -2614    -2625    -2621    -2624    -2582    -2525 
   -2546    -2602    -2631    -2675    -2708    -2659    -2640    -2687 
   -2686    -2678    -2709    -2710    -2693    -2714    -2751    -2712 
   -2629    -2628    -2652    -2646    -2674    -2677    -2619    -2551 
   -2500    -2539    -2625    -2612    -2535    -2528    -2592    -2594 
   -2571    -2664    -2783    -2772    -2643    -2511    -2523    -2650 
   -2717    -2702    -2670    -2658    -2666    -2650    -2666    -2754 
   -2785    -2701    -2614    -2596    -2604    -2621    -2666    -2687 
   -2643    -2587    -2578    -2610    -2643    -2651    -2625    -2604 
   -2641    -2683    -2668    -2650    -2636    -2586    -2543    -2608 
   -2736    -2743    -2639    -2613    -2640    -2573    -2500    -2574 
   -2681    -2647    -2567    -2597    -2678    -2689    -2662    -2667 
   -2677    -2679    -2668    -2646    -2702    -2805    -2778    -2659 
   -2606    -2598    -2578    -2593    -2687    -2748    -2651    -2538 
   -2586    -2677    -2677    -2647    -2629    -2567    -2484    -2490 
   -2590    -2664    -2652    -2596    -2533    -2511    -2565    -2647 
   -2712    -2778    -2810    -2751    -2644    -2609    -2678    -2752 
   -2760    -2741    -2728    -2682    -2602    -2585    -2650    -2702 
   -2700    -2624    -2511    -2488    -2532    -2543    -2589    -2685 
   -2716    -2641    -2565    -2577    -2600    -2597    -2620    -2602 
   -2566    -2633    -2695    -2675    -2663    -2659    -2666    -2722 
   -2783    -2794    -2729    -2639    -2625    -2670    -2691    -2685 
   -2666    -2619    -2571    -2567    -2571    -2578    -2606    -2600 
   -2551    -2548    -2617    -2658    -2637    -2627    -2606    -2558 
   -2571    -2658    -2714    -2677    -2662    -2727    -2725    -2686 
   -2714    -2733    -2705    -2636    -2566    -2606    -2717    -2758 
   -2705    -2610    -2558    -2587    -2633    -2643    -2640    -2602 
   -2524    -2520    -2613    -2641    -2608    -2631    -2655    -2648 
   -2646    -2623    -2632    -2686    -2687    -2654    -2660    -2697 
   -2685    -2619    -2575    -2587    -2624    -2619    -2577    -2578 
   -2629    -2693    -2708    -2700    -2728    -2712    -2666    -2682 
   -2686    -2656    -2647    -2628    -2598    -2598    -2644    -2686 
   -2659    -2610    -2593    -2586    -2604    -2652    -2671    -2627 
   -2573    -2558    -2543    -2540    -2613    -2709    -2740    -2716 
   -2674    -2654    -2664    -2670    -2662    -2673    -2713    -2725 
   -2681    -2650    -2633    -2593    -2601    -2663    -2693    -2693 
   -2651    -2560    -2493    -2486    -2542    -2614    -2652    -2667 
   -2621    -2563    -2605    -2646    -2609    -2629    -2724    -2755 
   -2679    -2614    -2644    -2714    -2731    -2690    -2640    -2619 
   -2651    -2686    -2671    -2636    -2641    -2681    -2678    -2648 
   -2668    -2689    -2637    -2573    -2586    -2636    -2629    -2596 
   -2614    -2629    -2575    -2554    -2602    -2625    -2619    -2641 
   -2693    -2717    -2685    -2640    -2620    -2600    -2597    -2641 
   -2690    -2678    -2621    -2601    -2597    -2585    -2643    -2706 
   -2664    -2632    -2687    -2704    -2652    -2640    -2679    -2708 
   -2704    -2690    -2685    -2650    -2577    -2558    -2623    -2640 
   -2575    -2540    -2562    -2606    -2647    -2656    -2658    -2663 
   -2651    -2623    -2632    -2687    -2689    -2650    -2635    -2616 
   -2616    -2650    -2654    -2623    -2616    -2664    -2705    -2685 
   -2668    -2689    -2671    -2583    -2513    -2523    -2609    -2731 
   -2783    -2727    -2623    -2579    -2650    -2740    -2751    -2709 
   -2674    -2623    -2527    -2471    -2502    -2583    -2664    -2673 
   -2628    -2623    -2621    -2601    -2608    -2632    -2659    -2685 
   -2693    -2670    -2633    -2635    -2670    -2700    -2673    -2600 
   -2590    -2621    -2623    -2654    -2679    -2650    -2637    -2651 
   -2650    -2677    -2774    -2826    -2729    -2628    -2636    -2620 
   -2519    -2492    -2592    -2639    -2565    -2536    -2619    -2654 
   -2571    -2562    -2690    -2751    -2705    -2702    -2743    -2712 
   -2590    -2511    -2555    -2624    -2629    -2635    -2677    -2686 
   -2644    -2624    -2646    -2659    -2636    -2614    -2628    -2662 
   -2683    -2686    -2683    -2677    -2663    -2647    -2648    -2666 
   -2651    -2598    -2560    -2552    -2586    -2668    -2763    -2785 
   -2695    -2569    -2493    -2513    -2609    -2691    -2712    -2667 
   -2556    -2459    -2471    -2596    -2758    -2839    -2785    -2674 
   -2589    -2543    -2556    -2644    -2747    -2782    -2735    -2651 
   -2600    -2628    -2704    -2718    -2631    -2573    -2621    -2636 
   -2593    -2624    -2685    -2651    -2593    -2619    -2667    -2671 
   -2681    -2689    -2636    -2559    -2525    -2521    -2546    -2616 
   -2675    -2667    -2616    -2596    -2628    -2671    -2710    -2712 
   -2646    -2578    -2581    -2628    -2643    -2664    -2755    -2805 
   -2745    -2659    -2612    -2641    -2671    -2629    -2592    -2593 
   -2598    -2574    -2554    -2614    -2689    -2705    -2662    -2582 
   -2590    -2671    -2663    -2601    -2621    -2681    -2655    -2583 
   -2593    -2679    -2747    -2721    -2619    -2559    -2614    -2682 
   -2686    -2670    -2673    -2695    -2679    -2592    -2529    -2548 
   -2600    -2644    -2654    -2639    -2631    -2600    -2542    -2539 
   -2620    -2704    -2743    -2732    -2708    -2700    -2660    -2628 
   -2658    -2652    -2608    -2619    -2646    -2662    -2701    -2700 
   -2633    -2575    -2575    -2624    -2687    -2720    -2651    -2577 
   -2629    -2648    -2544    -2517    -2604    -2682    -2685    -2610 
   -2592    -2687    -2766    -2724    -2635    -2629    -2633    -2558 
   -2548    -2664    -2747    -2729    -2679    -2617    -2552    -2565 
   -2624    -2627    -2606    -2609    -2598    -2625    -2713    -2731 
   -2647    -2612    -2666    -2677    -2623    -2616    -2679    -2720 
   -2673    -2625    -2635    -2612    -2593    -2650    -2678    -2659 
   -2620    -2575    -2614    -2706    -2752    -2732    -2666    -2627 
   -2609    -2566    -2558    -2585    -2641    -2727    -2713    -2646 
   -2641    -2583    -2485    -2494    -2570    -2640    -2675    -2633 
   -2566    -2590    -2718    -2822    -2791    -2675    -2601    -2600 
   -2601    -2598    -2635    -2718    -2782    -2745    -2674    -2635 
   -2583    -2558    -2590    -2627    -2654    -2643    -2582    -2565 
   -2608    -2614    -2606    -2668    -2735    -2706    -2643    -2632 
   -2650    -2652    -2635    -2646    -2722    -2722    -2575    -2516 
   -2610    -2655    -2644    -2695    -2731    -2643    -2565    -2654 
   -2776    -2740    -2643    -2678    -2741    -2677    -2639    -2739 
   -2836    -2893    -2943    -2920    -2803    -2704    -2679    -2658 
   -2600    -2523    -2374    -2149    -1961    -1896    -1910    -1939 
   -1989    -2058    -2139    -2243    -2355    -2486    -2637    -2771 
   -2898    -3071    -3277    -3450    -3574    -3653    -3591    -3337 
   -3060    -2910    -2853    -2814    -2770    -2752    -2766    -2776 
   -2782    -2697    -2538    -2500    -2506    -2335    -2097    -2020 
   -2123    -2205    -2147    -2150    -2322    -2438    -2342    -2268 
   -2470    -2695    -2664    -2565    -2559    -2579    -2551    -2508 
   -2604    -2789    -2889    -2982    -3088    -3021    -2814    -2677 
   -2639    -2620    -2660    -2887    -3260    -3542    -3593    -3555 
   -3559    -3427    -2974    -2404    -2108    -2141    -2216    -2218 
   -2174    -2106    -2097    -2084    -1973    -1945    -2107    -2241 
   -2137    -1971    -2049    -2312    -2481    -2643    -3014    -3284 
   -3076    -2683    -2546    -2614    -2697    -2828    -3073    -3280 
   -3283    -3146    -3042    -3061    -3034    -2862    -2880    -3125 
   -3105    -2783    -2527    -2357    -2169    -2093    -2153    -2099 
   -1971    -2038    -2178    -2268    -2511    -2839    -2917    -2774 
   -2733    -2855    -2929    -2891    -2887    -2951    -2937    -2759 
   -2533    -2454    -2516    -2637    -2737    -2643    -2417    -2338 
   -2466    -2682    -2884    -2984    -2891    -2691    -2628    -2739 
   -2862    -2898    -2812    -2685    -2659    -2640    -2605    -2659 
   -2617    -2409    -2251    -2161    -2142    -2300    -2461    -2447 
   -2444    -2540    -2543    -2482    -2569    -2799    -2945    -2870 
   -2768    -2770    -2718    -2717    -2909    -3006    -2887    -2724 
   -2546    -2484    -2570    -2523    -2389    -2436    -2533    -2497 
   -2508    -2690    -2817    -2794    -2801    -2866    -2932    -3061 
   -3219    -3184    -2917    -2725    -2709    -2654    -2539    -2473 
   -2446    -2397    -2309    -2288    -2346    -2301    -2192    -2231 
   -2339    -2389    -2442    -2517    -2531    -2500    -2538    -2624 
   -2689    -2779    -2898    -3014    -3046    -2901    -2760    -2835 
   -2944    -2847    -2625    -2517    -2628    -2786    -2829    -2843 
   -2895    -2916    -2832    -2666    -2555    -2605    -2693    -2623 
   -2430    -2268    -2230    -2319    -2378    -2376    -2454    -2559 
   -2617    -2625    -2531    -2413    -2463    -2681    -2847    -2840 
   -2786    -2756    -2720    -2674    -2639    -2681    -2716    -2656 
   -2601    -2556    -2525    -2628    -2794    -2847    -2770    -2717 
   -2799    -2864    -2798    -2776    -2851    -2818    -2686    -2637 
   -2663    -2646    -2577    -2528    -2540    -2571    -2559    -2515 
   -2494    -2506    -2524    -2575    -2631    -2567    -2471    -2492 
   -2496    -2403    -2388    -2509    -2613    -2651    -2698    -2733 
   -2724    -2716    -2767    -2886    -2905    -2743    -2685    -2755 
   -2675    -2548    -2551    -2578    -2600    -2683    -2785    -2787 
   -2678    -2590    -2513    -2413    -2520    -2810    -2911    -2812 
   -2727    -2654    -2623    -2682    -2724    -2700    -2652    -2590 
   -2529    -2550    -2623    -2613    -2579    -2625    -2601    -2448 
   -2338    -2353    -2462    -2560    -2544    -2490    -2481    -2521 
   -2610    -2664    -2659    -2673    -2704    -2770    -2862    -2980 
   -3141    -3157    -2990    -2914    -2933    -2817    -2629    -2574 
   -2592    -2462    -2301    -2385    -2581    -2613    -2551    -2560 
   -2569    -2473    -2394    -2478    -2694    -2845    -2790    -2700 
   -2755    -2789    -2690    -2654    -2700    -2633    -2508    -2477 
   -2517    -2547    -2527    -2452    -2409    -2493    -2573    -2455 
   -2278    -2282    -2424    -2529    -2592    -2735    -2948    -3080 
   -3102    -3029    -2902    -2837    -2882    -2963    -3009    -3010 
   -2947    -2803    -2652    -2551    -2521    -2593    -2693    -2650 
   -2450    -2295    -2259    -2212    -2153    -2220    -2376    -2494 
   -2529    -2519    -2567    -2643    -2656    -2682    -2713    -2643 
   -2520    -2469    -2582    -2806    -2968    -3028    -3007    -2920 
   -2872    -2818    -2635    -2536    -2643    -2708    -2655    -2666 
   -2754    -2778    -2713    -2601    -2511    -2498    -2502    -2459 
   -2459    -2554    -2679    -2799    -2899    -2936    -2897    -2770 
   -2540    -2340    -2340    -2492    -2648    -2716    -2648    -2547 
   -2457    -2371    -2424    -2567    -2628    -2612    -2593    -2635 
   -2739    -2779    -2709    -2613    -2566    -2555    -2519    -2525 
   -2670    -2835    -2818    -2643    -2538    -2543    -2532    -2575 
   -2781    -3005    -3037    -2867    -2659    -2548    -2604    -2775 
   -2860    -2801    -2717    -2658    -2593    -2500    -2467    -2604 
   -2766    -2736    -2597    -2577    -2679    -2668    -2481    -2365 
   -2378    -2355    -2309    -2313    -2397    -2560    -2673    -2728 
   -2816    -2867    -2852    -2801    -2708    -2627    -2604    -2651 
   -2770    -2841    -2818    -2836    -2917    -2917    -2789    -2648 
   -2590    -2558    -2511    -2508    -2567    -2609    -2569    -2548 
   -2613    -2623    -2554    -2531    -2550    -2573    -2594    -2575 
   -2528    -2559    -2666    -2681    -2583    -2535    -2600    -2724 
   -2806    -2776    -2710    -2702    -2718    -2706    -2712    -2741 
   -2701    -2655    -2693    -2652    -2506    -2481    -2546    -2511 
   -2434    -2470    -2556    -2590    -2587    -2578    -2610    -2678 
   -2713    -2704    -2695    -2747    -2853    -2937    -2934    -2818 
   -2681    -2641    -2636    -2590    -2574    -2593    -2593    -2598 
   -2628    -2619    -2544    -2497    -2515    -2511    -2488    -2471 
   -2462    -2543    -2664    -2664    -2641    -2763    -2878    -2810 
   -2725    -2770    -2786    -2713    -2694    -2720    -2731    -2740 
   -2691    -2589    -2544    -2578    -2632    -2662    -2629    -2523 
   -2382    -2331    -2430    -2527    -2548    -2608    -2706    -2710 
