Origin Time       2018/04/09 06:38:00
Lat.              35.2
Long.             132.6
Depth. (km)       10
Mag.              3.8
Station Code      HRSH07
Station Lat.      34.2883
Station Long.     132.6411
Station Height(m) 128
Record Time       2018/04/09 06:39:17
Sampling Freq(Hz) 100Hz
Duration Time(s)  120
Dir.              2
Scale Factor      2942(gal)/8224139
Max. Acc. (gal)   0.161
Last Correction   2018/04/09 06:39:02
Memo.             
[...]
 -229320  -229317  -229317  -229317  -229320  -229321  -229320  -229320 
 -229323  -229320  -229317  -229319  -229319  -229320  -229319  -229317 
 -229319  -229319  -229319  -229319  -229319  -229319  -229319  -229319 
 -229317  -229317  -229319  -229319  -229319  -229321  -229320  -229319 
 -229320  -229320  -229319  -229320  -229323  -229323  -229317  -229317 
 -229319  -229316  -229317  -229321  -229319  -229317  -229319  -229319 
 -229319  -229320  -229319  -229317  -229319  -229319  -229319  -229319 
 -229319  -229319  -229319  -229320  -229320  -229321  -229320  -229320 
 -229320  -229320  -229321  -229321  -229321  -229320  -229320  -229321 
 -229317  -229317  -229321  -229321  -229320  -229320  -229321  -229321 
 -229320  -229319  -229319  -229320  -229319  -229317  -229319  -229319 
 -229319  -229321  -229320  -229320  -229319  -229319  -229320  -229321 
 -229320  -229319  -229321  -229321  -229320  -229319  -229319  -229320 
 -229319  -229317  -229319  -229320  -229320  -229320  -229320  -229320 
 -229317  -229319  -229319  -229319  -229320  -229319  -229317  -229321 
 -229320  -229317  -229317  -229319  -229320  -229319  -229320  -229320 
 -229319  -229317  -229319  -229319  -229320  -229321  -229319  -229319 
 -229320  -229321  -229320  -229317  -229319  -229320  -229320  -229320 
 -229320  -229320  -229319  -229319  -229320  -229320  -229320  -229321 
 -229320  -229317  -229319  -229319  -229319  -229319  -229320  -229320 
 -229319  -229320  -229321  -229321  -229319  -229320  -229321  -229320 
 -229319  -229319  -229321  -229320  -229317  -229320  -229320  -229317 
 -229320  -229320  -229319  -229317  -229317  -229319  -229320  -229319 
 -229319  -229320  -229320  -229317  -229320  -229320  -229317  -229319 
 -229320  -229320  -229320  -229319  -229320  -229320  -229319  -229320 
 -229319  -229320  -229321  -229321  -229320  -229320  -229317  -229319 
 -229323  -229321  -229320  -229317  -229319  -229320  -229319  -229317 
 -229319  -229319  -229319  -229321  -229320  -229321  -229321  -229320 
 -229319  -229319  -229319  -229321  -229321  -229320  -229321  -229321 
 -229320  -229321  -229320  -229319  -229320  -229321  -229320  -229319 
 -229317  -229319  -229320  -229319  -229319  -229320  -229319  -229319 
 -229321  -229321  -229319  -229319  -229321  -229321  -229320  -229320 
 -229317  -229317  -229320  -229320  -229319  -229319  -229319  -229321 
 -229321  -229317  -229317  -229320  -229317  -229315  -229315  -229312 
 -229312  -229315  -229316  -229317  -229323  -229328  -229332  -229335 
 -229338  -229339  -229332  -229316  -229304  -229297  -229289  -229275 
 -229281  -229319  -229347  -229344  -229336  -229329  -229308  -229288 
 -229286  -229292  -229325  -229386  -229414  -229390  -229355  -229324 
 -229298  -229284  -229270  -229266  -229312  -229351  -229320  -229298 
 -229304  -229274  -229286  -229385  -229417  -229333  -229297  -229346 
 -229331  -229257  -229265  -229306  -229286  -229311  -229412  -229405 
 -229296  -229261  -229281  -229289  -229336  -229398  -229374  -229257 
 -229170  -229250  -229413  -229466  -229396  -229296  -229213  -229212 
 -229292  -229340  -229340  -229360  -229374  -229317  -229269  -229331 
 -229394  -229336  -229292  -229324  -229301  -229271  -229333  -229377 
 -229323  -229297  -229343  -229343  -229328  -229370  -229344  -229227 
 -229194  -229279  -229339  -229327  -229324  -229369  -229401  -229355 
 -229294  -229347  -229400  -229315  -229240  -229269  -229292  -229298 
 -229328  -229311  -229250  -229277  -229373  -229371  -229269  -229242 
 -229336  -229389  -229342  -229316  -229350  -229338  -229266  -229255 
 -229321  -229367  -229374  -229373  -229335  -229286  -229290  -229308 
 -229265  -229239  -229309  -229351  -229329  -229355  -229362  -229302 
 -229309  -229338  -229277  -229259  -229325  -229360  -229371  -229397 
 -229377  -229298  -229263  -229316  -229355  -229317  -229263  -229269 
 -229344  -229386  -229316  -229243  -229284  -229350  -229350  -229320 
 -229302  -229317  -229366  -229355  -229281  -229297  -229363  -229347 
 -229312  -229331  -229346  -229336  -229340  -229338  -229269  -229217 
 -229269  -229321  -229317  -229347  -229402  -229378  -229304  -229265 
 -229246  -229238  -229284  -229331  -229316  -229317  -229375  -229385 
 -229331  -229298  -229288  -229298  -229343  -229363  -229344  -229329 
 -229324  -229312  -229278  -229250  -229281  -229343  -229370  -229367 
 -229342  -229289  -229266  -229288  -229315  -229344  -229377  -229375 
 -229347  -229309  -229255  -229243  -229296  -229344  -229351  -229329 
 -229316  -229333  -229360  -229342  -229302  -229323  -229367  -229360 
 -229317  -229290  -229301  -229348  -229382  -229328  -229247  -229277 
 -229365  -229371  -229302  -229251  -229257  -229275  -229269  -229262 
 -229285  -229340  -229385  -229374  -229359  -229369  -229333  -229304 
 -229338  -229339  -229305  -229329  -229363  -229327  -229270  -229265 
 -229288  -229296  -229308  -229315  -229296  -229294  -229311  -229304 
 -229302  -229336  -229339  -229315  -229348  -229387  -229371  -229352 
 -229348  -229320  -229274  -229261  -229288  -229335  -229351  -229317 
 -229311  -229350  -229348  -229297  -229278  -229324  -229352  -229321 
 -229296  -229296  -229285  -229290  -229346  -229363  -229319  -229306 
 -229329  -229344  -229323  -229305  -229333  -229339  -229306  -229312 
 -229331  -229327  -229346  -229369  -229354  -229321  -229306  -229316 
 -229324  -229301  -229286  -229304  -229319  -229320  -229313  -229288 
 -229286  -229327  -229325  -229252  -229238  -229311  -229348  -229344 
 -229340  -229324  -229340  -229379  -229348  -229292  -229298  -229316 
 -229313  -229340  -229359  -229340  -229332  -229321  -229285  -229275 
 -229306  -229319  -229316  -229329  -229328  -229308  -229308  -229315 
 -229309  -229304  -229309  -229312  -229321  -229343  -229336  -229302 
 -229297  -229340  -229371  -229351  -229320  -229316  -229325  -229324 
 -229336  -229343  -229298  -229294  -229350  -229342  -229300  -229288 
 -229271  -229279  -229313  -229331  -229344  -229363  -229360  -229335 
 -229308  -229300  -229308  -229302  -229296  -229328  -229367  -229352 
 -229316  -229324  -229339  -229304  -229275  -229304  -229336  -229316 
 -229279  -229281  -229306  -229317  -229309  -229304  -229302  -229315 
 -229342  -229343  -229327  -229350  -229360  -229305  -229270  -229304 
 -229344  -229347  -229350  -229371  -229347  -229301  -229319  -229325 
 -229273  -229269  -229329  -229360  -229344  -229309  -229285  -229294 
 -229296  -229290  -229313  -229323  -229301  -229301  -229329  -229338 
 -229328  -229340  -229350  -229328  -229312  -229309  -229309  -229338 
 -229356  -229329  -229317  -229342  -229354  -229352  -229351  -229333 
 -229305  -229282  -229274  -229292  -229312  -229316  -229324  -229335 
 -229328  -229323  -229315  -229294  -229289  -229288  -229281  -229305 
 -229346  -229346  -229317  -229312  -229324  -229328  -229324  -229316 
 -229311  -229328  -229356  -229350  -229324  -229320  -229325  -229306 
 -229263  -229246  -229294  -229348  -229346  -229320  -229309  -229305 
 -229319  -229336  -229327  -229321  -229335  -229339  -229342  -229336 
 -229320  -229324  -229339  -229321  -229309  -229336  -229352  -229343 
 -229348  -229332  -229284  -229277  -229319  -229346  -229324  -229285 
 -229273  -229296  -229320  -229315  -229301  -229290  -229275  -229274 
 -229308  -229356  -229377  -229360  -229336  -229315  -229305  -229316 
 -229333  -229352  -229356  -229335  -229324  -229338  -229335  -229315 
 -229321  -229343  -229324  -229290  -229282  -229277  -229284  -229312 
 -229317  -229297  -229289  -229302  -229315  -229315  -229331  -229360 
 -229358  -229332  -229317  -229309  -229317  -229332  -229317  -229320 
 -229366  -229360  -229305  -229294  -229316  -229305  -229298  -229327 
 -229329  -229304  -229316  -229327  -229305  -229319  -229363  -229354 
 -229306  -229300  -229312  -229308  -229317  -229332  -229332  -229327 
 -229309  -229294  -229302  -229311  -229315  -229324  -229332  -229338 
 -229342  -229340  -229338  -229328  -229302  -229297  -229331  -229333 
 -229306  -229296  -229269  -229262  -229325  -229366  -229344  -229331 
 -229329  -229309  -229296  -229296  -229286  -229298  -229338  -229354 
 -229355  -229354  -229339  -229332  -229317  -229297  -229308  -229332 
 -229328  -229301  -229304  -229346  -229352  -229312  -229290  -229296 
 -229302  -229308  -229313  -229325  -229344  -229346  -229339  -229339 
 -229329  -229311  -229304  -229306  -229309  -229304  -229312  -229347 
 -229365  -229347  -229325  -229298  -229265  -229271  -229311  -229324 
 -229316  -229316  -229306  -229293  -229304  -229331  -229328  -229306 
 -229315  -229335  -229332  -229327  -229327  -229313  -229302  -229312 
 -229325  -229339  -229355  -229355  -229331  -229317  -229338  -229339 
 -229319  -229338  -229354  -229316  -229275  -229263  -229269  -229305 
 -229346  -229340  -229312  -229298  -229304  -229343  -229377  -229358 
 -229336  -229342  -229335  -229306  -229294  -229315  -229339  -229352 
 -229350  -229324  -229284  -229255  -229270  -229293  -229301  -229316 
 -229319  -229313  -229323  -229317  -229312  -229324  -229308  -229294 
 -229324  -229347  -229351  -229348  -229335  -229317  -229306  -229321 
 -229331  -229308  -229298  -229313  -229301  -229279  -229301  -229329 
 -229315  -229296  -229316  -229354  -229366  -229348  -229327  -229324 
 -229332  -229328  -229331  -229347  -229342  -229327  -229320  -229309 
 -229308  -229320  -229315  -229301  -229298  -229290  -229290  -229316 
 -229340  -229346  -229339  -229338  -229346  -229342  -229339  -229340 
 -229312  -229269  -229255  -229282  -229316  -229331  -229328  -229323 
 -229320  -229306  -229297  -229320  -229316  -229274  -229286  -229332 
 -229339  -229329  -229338  -229342  -229323  -229298  -229308  -229354 
 -229359  -229320  -229294  -229284  -229284  -229311  -229351  -229378 
 -229375  -229348  -229300  -229257  -229262  -229296  -229333  -229358 
 -229336  -229300  -229292  -229300  -229320  -229335  -229315  -229306 
 -229342  -229355  -229319  -229294  -229324  -229358  -229348  -229328 
 -229321  -229321  -229329  -229332  -229315  -229304  -229319  -229325 
 -229289  -229274  -229327  -229369  -229352  -229324  -229305  -229288 
 -229275  -229290  -229313  -229298  -229290  -229335  -229362  -229329 
 -229325  -229340  -229297  -229270  -229316  -229355  -229348  -229323 
 -229306  -229302  -229306  -229316  -229331  -229347  -229359  -229370 
 -229359  -229317  -229305  -229319  -229302  -229297  -229325  -229336 
 -229331  -229309  -229269  -229269  -229290  -229286  -229319  -229385 
 -229390  -229340  -229311  -229298  -229282  -229289  -229331  -229355 
 -229340  -229329  -229338  -229323  -229275  -229271  -229300  -229301 
 -229305  -229320  -229319  -229329  -229348  -229343  -229338  -229340 
 -229324  -229316  -229335  -229319  -229286  -229316  -229343  -229312 
 -229296  -229300  -229294  -229302  -229319  -229309  -229302  -229332 
 -229335  -229312  -229339  -229371  -229343  -229301  -229286  -229294 
 -229311  -229324  -229332  -229317  -229288  -229288  -229309  -229335 
 -229352  -229347  -229340  -229332  -229293  -229267  -229284  -229313 
 -229328  -229336  -229351  -229365  -229354  -229336  -229333  -229338 
 -229316  -229289  -229294  -229315  -229317  -229320  -229338  -229348 
 -229343  -229333  -229305  -229270  -229278  -229300  -229312  -229340 
 -229352  -229319  -229294  -229309  -229324  -229317  -229306  -229292 
 -229284  -229302  -229331  -229350  -229352  -229329  -229305  -229301 
 -229305  -229324  -229346  -229331  -229308  -229306  -229294  -229290 
 -229324  -229343  -229339  -229346  -229328  -229298  -229308  -229324 
 -229328  -229332  -229336  -229352  -229348  -229320  -229320  -229335 
 -229323  -229300  -229289  -229305  -229338  -229354  -229342  -229306 
 -229265  -229270  -229311  -229313  -229306  -229348  -229370  -229332 
 -229313  -229321  -229302  -229271  -229284  -229323  -229339  -229339 
 -229358  -229359  -229324  -229305  -229309  -229312  -229338  -229359 
 -229332  -229297  -229277  -229271  -229301  -229329  -229316  -229290 
 -229282  -229285  -229309  -229342  -229339  -229331  -229350  -229350 
 -229338  -229344  -229352  -229360  -229358  -229328  -229306  -229302 
 -229286  -229277  -229305  -229343  -229351  -229332  -229301  -229263 
 -229259  -229296  -229332  -229338  -229320  -229323  -229331  -229312 
 -229297  -229311  -229331  -229339  -229347  -229350  -229344  -229346 
 -229315  -229259  -229275  -229323  -229313  -229302  -229317  -229325 
 -229343  -229342  -229320  -229339  -229383  -229396  -229363  -229321 
 -229294  -229274  -229262  -229269  -229281  -229298  -229325  -229348 
 -229343  -229317  -229321  -229351  -229352  -229321  -229292  -229286 
 -229319  -229348  -229346  -229342  -229333  -229300  -229279  -229298 
 -229332  -229339  -229325  -229331  -229328  -229292  -229269  -229271 
 -229269  -229263  -229282  -229323  -229350  -229360  -229350  -229317 
 -229324  -229351  -229339  -229328  -229351  -229352  -229319  -229302 
 -229315  -229331  -229321  -229293  -229302  -229346  -229352  -229335 
 -229340  -229338  -229306  -229285  -229281  -229308  -229336  -229333 
 -229363  -229405  -229389  -229358  -229358  -229381  -229405  -229425 
 -229463  -229517  -229549  -229535  -229495  -229462  -229427  -229398 
 -229365  -229300  -229239  -229192  -229104  -228984  -228908  -228881 
 -228869  -228877  -228891  -228916  -228964  -229032  -229151  -229271 
 -229320  -229342  -229409  -229514  -229594  -229648  -229713  -229710 
 -229586  -229466  -229424  -229365  -229275  -229262  -229340  -229412 
 -229417  -229386  -229348  -229300  -229255  -229227  -229212  -229177 
 -229161  -229244  -229343  -229348  -229381  -229529  -229609  -229514 
 -229463  -229536  -229544  -229425  -229292  -229200  -229093  -228937 
 -228881  -229005  -229165  -229323  -229486  -229513  -229432  -229406 
 -229396  -229316  -229193  -229123  -229196  -229344  -229441  -229512 
 -229612  -229659  -229574  -229406  -229217  -229092  -229142  -229298 
 -229409  -229475  -229559  -229663  -229687  -229564  -229378  -229266 
 -229259  -229221  -229081  -228988  -229007  -229016  -229042  -229161 
 -229275  -229329  -229332  -229275  -229220  -229196  -229204  -229259 
 -229306  -229289  -229219  -229138  -229099  -229111  -229161  -229271 
 -229421  -229494  -229497  -229521  -229494  -229390  -229336  -229329 
 -229313  -229317  -229331  -229336  -229347  -229358  -229382  -229409 
 -229400  -229396  -229420  -229454  -229505  -229524  -229471  -229382 
 -229285  -229220  -229220  -229219  -229220  -229279  -229301  -229273 
 -229279  -229232  -229136  -229149  -229231  -229273  -229319  -229392 
 -229440  -229460  -229487  -229510  -229516  -229537  -229566  -229545 
 -229471  -229402  -229385  -229358  -229266  -229189  -229176  -229165 
 -229135  -229154  -229208  -229225  -229189  -229115  -229090  -229166 
 -229223  -229230  -229244  -229239  -229231  -229242  -229254  -229319 
 -229412  -229458  -229470  -229433  -229356  -229343  -229379  -229338 
 -229261  -229286  -229313  -229225  -229174  -229225  -229293  -229367 
 -229404  -229381  -229394  -229431  -229429  -229436  -229417  -229346 
 -229331  -229377  -229387  -229400  -229478  -229539  -229470  -229331 
 -229263  -229248  -229212  -229198  -229235  -229278  -229339  -229412 
 -229416  -229339  -229228  -229155  -229153  -229161  -229165  -229204 
 -229263  -229297  -229297  -229296  -229304  -229312  -229309  -229304 
 -229325  -229385  -229414  -229366  -229335  -229398  -229491  -229493 
 -229352  -229201  -229167  -229215  -229252  -229286  -229366  -229428 
 -229447  -229468  -229441  -229343  -229278  -229309  -229324  -229265 
 -229250  -229267  -229224  -229221  -229305  -229360  -229321  -229251 
 -229212  -229181  -229144  -229174  -229278  -229331  -229273  -229231 
 -229309  -229417  -229436  -229392  -229406  -229483  -229506  -229495 
 -229489  -229431  -229369  -229355  -229365  -229393  -229409  -229401 
 -229374  -229319  -229273  -229273  -229298  -229304  -229239  -229176 
 -229194  -229240  -229270  -229339  -229401  -229351  -229285  -229312 
 -229363  -229360  -229315  -229296  -229290  -229228  -229207  -229282 
 -229309  -229284  -229296  -229281  -229242  -229261  -229275  -229279 
 -229312  -229302  -229227  -229180  -229236  -229324  -229340  -229360 
 -229447  -229477  -229413  -229375  -229406  -229424  -229386  -229343 
 -229338  -229377  -229429  -229401  -229300  -229244  -229246  -229227 
 -229178  -229171  -229223  -229262  -229271  -229284  -229306  -229363 
 -229423  -229387  -229294  -229250  -229238  -229240  -229274  -229316 
 -229383  -229454  -229441  -229397  -229386  -229378  -229371  -229389 
 -229360  -229255  -229190  -229220  -229255  -229271  -229316  -229375 
 -229394  -229373  -229362  -229378  -229397  -229390  -229358  -229350 
 -229386  -229408  -229404  -229397  -229343  -229285  -229296  -229301 
 -229269  -229278  -229298  -229271  -229243  -229289  -229400  -229437 
 -229348  -229235  -229157  -229131  -229143  -229182  -229271  -229366 
 -229392  -229370  -229365  -229343  -229292  -229298  -229358  -229359 
 -229308  -229281  -229274  -229273  -229270  -229263  -229275  -229304 
 -229329  -229360  -229390  -229404  -229401  -229363  -229325  -229351 
 -229370  -229336  -229332  -229387  -229444  -229450  -229401  -229327 
 -229258  -229215  -229220  -229286  -229370  -229396  -229343  -229288 
 -229273  -229261  -229216  -229163  -229157  -229185  -229208  -229248 
 -229312  -229350  -229366  -229386  -229371  -229319  -229285  -229274 
 -229286  -229324  -229362  -229392  -229435  -229485  -229505  -229506 
 -229479  -229402  -229329  -229296  -229292  -229315  -229323  -229317 
 -229328  -229315  -229297  -229297  -229261  -229234  -229262  -229281 
 -229288  -229331  -229363  -229325  -229251  -229217  -229234  -229238 
 -229243  -229300  -229360  -229355  -229302  -229242  -229181  -229150 
 -229167  -229201  -229251  -229332  -229404  -229400  -229338  -229351 
 -229436  -229440  -229382  -229355  -229338  -229327  -229362  -229401 
 -229396  -229379  -229358  -229333  -229354  -229358  -229324  -229313 
 -229294  -229273  -229271  -229265  -229298  -229378  -229410  -229397 
 -229420  -229441  -229398  -229332  -229250  -229162  -229149  -229185 
 -229194  -229216  -229274  -229316  -229356  -229408  -229389  -229324 
 -229316  -229319  -229296  -229306  -229331  -229306  -229269  -229289 
 -229347  -229387  -229421  -229463  -229477  -229429  -229343  -229290 
 -229308  -229339  -229331  -229316  -229308  -229281  -229261  -229290 
 -229339  -229351  -229325  -229305  -229311  -229324  -229333  -229333 
 -229338  -229355  -229360  -229346  -229297  -229215  -229159  -229184 
 -229225  -229220  -229223  -229271  -229305  -229296  -229279  -229277 
 -229269  -229284  -229323  -229338  -229347  -229392  -229429  -229408 
 -229365  -229351  -229351  -229354  -229370  -229374  -229371  -229370 
 -229347  -229335  -229354  -229355  -229329  -229294  -229271  -229262 
 -229219  -229193  -229240  -229254  -229221  -229257  -229304  -229309 
 -229348  -229379  -229358  -229363  -229387  -229386  -229413  -229433 
 -229367  -229286  -229266  -229279  -229301  -229352  -229417  -229420 
