Origin Time       2018/04/09 06:38:00
Lat.              35.2
Long.             132.6
Depth. (km)       10
Mag.              3.8
Station Code      HRSH07
Station Lat.      34.2883
Station Long.     132.6411
Station Height(m) 128
Record Time       2018/04/09 06:39:17
Sampling Freq(Hz) 100Hz
Duration Time(s)  120
Dir.              3
Scale Factor      2942(gal)/8224139
Max. Acc. (gal)   0.150
Last Correction   2018/04/09 06:39:02
Memo.             
[...]
   18365    18364    18361    18362    18364    18362    18360    18364 
   18364    18362    18362    18364    18365    18365    18362    18362 
   18365    18365    18361    18362    18364    18365    18365    18364 
   18362    18364    18364    18362    18364    18364    18361    18361 
   18362    18362    18362    18364    18362    18361    18360    18362 
   18364    18360    18362    18365    18361    18360    18362    18361 
   18361    18365    18365    18362    18364    18362    18361    18361 
   18364    18365    18365    18362    18361    18364    18364    18360 
   18360    18361    18362    18362    18364    18364    18361    18360 
   18361    18364    18362    18362    18365    18365    18361    18360 
   18362    18362    18362    18362    18364    18365    18364    18362 
   18365    18365    18364    18364    18365    18364    18361    18361 
   18361    18361    18361    18361    18362    18360    18360    18362 
   18365    18365    18362    18358    18361    18364    18362    18362 
   18364    18361    18358    18362    18366    18364    18362    18364 
   18362    18361    18364    18362    18362    18365    18362    18360 
   18360    18361    18364    18365    18364    18364    18364    18362 
   18362    18364    18368    18369    18370    18374    18381    18389 
   18397    18404    18414    18422    18427    18430    18423    18409 
   18393    18366    18330    18296    18258    18207    18175    18195 
   18250    18291    18308    18337    18382    18409    18401    18388 
   18387    18407    18451    18499    18482    18380    18300    18323 
   18350    18300    18258    18296    18347    18342    18304    18338 
   18447    18447    18318    18288    18415    18523    18499    18370 
   18252    18266    18381    18408    18301    18254    18366    18461 
   18426    18357    18328    18364    18442    18438    18337    18334 
   18422    18407    18372    18435    18450    18347    18270    18304 
   18374    18399    18388    18358    18333    18385    18465    18405 
   18274    18266    18296    18256    18273    18393    18450    18364 
   18300    18362    18408    18384    18391    18418    18396    18351 
   18320    18292    18312    18401    18450    18420    18380    18331 
   18287    18293    18322    18347    18366    18342    18304    18331 
   18409    18434    18339    18254    18299    18347    18341    18358 
   18419    18477    18458    18400    18393    18407    18392    18354 
   18314    18316    18365    18395    18365    18322    18355    18414 
   18395    18343    18366    18441    18439    18365    18334    18364 
   18378    18322    18284    18365    18426    18355    18304    18364 
   18397    18349    18316    18361    18414    18395    18378    18415 
   18423    18391    18358    18335    18342    18370    18365    18330 
   18338    18369    18343    18315    18318    18288    18295    18365 
   18365    18326    18366    18423    18393    18322    18319    18366 
   18366    18342    18342    18350    18368    18395    18380    18338 
   18324    18345    18387    18404    18376    18380    18442    18457 
   18385    18350    18400    18434    18428    18423    18366    18285 
   18295    18346    18323    18299    18346    18376    18334    18277 
   18301    18389    18385    18316    18327    18373    18403    18399 
   18347    18349    18407    18408    18384    18385    18395    18441 
   18473    18418    18362    18381    18393    18349    18312    18323 
   18345    18337    18285    18246    18288    18364    18401    18403 
   18380    18358    18343    18306    18277    18303    18354    18400 
   18432    18432    18420    18427    18411    18351    18330    18369 
   18392    18368    18339    18346    18345    18324    18369    18415 
   18353    18297    18328    18360    18350    18357    18391    18376 
   18331    18343    18382    18399    18427    18428    18366    18351 
   18385    18362    18341    18388    18422    18382    18355    18387 
   18377    18334    18353    18382    18361    18342    18342    18334 
   18355    18387    18350    18311    18330    18339    18319    18328 
   18349    18333    18353    18409    18397    18353    18347    18372 
   18374    18369    18382    18364    18328    18349    18384    18378 
   18358    18362    18362    18341    18323    18327    18361    18373 
   18341    18341    18374    18391    18403    18399    18387    18396 
   18404    18389    18357    18347    18374    18389    18377    18372 
   18377    18373    18365    18373    18370    18366    18374    18357 
   18327    18354    18387    18362    18353    18376    18364    18328 
   18316    18319    18331    18362    18389    18369    18324    18320 
   18347    18362    18366    18369    18372    18381    18384    18391 
   18395    18370    18361    18392    18404    18365    18316    18319 
   18361    18388    18392    18382    18391    18403    18362    18312 
   18327    18345    18333    18338    18339    18339    18351    18357 
   18362    18358    18328    18312    18323    18343    18368    18391 
   18381    18345    18341    18355    18350    18376    18427    18426 
   18401    18419    18430    18397    18384    18400    18387    18338 
   18299    18328    18400    18411    18366    18343    18349    18345 
   18334    18349    18358    18322    18314    18353    18355    18331 
   18353    18382    18360    18334    18350    18381    18393    18391 
   18396    18381    18358    18378    18385    18350    18346    18351 
   18358    18395    18391    18364    18370    18370    18365    18362 
   18341    18343    18360    18347    18347    18384    18400    18364 
   18328    18324    18333    18334    18345    18388    18405    18378 
   18361    18353    18365    18389    18358    18320    18345    18358 
   18357    18393    18420    18419    18408    18388    18369    18349 
   18347    18389    18422    18389    18349    18333    18306    18310 
   18368    18361    18304    18326    18385    18372    18333    18346 
   18357    18322    18327    18388    18404    18374    18380    18401 
   18380    18342    18330    18333    18335    18339    18358    18384 
   18389    18387    18384    18368    18351    18353    18361    18385 
   18435    18478    18476    18426    18368    18318    18297    18343 
   18392    18361    18299    18281    18297    18320    18357    18378 
   18328    18285    18338    18358    18288    18281    18361    18395 
   18369    18347    18368    18404    18400    18381    18409    18438 
   18411    18369    18380    18434    18454    18416    18384    18368 
   18345    18341    18374    18399    18391    18401    18393    18327 
   18301    18322    18338    18366    18369    18330    18299    18311 
   18337    18314    18291    18322    18339    18350    18380    18378 
   18387    18408    18381    18362    18381    18387    18381    18382 
   18405    18428    18395    18351    18357    18370    18366    18368 
   18364    18362    18373    18354    18338    18358    18350    18328 
   18342    18350    18328    18300    18312    18351    18368    18364 
   18351    18353    18373    18378    18376    18364    18347    18365 
   18393    18400    18403    18404    18400    18381    18362    18374 
   18395    18385    18377    18381    18360    18322    18327    18362 
   18354    18326    18323    18327    18334    18337    18312    18318 
   18364    18380    18346    18326    18362    18401    18385    18360 
   18372    18388    18380    18385    18403    18415    18439    18430 
   18380    18370    18374    18345    18328    18337    18349    18357 
   18361    18361    18343    18320    18326    18331    18323    18347 
   18395    18416    18397    18354    18333    18339    18334    18343 
   18372    18364    18353    18374    18378    18368    18378    18384 
   18381    18376    18365    18366    18369    18351    18347    18372 
   18385    18361    18318    18308    18338    18353    18350    18346 
   18338    18346    18355    18360    18373    18372    18365    18378 
   18382    18373    18373    18376    18369    18357    18361    18374 
   18362    18351    18382    18393    18362    18373    18401    18381 
   18366    18399    18407    18364    18347    18355    18330    18315 
   18343    18350    18338    18349    18343    18327    18338    18346 
   18347    18351    18351    18366    18378    18364    18364    18374 
   18355    18333    18368    18431    18442    18423    18415    18384 
   18339    18339    18368    18372    18338    18320    18358    18378 
   18350    18338    18343    18333    18327    18337    18357    18369 
   18349    18357    18415    18420    18360    18345    18380    18393 
   18391    18392    18389    18393    18381    18370    18378    18373 
   18362    18372    18381    18361    18338    18353    18357    18333 
   18327    18342    18341    18330    18343    18378    18387    18366 
   18358    18362    18343    18331    18338    18337    18343    18365 
   18380    18393    18400    18387    18366    18346    18333    18338 
   18358    18381    18400    18414    18415    18381    18323    18301 
   18327    18347    18354    18358    18365    18381    18368    18335 
   18349    18373    18377    18376    18361    18370    18409    18432 
   18431    18415    18384    18353    18324    18326    18370    18387 
   18331    18301    18345    18365    18351    18362    18376    18368 
   18353    18350    18358    18338    18310    18337    18381    18369 
   18346    18350    18339    18324    18349    18382    18391    18385 
   18397    18416    18382    18327    18341    18387    18376    18334 
   18333    18364    18372    18353    18333    18326    18354    18412 
   18432    18404    18381    18401    18434    18404    18335    18311 
   18333    18360    18373    18362    18337    18330    18346    18343 
   18349    18389    18411    18382    18324    18306    18343    18353 
   18315    18320    18358    18350    18319    18339    18378    18389 
   18396    18396    18360    18323    18333    18376    18414    18405 
   18378    18369    18372    18385    18405    18424    18438    18426 
   18395    18353    18320    18318    18328    18334    18345    18337 
   18304    18288    18293    18299    18312    18342    18368    18380 
   18388    18382    18381    18408    18430    18412    18380    18376 
   18380    18347    18323    18353    18360    18333    18334    18362 
   18408    18422    18389    18382    18377    18337    18327    18355 
   18364    18351    18365    18377    18347    18328    18347    18358 
   18341    18346    18377    18370    18362    18391    18385    18349 
   18337    18346    18361    18373    18378    18380    18360    18339 
   18361    18378    18349    18337    18369    18401    18405    18395 
   18381    18380    18385    18373    18365    18349    18326    18341 
   18330    18289    18327    18391    18396    18370    18351    18358 
   18365    18351    18353    18370    18373    18370    18369    18372 
   18364    18355    18376    18378    18360    18354    18341    18334 
   18364    18389    18391    18374    18354    18351    18347    18338 
   18341    18354    18366    18353    18331    18331    18334    18346 
   18357    18358    18385    18414    18414    18419    18409    18365 
   18345    18355    18358    18361    18362    18364    18370    18358 
   18339    18342    18341    18345    18382    18391    18370    18377 
   18387    18389    18384    18372    18381    18372    18349    18370 
   18376    18330    18291    18300    18355    18378    18326    18292 
   18316    18347    18366    18376    18388    18393    18389    18411 
   18416    18366    18355    18380    18354    18343    18389    18403 
   18372    18346    18338    18354    18358    18334    18320    18323 
   18331    18342    18328    18320    18343    18346    18346    18389 
   18411    18391    18399    18424    18419    18407    18407    18404 
   18381    18330    18297    18326    18341    18319    18349    18397 
   18391    18368    18351    18357    18387    18378    18358    18342 
   18299    18308    18373    18374    18346    18350    18341    18335 
   18377    18428    18438    18414    18419    18473    18473    18384 
   18349    18387    18377    18331    18318    18343    18353    18314 
   18284    18320    18388    18392    18334    18323    18355    18333 
   18260    18234    18254    18239    18241    18311    18378    18432 
   18490    18496    18474    18468    18451    18454    18478    18476 
   18461    18404    18293    18246    18283    18306    18283    18283 
   18366    18449    18454    18431    18426    18434    18411    18351 
   18311    18299    18281    18239    18222    18272    18296    18281 
   18312    18341    18350    18427    18488    18426    18382    18477 
   18558    18508    18403    18333    18307    18254    18191    18222 
   18264    18210    18215    18295    18307    18297    18306    18307 
   18343    18393    18419    18473    18563    18569    18516    18557 
   18617    18574    18477    18401    18338    18296    18345    18442 
   18468    18414    18320    18266    18264    18200    18145    18231 
   18323    18327    18384    18446    18391    18330    18341    18370 
   18412    18438    18455    18469    18391    18297    18292    18292 
   18297    18300    18241    18199    18150    18053    18042    18114 
   18195    18288    18337    18331    18388    18493    18536    18528 
   18554    18623    18701    18763    18782    18750    18701    18642 
   18504    18320    18241    18277    18316    18314    18279    18187 
   18079    18072    18134    18131    18107    18112    18102    18133 
   18216    18273    18333    18419    18447    18436    18459    18470 
   18454    18446    18453    18507    18596    18628    18590    18526 
   18455    18439    18505    18489    18342    18249    18238    18238 
   18276    18318    18320    18324    18334    18314    18246    18188 
   18239    18326    18314    18289    18328    18357    18364    18384 
   18400    18388    18370    18395    18436    18431    18382    18387 
   18420    18343    18253    18287    18310    18249    18212    18241 
   18280    18279    18270    18342    18416    18399    18434    18542 
   18571    18580    18612    18598    18569    18509    18387    18343 
   18426    18485    18472    18431    18362    18293    18273    18256 
   18193    18150    18148    18122    18084    18110    18207    18293 
   18301    18258    18272    18384    18478    18474    18476    18567 
   18627    18559    18493    18463    18397    18365    18365    18331 
   18334    18381    18382    18364    18357    18310    18245    18227 
   18222    18229    18284    18311    18343    18420    18422    18377 
   18385    18395    18376    18366    18368    18357    18337    18338 
   18395    18486    18524    18485    18451    18449    18447    18436 
   18422    18396    18381    18430    18486    18478    18412    18328 
   18296    18311    18280    18226    18204    18176    18152    18161 
   18191    18234    18243    18227    18264    18301    18287    18327 
   18399    18400    18418    18474    18484    18507    18562    18573 
   18565    18557    18503    18409    18347    18372    18416    18380 
   18308    18257    18226    18242    18295    18320    18314    18306 
   18277    18237    18266    18368    18422    18393    18346    18319 
   18334    18354    18358    18409    18482    18488    18453    18453 
   18477    18465    18399    18333    18326    18349    18338    18326 
   18338    18307    18220    18171    18233    18345    18396    18407 
   18423    18411    18384    18395    18419    18409    18377    18380 
   18407    18384    18328    18320    18384    18420    18381    18372 
   18405    18408    18384    18334    18264    18226    18246    18265 
   18239    18247    18319    18364    18399    18478    18517    18492 
   18472    18455    18428    18393    18343    18301    18283    18272 
   18297    18368    18422    18432    18446    18461    18422    18355 
   18334    18330    18295    18268    18256    18239    18276    18346 
   18360    18384    18480    18523    18466    18420    18436    18434 
   18378    18349    18361    18339    18295    18287    18287    18253 
   18231    18268    18311    18310    18310    18322    18303    18292 
   18331    18377    18408    18428    18466    18526    18546    18520 
   18484    18445    18430    18432    18414    18382    18338    18316 
   18351    18366    18326    18277    18257    18262    18258    18262 
   18300    18324    18312    18284    18256    18274    18353    18420 
   18430    18418    18420    18428    18409    18381    18388    18370 
   18330    18372    18404    18330    18300    18364    18374    18327 
   18345    18411    18427    18412    18431    18445    18446    18470 
   18474    18428    18385    18354    18315    18296    18300    18277 
   18260    18279    18292    18304    18307    18257    18253    18346 
   18405    18368    18330    18361    18408    18422    18461    18509 
   18501    18481    18457    18396    18389    18427    18407    18353 
   18318    18306    18280    18219    18211    18262    18276    18261 
   18261    18285    18345    18391    18400    18424    18451    18412 
   18358    18405    18499    18505    18434    18365    18337    18354 
   18376    18380    18388    18388    18374    18365    18351    18322 
   18301    18312    18338    18343    18333    18333    18357    18369 
   18347    18335    18337    18310    18291    18319    18346    18343 
   18350    18376    18366    18341    18349    18370    18392    18411 
   18405    18412    18441    18431    18412    18439    18458    18418 
   18400    18443    18442    18376    18314    18284    18284    18284 
   18265    18256    18262    18261    18281    18355    18412    18404 
   18404    18431    18442    18449    18461    18442    18369    18292 
   18289    18334    18361    18384    18416    18414    18362    18310 
   18295    18299    18293    18289    18289    18296    18327    18357 
   18333    18291    18308    18362    18384    18393    18445    18492 
   18477    18459    18454    18401    18345    18358    18399    18376 
   18324    18323    18320    18274    18258    18268    18272    18315 
   18366    18376    18377    18376    18403    18453    18423    18357 
   18381    18428    18423    18415    18404    18370    18364    18392 
   18442    18478    18447    18393    18365    18331    18307    18292 
   18261    18247    18269    18304    18354    18399    18414    18407 
   18388    18365    18354    18358    18350    18322    18324    18389 
   18443    18404    18331    18328    18365    18381    18384    18361 
   18334    18342    18345    18339    18360    18353    18307    18291 
   18304    18312    18323    18357    18401    18427    18435    18443 
   18432    18405    18403    18384    18335    18322    18335    18338 
   18335    18324    18333    18374    18388    18361    18355    18361 
   18335    18322    18351    18373    18370    18339    18306    18316 
   18357    18384    18384    18382    18382    18350    18320    18328 
   18330    18319    18339    18378    18401    18393    18382    18385 
   18378    18370    18385    18389    18392    18434    18455    18419 
