Origin Time       2018/04/09 06:38:00
Lat.              35.2
Long.             132.6
Depth. (km)       10
Mag.              3.8
Station Code      HRSH07
Station Lat.      34.2883
Station Long.     132.6411
Station Height(m) 230
Record Time       2018/04/09 06:39:17
Sampling Freq(Hz) 100Hz
Duration Time(s)  120
Dir.              6
Scale Factor      7845(gal)/8223790
Max. Acc. (gal)   0.481
Last Correction   2018/04/09 06:39:02
Memo.             
   25722    25722    25722    25724    25725    25725    25725    25726 
   25724    25722    25722    25721    25722    25724    25725    25724 
   25724    25725    25725    25724    25724    25724    25721    25720 
   25725    25726    25725    25724    25725    25725    25722    25721 
   25722    25724    25725    25726    25729    25726    25720    25720 
   25722    25721    25721    25724    25726    25724    25722    25724 
   25721    25720    25722    25724    25721    25722    25726    25725 
   25724    25722    25722    25721    25720    25724    25725    25722 
   25722    25725    25726    25724    25720    25722    25722    25718 
   25720    25725    25726    25726    25725    25724    25724    25720 
   25718    25722    25726    25725    25726    25728    25722    25720 
   25725    25721    25718    25725    25728    25725    25728    25728 
   25722    25718    25720    25724    25724    25722    25725    25724 
   25722    25722    25722    25721    25722    25724    25724    25724 
   25725    25724    25722    25722    25724    25722    25722    25724 
   25724    25724    25722    25724    25728    25726    25721    25720 
   25724    25722    25717    25722    25728    25728    25725    25721 
   25721    25721    25721    25724    25726    25726    25725    25725 
   25724    25722    25720    25721    25725    25724    25724    25726 
   25724    25724    25724    25718    25721    25728    25725    25725 
   25726    25725    25724    25721    25717    25720    25724    25724 
   25722    25722    25726    25726    25725    25725    25722    25718 
   25721    25722    25724    25726    25728    25725    25722    25720 
   25721    25721    25725    25726    25726    25728    25726    25722 
   25720    25718    25720    25725    25725    25724    25726    25728 
   25724    25722    25721    25722    25724    25724    25725    25726 
   25724    25724    25724    25720    25721    25724    25721    25720 
   25722    25726    25726    25726    25725    25720    25720    25720 
   25718    25721    25724    25725    25726    25725    25722    25720 
   25722    25724    25721    25722    25726    25728    25726    25724 
   25722    25718    25720    25722    25722    25724    25726    25729 
   25724    25720    25721    25721    25721    25721    25722    25724 
   25724    25724    25725    25724    25721    25720    25722    25728 
   25725    25721    25725    25728    25724    25722    25725    25722 
   25720    25721    25724    25725    25722    25725    25729    25725 
   25722    25721    25720    25720    25725    25726    25724    25725 
   25726    25721    25718    25722    25724    25722    25728    25728 
   25724    25722    25722    25722    25724    25721    25724    25728 
   25726    25722    25722    25721    25718    25722    25726    25722 
   25722    25726    25729    25725    25722    25724    25725    25720 
   25718    25722    25725    25724    25724    25726    25725    25720 
   25722    25724    25718    25721    25726    25726    25725    25722 
   25721    25721    25718    25720    25725    25725    25726    25726 
   25724    25722    25722    25721    25721    25721    25724    25725 
   25725    25726    25725    25722    25720    25722    25725    25724 
   25724    25725    25722    25721    25721    25721    25722    25722 
   25721    25724    25724    25722    25726    25726    25724    25726 
   25728    25728    25733    25741    25747    25755    25763    25771 
   25775    25774    25770    25763    25747    25717    25682    25640 
   25596    25563    25535    25504    25512    25601    25751    25882 
   25936    25922    25857    25756    25670    25631    25659    25783 
   25984    26136    26069    25763    25442    25328    25369    25428 
   25539    25736    25890    25859    25682    25596    25764    25991 
   25978    25775    25671    25760    25857    25820    25705    25635 
   25645    25647    25560    25512    25664    25879    25902    25729 
   25581    25671    25870    25824    25562    25550    25942    26227 
   26077    25775    25581    25483    25434    25439    25498    25639 
   25891    26037    25914    25736    25666    25678    25690    25633 
   25533    25477    25537    25748    26013    26133    26026    25785 
   25562    25529    25667    25759    25726    25668    25670    25721 
   25722    25705    25770    25790    25674    25525    25475    25593 
   25759    25847    25883    25870    25814    25782    25828    25910 
   25817    25597    25492    25455    25497    25705    25922    25963 
   25817    25664    25629    25659    25695    25705    25716    25791 
   25861    25863    25817    25714    25604    25608    25678    25691 
   25716    25824    25852    25702    25560    25620    25741    25712 
   25671    25731    25753    25764    25840    25909    25860    25675 
   25517    25555    25687    25717    25720    25830    25917    25834 
   25686    25645    25658    25645    25677    25683    25627    25667 
   25790    25816    25714    25594    25604    25758    25878    25841 
   25749    25782    25824    25670    25510    25547    25659    25771 
   25856    25843    25791    25770    25702    25554    25485    25633 
   25839    25891    25866    25870    25930    25983    25839    25601 
   25542    25581    25582    25581    25606    25677    25748    25748 
   25660    25574    25628    25764    25809    25708    25625    25729 
   25875    25897    25871    25879    25887    25785    25612    25563 
   25695    25837    25821    25678    25560    25570    25674    25732 
   25698    25695    25785    25833    25760    25636    25555    25551 
   25617    25737    25851    25930    25994    25947    25748    25566 
   25506    25539    25602    25659    25720    25795    25867    25895 
   25852    25772    25667    25536    25481    25566    25731    25890 
   25971    25930    25786    25659    25667    25713    25667    25585 
   25570    25624    25667    25724    25852    25901    25807    25713 
   25664    25683    25771    25809    25749    25706    25725    25714 
   25651    25652    25767    25834    25766    25729    25753    25729 
   25697    25658    25574    25550    25672    25818    25829    25731 
   25658    25689    25770    25789    25678    25583    25663    25770 
   25848    25972    25984    25803    25624    25586    25570    25560 
   25721    25883    25807    25621    25537    25608    25699    25714 
   25709    25725    25780    25824    25802    25783    25783    25753 
   25667    25600    25679    25818    25875    25857    25795    25741 
   25652    25524    25537    25682    25764    25748    25716    25736 
   25798    25828    25759    25641    25640    25725    25744    25763 
   25825    25821    25758    25672    25597    25591    25643    25682 
   25664    25652    25737    25829    25824    25762    25720    25710 
   25691    25664    25689    25776    25876    25906    25817    25683 
   25636    25671    25682    25625    25570    25628    25783    25878 
   25843    25770    25748    25756    25686    25546    25513    25636 
   25821    25933    25874    25743    25641    25610    25652    25654 
   25666    25748    25766    25733    25701    25702    25794    25828 
   25764    25709    25683    25744    25818    25789    25753    25755 
   25721    25650    25616    25702    25840    25855    25713    25590 
   25625    25724    25764    25743    25689    25624    25591    25650 
   25721    25744    25809    25866    25809    25694    25637    25698 
   25748    25735    25770    25809    25791    25778    25772    25736 
   25679    25645    25610    25583    25629    25704    25771    25806 
   25803    25806    25739    25605    25583    25655    25741    25837 
   25870    25832    25775    25745    25756    25717    25666    25651 
   25587    25523    25567    25737    25909    25925    25836    25737 
   25643    25600    25628    25713    25818    25853    25810    25759 
   25737    25759    25756    25709    25666    25593    25570    25685 
   25817    25847    25780    25677    25582    25571    25663    25733 
   25749    25799    25864    25857    25767    25702    25693    25652 
   25620    25656    25741    25840    25917    25893    25687    25451 
   25427    25590    25753    25816    25812    25813    25805    25767 
   25714    25693    25724    25753    25736    25697    25731    25857 
   25926    25857    25728    25582    25477    25524    25645    25690 
   25713    25763    25766    25695    25674    25763    25794    25702 
   25667    25716    25722    25714    25806    25899    25810    25666 
   25677    25745    25732    25691    25697    25718    25709    25670 
   25671    25755    25843    25856    25795    25725    25705    25712 
   25731    25725    25641    25616    25706    25714    25609    25575 
   25704    25851    25841    25751    25677    25640    25682    25720 
   25718    25779    25851    25848    25790    25716    25698    25689 
   25647    25651    25662    25686    25767    25794    25770    25760 
   25714    25650    25641    25702    25764    25770    25764    25766 
   25762    25749    25708    25659    25662    25699    25706    25695 
   25682    25659    25702    25772    25767    25778    25798    25762 
   25709    25664    25677    25697    25699    25762    25799    25789 
   25806    25812    25779    25712    25645    25631    25632    25663 
   25740    25794    25786    25716    25637    25632    25683    25721 
   25712    25660    25647    25698    25732    25748    25801    25859 
   25818    25694    25682    25807    25872    25786    25650    25594 
   25632    25728    25776    25725    25728    25802    25795    25690 
   25598    25617    25664    25706    25806    25852    25820    25774 
   25668    25582    25612    25682    25706    25701    25735    25762 
   25732    25733    25782    25785    25743    25710    25701    25717 
   25768    25832    25830    25740    25633    25581    25596    25666 
   25726    25755    25795    25807    25749    25706    25720    25713 
   25650    25637    25731    25799    25776    25706    25659    25697 
   25733    25713    25706    25720    25747    25766    25766    25791 
   25789    25739    25706    25675    25679    25735    25751    25713 
   25714    25728    25679    25648    25702    25753    25745    25753 
   25780    25731    25682    25717    25725    25685    25706    25751 
   25748    25740    25712    25643    25591    25608    25695    25771 
   25802    25830    25825    25772    25724    25717    25737    25721 
   25686    25705    25737    25756    25795    25759    25635    25596 
   25677    25744    25749    25770    25824    25798    25677    25620 
   25668    25701    25683    25675    25697    25713    25731    25794 
   25833    25752    25656    25685    25775    25794    25749    25739 
   25783    25775    25690    25654    25678    25686    25694    25716 
   25724    25694    25682    25758    25803    25758    25728    25741 
   25747    25710    25689    25720    25736    25704    25662    25640 
   25651    25666    25679    25729    25816    25868    25841    25747 
   25662    25666    25702    25720    25721    25701    25733    25810 
   25836    25818    25782    25698    25573    25494    25547    25664 
   25760    25845    25890    25843    25718    25600    25567    25605 
   25710    25840    25905    25909    25839    25749    25718    25677 
   25650    25670    25670    25659    25651    25668    25722    25771 
   25798    25772    25717    25691    25683    25683    25690    25710 
   25745    25752    25763    25807    25812    25682    25528    25543 
   25659    25732    25797    25890    25929    25828    25670    25601 
   25606    25628    25685    25790    25864    25806    25679    25645 
   25726    25770    25728    25706    25729    25759    25762    25729 
   25695    25728    25818    25813    25666    25542    25555    25659 
   25732    25751    25791    25832    25818    25713    25604    25656 
   25801    25840    25740    25635    25636    25695    25762    25837 
   25863    25795    25656    25532    25500    25544    25633    25741 
   25812    25832    25839    25867    25868    25803    25770    25783 
   25744    25664    25636    25679    25721    25716    25698    25660 
   25624    25654    25716    25733    25695    25647    25645    25682 
   25726    25783    25801    25768    25764    25795    25817    25794 
   25747    25731    25733    25708    25628    25593    25691    25779 
   25775    25747    25724    25720    25698    25666    25691    25720 
   25748    25767    25717    25698    25739    25776    25812    25790 
   25755    25736    25644    25550    25556    25647    25735    25755 
   25753    25739    25726    25803    25872    25790    25687    25691 
   25726    25747    25748    25737    25753    25780    25770    25699 
   25597    25552    25600    25672    25701    25713    25771    25829 
   25832    25782    25721    25690    25713    25817    25884    25810 
   25705    25633    25594    25594    25610    25671    25732    25733 
   25749    25790    25805    25789    25726    25693    25704    25679 
   25708    25785    25772    25683    25632    25699    25782    25747 
   25690    25672    25687    25735    25720    25675    25718    25802 
   25807    25718    25670    25702    25713    25724    25763    25778 
   25760    25748    25774    25768    25705    25681    25701    25704 
   25674    25651    25682    25739    25753    25708    25679    25740 
   25794    25758    25725    25726    25726    25741    25755    25764 
   25748    25726    25752    25724    25654    25672    25693    25660 
   25643    25650    25697    25718    25690    25689    25708    25770 
   25828    25805    25810    25802    25709    25683    25724    25737 
   25780    25834    25820    25747    25686    25668    25639    25596 
   25597    25632    25643    25643    25694    25764    25809    25803 
   25720    25668    25717    25793    25859    25883    25863    25821 
   25756    25717    25670    25582    25574    25656    25685    25648 
   25645    25697    25721    25704    25732    25809    25847    25807 
   25743    25737    25755    25733    25745    25753    25678    25639 
   25678    25678    25628    25636    25744    25818    25787    25758 
   25766    25807    25859    25848    25768    25643    25591    25671 
   25753    25790    25791    25768    25712    25606    25485    25375 
   25386    25537    25651    25698    25775    25859    25856    25821 
   25864    25907    25917    25932    25930    25953    26014    26033 
   25925    25694    25516    25477    25463    25420    25428    25524 
   25616    25601    25546    25625    25801    25933    26010    25937 
   25786    25764    25790    25729    25558    25400    25397    25434 
   25492    25644    25825    25940    25945    25938    25959    25879 
   25828    25918    25956    25843    25705    25683    25725    25675 
   25590    25569    25567    25524    25481    25612    25853    25907 
   25803    25722    25645    25567    25543    25644    25855    26001 
   25984    25926    25945    25875    25620    25381    25267    25348 
   25623    25855    25940    25922    25883    25864    25774    25635 
   25578    25604    25610    25604    25694    25878    26045    26092 
   25999    25906    25840    25709    25600    25559    25489    25447 
   25558    25706    25660    25500    25481    25543    25524    25504 
   25567    25735    25882    25860    25824    25901    26010    26090 
   26119    26098    26003    25878    25785    25699    25651    25645 
   25583    25455    25374    25413    25539    25601    25540    25459 
   25473    25614    25807    25928    25944    25929    25917    25874 
   25821    25798    25839    25886    25816    25686    25605    25558 
   25586    25753    25890    25847    25733    25655    25618    25620 
   25645    25656    25594    25574    25704    25822    25859    25894 
   25952    25990    25907    25753    25725    25728    25620    25525 
   25504    25496    25481    25505    25571    25617    25699    25821 
   25824    25752    25780    25947    26077    25980    25820    25766 
   25716    25716    25787    25789    25679    25574    25571    25536 
   25419    25429    25577    25656    25612    25605    25728    25782 
   25733    25833    25986    25984    25995    26057    26044    25978 
   25874    25780    25737    25717    25717    25704    25682    25675 
   25627    25536    25446    25371    25323    25343    25432    25535 
   25686    25856    25871    25747    25689    25771    25905    25979 
   25974    25992    26041    25999    25852    25736    25666    25556 
   25550    25685    25736    25672    25593    25590    25641    25620 
   25574    25560    25583    25633    25654    25729    25848    25891 
   25936    26017    26069    26033    25876    25740    25725    25717 
   25571    25402    25475    25640    25635    25579    25585    25623 
   25693    25751    25752    25720    25693    25739    25856    25915 
   25875    25860    25901    25890    25783    25667    25654    25640 
   25555    25604    25743    25728    25616    25519    25456    25485 
   25564    25589    25596    25697    25816    25888    26025    26141 
   26160    26175    26125    25987    25839    25685    25537    25417 
   25367    25405    25447    25467    25481    25461    25438    25486 
   25616    25786    25949    26030    26021    25978    25949    25975 
   25967    25853    25748    25679    25606    25618    25724    25745 
   25621    25520    25567    25695    25745    25683    25610    25605 
   25636    25625    25641    25752    25851    25941    26018    25974 
   25872    25760    25664    25660    25686    25702    25690    25632 
   25624    25687    25717    25663    25594    25587    25621    25675 
   25759    25826    25833    25759    25690    25732    25802    25814 
   25771    25685    25582    25504    25548    25716    25805    25774 
   25748    25763    25783    25833    25903    25945    25928    25813 
   25667    25612    25679    25780    25763    25658    25600    25602 
   25650    25670    25632    25617    25629    25666    25714    25745 
   25787    25786    25710    25664    25712    25801    25840    25844 
   25856    25836    25803    25802    25822    25774    25591    25451 
   25479    25521    25531    25597    25693    25771    25790    25756 
   25741    25740    25775    25849    25845    25785    25753    25756 
   25806    25851    25856    25872    25864    25833    25775    25644 
   25552    25524    25496    25544    25647    25737    25797    25791 
   25736    25639    25583    25618    25625    25587    25614    25744 
   25893    25941    25878    25801    25825    25891    25802    25623 
   25578    25658    25708    25644    25573    25609    25713    25852 
   25922    25824    25681    25628    25667    25716    25732    25805 
   25884    25876    25872    25864    25785    25724    25699    25628 
   25555    25582    25671    25709    25670    25579    25513    25551 
   25637    25710    25745    25713    25710    25749    25766    25818 
   25917    26022    26038    25888    25755    25762    25763    25685 
   25620    25612    25591    25563    25589    25631    25614    25617 
