Origin Time       2018/04/09 06:38:00
Lat.              35.2
Long.             132.6
Depth. (km)       10
Mag.              3.8
Station Code      HRSH07
Station Lat.      34.2883
Station Long.     132.6411
Station Height(m) 128
Record Time       2018/04/09 06:39:17
Sampling Freq(Hz) 100Hz
Duration Time(s)  120
Dir.              1
Scale Factor      2942(gal)/8224139
Max. Acc. (gal)   0.089
Last Correction   2018/04/09 06:39:02
Memo.             
[...]
  -96271   -96215   -96206   -96252   -96280   -96242   -96209   -96241 
  -96259   -96221   -96194   -96190   -96201   -96237   -96259   -96245 
  -96223   -96207   -96229   -96272   -96256   -96198   -96179   -96207 
  -96237   -96222   -96207   -96250   -96280   -96246   -96237   -96255 
  -96217   -96202   -96256   -96268   -96230   -96225   -96244   -96240 
  -96236   -96232   -96201   -96187   -96219   -96229   -96203   -96206 
  -96228   -96232   -96244   -96246   -96219   -96213   -96218   -96213 
  -96226   -96271   -96273   -96219   -96211   -96246   -96225   -96194 
  -96203   -96206   -96211   -96241   -96249   -96226   -96209   -96203 
  -96190   -96175   -96201   -96248   -96242   -96215   -96221   -96240 
  -96265   -96273   -96249   -96241   -96261   -96282   -96287   -96269 
  -96250   -96237   -96223   -96222   -96215   -96225   -96249   -96217 
  -96180   -96222   -96233   -96191   -96219   -96257   -96211   -96178 
  -96198   -96201   -96199   -96230   -96244   -96233   -96244   -96260 
  -96240   -96195   -96194   -96250   -96282   -96253   -96213   -96203 
  -96219   -96232   -96246   -96267   -96267   -96246   -96221   -96222 
  -96248   -96238   -96234   -96269   -96276   -96241   -96210   -96183 
  -96179   -96199   -96202   -96199   -96209   -96219   -96232   -96229 
  -96201   -96194   -96219   -96234   -96233   -96252   -96267   -96259 
  -96256   -96244   -96223   -96259   -96291   -96260   -96244   -96219 
  -96144   -96157   -96234   -96228   -96199   -96222   -96236   -96221 
  -96202   -96195   -96201   -96222   -96276   -96294   -96248   -96237 
  -96271   -96271   -96248   -96230   -96232   -96250   -96255   -96252 
  -96241   -96199   -96167   -96180   -96192   -96187   -96192   -96207 
  -96211   -96198   -96190   -96221   -96255   -96255   -96260   -96272 
  -96275   -96282   -96271   -96245   -96238   -96219   -96183   -96191 
  -96206   -96199   -96228   -96248   -96218   -96226   -96269   -96253 
  -96210   -96207   -96210   -96196   -96199   -96228   -96259   -96268 
  -96248   -96229   -96233   -96232   -96211   -96209   -96233   -96250 
  -96249   -96236   -96218   -96222   -96244   -96229   -96196   -96211 
  -96248   -96256   -96249   -96237   -96222   -96221   -96226   -96210 
  -96182   -96174   -96199   -96229   -96233   -96236   -96248   -96244 
  -96242   -96246   -96223   -96221   -96257   -96259   -96244   -96253 
  -96236   -96192   -96194   -96211   -96195   -96214   -96259   -96248 
  -96232   -96244   -96223   -96190   -96187   -96201   -96232   -96263 
  -96269   -96268   -96253   -96240   -96263   -96265   -96229   -96234 
  -96263   -96240   -96209   -96202   -96187   -96187   -96210   -96218 
  -96214   -96218   -96233   -96234   -96210   -96201   -96221   -96223 
  -96202   -96219   -96277   -96283   -96248   -96244   -96225   -96198 
  -96226   -96250   -96250   -96253   -96217   -96182   -96198   -96217 
  -96226   -96237   -96225   -96217   -96242   -96267   -96255   -96229 
  -96229   -96232   -96229   -96223   -96203   -96194   -96207   -96237 
  -96271   -96246   -96198   -96226   -96248   -96210   -96209   -96226 
  -96215   -96213   -96219   -96226   -96232   -96237   -96249   -96256 
  -96260   -96260   -96253   -96268   -96269   -96221   -96192   -96222 
  -96245   -96253   -96245   -96179   -96145   -96205   -96237   -96218 
  -96217   -96209   -96180   -96167   -96182   -96221   -96267   -96286 
  -96268   -96259   -96252   -96228   -96223   -96229   -96221   -96245 
  -96279   -96279   -96280   -96265   -96214   -96191   -96198   -96202 
  -96201   -96187   -96186   -96206   -96202   -96190   -96222   -96261 
  -96257   -96223   -96205   -96209   -96213   -96214   -96213   -96222 
  -96249   -96264   -96253   -96249   -96265   -96253   -96218   -96226 
  -96246   -96217   -96202   -96246   -96267   -96229   -96221   -96241 
  -96225   -96213   -96201   -96161   -96178   -96245   -96271   -96269 
  -96271   -96249   -96213   -96195   -96221   -96257   -96253   -96237 
  -96242   -96228   -96213   -96219   -96209   -96196   -96202   -96207 
  -96209   -96202   -96201   -96217   -96249   -96269   -96259   -96253 
  -96256   -96233   -96214   -96223   -96252   -96269   -96234   -96190 
  -96198   -96217   -96217   -96221   -96207   -96191   -96206   -96213 
  -96210   -96226   -96237   -96248   -96263   -96252   -96236   -96240 
  -96237   -96226   -96221   -96234   -96250   -96234   -96202   -96196 
  -96206   -96219   -96244   -96244   -96221   -96221   -96242   -96244 
  -96249   -96277   -96272   -96241   -96236   -96213   -96179   -96186 
  -96213   -96250   -96261   -96218   -96199   -96241   -96267   -96242 
  -96215   -96207   -96207   -96213   -96213   -96225   -96250   -96249 
  -96237   -96246   -96255   -96248   -96237   -96238   -96237   -96202 
  -96182   -96213   -96228   -96210   -96209   -96228   -96232   -96202 
  -96186   -96219   -96228   -96187   -96196   -96256   -96267   -96253 
  -96272   -96261   -96211   -96198   -96228   -96260   -96267   -96241 
  -96232   -96248   -96244   -96221   -96213   -96217   -96230   -96255 
  -96264   -96240   -96195   -96168   -96188   -96211   -96210   -96233 
  -96269   -96242   -96190   -96195   -96236   -96257   -96263   -96263 
  -96248   -96226   -96226   -96238   -96217   -96201   -96245   -96288 
  -96288   -96279   -96253   -96211   -96199   -96196   -96161   -96153 
  -96210   -96241   -96210   -96194   -96210   -96221   -96215   -96191 
  -96187   -96222   -96245   -96236   -96234   -96237   -96232   -96237 
  -96253   -96248   -96242   -96257   -96263   -96261   -96279   -96265 
  -96188   -96157   -96196   -96207   -96213   -96248   -96245   -96225 
  -96244   -96269   -96283   -96276   -96242   -96225   -96236   -96233 
  -96194   -96171   -96202   -96222   -96244   -96295   -96268   -96198 
  -96215   -96225   -96190   -96218   -96265   -96257   -96241   -96229 
  -96211   -96210   -96210   -96218   -96233   -96213   -96202   -96223 
  -96219   -96198   -96183   -96174   -96199   -96244   -96236   -96201 
  -96210   -96226   -96215   -96244   -96299   -96294   -96271   -96275 
  -96252   -96228   -96217   -96184   -96201   -96272   -96277   -96205 
  -96164   -96179   -96188   -96183   -96195   -96214   -96217   -96214 
  -96238   -96269   -96265   -96245   -96257   -96299   -96298   -96253 
  -96229   -96213   -96191   -96221   -96255   -96225   -96213   -96230 
  -96210   -96217   -96242   -96228   -96217   -96222   -96221   -96223 
  -96229   -96233   -96241   -96249   -96252   -96257   -96265   -96252 
  -96217   -96184   -96190   -96215   -96222   -96244   -96273   -96252 
  -96226   -96233   -96228   -96223   -96211   -96179   -96203   -96249 
  -96218   -96172   -96202   -96250   -96245   -96210   -96192   -96210 
  -96248   -96253   -96240   -96256   -96257   -96234   -96236   -96245 
  -96229   -96209   -96223   -96242   -96217   -96201   -96210   -96196 
  -96179   -96202   -96221   -96198   -96194   -96237   -96263   -96249 
  -96236   -96253   -96273   -96257   -96236   -96241   -96237   -96229 
  -96241   -96238   -96199   -96179   -96192   -96202   -96214   -96245 
  -96237   -96188   -96188   -96233   -96250   -96237   -96248   -96298 
  -96323   -96310   -96306   -96296   -96268   -96249   -96223   -96203 
  -96209   -96207   -96205   -96205   -96186   -96168   -96168   -96176 
  -96186   -96215   -96253   -96256   -96245   -96240   -96228   -96228 
  -96236   -96242   -96257   -96250   -96236   -96253   -96253   -96225 
  -96214   -96198   -96178   -96188   -96205   -96195   -96194   -96228 
  -96257   -96244   -96225   -96237   -96244   -96240   -96240   -96223 
  -96203   -96206   -96209   -96210   -96233   -96252   -96238   -96223 
  -96233   -96233   -96221   -96241   -96288   -96287   -96242   -96228 
  -96225   -96209   -96214   -96237   -96257   -96250   -96244   -96259 
  -96244   -96215   -96237   -96264   -96242   -96210   -96202   -96210 
  -96214   -96202   -96192   -96205   -96217   -96217   -96211   -96221 
  -96236   -96230   -96219   -96236   -96259   -96257   -96252   -96248 
  -96226   -96233   -96260   -96229   -96192   -96214   -96237   -96237 
  -96219   -96190   -96191   -96215   -96228   -96229   -96242   -96255 
  -96211   -96183   -96226   -96237   -96201   -96217   -96250   -96228 
  -96209   -96232   -96263   -96306   -96325   -96269   -96234   -96264 
  -96260   -96225   -96222   -96233   -96244   -96229   -96201   -96192 
  -96178   -96169   -96174   -96163   -96186   -96246   -96259   -96245 
  -96256   -96272   -96282   -96291   -96313   -96356   -96358   -96273 
  -96242   -96319   -96337   -96280   -96268   -96256   -96194   -96124 
  -96066   -96039   -96047   -96028   -95997   -96041   -96111   -96140 
  -96188   -96282   -96357   -96388   -96381   -96358   -96357   -96384 
  -96357   -96233   -96137   -96140   -96133   -96086   -96044   -96032 
  -96079   -96133   -96171   -96260   -96368   -96392   -96334   -96313 
  -96309   -96232   -96179   -96201   -96229   -96300   -96376   -96372 
  -96334   -96313   -96302   -96264   -96180   -96122   -96105   -96072 
  -96033   -96061   -96187   -96307   -96360   -96394   -96373   -96260 
  -96156   -96155   -96234   -96304   -96353   -96391   -96311   -96129 
  -96052   -96142   -96248   -96300   -96356   -96377   -96315   -96265 
  -96294   -96333   -96361   -96364   -96291   -96179   -96082   -96018 
  -96048   -96132   -96163   -96159   -96151   -96101   -96076   -96132 
  -96152   -96160   -96244   -96283   -96240   -96246   -96260   -96182 
  -96113   -96156   -96241   -96311   -96356   -96352   -96336   -96306 
  -96209   -96129   -96192   -96276   -96211   -96147   -96248   -96387 
  -96392   -96299   -96219   -96157   -96120   -96186   -96330   -96384 
  -96304   -96240   -96221   -96188   -96172   -96159   -96137   -96168 
  -96199   -96183   -96196   -96210   -96145   -96122   -96168   -96172 
  -96233   -96361   -96407   -96404   -96388   -96327   -96268   -96245 
  -96252   -96217   -96141   -96128   -96159   -96191   -96256   -96276 
  -96210   -96172   -96205   -96263   -96296   -96257   -96230   -96267 
  -96246   -96174   -96187   -96250   -96213   -96105   -96110   -96222 
  -96252   -96183   -96144   -96147   -96136   -96118   -96145   -96223 
  -96291   -96303   -96299   -96310   -96317   -96322   -96353   -96381 
  -96336   -96260   -96269   -96296   -96246   -96196   -96188   -96186 
  -96165   -96145   -96202   -96283   -96265   -96211   -96172   -96118 
  -96147   -96275   -96298   -96192   -96180   -96272   -96321   -96313 
  -96283   -96232   -96180   -96141   -96115   -96151   -96229   -96260 
  -96271   -96292   -96253   -96186   -96196   -96249   -96257   -96221 
  -96171   -96129   -96083   -96048   -96082   -96168   -96230   -96253 
  -96295   -96390   -96465   -96438   -96333   -96232   -96186   -96211 
  -96290   -96323   -96296   -96265   -96226   -96215   -96207   -96134 
  -96082   -96097   -96118   -96118   -96102   -96130   -96196   -96233 
  -96249   -96250   -96249   -96299   -96345   -96306   -96282   -96296 
  -96264   -96291   -96411   -96395   -96263   -96225   -96230   -96194 
  -96179   -96203   -96199   -96178   -96221   -96288   -96296   -96283 
  -96273   -96275   -96307   -96304   -96232   -96156   -96086   -96041 
  -96068   -96087   -96093   -96175   -96238   -96202   -96191   -96215 
  -96168   -96133   -96183   -96226   -96225   -96218   -96213   -96248 
  -96315   -96338   -96357   -96404   -96430   -96430   -96391   -96319 
  -96299   -96290   -96229   -96202   -96229   -96202   -96106   -96032 
  -96018   -96030   -96082   -96198   -96284   -96250   -96169   -96129 
  -96147   -96196   -96225   -96226   -96253   -96264   -96225   -96250 
  -96337   -96319   -96255   -96294   -96330   -96244   -96156   -96182 
  -96221   -96206   -96194   -96182   -96174   -96218   -96229   -96174 
  -96171   -96219   -96241   -96259   -96280   -96265   -96255   -96284 
  -96321   -96364   -96388   -96344   -96267   -96196   -96147   -96144 
  -96219   -96338   -96367   -96287   -96259   -96277   -96232   -96182 
  -96159   -96122   -96145   -96190   -96157   -96142   -96191   -96201 
  -96191   -96237   -96275   -96268   -96286   -96280   -96207   -96190 
  -96244   -96244   -96202   -96161   -96107   -96110   -96165   -96167 
  -96171   -96228   -96207   -96144   -96175   -96234   -96261   -96290 
  -96311   -96306   -96294   -96284   -96261   -96248   -96311   -96403 
  -96412   -96371   -96298   -96215   -96233   -96295   -96283   -96241 
  -96186   -96090   -96026   -96034   -96090   -96160   -96198   -96171 
  -96134   -96191   -96282   -96261   -96219   -96264   -96292   -96265 
  -96250   -96263   -96283   -96307   -96350   -96371   -96327   -96276 
  -96222   -96133   -96079   -96105   -96145   -96136   -96117   -96144 
  -96172   -96169   -96194   -96246   -96282   -96315   -96342   -96360 
  -96368   -96323   -96267   -96245   -96205   -96149   -96142   -96161 
  -96161   -96191   -96280   -96307   -96261   -96237   -96214   -96195 
  -96210   -96221   -96225   -96232   -96219   -96201   -96202   -96253 
  -96346   -96403   -96398   -96377   -96306   -96196   -96159   -96174 
  -96172   -96178   -96144   -96056   -96033   -96083   -96125   -96132 
  -96115   -96140   -96213   -96253   -96255   -96286   -96344   -96375 
  -96372   -96340   -96280   -96257   -96298   -96323   -96295   -96234 
  -96155   -96102   -96117   -96156   -96172   -96153   -96130   -96144 
  -96160   -96164   -96230   -96303   -96271   -96240   -96325   -96429 
  -96472   -96476   -96452   -96418   -96381   -96321   -96261   -96219 
  -96184   -96161   -96120   -96052   -96039   -96060   -96053   -96067 
  -96109   -96099   -96070   -96124   -96225   -96253   -96230   -96223 
  -96233   -96273   -96337   -96348   -96298   -96276   -96313   -96349 
  -96337   -96279   -96244   -96253   -96211   -96132   -96132   -96184 
  -96214   -96256   -96296   -96298   -96291   -96288   -96238   -96156 
  -96115   -96149   -96229   -96272   -96277   -96314   -96330   -96255 
  -96171   -96179   -96218   -96217   -96201   -96186   -96184   -96176 
  -96138   -96114   -96110   -96110   -96148   -96184   -96176   -96192 
  -96260   -96307   -96306   -96294   -96302   -96315   -96304   -96294 
  -96306   -96292   -96241   -96219   -96246   -96267   -96233   -96202 
  -96223   -96230   -96225   -96272   -96280   -96210   -96180   -96218 
  -96234   -96214   -96199   -96211   -96252   -96271   -96214   -96163 
  -96196   -96241   -96230   -96203   -96206   -96202   -96175   -96186 
  -96230   -96263   -96279   -96273   -96253   -96246   -96240   -96217 
  -96206   -96233   -96268   -96279   -96280   -96280   -96261   -96214 
  -96161   -96153   -96167   -96163   -96180   -96236   -96276   -96299 
  -96294   -96232   -96182   -96195   -96222   -96218   -96201   -96214 
  -96234   -96198   -96138   -96128   -96142   -96156   -96194   -96248 
  -96286   -96318   -96336   -96307   -96276   -96267   -96225   -96171 
  -96178   -96225   -96259   -96282   -96306   -96331   -96338   -96299 
  -96244   -96242   -96271   -96259   -96230   -96232   -96252   -96249 
  -96219   -96210   -96203   -96157   -96113   -96124   -96178   -96213 
  -96199   -96172   -96186   -96223   -96226   -96209   -96218   -96259 
  -96314   -96329   -96287   -96248   -96233   -96218   -96211   -96237 
  -96268   -96257   -96219   -96202   -96205   -96180   -96136   -96132 
  -96156   -96156   -96142   -96130   -96134   -96169   -96222   -96268 
  -96296   -96306   -96299   -96302   -96311   -96290   -96252   -96246 
  -96260   -96261   -96252   -96245   -96253   -96275   -96272   -96250 
  -96242   -96230   -96201   -96165   -96138   -96148   -96188   -96210 
  -96223   -96237   -96233   -96236   -96259   -96291   -96329   -96349 
  -96327   -96286   -96259   -96268   -96271   -96222   -96167   -96140 
  -96117   -96109   -96147   -96223   -96283   -96273   -96229   -96215 
  -96211   -96176   -96152   -96183   -96211   -96188   -96165   -96183 
  -96218   -96242   -96250   -96275   -96334   -96344   -96268   -96209 
  -96198   -96168   -96113   -96094   -96126   -96175   -96213   -96238 
  -96268   -96288   -96291   -96284   -96269   -96279   -96311   -96326 
  -96337   -96342   -96310   -96261   -96241   -96240   -96237   -96244 
  -96249   -96221   -96191   -96213   -96263   -96282   -96250   -96174 
  -96094   -96074   -96113   -96156   -96194   -96236   -96249   -96236 
  -96215   -96217   -96268   -96295   -96255   -96223   -96218   -96214 
  -96230   -96237   -96230   -96253   -96280   -96255   -96210   -96218 
  -96268   -96295   -96303   -96302   -96267   -96213   -96183   -96190 
  -96210   -96234   -96256   -96246   -96215   -96201   -96213   -96233 
  -96233   -96199   -96141   -96088   -96094   -96137   -96161   -96176 
  -96192   -96234   -96314   -96338   -96261   -96206   -96240   -96264 
  -96241   -96244   -96268   -96252   -96225   -96210   -96184   -96182 
  -96210   -96230   -96245   -96250   -96234   -96223   -96228   -96228 
  -96225   -96244   -96263   -96255   -96248   -96253   -96263   -96264 
  -96255   -96255   -96259   -96245   -96230   -96246   -96269   -96253 
  -96217   -96203   -96218   -96233   -96223   -96203   -96195   -96188 
  -96182   -96195   -96214   -96233   -96260   -96286   -96288   -96265 
  -96252   -96273   -96275   -96223   -96194   -96221   -96237   -96214 
  -96215   -96233   -96217   -96206   -96213   -96199   -96201   -96222 
  -96226   -96232   -96238   -96206   -96164   -96171   -96214   -96236 
  -96229   -96214   -96198   -96192   -96215   -96234   -96232   -96230 
  -96240   -96246   -96230   -96201   -96194   -96223   -96253   -96257 
  -96269   -96302   -96317   -96311   -96288   -96230   -96191   -96217 
  -96253   -96264   -96256   -96240   -96223   -96199   -96172   -96167 
  -96188   -96217   -96217   -96188   -96163   -96165   -96188   -96203 
  -96202   -96209   -96242   -96272   -96275   -96249   -96214   -96209 
  -96237   -96249   -96245   -96257   -96273   -96280   -96272   -96249 
  -96232   -96205   -96161   -96160   -96206   -96246   -96276   -96295 
  -96283   -96246   -96215   -96209   -96217   -96230   -96233   -96232 
  -96255   -96279   -96272   -96268   -96272   -96259   -96245   -96255 
  -96259   -96238   -96217   -96209   -96183   -96144   -96148   -96191 
  -96229   -96236   -96202   -96179   -96199   -96237   -96242   -96210 
  -96187   -96183   -96180   -96186   -96213   -96257   -96283   -96279 
  -96275   -96252   -96195   -96175   -96209   -96217   -96186   -96196 
  -96245   -96261   -96234   -96205   -96203   -96238   -96265   -96246 
  -96222   -96232   -96248   -96236   -96214   -96219   -96256   -96298 
  -96295   -96246   -96214   -96198   -96183   -96206   -96245   -96257 
  -96253   -96241   -96214   -96209   -96249   -96282   -96263   -96228 
  -96215   -96211   -96206   -96211   -96240   -96271   -96269   -96241 
  -96228   -96244   -96263   -96255   -96228   -96221   -96241   -96241 
  -96217   -96198   -96176   -96133   -96113   -96164   -96234   -96257 
  -96250   -96255   -96271   -96276   -96260   -96233   -96230   -96256 
  -96252   -96223   -96207   -96203   -96219   -96246   -96248   -96244 
  -96248   -96222   -96180   -96169   -96196   -96219   -96213   -96207 
  -96234   -96263   -96260   -96240   -96233   -96244   -96238   -96206 
  -96192   -96207   -96217   -96229   -96242   -96226   -96201   -96195 
