Origin Time       2018/04/09 06:38:00
Lat.              35.2
Long.             132.6
Depth. (km)       10
Mag.              3.8
Station Code      SMN005
Station Lat.      35.3611
Station Long.     132.7449
Station Height(m) 9
Record Time       2018/04/09 06:38:57
Sampling Freq(Hz) 100Hz
Duration Time(s)  60
Dir.              U-D
Scale Factor      7845(gal)/8223790
Max. Acc. (gal)   3.716
Last Correction   2018/04/09 06:38:57
Memo.             
[...]
  -11832   -11824   -11820   -11820   -11836   -11850   -11826   -11817 
  -11842   -11843   -11827   -11820   -11827   -11843   -11846   -11834 
  -11831   -11831   -11819   -11823   -11843   -11851   -11834   -11816 
  -11820   -11828   -11834   -11836   -11836   -11843   -11832   -11809 
  -11812   -11828   -11848   -11855   -11838   -11830   -11827   -11816 
  -11828   -11857   -11857   -11843   -11836   -11836   -11831   -11813 
  -11823   -11843   -11832   -11827   -11836   -11835   -11830   -11830 
  -11838   -11851   -11850   -11832   -11830   -11844   -11835   -11819 
  -11831   -11851   -11855   -11846   -11830   -11821   -11821   -11821 
  -11828   -11836   -11830   -11824   -11835   -11843   -11838   -11832 
  -11834   -11838   -11826   -11809   -11830   -11847   -11838   -11842 
  -11838   -11832   -11843   -11846   -11838   -11838   -11831   -11816 
  -11830   -11857   -11858   -11848   -11842   -11835   -11838   -11834 
  -11817   -11819   -11828   -11830   -11838   -11854   -11850   -11832 
  -11828   -11836   -11834   -11819   -11824   -11835   -11828   -11821 
  -11828   -11842   -11853   -11846   -11836   -11838   -11824   -11805 
  -11821   -11846   -11844   -11848   -11854   -11827   -11815   -11827 
  -11838   -11859   -11847   -11805   -11823   -11862   -11851   -11834 
  -11832   -11827   -11835   -11848   -11844   -11831   -11827   -11828 
  -11830   -11838   -11854   -11851   -11834   -11832   -11824   -11805 
  -11820   -11857   -11865   -11844   -11819   -11812   -11830   -11842 
  -11847   -11842   -11819   -11817   -11831   -11831   -11834   -11834 
  -11826   -11842   -11858   -11830   -11823   -11853   -11846   -11824 
  -11826   -11826   -11827   -11827   -11827   -11832   -11834   -11828 
  -11838   -11866   -11855   -11811   -11812   -11831   -11832   -11840 
  -11838   -11831   -11827   -11823   -11832   -11842   -11843   -11843 
  -11835   -11821   -11827   -11843   -11850   -11843   -11830   -11817 
  -11817   -11817   -11828   -11840   -11824   -11823   -11838   -11828 
  -11826   -11838   -11838   -11834   -11835   -11838   -11830   -11824 
  -11840   -11850   -11844   -11834   -11828   -11834   -11832   -11830 
  -11836   -11827   -11824   -11846   -11853   -11836   -11819   -11816 
  -11840   -11843   -11820   -11835   -11850   -11836   -11836   -11840 
  -11835   -11840   -11840   -11827   -11821   -11827   -11830   -11840 
  -11840   -11820   -11824   -11840   -11830   -11832   -11843   -11832 
  -11828   -11834   -11831   -11832   -11836   -11850   -11859   -11834 
  -11813   -11830   -11838   -11840   -11848   -11830   -11817   -11832 
  -11838   -11836   -11835   -11830   -11838   -11846   -11828   -11819 
  -11838   -11840   -11827   -11846   -11850   -11819   -11828   -11847 
  -11826   -11823   -11835   -11827   -11838   -11848   -11832   -11838 
  -11846   -11834   -11835   -11838   -11830   -11821   -11816   -11827 
  -11832   -11831   -11838   -11838   -11838   -11827   -11821   -11838 
  -11840   -11842   -11844   -11826   -11827   -11838   -11832   -11832 
  -11832   -11838   -11840   -11819   -11816   -11826   -11831   -11850 
  -11854   -11834   -11824   -11824   -11836   -11853   -11838   -11816 
  -11826   -11827   -11811   -11830   -11853   -11835   -11834   -11843 
  -11836   -11830   -11820   -11820   -11843   -11857   -11828   -11804 
  -11817   -11824   -11838   -11866   -11855   -11821   -11815   -11843 
  -11857   -11836   -11834   -11840   -11838   -11847   -11827   -11813 
  -11840   -11843   -11828   -11830   -11827   -11831   -11847   -11838 
  -11819   -11831   -11846   -11838   -11834   -11819   -11804   -11836 
  -11861   -11840   -11820   -11820   -11840   -11850   -11840   -11835 
  -11835   -11848   -11842   -11815   -11823   -11835   -11836   -11848 
  -11844   -11816   -11821   -11842   -11834   -11831   -11832   -11836 
  -11846   -11828   -11816   -11823   -11824   -11844   -11853   -11828 
  -11820   -11824   -11844   -11870   -11854   -11830   -11821   -11817 
  -11832   -11843   -11842   -11838   -11826   -11838   -11850   -11827 
  -11821   -11830   -11813   -11820   -11847   -11840   -11827   -11835 
  -11844   -11838   -11831   -11835   -11828   -11824   -11820   -11824 
  -11857   -11853   -11826   -11842   -11848   -11830   -11812   -11815 
  -11821   -11820   -11836   -11846   -11853   -11857   -11836   -11842 
  -11848   -11821   -11807   -11811   -11826   -11838   -11834   -11836 
  -11842   -11838   -11836   -11840   -11843   -11838   -11824   -11823 
  -11843   -11834   -11817   -11843   -11844   -11824   -11836   -11835 
  -11821   -11820   -11816   -11827   -11853   -11853   -11844   -11854 
  -11838   -11824   -11838   -11831   -11821   -11821   -11807   -11823 
  -11848   -11835   -11817   -11836   -11857   -11843   -11838   -11842 
  -11821   -11824   -11832   -11831   -11847   -11840   -11826   -11851 
  -11857   -11835   -11830   -11828   -11840   -11836   -11816   -11827 
  -11824   -11816   -11846   -11848   -11834   -11831   -11827   -11831 
  -11834   -11827   -11826   -11834   -11835   -11827   -11835   -11843 
  -11835   -11836   -11835   -11823   -11821   -11835   -11842   -11846 
  -11855   -11843   -11827   -11840   -11838   -11821   -11824   -11834 
  -11835   -11828   -11819   -11809   -11812   -11828   -11823   -11820 
  -11838   -11848   -11850   -11853   -11843   -11820   -11817   -11832 
  -11836   -11844   -11838   -11828   -11843   -11836   -11820   -11835 
  -11831   -11826   -11836   -11821   -11811   -11830   -11843   -11838 
  -11830   -11831   -11836   -11835   -11844   -11836   -11815   -11807 
  -11819   -11836   -11832   -11831   -11838   -11847   -11851   -11826 
  -11821   -11844   -11840   -11838   -11830   -11832   -11848   -11840 
  -11840   -11836   -11815   -11832   -11850   -11827   -11813   -11824 
  -11835   -11842   -11848   -11853   -11838   -11828   -11838   -11828 
  -11821   -11830   -11821   -11827   -11843   -11838   -11830   -11834 
  -11836   -11828   -11820   -11821   -11834   -11836   -11836   -11840 
  -11843   -11861   -11851   -11830   -11828   -11815   -11815   -11832 
  -11838   -11838   -11832   -11834   -11835   -11836   -11838   -11828 
  -11834   -11843   -11844   -11843   -11828   -11827   -11838   -11843 
  -11844   -11838   -11844   -11842   -11824   -11824   -11811   -11803 
  -11835   -11850   -11836   -11828   -11827   -11830   -11832   -11832 
  -11834   -11842   -11835   -11834   -11846   -11828   -11819   -11840 
  -11844   -11835   -11824   -11824   -11836   -11831   -11816   -11813 
  -11827   -11844   -11846   -11840   -11851   -11847   -11831   -11832 
  -11838   -11836   -11832   -11827   -11832   -11851   -11840   -11817 
  -11835   -11848   -11834   -11832   -11842   -11842   -11835   -11827 
  -11828   -11828   -11820   -11832   -11853   -11836   -11819   -11831 
  -11835   -11831   -11836   -11843   -11848   -11846   -11834   -11835 
  -11831   -11820   -11840   -11842   -11832   -11840   -11821   -11823 
  -11850   -11846   -11835   -11830   -11831   -11836   -11832   -11834 
  -11851   -11846   -11816   -11823   -11843   -11836   -11840   -11853 
  -11843   -11821   -11811   -11826   -11850   -11840   -11819   -11828 
  -11847   -11836   -11824   -11831   -11828   -11819   -11835   -11851 
  -11840   -11838   -11836   -11827   -11830   -11824   -11821   -11840 
  -11840   -11823   -11824   -11826   -11824   -11832   -11823   -11820 
  -11827   -11826   -11840   -11853   -11842   -11838   -11827   -11828 
  -11835   -11812   -11823   -11850   -11838   -11828   -11830   -11835 
  -11843   -11834   -11828   -11842   -11834   -11821   -11843   -11859 
  -11844   -11819   -11812   -11828   -11830   -11824   -11836   -11850 
  -11836   -11820   -11824   -11838   -11840   -11828   -11830   -11838 
  -11834   -11835   -11834   -11831   -11831   -11809   -11808   -11835 
  -11838   -11842   -11846   -11840   -11835   -11823   -11826   -11835 
  -11831   -11838   -11850   -11846   -11834   -11826   -11834   -11843 
  -11830   -11819   -11834   -11843   -11838   -11835   -11834   -11835 
  -11835   -11831   -11828   -11827   -11828   -11835   -11830   -11827 
  -11838   -11838   -11824   -11828   -11824   -11816   -11836   -11850 
  -11843   -11836   -11836   -11838   -11832   -11827   -11835   -11836 
  -11827   -11821   -11826   -11838   -11828   -11823   -11847   -11853 
  -11840   -11835   -11830   -11836   -11842   -11840   -11838   -11834 
  -11834   -11838   -11834   -11830   -11838   -11834   -11823   -11830 
  -11838   -11838   -11836   -11834   -11840   -11835   -11832   -11828 
  -11811   -11821   -11826   -11827   -11863   -11858   -11842   -11857 
  -11843   -11838   -11844   -11838   -11830   -11817   -11835   -11851 
  -11838   -11831   -11826   -11816   -11812   -11820   -11838   -11843 
  -11836   -11838   -11840   -11842   -11842   -11846   -11843   -11835 
  -11828   -11815   -11826   -11838   -11826   -11847   -11850   -11827 
  -11843   -11838   -11823   -11850   -11861   -11847   -11830   -11816 
  -11805   -11805   -11824   -11838   -11840   -11842   -11840   -11836 
  -11835   -11834   -11831   -11817   -11808   -11823   -11843   -11842 
  -11832   -11840   -11843   -11830   -11821   -11824   -11827   -11830 
  -11830   -11834   -11842   -11847   -11843   -11832   -11830   -11834 
  -11831   -11834   -11830   -11821   -11834   -11838   -11842   -11838 
  -11807   -11786   -11815   -11855   -11871   -11862   -11843   -11830 
  -11824   -11816   -11828   -11850   -11840   -11828   -11819   -11805 
  -11811   -11835   -11861   -11863   -11838   -11821   -11811   -11816 
  -11846   -11844   -11832   -11850   -11854   -11838   -11830   -11819 
  -11827   -11846   -11847   -11844   -11838   -11823   -11830   -11848 
  -11832   -11831   -11847   -11836   -11834   -11831   -11820   -11826 
  -11838   -11842   -11834   -11819   -11821   -11842   -11851   -11832 
  -11813   -11828   -11848   -11855   -11850   -11838   -11838   -11830 
  -11831   -11844   -11830   -11819   -11836   -11838   -11828   -11834 
  -11848   -11859   -11847   -11821   -11821   -11826   -11820   -11826 
  -11840   -11858   -11853   -11830   -11821   -11813   -11812   -11832 
  -11853   -11843   -11817   -11820   -11832   -11828   -11831   -11844 
  -11858   -11848   -11830   -11824   -11823   -11834   -11834   -11826 
  -11838   -11831   -11819   -11832   -11842   -11850   -11843   -11823 
  -11820   -11834   -11843   -11836   -11827   -11826   -11817   -11831 
  -11850   -11835   -11827   -11808   -11732   -11653   -11632   -11680 
  -11729   -11645   -11342   -10926   -10638   -10728   -11222   -11884 
  -12437   -12687   -12726   -13062   -13867   -14412   -14067   -13045 
  -12083   -11850   -12091   -11898   -11190   -10409    -9466    -8929 
  -10014   -11680   -11476    -9829    -9621   -12027   -14845   -14924 
  -12788   -12145   -13263   -12792   -10910   -11053   -12849   -12746 
  -10612    -9676   -11213   -13020   -12698   -10755    -9869   -11340 
  -13068   -12613   -11433   -12117   -13172   -12120   -10539   -10905 
  -12402   -12885   -11804   -10741   -11510   -12935   -12536   -11056 
  -10720   -11326   -11746   -11767   -11530   -11607   -12267   -12713 
  -12552   -12289   -12320   -12611   -12437   -11438   -11026   -11738 
  -11927   -11452   -11646   -11943   -11196   -10509   -11199   -12145 
  -12070   -11827   -12193   -12348   -12128   -12402   -12622   -11875 
  -11340   -12028   -12587   -11898   -11067   -11249   -11866   -11884 
  -11335   -11016   -11269   -11638   -11682   -11727   -12320   -12887 
  -12402   -11620   -11932   -12555   -12216   -11461   -11184   -11610 
  -12320   -12050   -10752   -10461   -11712   -12460   -11808   -11244 
  -11885   -12839   -12939   -12691   -12687   -12186   -11252   -11161 
  -11762   -11751   -11294   -11435   -11859   -11659   -11362   -11799 
  -12116   -11607   -11410   -12109   -12645   -12469   -12071   -11701 
  -11427   -11576   -11940   -11992   -11878   -11857   -11823   -11784 
  -11676   -11304   -11187   -11857   -12403   -12186   -11998   -11994 
  -11790   -11689   -11514   -11067   -11335   -12231   -12256   -11765 
  -12135   -12621   -12042   -11237   -11488   -12405   -12507   -11646 
  -11327   -11784   -11785   -11585   -12190   -12908   -12237   -10435 
  -10081   -12384   -14123   -12398    -9941   -10351   -12050   -12197 
  -11836   -12529   -12577   -10813    -9960   -12144   -14624   -13871 
  -11101   -10214   -11838   -12649   -11060    -9996   -11427   -12912 
  -12710   -12272   -12131   -11199   -10068   -10800   -13081   -13654 
  -11685   -10579   -11746   -12592   -12163   -11921   -11701   -11088 
  -11406   -12505   -12750   -12302   -11924   -11487   -11247   -11506 
  -11628   -11048   -10528   -11319   -12951   -13578   -12888   -12345 
  -12352   -12051   -11642   -11685   -11466   -10693   -10519   -11427 
  -12355   -12533   -12356   -12168   -11819   -11524   -11686   -11923 
  -11842   -11884   -12112   -12147   -12314   -12641   -12218   -11259 
  -11169   -11653   -11296   -10536   -10327   -10273   -10486   -11539 
  -12495   -12548   -12484   -12683   -12860   -13062   -12731   -11545 
  -11105   -12405   -13678   -13030   -11202   -10689   -12087   -13011 
  -12294   -11265   -10540   -10430   -11426   -12012   -11453   -11612 
  -12017   -10698    -9425   -10716   -13258   -13791   -11249    -9115 
  -11171   -14840   -15071   -12447   -11245   -12847   -14090   -12159 
  -10002   -11603   -14430   -13948   -10719    -8671   -10358   -13487 
  -12981    -9271    -7938   -10195   -12411   -12453   -11097   -10705 
  -12442   -13984   -13370   -12320   -12353   -12636   -12673   -12577 
  -12198   -11612   -10814   -10095   -10362   -11765   -13011   -12571 
  -10948   -10537   -11805   -12680   -12366   -11885   -11701   -11546 
  -11140   -10912   -12064   -13828   -13690   -11966   -11088   -11597 
  -12280   -11904   -10783   -10816   -12299   -13111   -12197   -10928 
  -10979   -12314   -13144   -12464   -11589   -11542   -11711   -11526 
  -10974   -10883   -11820   -12117   -11124   -11275   -12862   -13143 
  -11969   -11418   -11689   -11911   -11757   -11203   -10712   -10960 
  -12198   -13590   -13464   -11937   -11291   -12060   -12276   -11458 
  -11259   -11992   -12162   -11564   -11674   -12283   -11460    -9643 
   -9431   -11414   -13682   -14288   -12947   -11521   -11854   -12874 
  -12414   -10960   -10442   -11064   -12044   -12865   -12764   -11749 
  -11025   -11013   -11232   -11557   -11807   -11607   -11178   -11313 
  -12289   -13001   -12312   -11083   -11049   -12073   -12469   -11689 
  -11094   -11732   -12694   -12898   -12995   -13541   -13513   -12383 
  -11361   -11299   -11298   -10781   -10632   -10837   -10501   -10114 
  -10573   -11755   -12949   -13275   -12822   -12468   -11901   -10933 
  -10854   -11608   -11913   -12051   -12468   -12523   -12182   -11784 
  -11334   -11296   -11753   -11986   -12144   -12719   -13108   -12985 
  -12765   -12054   -10821   -10585   -11676   -12235   -11438   -10764 
  -11284   -12097   -12073   -11384   -10957   -11399   -12190   -12086 
  -11149   -10864   -11484   -11826   -11827   -12251   -12727   -12455 
  -11526   -10747   -10762   -11348   -11932   -12405   -12750   -12750 
  -12625   -12860   -13143   -12873   -12258   -11672   -11159   -11033 
  -11283   -11165   -10844   -11303   -12172   -12270   -12009   -12577 
  -13405   -13167   -12020   -11065   -10952   -11275   -11138   -10646 
  -10612   -11140   -11742   -11912   -11539   -11485   -12344   -12942 
  -12301   -11593   -11993   -12852   -13131   -12679   -12129   -12218 
  -12617   -12436   -11935   -11700   -11512   -11379   -11132   -10272 
   -9788   -10732   -12031   -12518   -12256   -11615   -11450   -12144 
  -12326   -11453   -11196   -12004   -12326   -11993   -12075   -12541 
  -12835   -12688   -11943   -11188   -11269   -11781   -11892   -11639 
  -11313   -11367   -12096   -12614   -12270   -11857   -12001   -12262 
  -12005   -11403   -11412   -12021   -12106   -11761   -11875   -12104 
  -11847   -11269   -10642   -10490   -11173   -11888   -11920   -11812 
  -12132   -12550   -12460   -11812   -11291   -11558   -12198   -12251 
  -11928   -12097   -12552   -12642   -12312   -11708   -11083   -10821 
  -11055   -11537   -11844   -11803   -11838   -12254   -12614   -12441 
  -11854   -11371   -11317   -11364   -11341   -11641   -11969   -11759 
  -11441   -11376   -11356   -11364   -11283   -11195   -11589   -12058 
  -11871   -11622   -11965   -12448   -12688   -12789   -12800   -12718 
  -12629   -12475   -12028   -11454   -11209   -11214   -11062   -10908 
  -11354   -12247   -12505   -11880   -11514   -12102   -12825   -12787 
  -12294   -12015   -11990   -11878   -11700   -11834   -11989   -11568 
  -11145   -11364   -11404   -10936   -11034   -11708   -11823   -11373 
  -11402   -12210   -12771   -12471   -12318   -12992   -13578   -13359 
  -12748   -12329   -12264   -12058   -11400   -11101   -11315   -11014 
  -10563   -10994   -11396   -10910   -10628   -11060   -11356   -11442 
  -11661   -11739   -11747   -12044   -12316   -12347   -12401   -12318 
  -12059   -12102   -12301   -12151   -11844   -11699   -11618   -11549 
  -11574   -11749   -11955   -11850   -11584   -11846   -12457   -12521 
  -12071   -11776   -11634   -11461   -11511   -11727   -11634   -11227 
  -11105   -11659   -12344   -12155   -11260   -10956   -11473   -11677 
  -11340   -11510   -12379   -12958   -12893   -12771   -12985   -13285 
  -13041   -12280   -11853   -11696   -11088   -10689   -11223   -11696 
  -11592   -11663   -11754   -11385   -11180   -11385   -11511   -11766 
  -12329   -12573   -12507   -12474   -12075   -11605   -11815   -12077 
  -11659   -11159   -11144   -11352   -11326   -10887   -10532   -10939 
  -11708   -12056   -12198   -12561   -12883   -12862   -12576   -12231 
  -11989   -11750   -11421   -11371   -11749   -12087   -12087   -11947 
  -11935   -12046   -12075   -11913   -11515   -10999   -10876   -11317 
  -11682   -11624   -11583   -11874   -12366   -12734   -12731   -12630 
  -12694   -12513   -11986   -11705   -11772   -11692   -11398   -11350 
  -11585   -11632   -11541   -11657   -11836   -11902   -11886   -11757 
  -11630   -11705   -11823   -11708   -11643   -12043   -12503   -12357 
  -11831   -11612   -11749   -11875   -11925   -11914   -11765   -11587 
  -11564   -11618   -11600   -11573   -11686   -11869   -11871   -11669 
  -11580   -11639   -11500   -11229   -11167   -11272   -11422   -11604 
  -11722   -11790   -11909   -12027   -12010   -11886   -11911   -12240 
  -12653   -12881   -12946   -12837   -12472   -12183   -12243   -12307 
  -12108   -11800   -11537   -11493   -11722   -11823   -11605   -11473 
  -11608   -11732   -11693   -11569   -11533   -11655   -11758   -11693 
  -11635   -11712   -11785   -11838   -11935   -11973   -11943   -11855 
  -11765   -11907   -12100   -11986   -11776   -11614   -11481   -11624 
  -11817   -11651   -11596   -11934   -12028   -11766   -11728   -11974 
  -12220   -12297   -12102   -11885   -11843   -11549   -11060   -11130 
  -11560   -11562   -11327   -11361   -11580   -11913   -12233   -12202 
  -12218   -12637   -12660   -12085   -11711   -11607   -11538   -11708 
  -11890   -11574   -11059   -11171   -11869   -12190   -11890   -11693 
  -11877   -12079   -12136   -12170   -12262   -12388   -12333   -12001 
