Origin Time       2018/04/09 06:38:00
Lat.              35.2
Long.             132.6
Depth. (km)       10
Mag.              3.8
Station Code      SMN005
Station Lat.      35.3611
Station Long.     132.7449
Station Height(m) 9
Record Time       2018/04/09 06:38:57
Sampling Freq(Hz) 100Hz
Duration Time(s)  60
Dir.              E-W
Scale Factor      7845(gal)/8223790
Max. Acc. (gal)   8.948
Last Correction   2018/04/09 06:38:57
Memo.             
[...]
   -1436    -1436    -1431    -1440    -1463    -1466    -1435    -1425 
   -1451    -1462    -1443    -1425    -1439    -1449    -1431    -1437 
   -1452    -1445    -1445    -1444    -1425    -1431    -1460    -1447 
   -1417    -1425    -1433    -1426    -1452    -1480    -1455    -1426 
   -1444    -1451    -1431    -1428    -1433    -1426    -1431    -1449 
   -1453    -1451    -1437    -1420    -1435    -1453    -1431    -1417 
   -1429    -1431    -1440    -1448    -1440    -1451    -1457    -1426 
   -1413    -1433    -1428    -1420    -1456    -1457    -1422    -1443 
   -1467    -1426    -1420    -1467    -1457    -1417    -1426    -1443 
   -1431    -1437    -1455    -1440    -1428    -1453    -1463    -1433 
   -1421    -1437    -1435    -1414    -1436    -1471    -1457    -1433 
   -1437    -1431    -1420    -1441    -1468    -1459    -1431    -1418 
   -1440    -1456    -1444    -1451    -1472    -1449    -1428    -1452 
   -1463    -1444    -1447    -1453    -1436    -1436    -1456    -1452 
   -1445    -1463    -1456    -1417    -1425    -1464    -1448    -1424 
   -1452    -1460    -1424    -1426    -1462    -1457    -1435    -1445 
   -1456    -1437    -1433    -1455    -1449    -1422    -1435    -1466 
   -1471    -1453    -1437    -1431    -1429    -1440    -1463    -1464 
   -1440    -1428    -1444    -1448    -1441    -1459    -1457    -1417 
   -1414    -1455    -1451    -1424    -1441    -1462    -1435    -1412 
   -1437    -1448    -1426    -1437    -1457    -1437    -1433    -1453 
   -1445    -1435    -1441    -1437    -1444    -1459    -1449    -1435 
   -1437    -1437    -1431    -1440    -1445    -1426    -1425    -1447 
   -1440    -1435    -1456    -1455    -1433    -1431    -1441    -1440 
   -1435    -1444    -1447    -1437    -1444    -1452    -1441    -1436 
   -1441    -1448    -1448    -1437    -1431    -1440    -1445    -1439 
   -1439    -1453    -1443    -1424    -1445    -1449    -1418    -1429 
   -1466    -1451    -1422    -1439    -1456    -1437    -1437    -1457 
   -1444    -1426    -1437    -1444    -1445    -1444    -1435    -1444 
   -1456    -1435    -1429    -1456    -1449    -1425    -1436    -1452 
   -1437    -1422    -1439    -1449    -1433    -1424    -1437    -1445 
   -1436    -1441    -1449    -1433    -1429    -1448    -1440    -1426 
   -1439    -1437    -1422    -1435    -1449    -1433    -1426    -1436 
   -1435    -1439    -1448    -1441    -1431    -1428    -1426    -1426 
   -1439    -1445    -1439    -1436    -1437    -1429    -1416    -1418 
   -1439    -1441    -1428    -1447    -1464    -1428    -1413    -1451 
   -1448    -1399    -1413    -1468    -1443    -1405    -1448    -1467 
   -1440    -1433    -1448    -1437    -1422    -1441    -1453    -1439 
   -1433    -1437    -1436    -1428    -1435    -1459    -1459    -1435 
   -1443    -1463    -1444    -1431    -1456    -1457    -1431    -1441 
   -1455    -1437    -1437    -1460    -1464    -1444    -1439    -1453 
   -1452    -1448    -1460    -1460    -1452    -1444    -1436    -1445 
   -1466    -1463    -1443    -1452    -1468    -1444    -1435    -1462 
   -1456    -1433    -1451    -1471    -1447    -1428    -1435    -1444 
   -1463    -1471    -1463    -1460    -1449    -1435    -1448    -1464 
   -1447    -1445    -1479    -1464    -1428    -1444    -1459    -1441 
   -1447    -1460    -1447    -1435    -1455    -1463    -1437    -1426 
   -1445    -1455    -1449    -1449    -1451    -1435    -1418    -1439 
   -1470    -1453    -1424    -1448    -1467    -1435    -1431    -1460 
   -1445    -1417    -1437    -1453    -1433    -1420    -1421    -1429 
   -1435    -1431    -1436    -1448    -1447    -1425    -1421    -1448 
   -1447    -1420    -1431    -1467    -1455    -1422    -1428    -1437 
   -1422    -1426    -1447    -1435    -1414    -1433    -1448    -1425 
   -1421    -1445    -1452    -1456    -1466    -1449    -1424    -1420 
   -1421    -1422    -1431    -1439    -1441    -1447    -1452    -1453 
   -1439    -1435    -1444    -1435    -1431    -1437    -1426    -1429 
   -1451    -1457    -1447    -1447    -1456    -1431    -1416    -1447 
   -1455    -1429    -1441    -1476    -1444    -1404    -1441    -1470 
   -1433    -1416    -1445    -1456    -1440    -1444    -1463    -1448 
   -1428    -1445    -1456    -1437    -1431    -1441    -1439    -1421 
   -1413    -1431    -1445    -1449    -1459    -1453    -1431    -1431 
   -1451    -1443    -1426    -1447    -1449    -1422    -1429    -1453 
   -1447    -1428    -1435    -1445    -1428    -1431    -1456    -1449 
   -1439    -1445    -1448    -1448    -1445    -1425    -1413    -1436 
   -1452    -1437    -1431    -1440    -1444    -1433    -1433    -1444 
   -1444    -1451    -1457    -1445    -1429    -1424    -1431    -1440 
   -1433    -1439    -1452    -1444    -1431    -1440    -1452    -1433 
   -1421    -1440    -1433    -1414    -1444    -1460    -1428    -1422 
   -1449    -1445    -1426    -1449    -1474    -1451    -1428    -1435 
   -1440    -1431    -1433    -1452    -1447    -1421    -1422    -1443 
   -1447    -1440    -1448    -1460    -1451    -1440    -1448    -1452 
   -1435    -1425    -1431    -1435    -1435    -1435    -1441    -1445 
   -1435    -1433    -1449    -1451    -1447    -1457    -1451    -1429 
   -1431    -1447    -1439    -1435    -1463    -1468    -1453    -1452 
   -1445    -1428    -1426    -1447    -1447    -1439    -1457    -1459 
   -1439    -1431    -1431    -1440    -1441    -1440    -1445    -1449 
   -1460    -1459    -1453    -1453    -1437    -1437    -1456    -1449 
   -1440    -1444    -1449    -1445    -1437    -1444    -1447    -1431 
   -1431    -1444    -1453    -1457    -1455    -1445    -1429    -1435 
   -1451    -1447    -1443    -1445    -1444    -1433    -1424    -1435 
   -1444    -1426    -1424    -1455    -1459    -1425    -1425    -1453 
   -1449    -1439    -1452    -1452    -1431    -1426    -1439    -1437 
   -1431    -1440    -1431    -1413    -1437    -1460    -1435    -1420 
   -1443    -1451    -1420    -1426    -1464    -1441    -1414    -1449 
   -1459    -1422    -1418    -1449    -1457    -1443    -1445    -1448 
   -1439    -1439    -1453    -1460    -1444    -1440    -1447    -1437 
   -1421    -1426    -1449    -1448    -1445    -1457    -1443    -1435 
   -1451    -1444    -1425    -1435    -1449    -1435    -1431    -1463 
   -1467    -1435    -1445    -1486    -1467    -1431    -1444    -1451 
   -1435    -1440    -1460    -1456    -1436    -1433    -1445    -1453 
   -1456    -1448    -1439    -1439    -1440    -1444    -1448    -1448 
   -1441    -1436    -1441    -1449    -1441    -1435    -1447    -1444 
   -1431    -1445    -1453    -1435    -1426    -1431    -1431    -1425 
   -1440    -1463    -1455    -1433    -1435    -1439    -1431    -1435 
   -1439    -1433    -1440    -1447    -1440    -1443    -1449    -1447 
   -1444    -1437    -1431    -1440    -1440    -1437    -1459    -1456 
   -1409    -1408    -1460    -1467    -1431    -1431    -1456    -1453 
   -1435    -1429    -1435    -1431    -1429    -1436    -1445    -1444 
   -1439    -1441    -1445    -1440    -1436    -1439    -1440    -1441 
   -1462    -1472    -1441    -1426    -1447    -1443    -1426    -1440 
   -1456    -1447    -1444    -1453    -1441    -1424    -1436    -1444 
   -1433    -1443    -1463    -1455    -1439    -1440    -1441    -1433 
   -1439    -1452    -1444    -1431    -1436    -1444    -1448    -1449 
   -1443    -1435    -1435    -1441    -1449    -1456    -1456    -1455 
   -1447    -1431    -1435    -1439    -1421    -1428    -1457    -1447 
   -1424    -1431    -1441    -1443    -1443    -1445    -1448    -1451 
   -1456    -1443    -1429    -1437    -1443    -1436    -1431    -1449 
   -1463    -1439    -1417    -1428    -1439    -1431    -1439    -1462 
   -1455    -1431    -1436    -1451    -1452    -1444    -1429    -1413 
   -1421    -1448    -1448    -1436    -1440    -1436    -1433    -1444 
   -1452    -1445    -1428    -1436    -1445    -1441    -1453    -1455 
   -1431    -1420    -1437    -1455    -1444    -1436    -1448    -1436 
   -1417    -1440    -1462    -1437    -1424    -1444    -1429    -1405 
   -1435    -1452    -1431    -1440    -1462    -1443    -1421    -1436 
   -1440    -1431    -1447    -1467    -1459    -1431    -1408    -1416 
   -1443    -1459    -1457    -1459    -1453    -1433    -1436    -1451 
   -1443    -1431    -1435    -1435    -1424    -1431    -1444    -1437 
   -1440    -1453    -1447    -1429    -1431    -1448    -1453    -1444 
   -1440    -1440    -1437    -1439    -1443    -1444    -1441    -1437 
   -1428    -1439    -1459    -1459    -1453    -1445    -1433    -1425 
   -1414    -1424    -1474    -1503    -1453    -1405    -1416    -1437 
   -1447    -1459    -1464    -1444    -1421    -1425    -1429    -1433 
   -1447    -1456    -1457    -1447    -1422    -1420    -1445    -1462 
   -1459    -1452    -1451    -1444    -1425    -1412    -1428    -1455 
   -1466    -1457    -1443    -1431    -1429    -1441    -1445    -1436 
   -1437    -1437    -1437    -1443    -1440    -1435    -1437    -1437 
   -1448    -1456    -1440    -1429    -1451    -1464    -1440    -1426 
   -1451    -1459    -1445    -1449    -1445    -1428    -1436    -1449 
   -1431    -1413    -1431    -1449    -1440    -1426    -1424    -1440 
   -1453    -1447    -1439    -1451    -1462    -1437    -1416    -1441 
   -1474    -1471    -1448    -1437    -1435    -1431    -1433    -1443 
   -1448    -1436    -1439    -1467    -1456    -1428    -1441    -1451 
   -1429    -1421    -1443    -1449    -1431    -1433    -1436    -1426 
   -1429    -1447    -1456    -1441    -1441    -1456    -1426    -1409 
   -1453    -1471    -1444    -1436    -1443    -1439    -1431    -1441 
   -1453    -1451    -1443    -1437    -1429    -1425    -1445    -1457 
   -1422    -1399    -1437    -1471    -1459    -1443    -1417    -1378 
   -1381    -1426    -1466    -1475    -1435    -1377    -1414    -1545 
   -1622    -1545    -1363    -1324    -1503    -1593    -1514    -1524 
   -1478    -1183    -1102    -1497    -1760    -1476     -992     -901 
   -1478    -1964    -1528    -1058    -1487    -1917    -1602    -1275 
   -1455    -1644    -1429    -1060    -1021    -1475    -1982    -1856 
   -1136     -842    -1447    -1941    -1696    -1490    -1688    -1790 
   -1665    -1424    -1150    -1105    -1113     -915    -1048    -1656 
   -1944    -1665    -1348    -1341    -1586    -1682    -1435    -1340 
   -1591    -1657    -1393    -1133    -1089    -1352    -1615    -1386 
   -1043    -1155    -1377    -1321    -1069     -827     -973    -1640 
   -2299    -2285    -1815    -1786    -2290    -2347    -1630    -1115 
   -1094     -707      -25      -25     -764    -1426    -1719    -2137 
   -2811    -3267    -3163    -2431    -1524    -1227    -1483    -1574 
   -1332    -1089     -945     -631       82      812      621     -604 
   -1603    -1760    -1861    -2154    -2133    -1815    -1571    -1549 
   -1629    -1741    -2074    -2389    -2116    -1539    -1382    -1638 
   -1938    -2142    -2161    -1865    -1348     -896     -581     -180 
     207       35     -685    -1258    -1475    -1615    -1748    -1771 
   -1601    -1359    -1363    -1829    -2471    -2617    -2220    -1921 
   -1806    -1499    -1057     -693     -626    -1102    -1711    -1873 
   -1698    -1296     -745     -553     -718     -823    -1236    -2107 
   -2575    -2343    -1968    -1699    -1436    -1151    -1125    -1606 
   -2069    -1945    -1586    -1290     -851     -399     -342     -862 
   -1548    -1514     -858     -776    -1399    -1535     -996     -932 
   -1741    -2602    -2921    -2801    -2365    -1584     -780     -614 
   -1374    -2354    -2539    -2173    -2234    -2408    -1734     -618 
     -60      -51     -233     -616     -911     -696     -125       99 
    -616    -1663    -2033    -2155    -2598    -2795    -2631    -2570 
   -2412    -1966    -1686    -1583    -1271    -1065    -1235    -1236 
    -853     -653    -1121    -1833    -1831    -1255    -1174    -1656 
   -1810    -1405     -973     -702     -591     -912    -1402    -1426 
   -1183    -1340    -1892    -2166    -1956    -1823    -1991    -2226 
   -2307    -1900    -1093     -611     -604     -464     -297     -797 
   -1570    -1753    -1779    -2276    -2590    -2057    -1221     -962 
   -1379    -1755    -1530    -1170    -1317    -1505    -1244    -1125 
   -1399    -1522    -1482    -1617    -1823    -1773    -1229     -612 
    -641    -1039    -1291    -1371    -1051     -637     -900    -1398 
   -1587    -2092    -2829    -2844    -2185    -1543    -1367    -1580 
   -1368     -683     -684    -1540    -2251    -2303    -1987    -1973 
   -2177    -1625     -587     -221     -344     -375     -307     -131 
    -432    -1554    -2138    -1499     -934    -1100    -1723    -2446 
   -2440    -1992    -2296    -2882    -2776    -2232    -1606    -1128 
   -1127    -1264    -1104    -1028    -1259    -1282     -920     -710 
   -1127    -1759    -1972    -2149    -2373    -1822     -872     -604 
    -916    -1069     -487      433      210    -1343    -2524    -2417 
   -1763    -1729    -2790    -3709    -3045    -1603     -980    -1420 
   -2155    -2238    -1961    -2925    -5092    -6454    -5883    -4052 
   -2621    -2349    -1626      753     3434     5235     6238     6068 
    4635     3105     2344     1984     1405      621      -97    -1047 
   -3013    -6070    -9137   -10821   -10121    -6937    -2373     1794 
    3659     2226    -1152    -3788    -4352    -3686    -3283    -2991 
   -1243     1587     2785     1042    -2128    -4375    -4212    -1878 
     687     1952     2265     2207     1248    -1074    -3958    -5737 
   -5225    -2729      189     2079     2420     1352     -579    -2714 
   -4315    -4456    -2833     -464     1039      788     -938    -3416 
   -5929    -7565    -7548    -5746    -2640      672     2489     1710 
    -745    -3001    -4228    -4413    -3272     -746     2079     3501 
    2520     -241    -2682    -3326    -2533     -849     1340     3107 
    3944     3547     1377    -1776    -4248    -5567    -5813    -4870 
   -3427    -2450    -2153    -2640    -3717    -4622    -5057    -4835 
   -3520    -1497      595     2716     4280     4159     2349      164 
   -1158    -1468    -1368    -1200     -811     -400     -733    -2111 
   -3792    -4529    -3686    -1975     -774     -675    -1317    -2155 
   -2664    -2663    -2394    -1833     -738      662     1696     1630 
     211    -1868    -3447    -4028    -3931    -3484    -2830    -2169 
   -1551    -1259    -1741    -2493    -2589    -1949     -965        2 
     445       75     -801    -1669    -2104    -1771     -785      271 
     946     1055      676      -37    -1159    -2397    -2824    -2238 
   -1671    -1779    -2215    -2708    -3246    -3728    -4062    -4009 
   -3449    -2681    -1786     -893     -560     -496      149     1013 
    1401     1590     1677     1162       70    -1050    -1657    -1314 
    -328      396      496     -102    -1570    -3391    -4654    -5152 
   -5108    -4575    -3788    -3088    -2459    -1956    -1702    -1367 
    -793     -329      -76      -36     -306     -576     -508     -340 
    -604    -1548    -2679    -3284    -3385    -3256    -2790    -2069 
   -1372     -707     -147       32     -149     -576    -1337    -2222 
   -2740    -2749    -2315    -1718    -1363    -1080     -519      -62 
    -167     -622    -1097    -1618    -2245    -2972    -3603    -3584 
   -2776    -1875    -1360     -916     -238      468      900     1023 
     976      818      519     -101    -1298    -2712    -3686    -4124 
   -4008    -3284    -2392    -1781    -1617    -1873    -2084    -1846 
   -1412     -955     -297      423      785      589      -18     -648 
   -1070    -1312    -1228     -719     -189     -195     -896    -1896 
   -2636    -3073    -3580    -4133    -4162    -3308    -2123    -1474 
   -1364    -1305    -1327    -1514    -1559    -1251     -791     -619 
    -830    -1100    -1431    -2047    -2694    -2929    -2739    -2241 
   -1449     -576     -139     -483    -1131    -1476    -1737    -2081 
   -2092    -1652    -1081     -631     -355       78      812     1016 
     256     -506     -892    -1625    -2646    -3392    -3950    -4270 
   -4000    -3325    -2584    -1788    -1005     -376      141      515 
     595      486      414      515      799      978      757      129 
    -787    -1775    -2581    -3207    -3823    -4348    -4448    -4060 
   -3492    -2982    -2654    -2479    -2189    -1746    -1367    -1190 
   -1321    -1579    -1701    -1825    -1953    -1692    -1016     -529 
    -557     -495      233     1174     1451      769     -410    -1379 
   -1953    -2504    -3122    -3437    -3121    -2224    -1341    -1273 
   -1981    -2517    -2411    -2191    -2157    -2007    -1683    -1296 
    -881     -699     -795     -854     -893    -1097    -1306    -1334 
   -1246    -1148    -1121    -1142    -1063     -853     -538     -162 
      63       70       29     -164     -695    -1397    -2120    -2729 
   -2909    -2592    -2073    -1584    -1275    -1305    -1624    -2011 
   -2299    -2420    -2419    -2378    -2282    -2101    -1863    -1525 
   -1086     -765     -693     -675     -492     -228     -199     -585 
   -1185    -1723    -2168    -2567    -2915    -3059    -2714    -1988 
   -1375    -1192    -1413    -1713    -1810    -1755    -1534    -1096 
    -689     -569     -672     -749     -724     -792    -1097    -1574 
   -2011    -2187    -2047    -1884    -2015    -2278    -2365    -2301 
   -2169    -1980    -1661    -1111     -510      -64      143      -13 
    -314     -405     -514     -928    -1306    -1254     -855     -444 
    -383     -828    -1530    -2111    -2251    -1910    -1575    -1665 
   -2034    -2386    -2573    -2663    -2810    -2781    -2249    -1551 
   -1310    -1594    -1921    -1857    -1409    -1017     -986    -1030 
    -866     -804    -1123    -1534    -1665    -1479    -1188    -1048 
   -1115    -1166    -1102    -1107    -1305    -1530    -1532    -1424 
   -1524    -1775    -1892    -1795    -1575    -1487    -1813    -2281 
   -2323    -2019    -1806    -1710    -1597    -1332     -793     -255 
    -106     -313     -583     -627     -453     -506    -1021    -1572 
   -1771    -1798    -1833    -1771    -1621    -1501    -1530    -1891 
   -2440    -2646    -2331    -1844    -1402    -1055     -874     -788 
    -822    -1107    -1626    -2189    -2278    -1690    -1173    -1293 
   -1687    -1883    -1759    -1490    -1351    -1278    -1089    -1053 
   -1422    -1926    -2278    -2390    -2163    -1733    -1487    -1482 
   -1405    -1081     -564      -79      172      230      137      -98 
    -410     -815    -1308    -1777    -2098    -2199    -2153    -2015 
   -1799    -1819    -2163    -2328    -2120    -1817    -1566    -1453 
   -1516    -1644    -1740    -1826    -1973    -2092    -2085    -1993 
   -1825    -1667    -1567    -1367    -1078     -796     -549     -533 
    -820    -1058    -1038     -994    -1143    -1397    -1495    -1275 
    -943     -780     -831    -1026    -1196    -1227    -1275    -1475 
   -1682    -1775    -1859    -2047    -2363    -2787    -3138    -3141 
