Origin Time       2018/04/09 06:38:00
Lat.              35.2
Long.             132.6
Depth. (km)       10
Mag.              3.8
Station Code      SMN005
Station Lat.      35.3611
Station Long.     132.7449
Station Height(m) 9
Record Time       2018/04/09 06:38:57
Sampling Freq(Hz) 100Hz
Duration Time(s)  60
Dir.              N-S
Scale Factor      7845(gal)/8223790
Max. Acc. (gal)   5.014
Last Correction   2018/04/09 06:38:57
Memo.             
[...]
   -6762    -6770    -6777    -6763    -6756    -6777    -6777    -6764 
   -6781    -6791    -6781    -6772    -6763    -6755    -6751    -6752 
   -6774    -6791    -6786    -6781    -6777    -6770    -6775    -6777 
   -6752    -6744    -6782    -6791    -6752    -6763    -6797    -6771 
   -6768    -6795    -6762    -6736    -6772    -6781    -6770    -6785 
   -6774    -6751    -6777    -6789    -6756    -6755    -6779    -6771 
   -6771    -6782    -6755    -6747    -6785    -6790    -6777    -6777 
   -6748    -6744    -6787    -6777    -6752    -6786    -6787    -6741 
   -6755    -6782    -6759    -6763    -6781    -6760    -6772    -6809 
   -6781    -6739    -6754    -6775    -6790    -6797    -6775    -6756 
   -6758    -6759    -6772    -6785    -6772    -6777    -6794    -6775 
   -6748    -6762    -6775    -6767    -6774    -6785    -6768    -6759 
   -6772    -6779    -6774    -6763    -6759    -6777    -6781    -6760 
   -6766    -6775    -6767    -6782    -6798    -6771    -6763    -6777 
   -6760    -6763    -6798    -6790    -6759    -6774    -6791    -6771 
   -6767    -6790    -6782    -6768    -6772    -6779    -6779    -6770 
   -6779    -6794    -6771    -6762    -6781    -6772    -6774    -6787 
   -6771    -6760    -6762    -6760    -6785    -6797    -6762    -6750 
   -6768    -6781    -6782    -6774    -6774    -6781    -6786    -6782 
   -6758    -6751    -6774    -6774    -6758    -6781    -6802    -6763 
   -6739    -6777    -6789    -6756    -6762    -6789    -6782    -6772 
   -6774    -6771    -6762    -6755    -6771    -6787    -6786    -6782 
   -6763    -6752    -6770    -6771    -6768    -6794    -6789    -6748 
   -6752    -6777    -6775    -6782    -6782    -6760    -6767    -6793 
   -6772    -6759    -6789    -6791    -6770    -6766    -6775    -6782 
   -6770    -6768    -6775    -6762    -6762    -6777    -6779    -6782 
   -6781    -6772    -6781    -6782    -6774    -6777    -6777    -6758 
   -6764    -6794    -6777    -6755    -6789    -6787    -6752    -6766 
   -6777    -6777    -6797    -6774    -6739    -6777    -6798    -6766 
   -6791    -6804    -6748    -6750    -6779    -6766    -6763    -6782 
   -6795    -6785    -6772    -6777    -6775    -6770    -6768    -6762 
   -6777    -6777    -6756    -6770    -6771    -6763    -6791    -6775 
   -6737    -6764    -6786    -6763    -6768    -6781    -6760    -6758 
   -6762    -6759    -6782    -6790    -6764    -6752    -6760    -6781 
   -6779    -6766    -6770    -6760    -6762    -6775    -6763    -6772 
   -6782    -6768    -6772    -6759    -6758    -6812    -6804    -6739 
   -6767    -6798    -6751    -6762    -6806    -6774    -6754    -6786 
   -6779    -6744    -6744    -6774    -6781    -6766    -6763    -6756 
   -6758    -6781    -6782    -6789    -6795    -6782    -6789    -6781 
   -6750    -6774    -6801    -6763    -6747    -6779    -6786    -6777 
   -6787    -6772    -6763    -6790    -6793    -6775    -6771    -6763 
   -6766    -6777    -6781    -6768    -6759    -6774    -6775    -6758 
   -6775    -6789    -6764    -6752    -6767    -6777    -6768    -6766 
   -6790    -6787    -6764    -6779    -6787    -6763    -6768    -6787 
   -6771    -6770    -6774    -6755    -6772    -6791    -6763    -6768 
   -6785    -6750    -6743    -6781    -6790    -6781    -6787    -6771 
   -6739    -6755    -6787    -6777    -6763    -6774    -6775    -6766 
   -6774    -6785    -6775    -6762    -6748    -6759    -6786    -6759 
   -6739    -6786    -6789    -6758    -6787    -6789    -6739    -6762 
   -6799    -6777    -6767    -6777    -6772    -6768    -6781    -6785 
   -6766    -6772    -6781    -6763    -6777    -6790    -6763    -6758 
   -6782    -6786    -6770    -6763    -6762    -6768    -6766    -6775 
   -6794    -6772    -6750    -6768    -6777    -6766    -6782    -6789 
   -6754    -6752    -6789    -6801    -6793    -6781    -6758    -6751 
   -6772    -6772    -6758    -6779    -6782    -6764    -6786    -6797 
   -6762    -6744    -6770    -6793    -6791    -6772    -6762    -6763 
   -6759    -6772    -6795    -6763    -6737    -6779    -6774    -6744 
   -6786    -6787    -6744    -6768    -6795    -6777    -6764    -6771 
   -6779    -6764    -6759    -6787    -6789    -6756    -6760    -6779 
   -6767    -6760    -6756    -6748    -6763    -6781    -6793    -6805 
   -6794    -6760    -6759    -6786    -6774    -6770    -6790    -6772 
   -6771    -6786    -6768    -6764    -6777    -6764    -6755    -6775 
   -6779    -6771    -6777    -6771    -6767    -6785    -6771    -6755 
   -6777    -6786    -6771    -6768    -6779    -6767    -6750    -6777 
   -6795    -6779    -6779    -6777    -6768    -6772    -6758    -6755 
   -6775    -6771    -6774    -6793    -6779    -6772    -6781    -6774 
   -6774    -6770    -6762    -6771    -6771    -6755    -6763    -6775 
   -6762    -6760    -6782    -6785    -6763    -6770    -6790    -6754 
   -6733    -6774    -6771    -6748    -6774    -6785    -6782    -6786 
   -6772    -6781    -6785    -6760    -6763    -6768    -6754    -6768 
   -6795    -6795    -6782    -6764    -6756    -6751    -6743    -6772 
   -6787    -6767    -6775    -6777    -6770    -6775    -6750    -6735 
   -6770    -6775    -6771    -6802    -6795    -6762    -6767    -6774 
   -6767    -6782    -6785    -6771    -6775    -6790    -6775    -6741 
   -6754    -6782    -6777    -6793    -6798    -6777    -6777    -6775 
   -6759    -6766    -6766    -6751    -6764    -6787    -6777    -6768 
   -6772    -6772    -6774    -6772    -6772    -6762    -6754    -6785 
   -6802    -6782    -6774    -6781    -6782    -6771    -6766    -6777 
   -6764    -6755    -6789    -6793    -6767    -6771    -6767    -6750 
   -6764    -6775    -6774    -6785    -6782    -6774    -6770    -6763 
   -6774    -6789    -6767    -6758    -6786    -6779    -6762    -6782 
   -6782    -6771    -6774    -6768    -6772    -6793    -6797    -6768 
   -6743    -6764    -6777    -6758    -6768    -6790    -6791    -6782 
   -6767    -6763    -6766    -6744    -6760    -6805    -6786    -6762 
   -6787    -6777    -6752    -6768    -6770    -6756    -6763    -6777 
   -6785    -6777    -6767    -6772    -6782    -6790    -6791    -6789 
   -6785    -6771    -6768    -6768    -6759    -6772    -6789    -6768 
   -6767    -6795    -6774    -6739    -6760    -6775    -6754    -6764 
   -6799    -6786    -6760    -6770    -6777    -6771    -6770    -6779 
   -6787    -6772    -6752    -6754    -6766    -6766    -6771    -6793 
   -6798    -6789    -6779    -6760    -6763    -6777    -6767    -6755 
   -6758    -6762    -6764    -6775    -6774    -6767    -6774    -6777 
   -6774    -6774    -6775    -6767    -6759    -6760    -6766    -6766 
   -6760    -6762    -6768    -6766    -6764    -6785    -6795    -6774 
   -6760    -6760    -6756    -6768    -6790    -6782    -6767    -6764 
   -6760    -6759    -6762    -6766    -6777    -6777    -6770    -6785 
   -6797    -6774    -6756    -6770    -6768    -6750    -6772    -6804 
   -6782    -6756    -6764    -6767    -6758    -6774    -6782    -6775 
   -6781    -6785    -6777    -6770    -6763    -6764    -6782    -6777 
   -6760    -6774    -6782    -6775    -6774    -6782    -6768    -6748 
   -6766    -6786    -6785    -6785    -6774    -6756    -6768    -6787 
   -6782    -6779    -6775    -6760    -6759    -6782    -6797    -6782 
   -6772    -6781    -6775    -6760    -6768    -6775    -6767    -6772 
   -6779    -6777    -6775    -6766    -6755    -6762    -6767    -6771 
   -6775    -6764    -6760    -6786    -6794    -6770    -6772    -6793 
   -6786    -6777    -6779    -6775    -6770    -6775    -6774    -6766 
   -6768    -6771    -6756    -6751    -6774    -6787    -6777    -6756 
   -6752    -6779    -6789    -6775    -6789    -6782    -6752    -6755 
   -6767    -6768    -6772    -6777    -6775    -6782    -6789    -6775 
   -6756    -6754    -6758    -6764    -6771    -6779    -6787    -6777 
   -6770    -6777    -6787    -6779    -6768    -6772    -6772    -6786 
   -6799    -6777    -6755    -6759    -6764    -6760    -6758    -6772 
   -6770    -6756    -6775    -6779    -6754    -6762    -6790    -6777 
   -6762    -6786    -6786    -6764    -6775    -6771    -6752    -6762 
   -6766    -6764    -6770    -6768    -6779    -6797    -6782    -6759 
   -6767    -6782    -6771    -6764    -6771    -6768    -6763    -6767 
   -6779    -6781    -6764    -6754    -6751    -6754    -6768    -6790 
   -6782    -6758    -6754    -6764    -6772    -6771    -6764    -6762 
   -6764    -6774    -6777    -6772    -6777    -6781    -6772    -6777 
   -6771    -6756    -6758    -6762    -6770    -6786    -6782    -6767 
   -6767    -6760    -6747    -6768    -6789    -6782    -6790    -6793 
   -6760    -6747    -6777    -6805    -6793    -6772    -6754    -6736 
   -6751    -6779    -6787    -6785    -6774    -6766    -6774    -6781 
   -6770    -6766    -6782    -6782    -6767    -6766    -6755    -6763 
   -6798    -6790    -6775    -6791    -6781    -6770    -6781    -6772 
   -6768    -6787    -6798    -6787    -6777    -6768    -6758    -6775 
   -6794    -6779    -6767    -6777    -6781    -6777    -6774    -6770 
   -6770    -6771    -6764    -6760    -6782    -6795    -6771    -6766 
   -6781    -6777    -6781    -6782    -6770    -6772    -6777    -6759 
   -6755    -6787    -6791    -6785    -6798    -6777    -6741    -6741 
   -6759    -6772    -6790    -6810    -6797    -6764    -6744    -6752 
   -6782    -6785    -6763    -6755    -6766    -6771    -6760    -6767 
   -6777    -6772    -6774    -6781    -6782    -6782    -6797    -6790 
   -6752    -6748    -6768    -6772    -6763    -6777    -6791    -6767 
   -6758    -6781    -6766    -6760    -6782    -6774    -6777    -6781 
   -6754    -6756    -6764    -6763    -6775    -6772    -6744    -6743 
   -6770    -6762    -6739    -6750    -6737    -6711    -6718    -6737 
   -6766    -6831    -6917    -6947    -6880    -6798    -6760    -6782 
   -6879    -6929    -6826    -6697    -6639    -6601    -6600    -6670 
   -6656    -6475    -6334    -6444    -6701    -6779    -6616    -6546 
   -6878    -7350    -7446    -7227    -7086    -7026    -6836    -6594 
   -6589    -6805    -6899    -6733    -6548    -6620    -6922    -7055 
   -6941    -7032    -7167    -6831    -6540    -6785    -6799    -6205 
   -5911    -6319    -6643    -6457    -6307    -6655    -7110    -7007 
   -6679    -6886    -7311    -7350    -7218    -7088    -6868    -6828 
   -6971    -6759    -6281    -6231    -6527    -6496    -6199    -6318 
   -6886    -7101    -6739    -6656    -7300    -7920    -7669    -6957 
   -6820    -7076    -6932    -6694    -6754    -6516    -5968    -5913 
   -6285    -6426    -6393    -6531    -6881    -7392    -7812    -7885 
   -7754    -7600    -7361    -6895    -6188    -5556    -5320    -5321 
   -5387    -5651    -5999    -6214    -6511    -7003    -7368    -7630 
   -8172    -8610    -8382    -7947    -7732    -7427    -6821    -6118 
   -5613    -5410    -5560    -5992    -6462    -6922    -7395    -7639 
   -7163    -5968    -5159    -5328    -5694    -5949    -6552    -7416 
   -8050    -8132    -7794    -7608    -7739    -7627    -7061    -6767 
   -7064    -7192    -6779    -6297    -5987    -5815    -5998    -6457 
   -6604    -6455    -6628    -7075    -7329    -7391    -7392    -7215 
   -6898    -6685    -6621    -6477    -6103    -5821    -5992    -6354 
   -6566    -6754    -7026    -7191    -7138    -7051    -7044    -7102 
   -7269    -7406    -7129    -6527    -6293    -6442    -6318    -6126 
   -6370    -6724    -6825    -6897    -7314    -7851    -7784    -7200 
   -6910    -6895    -6609    -6230    -6156    -6191    -6110    -6168 
   -6629    -7302    -7503    -6947    -6427    -6363    -6072    -5468 
   -5448    -6334    -7398    -8043    -8297    -8270    -7797    -6932 
   -6450    -6720    -7001    -6831    -6474    -6262    -6339    -6427 
   -6288    -6228    -6512    -6945    -7215    -7186    -6879    -6399 
   -6029    -6050    -6338    -6578    -6713    -6876    -7029    -7134 
   -7365    -7431    -6880    -6307    -6484    -6876    -6720    -6478 
   -6797    -7203    -7210    -7329    -7703    -7496    -6615    -6108 
   -6356    -6535    -6342    -6335    -6400    -6212    -6234    -6631 
   -6956    -7172    -7562    -7900    -7753    -7269    -6880    -6642 
   -6313    -5957    -5908    -6119    -6295    -6442    -6683    -6930 
   -6945    -6550    -5921    -5713    -6370    -7392    -7921    -7885 
   -7852    -8004    -8139    -8063    -7537    -6754    -6251    -6161 
   -6318    -6365    -6050    -5725    -5653    -5691    -5768    -5844 
   -5938    -6296    -6880    -7369    -7753    -7809    -7252    -6855 
   -7213    -7581    -7449    -7102    -6813    -6736    -6866    -7044 
   -7132    -6886    -6312    -5960    -6053    -6142    -6134    -6355 
   -6821    -7177    -7106    -6840    -6814    -6889    -6728    -6431 
   -6409    -6956    -7641    -7520    -6698    -6369    -6864    -7368 
   -7195    -6589    -6650    -7506    -7543    -6304    -5456    -5814 
   -6555    -6976    -6890    -6548    -6567    -6919    -7018    -6822 
   -6751    -7015    -7406    -7503    -7148    -6669    -6529    -6718 
   -6675    -6150    -5570    -5328    -5420    -5644    -5472    -4529 
   -3518    -3532    -4769    -6720    -8743   -10305   -11214   -11483 
  -11354   -11283   -11165   -10542    -9649    -8743    -7110    -4475 
   -2166    -1516    -2346    -3761    -5346    -6743    -7109    -6335 
   -5711    -6197    -7155    -7558    -7369    -7298    -7836    -8506 
   -8321    -7238    -6320    -6462    -7299    -7388    -5960    -4371 
   -4731    -6866    -8133    -7234    -5968    -5775    -5626    -4783 
   -4610    -6308    -8692    -9926    -9907    -9173    -7830    -6389 
   -5567    -5638    -6480    -7551    -8240    -8083    -6945    -5487 
   -4680    -4561    -4475    -4384    -4799    -5867    -7253    -8225 
   -7956    -6582    -5564    -5988    -7064    -7446    -7032    -6667 
   -6789    -6899    -6594    -6552    -7645    -9370   -10316    -9876 
   -8634    -7569    -6984    -6231    -5169    -4673    -5190    -6110 
   -6667    -6771    -6624    -6061    -4922    -3477    -2523    -3191 
   -5570    -8111    -9539   -10054   -10164    -9620    -8252    -6914 
   -6723    -7886    -9343    -9718    -8954    -7669    -5980    -4414 
   -3819    -4194    -4945    -5530    -5736    -5787    -6037    -6520 
   -7009    -7194    -6862    -6515    -6967    -7923    -8417    -8390 
   -8352    -8284    -8017    -7573    -6872    -6026    -5252    -4526 
   -4137    -4615    -5830    -7078    -7985    -8382    -7682    -5949 
   -4598    -4581    -5413    -6505    -7809    -8988    -9379    -8846 
   -7890    -7234    -7269    -7680    -7974    -7903    -7346    -6404 
   -5355    -4463    -4081    -4519    -5320    -5598    -5521    -5899 
   -6493    -6490    -5946    -5583    -5810    -6316    -6589    -6551 
   -6485    -6655    -7059    -7573    -8407    -9636   -10579   -10620 
   -9967    -9085    -8158    -7180    -6242    -5528    -5081    -4899 
   -5005    -5273    -5410    -5189    -4756    -4529    -4915    -6030 
   -7518    -8860    -9674    -9741    -9096    -8225    -7716    -7384 
   -6966    -6829    -6754    -6280    -5722    -5184    -4750    -5150 
   -6455    -7894    -8972    -9459    -9142    -8235    -7245    -6389 
   -5680    -5147    -4897    -5211    -6085    -6985    -7358    -7045 
   -6546    -6670    -7300    -7472    -6948    -6436    -6420    -6754 
   -7036    -6960    -6573    -6237    -6186    -6366    -6689    -7169 
   -7831    -8298    -7902    -6774    -5655    -4692    -3955    -3901 
   -4496    -5335    -6062    -6323    -6320    -6585    -7080    -7564 
   -8062    -8398    -8144    -7456    -7015    -6947    -6878    -6739 
   -6625    -6401    -6135    -6092    -6183    -6330    -6721    -7109 
   -7126    -7083    -7299    -7535    -7572    -7539    -7663    -7950 
   -8199    -8290    -8139    -7763    -7381    -6933    -6075    -5015 
   -4322    -4132    -4297    -4677    -5217    -6027    -6990    -7735 
   -8226    -8591    -8681    -8298    -7542    -6937    -6855    -7055 
   -7269    -7356    -7148    -6898    -6945    -6978    -6737    -6616 
   -6791    -6875    -6583    -6126    -5821    -5745    -5944    -6404 
   -6871    -7132    -7157    -7132    -7300    -7431    -7114    -6596 
   -6392    -6554    -6912    -7342    -7608    -7323    -6448    -5594 
   -5292    -5339    -5408    -5698    -6459    -7376    -7811    -7628 
   -7338    -7306    -7485    -7682    -7647    -7299    -6808    -6404 
   -6115    -5807    -5547    -5472    -5625    -6046    -6513    -6832 
   -7221    -7534    -7310    -6775    -6486    -6679    -7223    -7619 
   -7611    -7581    -7736    -7652    -7022    -6138    -5381    -4905 
   -4978    -5660    -6446    -6910    -7011    -6829    -6470    -6022 
   -5833    -6346    -7280    -7900    -7969    -7830    -7803    -7838 
   -7754    -7599    -7551    -7636    -7619    -7338    -6970    -6663 
   -6356    -6062    -5908    -5940    -6107    -6323    -6478    -6588 
   -6837    -7180    -7357    -7385    -7406    -7285    -7022    -6820 
   -6488    -5962    -5734    -5845    -5854    -5779    -5849    -5996 
   -6114    -6230    -6467    -6890    -7346    -7546    -7389    -7263 
   -7568    -8050    -8279    -8324    -8364    -8286    -7894    -7125 
   -6255    -5772    -5701    -5683    -5680    -5790    -5995    -6346 
   -6744    -6866    -6583    -6227    -6133    -6115    -5942    -5923 
   -6347    -6891    -7194    -7357    -7435    -7275    -7007    -6878 
   -6817    -6673    -6444    -6193    -5976    -5846    -5838    -5975 
   -6200    -6509    -7037    -7731    -8284    -8492    -8289    -7847 
   -7531    -7439    -7391    -7306    -7188    -6867    -6327    -5958 
   -5917    -5900    -5805    -5875    -6115    -6203    -6102    -6108 
   -6355    -6767    -7207    -7504    -7597    -7573    -7437    -7159 
   -6880    -6801    -6976    -7246    -7307    -7074    -6836    -6818 
   -6829    -6642    -6451    -6463    -6508    -6467    -6328    -6052 
   -5918    -6156    -6569    -7020    -7422    -7591    -7542    -7356 
   -7064    -6848    -6802    -6860    -7022    -7194    -7164    -6956 
   -6756    -6610    -6505    -6480    -6517    -6488    -6269    -5935 
   -5838    -6188    -6678    -6883    -6837    -6768    -6762    -6959 
   -7273    -7349    -7253    -7287    -7294    -7076    -6840    -6804 
   -6878    -6880    -6815    -6717    -6484    -6214    -6219    -6562 
   -7034    -7393    -7469    -7392    -7361    -7245    -6960    -6781 
   -6806    -6750    -6500    -6313    -6374    -6543    -6546    -6416 
   -6411    -6424    -6184    -5886    -5844    -5995    -6208    -6394 
   -6369    -6158    -6069    -6280    -6612    -6839    -6974    -6999 
   -6964    -7155    -7480    -7580    -7528    -7548    -7645    -7742 
   -7817    -7776    -7438    -7022    -6866    -6818    -6681    -6478 
   -6269    -6219    -6356    -6458    -6401    -6208    -5977    -5864 
   -5948    -6249    -6696    -7126    -7404    -7547    -7735    -7920 
   -7807    -7423    -7048    -6813    -6709    -6500    -6035    -5697 
   -5811    -6034    -5915    -5652    -5651    -5892    -6223    -6515 
