Origin Time       2018/04/09 06:38:00
Lat.              35.2
Long.             132.6
Depth. (km)       10
Mag.              3.8
Station Code      SMN004
Station Lat.      35.2881
Station Long.     132.9004
Station Height(m) 45
Record Time       2018/04/09 06:38:58
Sampling Freq(Hz) 100Hz
Duration Time(s)  60
Dir.              N-S
Scale Factor      7845(gal)/8223790
Max. Acc. (gal)   6.489
Last Correction   2018/04/09 06:38:58
Memo.             
[...]
   -2686    -2687    -2688    -2688    -2685    -2687    -2688    -2682 
   -2681    -2683    -2682    -2683    -2691    -2695    -2690    -2685 
   -2686    -2687    -2687    -2688    -2688    -2688    -2687    -2686 
   -2683    -2687    -2695    -2691    -2683    -2686    -2686    -2683 
   -2688    -2690    -2686    -2686    -2688    -2685    -2682    -2686 
   -2686    -2686    -2688    -2688    -2687    -2687    -2690    -2690 
   -2683    -2679    -2683    -2683    -2685    -2690    -2688    -2687 
   -2691    -2688    -2686    -2687    -2683    -2685    -2688    -2690 
   -2693    -2693    -2686    -2685    -2686    -2685    -2686    -2686 
   -2687    -2691    -2686    -2682    -2686    -2686    -2686    -2691 
   -2691    -2686    -2687    -2691    -2688    -2685    -2681    -2678 
   -2682    -2688    -2691    -2691    -2691    -2691    -2693    -2693 
   -2687    -2685    -2681    -2678    -2677    -2677    -2687    -2698 
   -2694    -2687    -2683    -2687    -2690    -2685    -2686    -2691 
   -2687    -2683    -2687    -2690    -2687    -2686    -2688    -2690 
   -2685    -2683    -2688    -2685    -2682    -2687    -2688    -2686 
   -2687    -2690    -2686    -2683    -2693    -2700    -2693    -2683 
   -2681    -2678    -2677    -2679    -2686    -2693    -2697    -2694 
   -2695    -2697    -2687    -2683    -2685    -2682    -2683    -2686 
   -2683    -2679    -2679    -2678    -2679    -2683    -2686    -2687 
   -2691    -2695    -2693    -2690    -2691    -2688    -2683    -2679 
   -2679    -2682    -2683    -2687    -2688    -2683    -2683    -2687 
   -2688    -2693    -2695    -2694    -2693    -2690    -2679    -2673 
   -2678    -2683    -2683    -2686    -2690    -2687    -2686    -2691 
   -2698    -2695    -2688    -2683    -2682    -2682    -2682    -2686 
   -2688    -2688    -2690    -2688    -2686    -2686    -2687    -2688 
   -2694    -2694    -2685    -2678    -2683    -2688    -2685    -2683 
   -2686    -2685    -2682    -2682    -2685    -2688    -2688    -2690 
   -2698    -2697    -2685    -2683    -2686    -2681    -2675    -2682 
   -2686    -2690    -2697    -2698    -2691    -2683    -2678    -2679 
   -2679    -2681    -2694    -2701    -2691    -2682    -2675    -2675 
   -2682    -2691    -2694    -2687    -2682    -2683    -2688    -2691 
   -2690    -2687    -2685    -2686    -2686    -2681    -2685    -2690 
   -2683    -2683    -2690    -2688    -2685    -2688    -2688    -2690 
   -2694    -2686    -2674    -2674    -2677    -2679    -2688    -2694 
   -2695    -2694    -2693    -2695    -2690    -2685    -2690    -2688 
   -2682    -2685    -2682    -2674    -2679    -2693    -2691    -2686 
   -2683    -2683    -2690    -2697    -2693    -2683    -2681    -2683 
   -2687    -2687    -2688    -2690    -2685    -2681    -2681    -2682 
   -2685    -2690    -2693    -2691    -2695    -2694    -2683    -2682 
   -2686    -2685    -2685    -2688    -2687    -2686    -2690    -2688 
   -2688    -2687    -2677    -2678    -2691    -2693    -2686    -2687 
   -2687    -2687    -2686    -2683    -2686    -2685    -2685    -2693 
   -2697    -2690    -2682    -2681    -2687    -2691    -2682    -2673 
   -2673    -2683    -2700    -2704    -2693    -2685    -2687    -2691 
   -2690    -2687    -2687    -2685    -2678    -2681    -2685    -2681 
   -2685    -2695    -2695    -2691    -2688    -2681    -2678    -2683 
   -2679    -2674    -2688    -2701    -2698    -2698    -2694    -2678 
   -2673    -2681    -2688    -2690    -2688    -2686    -2686    -2686 
   -2685    -2687    -2691    -2687    -2685    -2690    -2690    -2681 
   -2679    -2682    -2683    -2687    -2693    -2694    -2691    -2685 
   -2685    -2693    -2693    -2687    -2677    -2677    -2690    -2690 
   -2685    -2695    -2697    -2686    -2685    -2688    -2685    -2682 
   -2683    -2687    -2686    -2682    -2685    -2691    -2688    -2687 
   -2695    -2701    -2693    -2682    -2678    -2675    -2675    -2682 
   -2691    -2700    -2695    -2686    -2686    -2693    -2685    -2671 
   -2679    -2701    -2701    -2688    -2693    -2698    -2686    -2677 
   -2675    -2683    -2694    -2686    -2678    -2687    -2690    -2685 
   -2686    -2690    -2688    -2686    -2685    -2686    -2688    -2690 
   -2688    -2687    -2690    -2690    -2686    -2688    -2688    -2681 
   -2678    -2685    -2693    -2695    -2697    -2695    -2690    -2683 
   -2681    -2682    -2683    -2683    -2679    -2683    -2694    -2693 
   -2691    -2701    -2702    -2688    -2674    -2673    -2682    -2683 
   -2677    -2683    -2697    -2697    -2688    -2690    -2695    -2686 
   -2671    -2674    -2685    -2691    -2694    -2691    -2685    -2683 
   -2686    -2691    -2693    -2691    -2688    -2686    -2685    -2687 
   -2687    -2687    -2687    -2683    -2681    -2688    -2694    -2688 
   -2682    -2677    -2675    -2682    -2694    -2694    -2693    -2694 
   -2688    -2682    -2681    -2677    -2679    -2690    -2694    -2693 
   -2690    -2693    -2693    -2685    -2683    -2687    -2690    -2691 
   -2691    -2690    -2685    -2677    -2677    -2690    -2698    -2694 
   -2683    -2673    -2675    -2686    -2688    -2687    -2693    -2695 
   -2694    -2691    -2683    -2678    -2681    -2685    -2693    -2697 
   -2688    -2690    -2700    -2697    -2691    -2683    -2674    -2686 
   -2694    -2681    -2683    -2698    -2697    -2686    -2675    -2679 
   -2700    -2702    -2681    -2674    -2686    -2691    -2685    -2677 
   -2679    -2691    -2693    -2688    -2693    -2694    -2686    -2682 
   -2685    -2690    -2697    -2700    -2683    -2668    -2681    -2695 
   -2694    -2683    -2674    -2681    -2690    -2687    -2688    -2694 
   -2690    -2686    -2691    -2693    -2686    -2681    -2675    -2667 
   -2681    -2705    -2706    -2690    -2679    -2675    -2682    -2690 
   -2690    -2686    -2685    -2683    -2685    -2688    -2693    -2698 
   -2687    -2674    -2681    -2697    -2700    -2690    -2687    -2686 
   -2682    -2688    -2695    -2686    -2679    -2686    -2691    -2685 
   -2675    -2682    -2697    -2690    -2668    -2673    -2700    -2704 
   -2687    -2691    -2698    -2693    -2687    -2682    -2685    -2686 
   -2674    -2673    -2687    -2702    -2688    -2668    -2685    -2706 
   -2697    -2690    -2693    -2686    -2675    -2671    -2687    -2713 
   -2702    -2668    -2668    -2690    -2698    -2695    -2687    -2686 
   -2688    -2674    -2671    -2700    -2710    -2691    -2679    -2677 
   -2675    -2683    -2690    -2701    -2716    -2700    -2660    -2656 
   -2675    -2686    -2690    -2687    -2698    -2708    -2682    -2671 
   -2694    -2706    -2700    -2685    -2669    -2668    -2679    -2679 
   -2679    -2697    -2702    -2678    -2658    -2675    -2705    -2706 
   -2688    -2682    -2687    -2690    -2681    -2679    -2704    -2712 
   -2685    -2673    -2687    -2675    -2658    -2682    -2706    -2691 
   -2668    -2675    -2710    -2716    -2683    -2668    -2683    -2693 
   -2679    -2669    -2688    -2701    -2682    -2668    -2688    -2712 
   -2695    -2673    -2683    -2687    -2675    -2685    -2700    -2693 
   -2677    -2666    -2671    -2694    -2712    -2700    -2678    -2683 
   -2697    -2691    -2679    -2685    -2701    -2700    -2679    -2681 
   -2694    -2681    -2663    -2674    -2697    -2701    -2685    -2686 
   -2698    -2687    -2669    -2666    -2671    -2683    -2701    -2705 
   -2697    -2694    -2685    -2673    -2678    -2690    -2686    -2674 
   -2673    -2691    -2705    -2698    -2693    -2687    -2671    -2664 
   -2673    -2693    -2718    -2721    -2690    -2662    -2660    -2671 
   -2685    -2702    -2712    -2702    -2671    -2652    -2667    -2691 
   -2709    -2708    -2673    -2654    -2669    -2683    -2704    -2727 
   -2714    -2674    -2654    -2666    -2694    -2705    -2700    -2698 
   -2693    -2682    -2671    -2663    -2669    -2688    -2713    -2737 
   -2727    -2675    -2621    -2606    -2652    -2724    -2752    -2714 
   -2667    -2669    -2705    -2702    -2663    -2658    -2681    -2668 
   -2659    -2704    -2748    -2736    -2687    -2659    -2673    -2685 
   -2681    -2682    -2691    -2705    -2705    -2682    -2666    -2683 
   -2706    -2713    -2705    -2683    -2646    -2631    -2654    -2687 
   -2720    -2739    -2713    -2671    -2660    -2673    -2682    -2682 
   -2693    -2706    -2693    -2674    -2694    -2710    -2687    -2675 
   -2683    -2681    -2673    -2686    -2704    -2697    -2678    -2679 
   -2700    -2701    -2688    -2678    -2673    -2681    -2686    -2686 
   -2701    -2710    -2702    -2681    -2648    -2654    -2705    -2718 
   -2690    -2667    -2656    -2667    -2708    -2731    -2704    -2675 
   -2674    -2677    -2686    -2686    -2666    -2666    -2702    -2732 
   -2708    -2668    -2671    -2690    -2691    -2685    -2683    -2700 
   -2706    -2675    -2650    -2673    -2714    -2733    -2714    -2671 
   -2636    -2647    -2679    -2695    -2702    -2708    -2702    -2691 
   -2675    -2662    -2677    -2704    -2708    -2706    -2693    -2662 
   -2654    -2688    -2712    -2682    -2659    -2694    -2725    -2701 
   -2662    -2655    -2673    -2681    -2695    -2728    -2729    -2690 
   -2654    -2654    -2679    -2687    -2690    -2713    -2733    -2701 
   -2636    -2639    -2691    -2709    -2701    -2698    -2691    -2671 
   -2668    -2695    -2704    -2686    -2671    -2668    -2673    -2686 
   -2710    -2728    -2708    -2666    -2654    -2681    -2687    -2671 
   -2690    -2725    -2701    -2650    -2673    -2729    -2716    -2660 
   -2659    -2697    -2693    -2666    -2681    -2700    -2687    -2687 
   -2698    -2688    -2673    -2673    -2686    -2681    -2675    -2709 
   -2732    -2700    -2656    -2656    -2686    -2702    -2694    -2710 
   -2755    -2731    -2644    -2633    -2679    -2731    -2836    -2830 
   -2602    -2465    -2544    -2639    -2789    -2997    -2895    -2436 
   -2258    -2440    -2428    -2755    -3269    -2863    -2563    -2751 
   -2447    -2477    -2937    -2978    -2860    -2578    -2388    -2596 
   -2596    -2562    -2802    -2802    -2683    -2820    -2937    -2901 
   -2736    -2419    -2359    -2658    -2915    -3096    -2922    -2479 
   -2454    -2344    -2169    -2709    -3076    -2835    -2770    -2747 
   -2544    -2421    -2529    -2828    -2732    -2536    -2905    -2856 
   -2531    -2933    -2920    -2330    -2459    -2756    -2681    -2751 
   -2810    -2740    -2669    -2733    -2884    -2606    -2505    -2974 
   -2893    -2430    -2405    -2479    -2598    -2740    -2690    -2789 
   -2789    -2546    -2647    -2824    -2899    -3007    -2524    -1988 
   -2482    -3082    -2898    -2536    -2509    -2771    -2988    -2889 
   -2674    -2691    -2843    -2735    -2533    -2601    -2754    -2818 
   -2563    -2143    -2309    -2770    -2890    -2792    -2712    -2762 
   -2708    -2543    -2523    -2748    -3106    -3015    -2558    -2261 
   -2289    -2666    -2967    -2901    -2651    -2695    -2917    -2721 
   -2586    -2759    -2735    -2658    -2772    -2822    -2616    -2627 
   -2813    -2592    -2471    -2635    -2471    -2428    -2763    -2643 
   -2470    -2986    -3164    -2659    -2488    -2708    -2816    -2798 
   -2669    -2413    -2412    -2691    -2695    -2581    -2810    -3041 
   -2860    -2523    -2560    -2925    -2988    -2724    -2590    -2610 
   -2614    -2621    -2702    -2636    -2490    -2601    -2593    -2475 
   -2758    -2990    -2648    -2390    -2698    -2901    -2751    -2686 
   -2731    -2758    -2641    -2351    -2442    -2863    -2953    -3071 
   -3180    -2667    -2199    -2457    -2961    -2857    -2465    -2658 
   -2740    -2376    -2412    -2563    -2492    -2731    -3076    -2982 
   -2700    -2710    -2736    -2535    -2628    -2874    -2694    -2413 
   -2447    -2617    -2559    -2394    -2671    -3145    -3148    -2875 
   -2775    -2710    -2535    -2538    -2843    -3009    -2799    -2538 
   -2369    -2398    -2629    -2691    -2724    -2887    -2847    -2721 
   -2774    -2764    -2581    -2362    -2381    -2820    -2917    -2494 
   -2544    -2844    -2709    -2559    -2759    -2918    -2654    -2517 
   -2771    -2673    -2457    -2709    -2998    -2974    -2693    -2461 
   -2470    -2685    -2792    -2490    -2536    -2844    -2589    -2543 
   -2781    -2759    -2949    -2948    -2654    -2718    -2527    -2295 
   -2918    -3294    -2798    -2400    -2413    -2524    -2533    -2650 
   -2964    -3057    -2830    -2539    -2428    -2501    -2633    -2909 
   -3060    -2775    -2408    -2369    -2442    -2432    -2567    -2667 
   -2659    -2818    -2967    -2855    -2577    -2631    -2930    -2856 
   -2747    -2856    -2686    -2258    -2177    -2590    -2955    -3150 
   -3232    -2693    -2101    -2400    -2903    -3165    -3331    -2964 
   -2319    -2085    -2308    -2601    -2574    -2508    -2678    -2724 
   -2729    -2994    -2972    -2691    -2875    -2945    -2527    -2457 
   -2565    -2371    -2346    -2570    -2702    -2669    -2704    -2911 
   -2763    -2388    -2654    -3196    -3103    -2648    -2442    -2528 
   -2906    -3240    -2833    -2274    -2701    -3090    -2558    -2265 
   -2334    -2411    -2853    -3149    -2924    -2548    -2326    -2238 
   -2315    -2839    -3350    -3237    -2193     -697     -847    -2646 
   -3060    -1525     -538     -479     -456    -1494    -2822    -2473 
   -2340    -4857    -8206    -9489    -8918    -7284    -4955    -4592 
   -6021    -4205      679     3063     2389     1598     -523    -4980 
   -6423    -2043     1051    -2286    -6061    -3834      816     2079 
    1012       95      108     1993     2744     -637    -4500    -6176 
   -7227    -7712    -6485    -3793    -2598    -4950    -6166    -2976 
   -1490    -4340    -5167    -4099    -6165    -7184    -3420     -881 
   -3141    -5310    -3080       16     -164     -417     1031      456 
   -1717    -1480      642     1663     1133      -29    -1053    -1729 
   -3152    -5069    -4349    -1302    -1366    -4939    -6369    -4625 
   -4143    -5512    -4531    -2381    -3497    -5398    -4565    -3115 
   -4009    -6502    -7522    -5556    -1467     1127     -190    -1537 
    -182      279    -1129     -823      658      -72    -2705    -3858 
   -2010    -1047    -3009    -4041    -3446    -3153    -2609    -1571 
    -395     -233    -2617    -5143    -4687    -2884    -2184    -2754 
   -4113    -5648    -6642    -6064    -4407    -3542    -2907    -1658 
   -1582    -3068    -3396    -2259    -2185    -1948     -368     -193 
    -777     -858    -2319    -3308    -1849    -1198    -2362    -2527 
   -1614    -1329    -1656    -1953    -2451    -3177    -3306    -3458 
   -4467    -5026    -4610    -4233    -4225    -4519    -4963    -4324 
   -2632    -2442    -3385    -2520    -1333    -2756    -4245    -2997 
   -1583    -1703    -1597    -1133     -766     -248     -234     -526 
    -718    -1032    -1262    -1644    -2176    -2887    -3870    -3776 
   -3067    -3719    -4384    -3866    -4209    -5371    -5521    -5065 
   -4692    -4418    -4311    -4545    -4499    -2797    -1024    -1021 
   -1337    -1485    -1530     -681      143     -162    -1132    -2010 
   -2338    -1867     -838     -284    -1121    -2608    -2957    -2224 
   -2448    -4047    -4989    -4425    -4000    -4679    -5354    -4795 
   -3549    -3366    -3721    -2832    -1953    -2533    -3325    -3411 
   -3069    -2598    -2350    -2311    -1964    -1460    -1606    -1865 
   -1267     -978    -1764    -2187    -1856    -1462    -1320    -2027 
   -2786    -2586    -2740    -3492    -3507    -3256    -3735    -4279 
   -3663    -2392    -2609    -4263    -4579    -3133    -2546    -3262 
   -3515    -3194    -2961    -2783    -2485    -2068    -2163    -2678 
   -2704    -2636    -2602    -2029    -1852    -2299    -2469    -2340 
   -1490     -621    -1333    -2234    -2241    -2417    -2543    -2620 
   -3117    -3277    -2997    -2914    -3087    -3528    -4013    -3732 
   -3161    -3289    -3294    -2882    -2868    -3169    -3730    -4166 
   -3503    -2265    -1991    -2764    -2755    -1541    -1345    -2138 
   -1668     -746    -1316    -2488    -2633    -2037    -2284    -3144 
   -2967    -2600    -2868    -2688    -2565    -3087    -3103    -2500 
   -2440    -3179    -3906    -4025    -3393    -2583    -2606    -2965 
   -2639    -2189    -2442    -2999    -2967    -2783    -3044    -2925 
   -2668    -2744    -2604    -2835    -3230    -2839    -2251    -2095 
   -2650    -3011    -2070    -1362    -1784    -2243    -2529    -2614 
   -2397    -2442    -2673    -2668    -2668    -2520    -2289    -2604 
   -2679    -2288    -2677    -3342    -3724    -4261    -4008    -2836 
   -2307    -2636    -2976    -3082    -3010    -2880    -2964    -3254 
   -3291    -2940    -2736    -2724    -2509    -2158    -1576     -958 
   -1154    -1846    -2057    -2138    -2455    -2420    -2543    -3141 
   -3032    -2652    -2673    -2533    -2856    -3483    -3391    -3152 
   -3042    -2847    -2841    -2744    -2608    -2698    -3022    -3978 
   -4375    -3343    -2762    -3099    -3007    -2382    -2008    -2185 
   -2467    -2417    -1998    -1583    -1744    -2155    -1942    -1783 
   -2604    -3064    -2397    -1984    -2184    -2381    -2828    -3565 
   -3696    -2839    -2312    -3184    -4135    -3861    -3153    -3115 
   -3500    -3396    -2972    -2474    -1837    -2070    -2844    -2803 
   -2267    -1971    -2226    -2481    -2188    -2079    -2366    -2546 
   -2539    -2559    -2698    -2579    -2492    -2828    -2896    -2806 
   -3133    -3346    -3180    -2971    -3026    -3168    -2758    -2313 
   -2459    -2417    -2016    -2079    -2749    -3107    -2685    -2454 
   -2903    -2852    -1948    -1699    -2544    -3226    -3099    -2725 
   -2891    -3059    -2392    -2181    -3094    -3364    -2579    -2172 
   -2751    -3647    -3565    -2505    -2253    -3117    -3242    -2430 
   -2408    -3153    -3223    -2627    -2304    -2304    -2285    -2188 
   -1910    -1729    -1878    -2224    -2770    -2708    -2052    -2513 
   -3528    -3520    -3192    -2928    -2605    -2597    -2701    -3250 
   -4023    -3735    -2817    -2668    -3375    -3254    -2008    -1956 
   -2882    -2895    -2308    -1973    -2435    -3013    -2841    -2688 
   -2322    -1687    -2037    -2338    -1696    -1677    -2423    -2866 
   -2774    -2357    -2377    -2778    -3002    -3450    -3711    -3307 
   -3172    -3395    -3331    -3260    -3194    -2879    -2590    -2334 
   -2363    -2771    -2789    -2776    -3123    -3084    -2837    -2416 
   -1682    -1757    -2377    -2204    -1599    -1480    -1980    -2540 
   -2752    -2681    -2434    -2621    -3299    -3369    -2982    -3260 
   -3650    -3083    -2575    -3232    -3808    -3157    -2249    -2274 
   -2943    -3280    -3105    -3051    -3364    -3225    -2417    -2209 
   -2663    -2251    -1300    -1440    -2047    -1985    -1933    -1941 
   -1691    -2107    -2952    -2959    -2681    -3075    -3518    -3348 
   -2955    -3095    -3582    -3385    -2770    -2736    -2934    -2836 
   -2851    -3368    -3753    -3304    -3064    -3295    -2781    -2350 
   -2521    -2166    -1713    -1587    -1435    -1723    -2161    -1973 
