Origin Time       2018/04/09 06:38:00
Lat.              35.2
Long.             132.6
Depth. (km)       10
Mag.              3.8
Station Code      SMN004
Station Lat.      35.2881
Station Long.     132.9004
Station Height(m) 45
Record Time       2018/04/09 06:38:58
Sampling Freq(Hz) 100Hz
Duration Time(s)  60
Dir.              U-D
Scale Factor      7845(gal)/8223790
Max. Acc. (gal)   4.733
Last Correction   2018/04/09 06:38:58
Memo.             
[...]
   13806    13811    13819    13819    13814    13806    13805    13811 
   13818    13815    13814    13815    13813    13811    13814    13814 
   13806    13806    13814    13810    13806    13814    13817    13817 
   13822    13817    13806    13809    13810    13813    13822    13821 
   13814    13813    13809    13806    13803    13806    13814    13819 
   13815    13813    13811    13814    13822    13824    13819    13817 
   13810    13806    13811    13806    13803    13809    13817    13824 
   13824    13813    13805    13810    13810    13809    13815    13822 
   13824    13817    13806    13803    13806    13814    13819    13814 
   13806    13805    13809    13810    13817    13819    13817    13817 
   13818    13814    13813    13819    13818    13810    13806    13806 
   13806    13813    13813    13806    13810    13818    13822    13821 
   13813    13806    13811    13818    13819    13819    13814    13809 
   13810    13809    13805    13806    13810    13817    13822    13817 
   13811    13817    13822    13818    13810    13806    13805    13806 
   13815    13822    13815    13803    13805    13813    13818    13815 
   13810    13813    13821    13819    13815    13813    13803    13803 
   13817    13822    13814    13805    13803    13811    13818    13814 
   13810    13811    13813    13822    13828    13817    13805    13803 
   13810    13817    13814    13806    13813    13821    13815    13806 
   13806    13805    13806    13824    13829    13818    13809    13809 
   13818    13824    13815    13806    13805    13806    13809    13813 
   13814    13811    13806    13814    13824    13821    13819    13821 
   13819    13814    13809    13810    13810    13809    13805    13806 
   13811    13814    13815    13818    13813    13806    13811    13818 
   13821    13818    13809    13803    13810    13814    13818    13824 
   13817    13802    13801    13810    13822    13828    13824    13821 
   13818    13810    13805    13803    13805    13806    13813    13817 
   13821    13818    13813    13811    13814    13817    13819    13814 
   13806    13809    13815    13811    13806    13811    13818    13819 
   13819    13815    13814    13817    13813    13809    13813    13814 
   13813    13811    13811    13815    13811    13810    13815    13817 
   13815    13815    13813    13811    13814    13818    13818    13813 
   13811    13811    13809    13810    13815    13819    13819    13814 
   13810    13810    13813    13814    13810    13809    13811    13806 
   13799    13806    13817    13822    13829    13828    13815    13811 
   13810    13805    13806    13809    13802    13805    13815    13819 
   13817    13817    13817    13817    13818    13821    13814    13798 
   13795    13814    13822    13814    13805    13806    13818    13824 
   13818    13813    13810    13809    13814    13819    13813    13803 
   13806    13814    13819    13824    13818    13806    13806    13811 
   13806    13806    13813    13813    13813    13821    13822    13811 
   13805    13811    13819    13817    13814    13815    13810    13806 
   13806    13810    13814    13814    13813    13821    13822    13813 
   13809    13811    13818    13819    13811    13805    13806    13809 
   13806    13806    13814    13822    13817    13813    13821    13825 
   13818    13810    13805    13803    13805    13806    13810    13821 
   13821    13814    13814    13817    13810    13809    13818    13822 
   13811    13806    13818    13821    13811    13806    13809    13809 
   13806    13809    13818    13819    13813    13811    13815    13818 
   13821    13819    13815    13815    13814    13806    13805    13810 
   13811    13811    13817    13819    13815    13813    13811    13814 
   13821    13818    13806    13806    13811    13809    13811    13817 
   13817    13810    13813    13821    13815    13809    13813    13809 
   13809    13819    13819    13815    13815    13810    13806    13811 
   13810    13815    13822    13810    13801    13810    13819    13822 
   13821    13818    13811    13805    13806    13814    13817    13817 
   13814    13811    13815    13814    13803    13798    13806    13814 
   13815    13822    13825    13819    13813    13802    13801    13814 
   13819    13813    13814    13814    13806    13813    13818    13813 
   13810    13817    13821    13810    13798    13809    13822    13815 
   13811    13819    13821    13815    13817    13815    13809    13803 
   13806    13821    13829    13818    13803    13806    13813    13811 
   13814    13824    13821    13806    13799    13806    13819    13819 
   13817    13818    13814    13806    13805    13805    13813    13819 
   13814    13814    13826    13829    13817    13795    13787    13805 
   13821    13824    13829    13826    13814    13806    13811    13817 
   13810    13803    13810    13818    13817    13815    13814    13815 
   13821    13815    13806    13815    13817    13809    13810    13815 
   13817    13817    13810    13806    13818    13821    13813    13810 
   13805    13801    13815    13826    13817    13818    13824    13813 
   13809    13814    13813    13810    13806    13795    13798    13814 
   13822    13825    13826    13826    13828    13814    13794    13796 
   13810    13814    13813    13806    13810    13822    13821    13814 
   13819    13819    13810    13809    13814    13815    13811    13806 
   13803    13809    13819    13825    13825    13819    13805    13796 
   13805    13813    13818    13824    13824    13819    13811    13805 
   13815    13824    13805    13791    13806    13824    13818    13811 
   13811    13815    13821    13824    13819    13818    13819    13813 
   13803    13805    13811    13811    13809    13811    13819    13821 
   13817    13822    13826    13817    13809    13813    13811    13799 
   13801    13817    13825    13813    13798    13801    13822    13838 
   13829    13824    13825    13806    13788    13788    13794    13806 
   13828    13838    13834    13817    13796    13805    13826    13828 
   13822    13810    13787    13791    13817    13826    13826    13824 
   13809    13796    13796    13805    13826    13849    13846    13828 
   13806    13782    13782    13801    13805    13818    13832    13818 
   13813    13818    13813    13813    13810    13809    13818    13824 
   13824    13815    13798    13806    13828    13803    13780    13805 
   13832    13829    13814    13806    13817    13821    13806    13809 
   13822    13813    13801    13803    13806    13814    13824    13818 
   13809    13806    13810    13818    13825    13821    13818    13818 
   13811    13803    13806    13809    13805    13795    13795    13813 
   13825    13826    13825    13821    13817    13817    13815    13811 
   13813    13811    13805    13795    13799    13821    13832    13815 
   13806    13819    13825    13809    13798    13813    13829    13822 
   13805    13803    13810    13801    13796    13818    13825    13817 
   13828    13829    13818    13813    13799    13784    13802    13821 
   13817    13811    13824    13833    13819    13799    13806    13824 
   13814    13798    13805    13826    13841    13829    13809    13802 
   13788    13763    13778    13839    13879    13856    13814    13787 
   13779    13792    13819    13837    13839    13824    13796    13782 
   13791    13825    13849    13825    13784    13775    13790    13821 
   13860    13875    13838    13783    13768    13794    13819    13825 
   13814    13802    13802    13801    13791    13801    13824    13842 
   13868    13892    13861    13765    13693    13713    13803    13886 
   13872    13803    13799    13848    13845    13805    13791    13790 
   13775    13773    13814    13868    13878    13836    13794    13794 
   13814    13810    13780    13770    13802    13842    13838    13799 
   13795    13836    13861    13851    13828    13791    13743    13728 
   13771    13842    13890    13878    13832    13806    13802    13788 
   13775    13786    13818    13832    13828    13834    13833    13815 
   13803    13795    13786    13791    13813    13824    13817    13819 
   13841    13846    13829    13809    13787    13780    13790    13799 
   13796    13798    13829    13872    13856    13787    13756    13810 
   13869    13852    13794    13760    13772    13819    13852    13838 
   13817    13806    13799    13810    13814    13791    13782    13814 
   13848    13845    13824    13813    13819    13829    13815    13796 
   13788    13791    13805    13803    13794    13815    13845    13844 
   13822    13802    13795    13801    13818    13832    13822    13811 
   13817    13817    13798    13770    13768    13803    13851    13868 
   13822    13768    13788    13838    13841    13815    13798    13801 
   13836    13861    13824    13757    13738    13791    13857    13860 
   13802    13783    13829    13844    13792    13772    13822    13871 
   13852    13794    13770    13795    13817    13817    13815    13802 
   13786    13815    13859    13845    13806    13801    13806    13792 
   13779    13809    13851    13845    13813    13802    13805    13803 
   13806    13824    13826    13787    13760    13817    13886    13857 
   13786    13787    13825    13813    13790    13815    13839    13825 
   13806    13801    13805    13824    13824    13782    13738    13751 
   13829    13921    13914    13761    13621    13648    13752    13902 
   14193    14203    13598    13220    13514    13794    14188    14782 
   14416    13401    13324    13601    13108    13452    14771    14280 
   13498    14296    13446    12351    14149    15076    13944    13581 
   13684    13683    13598    13482    14149    14532    13747    13224 
   13455    13933    14193    13710    13595    14265    13720    12827 
   13778    14712    14544    14135    12988    12683    14079    14212 
   13508    14083    14347    13919    13948    13678    13144    13482 
   14250    14265    13829    13913    13686    12961    13633    14804 
   14172    13311    13763    13900    13458    13837    14137    13421 
   13536    14704    14534    13332    13231    13849    13829    13510 
   13751    14008    13670    13595    14060    14206    14054    13884 
   13509    13419    13919    14065    13644    13606    13944    14118 
   14090    13667    13050    13158    14064    14740    14558    13836 
   13234    13392    14013    13937    13482    13773    14202    13834 
   13446    13713    13726    13570    14131    14443    14071    13690 
   13356    13578    14019    13783    13736    14123    13944    13512 
   13446    13463    13799    14381    14293    13876    13697    13529 
   13481    13802    14300    14165    13706    13802    13440    12914 
   13716    14272    13821    14288    14725    13527    12862    13765 
   14215    13905    14068    14137    13331    12943    13663    14179 
   14153    14094    13695    13463    14042    14196    13427    13436 
   14372    14300    13366    13269    13952    14316    14031    13701 
   13517    13362    13782    14042    13433    13528    14567    14728 
   13872    13258    13323    13699    13726    13409    13761    14513 
   14208    13570    13867    13942    13444    13616    14170    14203 
   13888    13860    13961    13435    12961    13559    14345    14407 
   14056    13560    13325    13836    14203    13608    13393    14153 
   14354    13813    13467    13257    13389    13961    14073    13875 
   14230    14455    13728    13076    13362    13957    14461    14539 
   13859    13139    12756    13123    14557    14827    13400    13217 
   14122    14089    13925    14207    14121    13724    13483    13489 
   13579    13765    14160    14038    13340    13433    14145    14041 
   13402    13593    14554    14435    13139    13165    14445    14440 
   13259    13059    13876    14283    14254    13922    13518    13805 
   13821    13378    13565    13783    14298    14960    13883    12691 
   13150    13645    14288    14846    13656    12949    14008    14027 
   13178    13560    14409    14592    14272    13521    12560    12744 
   14326    14943    14142    13918    13936    13543    13521    13352 
   13362    14485    14997    14008    13167    12849    12629    13605 
   15279    15232    14350    14175    13053    11786    12939    14662 
   14752    14435    14004    12815    12627    13871    14219    14251 
   14951    14193    12893    13267    13670    13666    14465    14742 
   13693    12993    13225    13433    13695    14250    14683    14615 
   13709    12974    13363    13689    13805    14673    14987    13630 
   12621    13112    13296    13246    14376    15199    14640    13733 
   12785    12486    13659    14908    14798    13988    13726    13732 
   12951    12441    13506    15113    15739    14596    12756    12106 
   12457    13382    14914    15917    15442    13805    12461    12754 
   13942    14269    13551    13385    14249    13786    12062    13200 
   15618    14170    12280    13724    14663    14436    15318    14575 
   11381    11067    14227    15535    15512    16110    13571     9560 
   10621    14477    15202    14364    15059    15039    13365    13213 
   14615    15087    15110    15696    15206    12395    10218    11265 
   12830    12976    12785    12545    13440    16031    17815    17162 
   15352    14328    13435    11369    10887    13321    14215    12274 
   11396    12283    13262    14324    15267    16808    18775    16447 
   10625     9464    13119    15595    15708    14397    12918    12501 
   12228    12623    14773    16407    15504    13116    12276    14164 
   15142    13375    11815    11889    13200    15070    15638    14404 
   13065    12771    12958    13003    13535    14378    14276    14293 
   15314    14813    12647    12266    14261    16036    15585    13805 
   13409    14246    13621    11637    11198    13172    15153    15290 
   14338    13786    13998    14216    13936    13063    12274    12987 
   14076    13805    13579    14156    14550    14424    13701    13213 
   14021    14805    14590    14813    14501    12279    11603    13621 
   14719    14321    13684    13038    13660    14881    14435    13366 
   13547    14511    14820    13702    12599    12966    13533    13451 
   13554    13971    14454    14709    14346    13826    13504    13377 
   13412    12761    12491    14251    14939    13242    12949    14060 
   14381    14351    14231    14364    14701    14381    13914    13446 
   13111    13597    13313    11986    12317    13614    13659    14305 
   16065    15641    13891    14484    15642    14759    13663    13032 
   12193    12413    13205    12781    12434    13826    15584    15726 
   14694    13872    13429    13598    14013    13092    11749    12317 
   13909    14047    13405    14395    15657    14844    14224    15145 
   14929    13464    12642    12351    12626    13224    13085    13034 
   13849    14276    13748    13581    14666    15610    15043    14276 
   14629    14732    13462    12465    12777    13281    13429    13078 
   12627    13111    14069    14953    15490    15153    14777    14238 
   13204    13184    13285    12556    12879    13344    12810    13452 
   14561    14187    13996    14553    14396    13957    14131    14503 
   14609    14298    13504    12907    13134    13572    13500    13132 
   13238    13967    14478    14335    13794    13583    14358    14796 
   13926    13413    13451    12919    12718    13242    13733    14154 
   14204    13907    13990    14338    14570    14350    13576    13342 
   14077    14501    14038    13609    13737    13671    13000    12926 
   14102    14810    14113    13408    13281    13643    14519    14716 
   14187    14161    13948    12938    12599    13649    14461    13648 
   12550    12827    13621    14045    14399    14111    13697    14644 
   15175    13525    12287    13505    14856    14312    13487    13718 
   14031    13702    13092    13170    14123    14742    14602    14058 
   13528    13748    14176    13753    12873    12634    13551    14418 
   13959    13446    13923    14141    14007    14407    14393    13702 
   13439    13616    13927    13944    13466    13335    13644    14218 
   14666    13914    13331    14017    13689    12610    13270    14700 
   15083    14598    13629    12879    13446    14235    13520    12884 
   13783    14607    14411    13578    12796    13203    14080    14103 
   13952    13933    13806    14202    14863    14790    13961    13188 
   13089    13213    13262    13880    14368    13647    12849    12877 
   13367    14219    14775    14740    14737    14175    12989    12779 
   13377    13755    14245    14661    14500    14187    13977    13470 
   12733    13095    14319    13940    12958    14044    14967    13973 
   13508    13624    13084    13416    14467    14268    13644    13790 
   13878    13948    14280    13986    13784    14183    13771    13285 
   13593    13451    13404    13959    13990    13817    13859    13736 
   13806    14156    14265    13842    13355    13514    13803    13829 
   14006    13751    13149    13443    14250    14574    14388    13668 
   12969    13332    14031    13730    13360    14029    14666    14296 
   13301    12973    14057    14638    13977    14092    14370    13598 
   13178    13324    13721    14531    14287    13146    13263    13963 
   13639    13312    14018    14585    14162    13930    13927    13122 
   12989    14158    14395    13768    13711    13689    13773    14154 
   13535    12644    13455    14658    14589    14276    13932    13380 
   13763    14470    14040    13278    13263    13524    13771    14123 
   13977    13413    13333    13671    14160    14488    14229    13868 
   13474    13265    13833    13899    13358    13780    14242    13979 
   13946    13794    13455    13857    14428    14135    13433    13494 
   14222    14172    13379    13572    14436    14000    12900    13053 
   13773    14142    14472    14183    13586    13587    13355    13147 
   13875    14419    14280    14080    13801    13684    13994    14181 
   13869    13436    13344    13444    13610    13953    13976    13773 
   14207    14374    13585    13479    14035    13795    13520    13802 
   13907    13849    13707    13737    14046    13803    13506    13944 
   14162    13926    13810    13618    13378    13521    14029    14427 
   14215    13635    13502    13824    13964    13810    13628    13631 
   13714    13734    13825    13895    14071    14381    14030    13320 
   13367    13814    13971    13841    13718    13761    13431    13139 
   13829    14426    14179    14076    14204    13934    13549    13612 
   13815    13761    13817    13896    13532    13174    13464    14069 
   14102    13852    14125    14196    13846    13905    13948    13703 
   13699    13836    13756    13362    13172    13687    14169    13986 
   13805    14231    14588    14135    13560    13540    13799    13963 
   13617    13275    13697    13971    13645    13471    13591    13900 
   14096    13836    13564    13726    14119    14288    14087    13909 
   13945    13876    13586    13319    13380    13803    14107    14080 
   14042    13872    13565    13706    14031    13815    13528    13814 
