Origin Time       2018/04/09 06:38:00
Lat.              35.2
Long.             132.6
Depth. (km)       10
Mag.              3.8
Station Code      SMN004
Station Lat.      35.2881
Station Long.     132.9004
Station Height(m) 45
Record Time       2018/04/09 06:38:58
Sampling Freq(Hz) 100Hz
Duration Time(s)  60
Dir.              E-W
Scale Factor      7845(gal)/8223790
Max. Acc. (gal)   5.751
Last Correction   2018/04/09 06:38:58
Memo.             
[...]
   -3094    -3088    -3090    -3092    -3087    -3083    -3084    -3082 
   -3080    -3080    -3082    -3086    -3088    -3088    -3087    -3083 
   -3082    -3084    -3086    -3084    -3087    -3090    -3090    -3092 
   -3090    -3084    -3083    -3087    -3090    -3090    -3087    -3080 
   -3080    -3083    -3080    -3079    -3080    -3087    -3095    -3096 
   -3090    -3090    -3087    -3079    -3083    -3088    -3083    -3084 
   -3084    -3079    -3082    -3088    -3090    -3094    -3090    -3078 
   -3082    -3090    -3090    -3094    -3096    -3090    -3084    -3080 
   -3084    -3090    -3090    -3086    -3087    -3087    -3083    -3083 
   -3088    -3090    -3083    -3078    -3086    -3092    -3084    -3082 
   -3087    -3086    -3082    -3080    -3080    -3084    -3090    -3092 
   -3088    -3083    -3082    -3087    -3095    -3090    -3083    -3079 
   -3079    -3084    -3087    -3084    -3086    -3090    -3092    -3094 
   -3090    -3080    -3079    -3090    -3096    -3090    -3084    -3079 
   -3082    -3084    -3080    -3083    -3090    -3087    -3083    -3084 
   -3087    -3090    -3090    -3095    -3092    -3084    -3082    -3083 
   -3083    -3084    -3090    -3094    -3090    -3087    -3079    -3079 
   -3084    -3084    -3087    -3090    -3088    -3087    -3088    -3086 
   -3087    -3094    -3092    -3086    -3083    -3082    -3080    -3082 
   -3087    -3090    -3090    -3088    -3084    -3079    -3082    -3088 
   -3095    -3092    -3087    -3087    -3087    -3086    -3087    -3090 
   -3090    -3087    -3083    -3080    -3082    -3083    -3084    -3084 
   -3082    -3083    -3088    -3088    -3082    -3080    -3086    -3090 
   -3087    -3084    -3084    -3086    -3090    -3095    -3087    -3079 
   -3080    -3086    -3088    -3087    -3084    -3087    -3087    -3083 
   -3084    -3086    -3087    -3092    -3092    -3086    -3083    -3084 
   -3084    -3083    -3080    -3083    -3084    -3086    -3086    -3084 
   -3090    -3095    -3088    -3082    -3078    -3082    -3090    -3090 
   -3090    -3094    -3088    -3088    -3100    -3094    -3079    -3080 
   -3080    -3076    -3086    -3090    -3083    -3082    -3084    -3083 
   -3086    -3086    -3086    -3090    -3090    -3087    -3082    -3078 
   -3078    -3084    -3088    -3090    -3090    -3087    -3087    -3088 
   -3086    -3084    -3084    -3086    -3090    -3088    -3084    -3084 
   -3082    -3079    -3079    -3087    -3092    -3090    -3084    -3080 
   -3083    -3087    -3083    -3082    -3090    -3096    -3092    -3083 
   -3078    -3087    -3094    -3090    -3086    -3080    -3082    -3087 
   -3087    -3084    -3088    -3092    -3094    -3090    -3082    -3078 
   -3083    -3086    -3083    -3088    -3094    -3087    -3078    -3080 
   -3083    -3084    -3086    -3087    -3090    -3090    -3079    -3076 
   -3083    -3084    -3088    -3095    -3095    -3094    -3088    -3082 
   -3080    -3083    -3084    -3078    -3073    -3086    -3094    -3090 
   -3088    -3094    -3087    -3073    -3075    -3088    -3095    -3090 
   -3086    -3084    -3086    -3080    -3078    -3090    -3095    -3086 
   -3088    -3095    -3090    -3082    -3076    -3078    -3084    -3087 
   -3088    -3092    -3090    -3082    -3078    -3080    -3088    -3092 
   -3090    -3090    -3088    -3086    -3082    -3076    -3080    -3086 
   -3083    -3086    -3094    -3092    -3087    -3087    -3084    -3083 
   -3083    -3080    -3082    -3092    -3094    -3087    -3086    -3090 
   -3090    -3090    -3087    -3079    -3079    -3082    -3083    -3087 
   -3090    -3090    -3090    -3087    -3084    -3087    -3088    -3082 
   -3075    -3079    -3086    -3088    -3090    -3094    -3090    -3084 
   -3090    -3092    -3084    -3083    -3083    -3075    -3076    -3086 
   -3090    -3094    -3096    -3094    -3090    -3088    -3086    -3080 
   -3080    -3084    -3087    -3083    -3080    -3086    -3086    -3080 
   -3086    -3092    -3087    -3088    -3088    -3079    -3075    -3083 
   -3098    -3103    -3096    -3088    -3083    -3078    -3076    -3078 
   -3083    -3094    -3098    -3090    -3083    -3087    -3090    -3090 
   -3086    -3083    -3087    -3090    -3086    -3082    -3084    -3086 
   -3086    -3090    -3094    -3090    -3079    -3071    -3080    -3083 
   -3084    -3098    -3100    -3092    -3083    -3078    -3078    -3083 
   -3086    -3086    -3094    -3100    -3094    -3080    -3071    -3076 
   -3087    -3088    -3084    -3087    -3087    -3083    -3090    -3094 
   -3086    -3084    -3088    -3090    -3087    -3086    -3090    -3087 
   -3080    -3080    -3083    -3086    -3094    -3096    -3090    -3084 
   -3087    -3084    -3075    -3075    -3082    -3084    -3090    -3095 
   -3092    -3094    -3092    -3079    -3075    -3083    -3088    -3080 
   -3078    -3092    -3098    -3086    -3086    -3095    -3090    -3076 
   -3075    -3086    -3090    -3087    -3083    -3083    -3090    -3100 
   -3095    -3082    -3076    -3079    -3082    -3076    -3075    -3086 
   -3087    -3083    -3092    -3100    -3094    -3092    -3092    -3082 
   -3068    -3067    -3090    -3109    -3092    -3069    -3075    -3090 
   -3094    -3096    -3095    -3087    -3087    -3090    -3078    -3073 
   -3092    -3092    -3076    -3073    -3086    -3095    -3095    -3087 
   -3083    -3075    -3075    -3090    -3096    -3095    -3082    -3071 
   -3079    -3095    -3103    -3095    -3086    -3080    -3082    -3090 
   -3088    -3086    -3092    -3084    -3064    -3065    -3086    -3103 
   -3109    -3105    -3078    -3059    -3075    -3087    -3090    -3103 
   -3100    -3088    -3079    -3076    -3095    -3103    -3084    -3071 
   -3078    -3073    -3068    -3083    -3100    -3105    -3096    -3082 
   -3071    -3080    -3105    -3109    -3087    -3086    -3099    -3084 
   -3065    -3079    -3094    -3083    -3075    -3086    -3100    -3100 
   -3083    -3076    -3090    -3094    -3087    -3087    -3082    -3082 
   -3082    -3071    -3078    -3092    -3086    -3078    -3095    -3102 
   -3086    -3086    -3096    -3096    -3090    -3084    -3086    -3086 
   -3080    -3076    -3083    -3096    -3095    -3087    -3090    -3096 
   -3094    -3088    -3083    -3084    -3082    -3078    -3076    -3075 
   -3088    -3098    -3079    -3076    -3092    -3094    -3084    -3086 
   -3094    -3088    -3083    -3092    -3096    -3096    -3090    -3075 
   -3083    -3094    -3080    -3071    -3083    -3092    -3087    -3071 
   -3083    -3094    -3084    -3088    -3094    -3088    -3090    -3087 
   -3083    -3087    -3086    -3087    -3082    -3073    -3084    -3087 
   -3083    -3095    -3090    -3076    -3088    -3098    -3084    -3079 
   -3080    -3082    -3092    -3090    -3084    -3090    -3090    -3080 
   -3073    -3076    -3094    -3109    -3090    -3067    -3076    -3087 
   -3082    -3084    -3090    -3090    -3092    -3090    -3076    -3084 
   -3098    -3090    -3088    -3083    -3073    -3076    -3075    -3078 
   -3095    -3094    -3080    -3087    -3098    -3090    -3078    -3071 
   -3083    -3090    -3082    -3083    -3098    -3103    -3094    -3087 
   -3094    -3099    -3075    -3048    -3064    -3092    -3098    -3096 
   -3084    -3071    -3088    -3100    -3087    -3078    -3084    -3084 
   -3080    -3086    -3090    -3090    -3088    -3078    -3076    -3096 
   -3107    -3095    -3082    -3087    -3092    -3082    -3071    -3071 
   -3082    -3096    -3095    -3088    -3090    -3083    -3073    -3084 
   -3096    -3099    -3090    -3083    -3083    -3086    -3084    -3078 
   -3068    -3073    -3088    -3099    -3106    -3092    -3078    -3084 
   -3083    -3078    -3086    -3095    -3090    -3080    -3073    -3083 
   -3098    -3087    -3069    -3087    -3103    -3090    -3083    -3088 
   -3090    -3088    -3086    -3084    -3088    -3086    -3078    -3082 
   -3088    -3084    -3084    -3083    -3076    -3082    -3087    -3086 
   -3084    -3087    -3096    -3105    -3095    -3078    -3079    -3096 
   -3090    -3071    -3076    -3084    -3080    -3087    -3100    -3100 
   -3090    -3080    -3067    -3063    -3079    -3095    -3095    -3090 
   -3087    -3086    -3096    -3094    -3075    -3082    -3092    -3075 
   -3071    -3100    -3102    -3069    -3079    -3107    -3099    -3076 
   -3068    -3082    -3090    -3082    -3083    -3086    -3084    -3076 
   -3086    -3109    -3096    -3067    -3069    -3084    -3094    -3084 
   -3083    -3106    -3106    -3083    -3084    -3095    -3079    -3075 
   -3087    -3076    -3068    -3083    -3096    -3092    -3082    -3083 
   -3087    -3082    -3078    -3084    -3094    -3103    -3092    -3076 
   -3090    -3096    -3079    -3090    -3102    -3078    -3065    -3073 
   -3082    -3103    -3100    -3076    -3082    -3099    -3094    -3084 
   -3080    -3079    -3086    -3084    -3069    -3075    -3096    -3105 
   -3084    -3071    -3099    -3105    -3082    -3075    -3071    -3090 
   -3111    -3086    -3079    -3092    -3092    -3094    -3090    -3099 
   -3117    -3113    -3109    -3106    -3111    -3153    -3159    -3114 
   -3107    -3068    -2963    -2960    -3083    -3142    -3145    -3133 
   -2937    -2729    -2818    -2920    -2913    -3118    -3321    -3245 
   -3161    -3261    -3258    -2944    -2972    -3315    -3142    -2967 
   -3159    -3130    -2941    -3014    -3269    -3232    -3213    -3489 
   -3194    -2690    -3005    -3221    -2914    -3153    -3607    -3326 
   -2725    -2569    -2844    -2986    -2770    -2754    -3364    -3797 
   -3257    -2584    -2646    -3003    -3165    -3237    -3315    -3368 
   -3222    -2729    -2579    -3113    -3279    -3092    -3522    -3765 
   -3184    -2797    -2820    -2895    -3073    -3284    -3451    -3331 
   -3028    -2947    -2825    -2668    -2929    -3234    -3133    -2948 
   -2947    -2984    -2891    -2994    -3422    -3384    -2837    -2801 
   -3215    -3238    -3053    -3213    -3406    -3202    -3024    -3218 
   -3275    -3082    -3095    -2984    -2697    -2948    -3208    -3002 
   -3149    -3449    -3223    -3021    -3055    -2887    -2786    -3069 
   -3373    -3277    -2956    -2782    -2785    -2832    -2709    -2855 
   -3600    -3765    -3064    -2771    -3146    -3366    -3260    -3254 
   -3133    -2955    -2967    -2872    -3113    -3454    -3042    -2731 
   -3146    -3430    -3307    -3230    -3094    -3040    -3200    -2955 
   -2644    -2811    -3105    -3273    -3153    -2903    -2710    -2712 
   -3071    -3360    -3306    -3042    -2889    -3248    -3676    -3393 
   -2843    -2853    -2999    -2806    -2818    -3183    -3338    -3226 
   -3240    -3310    -3267    -3184    -3002    -2943    -3279    -3333 
   -2856    -2795    -3177    -3134    -2704    -2716    -3167    -3321 
   -3103    -2898    -3171    -3508    -3122    -2791    -3152    -3283 
   -2905    -2882    -3154    -2986    -2717    -2791    -2902    -3105 
   -3532    -3534    -3210    -3152    -3064    -3152    -3331    -3029 
   -2852    -2921    -2894    -3148    -3410    -3229    -3011    -3059 
   -3082    -3005    -3149    -3279    -3215    -3160    -3002    -3032 
   -3230    -2934    -2592    -2743    -2975    -3154    -3403    -3492 
   -3225    -2887    -2795    -2787    -2847    -3119    -3279    -3082 
   -2914    -3126    -3462    -3458    -3167    -3040    -3256    -3388 
   -2960    -2646    -3180    -3501    -2909    -2669    -3140    -3336 
   -3230    -3126    -2915    -2839    -2990    -3045    -3191    -3431 
   -3180    -2610    -2450    -2841    -3206    -3180    -2991    -3092 
   -3526    -3242    -2508    -2913    -3690    -3595    -3222    -3115 
   -3261    -3339    -3001    -2702    -2805    -2980    -3226    -3333 
   -3099    -3226    -3511    -3056    -2506    -2814    -3268    -2988 
   -2798    -3244    -3472    -3176    -2713    -2473    -2764    -3140 
   -3010    -2893    -3234    -3348    -3118    -2921    -2952    -3453 
   -3808    -3604    -3156    -2786    -2718    -2608    -2905    -3677 
   -3462    -3003    -3352    -3094    -2627    -3310    -3892    -3554 
   -3045    -2632    -2558    -2766    -2783    -2795    -2891    -2829 
   -2872    -3173    -3350    -2963    -2442    -2902    -3653    -3572 
   -3461    -3481    -3188    -2802    -2513    -2795    -3249    -3200 
   -3132    -3167    -3106    -3130    -3439    -3689    -3300    -3024 
   -3304    -3291    -3087    -2920    -2544    -2620    -3060    -2803 
   -2532    -3033    -3443    -3484    -3329    -2956    -2587    -2211 
   -2066    -2874    -4459    -4992    -3705    -2281    -1929    -2694 
   -4058    -5206    -5741    -5259    -4067    -2999    -2282    -1921 
   -1956    -2095    -1449      133     1197       81    -2685    -5034 
   -5917    -4133    -2079    -4197    -4783     -398    -1490    -7782 
   -6502      112     1132    -3265    -6855    -5961    -2863    -3608 
   -5930    -3778    -1729    -3927    -5622    -4877    -1968     2466 
    1780    -3912    -3669      751    -1753    -6902    -6061    -2660 
   -1490    -2382    -3339    -3076    -3232    -4401    -4660    -3522 
   -1129     1065    -1181    -6080    -5382    -1092    -2089    -5494 
   -4486    -1825    -1962    -3384    -2695    -1244    -2200    -3433 
   -4263    -6535    -6299    -4009    -5607    -7299    -4941    -3775 
   -4243    -1278     2520     1363    -2798    -3430       21      608 
   -3576    -5547    -2149      783    -1993    -5942    -4907    -1810 
   -1386    -3022    -3080     -801     -131    -2849    -5737    -4820 
   -2612    -5265    -9115    -7611    -4275    -3227    -3254    -4016 
   -4496    -2878    -1981    -3410    -3553    -1549     -129    -1251 
   -3738    -3161      356      598    -3345    -5344    -3225    -1200 
   -1509    -2203    -2003    -1595    -2420    -4248    -4326    -2849 
   -3159    -5071    -6183    -5664    -3816    -2663    -3497    -4332 
   -3936    -3894    -4494    -3676    -1965    -1668    -2274    -2829 
   -3273    -3067    -2493    -2276    -2496    -2538    -1663    -1316 
   -2628    -2899    -1578    -1749    -3194    -4202    -4482    -3519 
   -3117    -4348    -4176    -3007    -3736    -4472    -3653    -3021 
   -2983    -3342    -3391    -2038    -1755    -3666    -4039    -2369 
   -2030    -3242    -3136    -1896    -2400    -3547    -3597    -3744 
   -3215    -1588    -1543    -3364    -4155    -3279    -2976    -3955 
   -4491    -3685    -3092    -3855    -4560    -3971    -2698    -1960 
   -2884    -4344    -3186     -780    -1428    -3040    -2102    -1638 
   -3800    -4958    -2629     -631    -2945    -5440    -3639    -1840 
   -3003    -4023    -3969    -3294    -2592    -3207    -3005    -1209 
   -1102    -2835    -4544    -4719    -3109    -3292    -5093    -4398 
   -2659    -1991    -1918    -2986    -3539    -2500    -2886    -4845 
   -5065    -3757    -3317    -3480    -2924    -1663     -776    -1390 
   -2829    -3090    -1989    -1517    -2641    -4158    -4348    -2863 
   -2163    -4033    -5221    -3099    -1559    -3333    -4392    -2461 
   -1270    -3123    -5032    -4176    -2319    -2316    -3835    -4688 
   -4071    -2955    -2754    -3534    -3530    -2570    -2299    -2791 
   -3450    -3820    -3010    -1939    -2758    -3665    -1658     -155 
   -2011    -3345    -2863    -2837    -3202    -3383    -3215    -3059 
   -3693    -3979    -3372    -3561    -4353    -4514    -4519    -4666 
   -4525    -3736    -2686    -2527    -3244    -3361    -2461    -2091 
   -2474    -1618     -329    -1119    -2527    -2785    -2681    -2358 
   -2658    -3902    -3755    -2558    -2709    -3640    -4445    -4819 
   -3776    -2737    -3410    -4180    -3896    -3304    -3086    -3219 
   -3438    -3970    -3674    -2101    -1641    -2351    -2390    -2223 
   -2705    -3418    -3561    -3006    -2515    -2659    -3539    -4091 
   -2988    -2079    -2980    -3558    -3339    -3767    -3672    -2677 
   -3140    -4351    -3447    -1877    -2421    -3956    -4133    -2859 
   -1979    -2516    -2964    -2540    -2891    -3901    -3530    -2506 
   -2705    -2965    -2520    -3107    -3944    -3227    -2660    -2971 
   -2836    -2658    -2527    -2401    -3113    -3627    -3150    -2811 
   -3041    -3434    -3563    -3192    -2959    -3726    -4540    -3979 
   -3160    -3592    -4349    -3721    -2632    -3459    -4680    -3373 
   -1630    -2037    -2669    -2328    -2243    -2482    -2235    -1431 
   -1282    -2316    -3273    -3565    -3168    -2575    -3114    -3707 
   -3246    -3434    -3775    -3321    -3353    -3198    -3177    -4842 
   -5382    -3338    -2647    -4190    -4110    -1794     -997    -3264 
   -4986    -3618    -1857    -2070    -3520    -4172    -2490     -784 
   -1822    -3357    -3067    -2338    -2289    -3029    -3798    -2938 
   -2042    -3025    -3603    -3111    -3180    -3217    -3127    -3440 
   -3298    -3238    -4013    -4498    -4131    -3628    -3592    -3723 
   -3380    -2843    -2949    -2937    -1890    -1852    -3080    -3076 
   -2733    -3173    -2915    -2110    -1956    -2259    -2667    -3276 
   -3161    -2350    -2698    -3856    -4276    -3960    -3393    -3478 
   -4205    -4006    -2744    -2447    -3908    -4638    -3033    -1692 
   -2646    -3773    -3322    -2805    -2986    -2824    -2528    -2544 
   -2517    -2574    -3079    -3585    -3103    -2408    -2678    -3079 
   -3223    -3056    -2416    -2743    -3663    -3188    -2693    -3407 
   -3770    -3406    -3057    -3542    -4406    -3774    -2695    -3136 
   -3923    -3491    -2428    -2417    -2984    -2461    -1894    -2355 
   -2795    -3076    -3481    -3628    -3712    -3341    -2346    -2104 
   -2527    -2832    -3339    -3665    -3511    -3192    -2956    -3265 
   -3915    -3993    -3153    -2447    -2943    -3663    -3457    -3336 
   -3940    -3661    -2578    -2520    -2686    -2126    -1941    -2442 
   -3226    -3661    -3284    -3129    -3451    -3125    -2593    -2628 
   -2725    -2844    -3137    -3481    -3781    -3538    -3125    -3213 
   -3082    -2867    -3384    -3975    -4098    -3505    -2430    -2504 
   -3423    -3041    -1961    -2181    -2988    -2774    -2461    -3154 
   -3767    -3658    -3368    -3148    -3168    -3349    -3156    -2606 
   -2308    -2556    -3080    -3553    -3813    -3565    -3206    -3454 
   -3593    -2949    -2346    -2434    -2847    -3042    -3005    -2929 
   -2929    -3180    -3385    -3057    -2639    -2847    -3142    -2795 
   -3025    -4183    -4243    -3383    -3183    -3099    -2691    -2596 
   -3025    -3458    -3258    -2847    -2937    -3252    -3231    -2979 
   -2884    -2847    -2830    -3019    -3045    -2735    -2531    -2524 
   -2656    -3200    -3738    -3415    -2818    -3038    -3375    -3153 
   -3260    -3599    -3514    -3399    -3118    -2679    -3015    -3748 
   -3578    -2759    -2539    -3119    -3605    -3179    -2725    -3434 
   -3665    -2412    -1996    -3048    -3643    -3234    -2747    -2713 
   -2787    -2704    -2843    -3194    -3434    -3461    -3240    -3319 
   -3674    -3267    -2704    -2849    -2809    -2688    -3246    -3680 
   -3474    -3018    -2330    -2110    -2872    -3375    -3333    -3357 
   -3073    -2971    -3349    -3172    -2809    -3014    -3210    -3400 
   -3562    -3231    -3317    -4016    -3923    -3109    -2693    -2803 
   -2945    -2829    -2582    -2521    -2880    -3250    -3030    -2791 
