Origin Time       2018/04/09 06:38:00
Lat.              35.2
Long.             132.6
Depth. (km)       10
Mag.              3.8
Station Code      HRS021
Station Lat.      34.9529
Station Long.     133.1171
Station Height(m) 325
Record Time       2018/04/09 06:38:59
Sampling Freq(Hz) 100Hz
Duration Time(s)  60
Dir.              U-D
Scale Factor      7845(gal)/8223790
Max. Acc. (gal)   2.799
Last Correction   2018/04/09 06:38:59
Memo.             
[...]
   29362    29361    29366    29365    29361    29362    29366    29367 
   29365    29362    29365    29367    29363    29365    29366    29359 
   29361    29370    29365    29357    29365    29371    29361    29358 
   29362    29363    29367    29366    29359    29358    29362    29366 
   29367    29365    29358    29362    29369    29366    29365    29366 
   29358    29359    29369    29366    29363    29365    29365    29362 
   29362    29363    29365    29366    29363    29361    29363    29361 
   29363    29369    29363    29357    29361    29366    29367    29363 
   29359    29359    29365    29369    29365    29362    29362    29366 
   29370    29361    29357    29369    29370    29361    29363    29366 
   29361    29363    29367    29366    29362    29361    29363    29369 
   29366    29363    29363    29359    29362    29369    29363    29359 
   29366    29365    29361    29365    29367    29366    29363    29362 
   29365    29365    29366    29365    29361    29358    29365    29369 
   29363    29359    29365    29366    29363    29366    29370    29365 
   29362    29363    29366    29366    29363    29359    29363    29367 
   29363    29361    29365    29369    29366    29362    29359    29365 
   29370    29365    29358    29362    29366    29365    29362    29362 
   29363    29361    29363    29365    29361    29359    29366    29370 
   29362    29358    29362    29367    29366    29365    29363    29361 
   29366    29374    29365    29355    29361    29365    29367    29371 
   29363    29355    29362    29370    29367    29361    29358    29359 
   29366    29373    29370    29362    29357    29363    29373    29369 
   29361    29361    29365    29366    29369    29366    29362    29362 
   29367    29369    29366    29362    29361    29365    29366    29363 
   29363    29366    29363    29365    29369    29363    29363    29369 
   29367    29365    29365    29362    29366    29370    29363    29361 
   29369    29366    29362    29367    29367    29363    29365    29363 
   29365    29370    29366    29362    29363    29362    29365    29369 
   29359    29358    29367    29369    29365    29365    29359    29361 
   29370    29363    29359    29366    29363    29358    29369    29370 
   29362    29362    29363    29365    29370    29363    29357    29365 
   29366    29367    29370    29359    29358    29371    29369    29361 
   29362    29363    29362    29365    29365    29362    29363    29359 
   29361    29371    29370    29361    29361    29365    29362    29363 
   29367    29365    29361    29365    29365    29366    29367    29361 
   29362    29369    29365    29359    29362    29361    29363    29370 
   29365    29357    29365    29371    29365    29361    29362    29363 
   29366    29363    29362    29366    29363    29359    29366    29367 
   29362    29363    29362    29362    29370    29369    29359    29359 
   29366    29363    29366    29367    29359    29365    29371    29363 
   29362    29367    29365    29365    29367    29361    29358    29366 
   29369    29365    29362    29361    29361    29366    29371    29367 
   29362    29361    29361    29367    29373    29362    29358    29363 
   29365    29370    29369    29359    29361    29366    29365    29370 
   29370    29358    29359    29370    29369    29366    29363    29365 
   29370    29366    29358    29363    29367    29362    29365    29369 
   29361    29362    29369    29363    29362    29367    29366    29365 
   29365    29365    29369    29367    29361    29359    29365    29369 
   29365    29359    29363    29363    29362    29365    29365    29365 
   29363    29362    29366    29370    29366    29361    29363    29366 
   29366    29363    29362    29366    29366    29359    29365    29370 
   29367    29366    29362    29362    29367    29367    29362    29362 
   29366    29365    29363    29365    29366    29366    29366    29363 
   29365    29369    29366    29359    29365    29366    29361    29362 
   29367    29367    29365    29365    29367    29365    29362    29363 
   29362    29362    29367    29367    29361    29361    29370    29369 
   29359    29359    29365    29366    29366    29362    29359    29365 
   29370    29365    29361    29366    29366    29362    29365    29366 
   29362    29363    29365    29365    29366    29362    29358    29362 
   29370    29365    29358    29366    29371    29362    29359    29366 
   29366    29363    29362    29362    29366    29365    29361    29363 
   29365    29365    29363    29359    29362    29367    29367    29365 
   29365    29363    29366    29367    29366    29367    29363    29361 
   29366    29365    29361    29366    29366    29362    29365    29366 
   29362    29362    29365    29365    29365    29365    29365    29363 
   29363    29366    29365    29363    29363    29362    29361    29365 
   29370    29365    29359    29366    29370    29363    29361    29362 
   29365    29366    29365    29361    29363    29366    29365    29366 
   29365    29363    29365    29362    29363    29366    29362    29362 
   29366    29363    29362    29362    29363    29365    29363    29363 
   29363    29366    29367    29363    29359    29362    29365    29367 
   29366    29362    29362    29365    29366    29365    29366    29363 
   29361    29365    29367    29366    29365    29363    29363    29366 
   29367    29365    29363    29366    29365    29366    29366    29362 
   29363    29366    29363    29363    29370    29371    29365    29361 
   29363    29366    29369    29366    29358    29361    29369    29367 
   29362    29361    29363    29366    29366    29365    29365    29365 
   29359    29363    29371    29363    29359    29363    29363    29369 
   29373    29361    29357    29366    29367    29366    29365    29358 
   29361    29369    29365    29362    29363    29362    29366    29369 
   29363    29362    29367    29362    29361    29369    29366    29359 
   29363    29365    29363    29366    29365    29359    29365    29365 
   29359    29366    29369    29363    29367    29365    29358    29366 
   29367    29361    29365    29367    29362    29363    29363    29363 
   29367    29366    29358    29365    29369    29358    29361    29374 
   29366    29358    29363    29365    29369    29369    29358    29359 
   29365    29367    29371    29365    29355    29362    29371    29365 
   29359    29366    29363    29357    29369    29369    29359    29365 
   29361    29357    29369    29371    29361    29358    29365    29363 
   29365    29367    29361    29362    29371    29367    29361    29361 
   29363    29367    29370    29365    29361    29365    29366    29369 
   29367    29358    29361    29371    29369    29361    29366    29365 
   29358    29365    29369    29362    29363    29362    29361    29367 
   29363    29359    29365    29366    29363    29365    29365    29363 
   29366    29366    29361    29362    29367    29365    29366    29367 
   29361    29361    29370    29367    29361    29362    29359    29362 
   29373    29363    29358    29369    29369    29363    29363    29362 
   29363    29366    29363    29363    29367    29359    29361    29371 
   29365    29358    29366    29363    29361    29370    29369    29355 
   29358    29371    29369    29361    29362    29361    29363    29370 
   29366    29363    29362    29361    29365    29366    29362    29362 
   29363    29363    29369    29365    29358    29369    29371    29359 
   29359    29366    29365    29363    29367    29365    29359    29365 
   29367    29367    29367    29361    29361    29367    29367    29365 
   29363    29361    29359    29367    29367    29359    29363    29366 
   29363    29365    29365    29365    29365    29362    29362    29365 
   29363    29361    29365    29367    29362    29361    29362    29366 
   29366    29361    29363    29369    29363    29361    29363    29365 
   29363    29366    29365    29359    29365    29370    29363    29358 
   29362    29366    29366    29365    29361    29362    29369    29365 
   29363    29366    29361    29365    29373    29362    29355    29366 
   29369    29363    29361    29361    29362    29367    29366    29361 
   29367    29369    29362    29362    29366    29367    29367    29362 
   29358    29366    29370    29362    29363    29365    29363    29366 
   29365    29359    29366    29370    29362    29363    29367    29361 
   29363    29373    29365    29358    29363    29362    29363    29366 
   29363    29362    29367    29365    29362    29367    29365    29362 
   29366    29363    29362    29366    29363    29361    29366    29367 
   29363    29363    29365    29363    29367    29367    29361    29362 
   29367    29365    29365    29366    29362    29362    29366    29361 
   29362    29370    29367    29361    29361    29359    29362    29367 
   29365    29362    29363    29363    29363    29366    29363    29362 
   29369    29367    29362    29365    29365    29362    29367    29365 
   29359    29363    29366    29362    29366    29367    29361    29366 
   29370    29363    29361    29366    29366    29363    29365    29365 
   29362    29363    29361    29362    29373    29366    29353    29366 
   29370    29361    29366    29365    29357    29369    29370    29358 
   29365    29366    29359    29367    29370    29359    29361    29366 
   29366    29370    29365    29357    29366    29370    29365    29365 
   29365    29359    29365    29370    29361    29362    29366    29358 
   29361    29371    29362    29358    29369    29365    29358    29363 
   29366    29366    29367    29362    29361    29367    29369    29363 
   29363    29365    29365    29369    29366    29358    29363    29370 
   29363    29363    29366    29362    29369    29371    29361    29359 
   29367    29363    29362    29365    29363    29365    29369    29367 
   29363    29359    29358    29367    29371    29361    29359    29367 
   29367    29366    29365    29361    29363    29366    29362    29365 
   29369    29362    29358    29367    29366    29359    29365    29366 
   29362    29370    29369    29358    29362    29367    29366    29367 
   29363    29361    29367    29366    29358    29366    29373    29365 
   29359    29362    29366    29369    29365    29357    29363    29370 
   29363    29362    29370    29362    29358    29367    29370    29363 
   29361    29361    29365    29369    29366    29362    29365    29365 
   29359    29363    29369    29366    29365    29363    29361    29365 
   29369    29365    29365    29363    29359    29365    29366    29362 
   29362    29362    29361    29367    29366    29359    29362    29365 
   29366    29370    29369    29359    29361    29371    29369    29362 
   29363    29361    29361    29370    29369    29358    29359    29366 
   29365    29365    29362    29359    29365    29367    29362    29359 
   29359    29365    29370    29366    29362    29365    29366    29366 
   29367    29363    29359    29365    29370    29363    29362    29363 
   29359    29365    29373    29367    29358    29363    29370    29363 
   29363    29367    29365    29363    29363    29365    29365    29363 
   29366    29367    29362    29358    29361    29365    29369    29367 
   29361    29362    29366    29365    29365    29363    29359    29365 
   29369    29366    29363    29365    29362    29363    29371    29369 
   29357    29358    29367    29370    29366    29359    29358    29369 
   29371    29365    29363    29361    29362    29369    29365    29362 
   29366    29363    29361    29367    29370    29363    29359    29362 
   29363    29365    29366    29363    29363    29363    29363    29366 
   29367    29367    29365    29357    29358    29373    29370    29355 
   29361    29369    29362    29366    29369    29358    29357    29365 
   29370    29367    29361    29359    29365    29370    29367    29362 
   29362    29363    29366    29367    29363    29365    29366    29363 
   29365    29365    29363    29363    29365    29363    29365    29366 
   29359    29363    29373    29366    29361    29363    29362    29363 
   29369    29362    29359    29367    29365    29359    29362    29362 
   29362    29367    29366    29363    29367    29363    29359    29367 
   29370    29363    29362    29361    29362    29370    29370    29361 
   29362    29365    29363    29369    29366    29354    29361    29371 
   29370    29365    29358    29359    29369    29365    29362    29366 
   29363    29363    29370    29366    29359    29361    29365    29366 
   29367    29366    29361    29361    29367    29366    29354    29339 
   29334    29343    29349    29312    29263    29268    29282    29281 
   29323    29373    29388    29490    29632    29521    29251    29272 
   29636    30011    30145    29922    29326    28513    27974    28179 
   28944    29952    30897    30609    28853    27787    28464    29484 
   30019    30119    29879    29768    29517    28734    28270    28669 
   29709    30693    30234    28679    28158    28965    29961    30568 
   30017    28287    27668    29465    31172    30549    28817    27745 
   28044    29901    31432    30121    27743    27877    29656    30510 
   30284    29450    28470    28260    29276    30711    30570    28651 
   27669    28800    30430    31058    29813    27547    27368    29944 
   31752    30526    28036    27209    29153    31549    31099    28510 
   27048    28117    30792    32051    29882    26966    26943    29620 
   31936    31440    28603    26430    27734    31212    32135    29434 
   27222    28050    30148    31101    30134    28075    27332    29199 
   31233    30821    28944    27868    28366    29874    30931    30141 
   28391    27955    29096    30393    30667    29382    27854    28401 
   30310    30731    29632    28749    28406    28869    30060    30319 
   29106    28237    29003    30214    30098    28980    28453    28929 
   29758    30377    30063    28643    27931    29272    30763    30333 
   28809    28013    28749    30299    30740    29309    27741    28169 
   30145    30987    29835    28640    28649    29335    30048    30176 
   29347    28462    28775    29810    30084    29478    28806    28510 
   29091    30102    30102    29174    28497    28737    29882    30561 
   29664    28499    28609    29598    30279    29970    28891    28298 
   29153    30335    30133    28831    28055    28809    30327    30684 
   29471    28313    28524    29817    30568    29682    28374    28480 
   29666    30238    29640    28840    28818    29406    29795    29685 
   29338    28976    28944    29498    29909    29474    28998    29196 
   29463    29500    29524    29162    28752    29351    30195    29824 
   28942    28875    29362    29729    29718    29215    28822    29127 
   29693    29929    29489    28711    28782    29725    30187    29675 
   28802    28488    29343    30399    30072    28737    28036    28752 
   30306    30839    29443    28048    28378    29668    30522    30111 
   28733    28178    29276    30380    30086    29020    28441    28972 
   30129    30403    29184    28250    28995    30069    30106    29484 
   28787    28717    29554    30055    29482    28810    28890    29438 
   29736    29594    29281    28998    29133    29695    29702    29010 
   28998    29735    29768    29231    29207    29343    29226    29458 
   29740    29259    28962    29470    29624    29330    29299    29297 
   29239    29424    29690    29601    29165    28946    29253    29631 
   29427    29097    29389    29561    29122    29026    29506    29762 
   29500    29079    28996    29396    29840    29856    29359    28756 
   28864    29778    30250    29527    28556    28540    29436    30200 
   30065    29153    28328    28784    30207    30539    29358    28435 
   28649    29497    30240    30040    28865    28198    29016    30179 
   30272    29286    28324    28632    29814    30230    29700    29008 
   28597    29164    30190    29949    28966    28884    29394    29736 
   29728    29239    28834    29157    29787    29833    29269    28931 
   29053    29301    29745    29914    29200    28701    29289    29786 
   29427    29076    29343    29571    29336    29277    29343    29154 
   29361    29766    29404    29026    29463    29635    29131    29128 
   29727    29874    29219    28620    29122    29976    29771    29091 
   28985    29254    29566    29650    29285    29012    29289    29614 
   29587    29425    29293    29207    29262    29489    29579    29286 
   29073    29354    29590    29378    29251    29434    29440    29277 
   29389    29500    29226    29096    29386    29548    29450    29320 
   29174    29288    29722    29695    29068    28845    29334    29791 
   29702    29265    29038    29228    29485    29452    29303    29436 
   29556    29290    29127    29343    29505    29404    29209    29270 
   29538    29435    29074    29133    29566    29772    29475    29095 
   29143    29495    29631    29319    29056    29301    29651    29590 
   29207    28985    29181    29517    29670    29554    29301    29178 
   29226    29378    29565    29612    29362    28964    29128    29758 
   29647    29046    29114    29472    29521    29502    29389    29134 
   29178    29548    29629    29254    29013    29280    29651    29670 
   29351    28917    28894    29566    30133    29717    28749    28510 
   29408    30395    30304    28980    27857    28706    30492    30681 
   29381    28333    28320    29328    30477    30377    29007    28024 
   28590    29965    30634    29887    28536    28242    29424    30522 
   30063    28741    28375    29276    30180    30146    29170    28341 
   28919    30052    30048    29215    28769    29022    29532    29809 
   29646    29079    28665    29161    30123    30017    28800    28441 
   29525    30315    29835    29004    28756    29151    29810    29868 
   29079    28686    29280    29931    29875    29204    28717    29010 
   29636    30015    29791    28927    28657    29504    29844    29404 
   29347    29182    28858    29558    30172    29216    28456    29257 
   29995    29744    29334    29056    28915    29307    29914    29808 
   29019    28680    29358    30001    29668    29135    29134    29228 
   29309    29646    29754    29246    28879    29165    29506    29601 
   29608    29324    28907    29045    29687    29911    29435    28934 
   28902    29415    29975    29729    29015    28957    29424    29538 
   29442    29517    29374    29020    29027    29435    29791    29759 
   29365    28872    28804    29525    30119    29536    28818    29054 
   29370    29454    29825    29778    28922    28522    29319    30184 
   29984    29119    28526    28863    30017    30419    29300    28305 
   28706    29843    30372    29652    28620    28516    29328    30242 
   30253    29119    28266    28840    29938    30327    29758    28660 
   28309    29542    30766    30121    28613    28080    28782    30117 
   30582    29058    27534    28548    30634    30631    28871    28138 
   29177    30276    30273    29533    28605    28479    29999    31313 
   30195    28044    27696    29259    30390    30020    29165    28289 
   27896    29224    30991    30603    28875    28270    29095    30210 
   30479    29529    28127    27783    29417    31009    30060    28437 
