Origin Time       2018/04/09 06:38:00
Lat.              35.2
Long.             132.6
Depth. (km)       10
Mag.              3.8
Station Code      HRS021
Station Lat.      34.9529
Station Long.     133.1171
Station Height(m) 325
Record Time       2018/04/09 06:38:59
Sampling Freq(Hz) 100Hz
Duration Time(s)  60
Dir.              E-W
Scale Factor      7845(gal)/8223790
Max. Acc. (gal)   3.241
Last Correction   2018/04/09 06:38:59
Memo.             
[...]
    3396     3396     3402     3395     3395     3402     3395     3395 
    3402     3395     3399     3402     3391     3393     3400     3396 
    3397     3399     3395     3396     3395     3393     3395     3399 
    3399     3396     3399     3393     3393     3402     3399     3397 
    3406     3400     3391     3395     3400     3400     3402     3397 
    3393     3399     3397     3392     3397     3400     3400     3400 
    3396     3391     3395     3402     3392     3392     3407     3399 
    3392     3399     3393     3396     3402     3393     3399     3402 
    3388     3395     3402     3395     3397     3400     3396     3397 
    3402     3397     3396     3400     3396     3395     3404     3400 
    3388     3396     3396     3392     3400     3399     3397     3397 
    3392     3395     3402     3396     3395     3402     3397     3391 
    3397     3395     3388     3400     3400     3392     3402     3399 
    3388     3395     3400     3397     3402     3400     3391     3395 
    3397     3395     3395     3399     3397     3396     3400     3397 
    3395     3403     3399     3392     3399     3396     3388     3402 
    3402     3395     3403     3396     3388     3400     3399     3391 
    3402     3400     3391     3399     3399     3392     3399     3397 
    3396     3402     3395     3393     3399     3395     3393     3400 
    3402     3399     3399     3395     3391     3395     3400     3397 
    3397     3400     3395     3395     3402     3395     3391     3400 
    3397     3396     3403     3393     3392     3400     3393     3391 
    3399     3397     3395     3400     3397     3396     3396     3392 
    3396     3403     3399     3396     3400     3393     3388     3400 
    3397     3393     3404     3399     3387     3397     3402     3397 
    3403     3396     3391     3399     3397     3393     3397     3395 
    3393     3400     3395     3388     3399     3402     3392     3393 
    3400     3396     3395     3399     3397     3395     3396     3393 
    3395     3399     3395     3395     3399     3395     3388     3395 
    3402     3396     3397     3402     3397     3395     3392     3392 
    3397     3397     3395     3399     3396     3393     3396     3393 
    3395     3400     3400     3397     3397     3396     3393     3393 
    3400     3399     3396     3399     3396     3393     3399     3397 
    3396     3400     3397     3392     3399     3397     3395     3402 
    3399     3392     3397     3397     3392     3399     3397     3393 
    3402     3397     3388     3399     3399     3395     3397     3396 
    3396     3399     3399     3396     3395     3393     3395     3397 
    3397     3397     3399     3397     3393     3393     3397     3396 
    3395     3402     3400     3392     3397     3397     3392     3399 
    3397     3395     3403     3403     3388     3391     3397     3396 
    3399     3399     3395     3400     3400     3391     3396     3400 
    3391     3397     3404     3391     3392     3402     3395     3396 
    3402     3388     3388     3404     3396     3391     3404     3399 
    3391     3399     3395     3393     3404     3397     3392     3397 
    3395     3396     3402     3396     3392     3399     3400     3393 
    3397     3402     3393     3395     3402     3393     3393     3402 
    3393     3393     3402     3392     3392     3400     3395     3396 
    3402     3393     3399     3406     3392     3395     3403     3393 
    3395     3404     3393     3393     3403     3395     3395     3406 
    3397     3391     3400     3397     3391     3400     3400     3393 
    3400     3396     3391     3402     3402     3393     3397     3396 
    3391     3402     3402     3392     3400     3404     3388     3392 
    3402     3393     3399     3403     3388     3393     3402     3393 
    3399     3404     3396     3396     3400     3393     3396     3403 
    3395     3395     3403     3396     3393     3403     3396     3391 
    3397     3397     3396     3402     3395     3392     3400     3397 
    3393     3400     3397     3392     3400     3403     3395     3392 
    3395     3397     3400     3396     3392     3400     3400     3391 
    3396     3397     3393     3400     3403     3396     3392     3393 
    3395     3399     3400     3396     3395     3399     3395     3393 
    3400     3399     3397     3397     3395     3395     3397     3399 
    3396     3397     3399     3392     3393     3397     3395     3397 
    3399     3393     3399     3402     3393     3395     3399     3396 
    3397     3396     3395     3400     3400     3393     3395     3397 
    3396     3399     3395     3395     3399     3396     3393     3397 
    3397     3396     3397     3397     3397     3396     3396     3397 
    3396     3399     3402     3396     3396     3396     3393     3396 
    3396     3397     3397     3396     3399     3399     3395     3397 
    3397     3396     3399     3399     3395     3397     3400     3396 
    3397     3400     3396     3395     3396     3400     3402     3396 
    3393     3395     3396     3396     3400     3400     3396     3395 
    3395     3396     3396     3399     3400     3397     3397     3400 
    3393     3392     3392     3395     3402     3404     3399     3395 
    3396     3393     3393     3399     3399     3400     3406     3402 
    3392     3391     3393     3397     3404     3400     3393     3391 
    3393     3399     3396     3395     3400     3399     3396     3393 
    3391     3396     3396     3397     3404     3397     3397     3399 
    3387     3393     3403     3397     3400     3400     3395     3400 
    3397     3392     3400     3400     3396     3397     3397     3395 
    3400     3399     3391     3395     3403     3396     3397     3403 
    3395     3395     3399     3392     3396     3402     3395     3397 
    3402     3392     3396     3399     3388     3396     3403     3392 
    3396     3403     3388     3395     3406     3393     3393     3404 
    3391     3392     3403     3392     3392     3400     3392     3396 
    3403     3395     3393     3400     3392     3391     3404     3399 
    3391     3400     3395     3388     3400     3399     3395     3400 
    3399     3388     3395     3399     3388     3395     3406     3399 
    3396     3393     3391     3399     3402     3392     3395     3400 
    3393     3395     3399     3393     3396     3403     3396     3395 
    3399     3395     3395     3399     3392     3395     3404     3396 
    3397     3402     3388     3392     3402     3397     3395     3396 
    3397     3399     3395     3388     3395     3400     3397     3396 
    3399     3397     3393     3393     3395     3396     3400     3395 
    3379     3376     3373     3373     3372     3335     3317     3346 
    3321     3284     3364     3445     3445     3499     3541     3392 
    3273     3461     3761     3877     3866     3835     3429     2457 
    1883     2521     3649     4554     4997     4307     2896     1977 
    1651     2238     4099     5725     5783     4531     2469      652 
     414     1811     4039     5922     6183     4997     3355     1799 
    1413     2400     3248     3765     4561     4784     3746     2497 
    2205     2307     2447     3747     5324     5161     4028     3026 
    2178     2376     3264     3646     3906     3839     3325     3130 
    2740     2586     3446     4010     4045     3915     3078     2584 
    3199     3544     3298     3402     3736     3924     3917     3406 
    2763     2619     2776     3400     4598     4976     3852     2508 
    1799     1996     3355     4927     5088     3723     2471     2353 
    2810     3387     3970     4203     3937     3221     2432     2313 
    3163     4356     4698     3932     3051     2597     2632     3229 
    3694     3551     3639     3848     3335     3138     3605     3291 
    2656     3024     3693     3932     4200     4093     3137     2404 
    2420     2983     4078     4590     4039     3489     2945     2349 
    2586     3310     3773     4139     4029     3291     2821     2828 
    3073     3445     3667     3871     3819     3375     3272     3194 
    2674     2656     3393     4087     4456     4302     3450     2558 
    2377     3007     3940     4327     4044     3553     3036     2688 
    2612     2951     3781     4245     3943     3504     3025     2660 
    2933     3365     3404     3582     3882     3685     3385     3388 
    3341     3167     3040     3134     3620     4099     3970     3383 
    2928     2890     3163     3430     3557     3678     3840     3780 
    3196     2509     2608     3385     3896     4016     3940     3368 
    2863     3065     3323     3400     3709     3983     3732     3098 
    2756     2913     3168     3412     3631     3734     3753     3551 
    3200     3121     3265     3350     3580     3788     3528     3314 
    3397     3261     3075     3119     3253     3554     3809     3711 
    3532     3288     2933     2960     3268     3466     3727     3875 
    3605     3279     3188     3211     3354     3530     3499     3491 
    3597     3435     3213     3138     3087     3235     3329     3334 
    3619     3653     3423     3385     3208     3260     3636     3546 
    3547     3825     3402     2902     3105     3407     3561     3642 
    3626     3466     3125     3175     3516     3325     3183     3526 
    3551     3292     3308     3365     3235     3330     3532     3375 
    3338     3701     3740     3192     2953     3434     3666     3456 
    3465     3569     3573     3360     3024     3188     3581     3554 
    3369     3325     3341     3331     3280     3327     3330     3186 
    3453     3883     3669     3325     3325     3171     3046     3323 
    3541     3568     3627     3501     3281     3248     3240     3303 
    3461     3542     3727     3700     3118     2937     3469     3646 
    3419     3377     3350     3397     3592     3477     3221     3245 
    3368     3445     3462     3365     3315     3427     3492     3407 
    3451     3477     3222     3217     3404     3264     3317     3577 
    3503     3495     3563     3392     3217     3198     3348     3427 
    3450     3676     3612     3260     3288     3391     3148     3078 
    3474     3738     3582     3497     3497     3219     3041     3264 
    3430     3435     3619     3842     3699     3207     2833     2917 
    3350     3665     3600     3615     3742     3419     3055     3079 
    3261     3557     3596     3354     3416     3519     3381     3294 
    3253     3354     3574     3535     3430     3361     3144     3284 
    3685     3573     3331     3383     3369     3323     3249     3126 
    3414     3819     3678     3292     3067     3052     3306     3474 
    3415     3570     3738     3503     3230     3213     3373     3591 
    3522     3262     3438     3755     3469     3107     3295     3434 
    3258     3232     3387     3555     3599     3385     3237     3375 
    3397     3252     3281     3368     3466     3601     3495     3308 
    3303     3395     3481     3411     3358     3465     3458     3362 
    3310     3339     3541     3568     3269     3152     3384     3546 
    3440     3411     3561     3431     3152     3280     3439     3257 
    3369     3747     3585     3217     3202     3246     3350     3574 
    3592     3456     3427     3440     3296     3202     3281     3306 
    3465     3682     3515     3307     3294     3292     3410     3492 
    3503     3607     3383     3040     3240     3380     3204     3431 
    3754     3755     3634     3179     2677     2837     3459     3981 
    4068     3781     3372     2895     2701     3011     3368     3703 
    4074     3954     3476     3248     3018     2704     2984     3759 
    4081     3708     3354     3384     3288     2955     3013     3544 
    3869     3728     3495     3283     3115     3061     3073     3376 
    3727     3599     3434     3418     3273     3430     3653     3395 
    3298     3388     3213     3310     3487     3315     3387     3631 
    3546     3227     3060     3450     3813     3532     3396     3433 
    3049     3064     3524     3426     3299     3674     3719     3291 
    3109     3294     3496     3447     3388     3630     3619     3153 
    2957     3107     3383     3712     3738     3640     3508     3086 
    2894     3175     3551     3870     3861     3489     3109     2925 
    3105     3541     3703     3523     3453     3465     3269     3122 
    3338     3611     3527     3314     3303     3342     3345     3327 
    3312     3588     3865     3524     3090     3111     3225     3368 
    3504     3615     3861     3555     2863     2964     3383     3416 
    3468     3574     3605     3542     3302     3087     3107     3381 
    3647     3562     3473     3719     3697     3219     3059     3165 
    3100     3229     3538     3821     3951     3528     3014     2906 
    2986     3400     3880     3889     3562     3003     2674     3038 
    3396     3379     3532     3754     3638     3554     3808     3838 
    3249     2887     3317     3623     3399     3265     3326     3312 
    3152     3107     3346     3478     3569     3624     2986     2500 
    3254     4167     4469     4310     3597     3171     3310     3383 
    3584     3308     2465     2791     3754     3678     3210     3165 
    3510     3620     2755     2053     2679     3984     5429     5929 
    4055     1119       -1     1586     4402     6351     6070     4059 
    2425     1848     1698     2669     4498     4969     3773     2825 
    2809     2735     2814     3773     4174     3508     3079     2808 
    3118     4376     4513     3261     2556     2346     2505     4129 
    5428     4266     2816     2593     2736     3423     4072     3713 
    3100     2866     2797     2808     3376     4291     4384     3880 
    3435     2698     2191     2531     3169     4266     5574     4955 
    2785     1844     2312     2934     3358     3603     3782     3928 
    3990     3538     2701     2469     2758     3213     3963     4442 
    4294     3790     3253     2928     2756     2901     3302     3669 
    4260     4355     3240     2266     2205     2600     3653     4754 
    4441     3252     2759     2743     2675     3258     4021     4136 
    4364     4148     2745     2254     3133     3326     3330     3964 
    3978     3636     3429     2857     2828     3314     3215     3258 
    3694     3796     3688     3334     3005     3084     3127     3379 
    3677     3294     3265     3704     3505     3427     3534     3400 
    3848     3984     3312     3213     3063     2504     2999     3776 
    3554     3400     3674     3613     3735     3924     3003     2258 
    3125     3796     3470     3551     3723     3377     3289     3298 
    3115     3414     3761     3437     3295     3682     3624     3264 
    3207     2986     2905     3541     4025     3844     3400     2995 
    2797     2764     3222     4240     4475     3604     2980     2755 
    2681     3346     4241     4199     3515     3180     3121     3021 
    3354     3798     3596     3186     2889     2941     3595     3908 
    3596     3339     3152     3218     3547     3500     3273     3308 
    3361     3373     3484     3646     3765     3694     3387     2967 
    2745     3018     3518     3915     4044     3520     2758     2724 
    3103     3226     3569     4166     4345     4010     2964     2052 
    2801     3813     3659     3732     4012     3563     3192     3073 
    2810     2862     3387     3821     3740     3577     3588     3407 
    3279     3227     2882     2955     3604     3716     3447     3738 
    4128     3796     3095     2814     2867     2972     3342     3694 
    3761     3944     4009     3553     2937     2354     2266     3175 
    4043     4261     4303     3771     2884     2697     3065     3438 
    3628     3462     3296     3546     3748     3415     2951     3036 
    3524     3708     3676     3721     3391     2829     2811     3215 
    3601     3800     3748     3747     3647     3130     2714     2736 
    3163     3807     4040     3893     3689     3105     2505     2664 
    3231     3755     4278     4166     3357     3009     2909     2616 
    3177     4251     4360     3537     2863     2872     2972     3194 
    4058     4444     3813     3288     2853     2498     3056     3753 
    3880     4008     3632     2809     2795     3100     3095     3392 
    3788     3769     3588     3487     3323     3083     2979     3106 
    3591     4126     3935     3299     2972     2929     3192     3586 
    3676     3780     3844     3226     2612     2910     3537     3932 
    4166     3774     2744     2277     2737     3329     3971     4498 
    4132     3223     2558     2398     2911     3670     4360     4658 
    3765     2683     2650     2863     3088     3485     3632     3944 
    4218     3663     2820     2427     2775     3696     4144     3869 
    3613     3380     3121     3080     3006     3003     3470     4009 
    3964     3399     2936     2945     3237     3415     3435     3589 
    3559     3298     3592     3854     3458     3414     3488     3157 
    3355     3520     2918     2944     3619     3755     3765     3661 
    3011     2794     3196     3284     3300     3771     4105     3627 
    2872     2856     3315     3500     3541     3550     3546     3680 
    3461     2983     3122     3514     3586     3615     3522     3373 
    3391     3232     3152     3396     3327     3196     3566     3738 
    3465     3257     3069     3042     3391     3659     3712     3726 
    3450     2978     2840     3109     3496     3824     3960     3769 
    3393     3065     2891     3164     3746     3905     3544     3142 
    2984     3127     3372     3658     3973     3797     3168     2944 
    3156     3202     3230     3672     4106     3855     3177     2789 
    2791     2911     3177     3699     4200     4282     3757     2984 
    2610     2712     3090     3740     4215     4109     3597     2843 
    2466     3076     3766     3828     3623     3211     2982     3246 
    3407     3343     3593     3974     3655     2909     2787     3161 
    3504     3882     4010     3697     3376     3176     2967     2818 
    3046     3770     4243     3970     3416     3001     2798     2729 
    2907     3639     4317     4159     3559     3022     2740     2953 
    3433     3915     4106     3562     2825     2708     2971     3327 
    3755     3921     3711     3314     3064     3154     3338     3568 
    3711     3418     3211     3458     3507     3355     3492     3682 
    3609     3407     3281     3198     3230     3458     3406     3073 
    3087     3269     3388     3773     3931     3400     3010     3163 
    3273     3219     3360     3743     3983     3757     3264     2843 
    2844     3434     3804     3511     3384     3411     3107     3114 
    3546     3673     3613     3712     3597     3167     2967     3055 
    3172     3474     3681     3507     3399     3466     3596     3665 
    3317     2988     3219     3504     3553     3666     3628     3291 
    3136     3048     2915     3456     4059     3753     3372     3223 
    3068     3246     3360     3443     3778     3591     3203     3306 
