Origin Time       2018/04/09 06:38:00
Lat.              35.2
Long.             132.6
Depth. (km)       10
Mag.              3.8
Station Code      HRS021
Station Lat.      34.9529
Station Long.     133.1171
Station Height(m) 325
Record Time       2018/04/09 06:38:59
Sampling Freq(Hz) 100Hz
Duration Time(s)  60
Dir.              N-S
Scale Factor      7845(gal)/8223790
Max. Acc. (gal)   2.512
Last Correction   2018/04/09 06:38:59
Memo.             
[...]
    -892     -895     -892     -889     -889     -890     -897     -897 
    -888     -890     -895     -888     -886     -896     -893     -892 
    -897     -890     -889     -899     -892     -886     -899     -897 
    -888     -892     -890     -886     -895     -893     -888     -896 
    -893     -888     -893     -892     -888     -893     -895     -890 
    -896     -896     -886     -892     -896     -888     -893     -896 
    -888     -892     -897     -889     -890     -899     -892     -888 
    -893     -895     -899     -896     -885     -889     -896     -890 
    -890     -895     -889     -892     -896     -885     -886     -899 
    -895     -889     -895     -893     -889     -892     -890     -893 
    -896     -890     -889     -893     -890     -892     -896     -892 
    -893     -895     -890     -889     -893     -892     -889     -892 
    -893     -892     -895     -893     -886     -892     -900     -895 
    -895     -897     -888     -885     -896     -896     -893     -890 
    -886     -890     -895     -890     -893     -896     -892     -890 
    -895     -890     -889     -895     -890     -889     -895     -890 
    -889     -890     -889     -890     -895     -895     -889     -888 
    -890     -892     -896     -892     -885     -892     -899     -893 
    -892     -889     -886     -895     -899     -892     -895     -895 
    -888     -890     -892     -886     -893     -903     -895     -885 
    -890     -893     -890     -895     -893     -890     -895     -892 
    -888     -895     -895     -892     -896     -892     -886     -895 
    -895     -889     -893     -890     -888     -897     -897     -889 
    -896     -896     -884     -889     -897     -889     -890     -896 
    -886     -889     -899     -890     -889     -893     -892     -893 
    -892     -889     -895     -899     -893     -890     -893     -892 
    -893     -895     -889     -890     -897     -893     -886     -892 
    -895     -893     -896     -892     -890     -892     -890     -896 
    -897     -889     -889     -893     -893     -896     -892     -888 
    -896     -899     -890     -890     -893     -890     -889     -893 
    -896     -896     -896     -892     -886     -888     -893     -893 
    -893     -896     -890     -890     -899     -897     -890     -890 
    -892     -895     -893     -890     -897     -901     -890     -886 
    -892     -892     -890     -895     -893     -890     -893     -893 
    -889     -892     -893     -888     -890     -896     -895     -893 
    -896     -889     -886     -890     -895     -893     -892     -895 
    -895     -889     -890     -895     -892     -892     -895     -895 
    -893     -892     -888     -889     -895     -895     -892     -890 
    -892     -893     -889     -889     -893     -892     -893     -895 
    -890     -888     -892     -895     -892     -892     -893     -893 
    -892     -889     -889     -895     -893     -892     -897     -890 
    -885     -895     -892     -886     -895     -893     -886     -890 
    -892     -890     -896     -895     -889     -893     -892     -890 
    -896     -889     -889     -897     -890     -888     -895     -893 
    -890     -895     -895     -893     -897     -890     -886     -896 
    -895     -889     -892     -893     -890     -892     -890     -889 
    -892     -890     -890     -897     -893     -888     -893     -890 
    -888     -896     -896     -889     -890     -893     -888     -890 
    -899     -889     -886     -900     -895     -884     -896     -896 
    -885     -892     -896     -892     -893     -889     -886     -896 
    -897     -890     -895     -893     -886     -897     -897     -888 
    -897     -896     -885     -892     -897     -890     -892     -892 
    -889     -895     -897     -890     -890     -897     -892     -889 
    -896     -890     -890     -896     -890     -890     -895     -892 
    -893     -893     -886     -889     -899     -896     -889     -896 
    -895     -889     -893     -892     -889     -892     -892     -896 
    -897     -890     -889     -892     -895     -896     -896     -893 
    -889     -892     -892     -889     -897     -899     -888     -889 
    -896     -890     -892     -892     -888     -895     -900     -893 
    -890     -895     -889     -885     -892     -895     -892     -893 
    -893     -890     -888     -890     -895     -892     -889     -895 
    -896     -893     -890     -890     -890     -892     -895     -893 
    -890     -895     -895     -889     -890     -897     -890     -886 
    -895     -893     -890     -892     -889     -889     -893     -892 
    -890     -890     -889     -895     -895     -888     -892     -896 
    -888     -890     -896     -892     -889     -893     -892     -889 
    -893     -892     -886     -893     -897     -889     -889     -893 
    -892     -890     -890     -893     -892     -889     -893     -895 
    -892     -893     -893     -890     -890     -892     -890     -888 
    -890     -893     -890     -889     -895     -895     -888     -889 
    -893     -893     -892     -892     -888     -888     -892     -893 
    -893     -889     -892     -895     -889     -889     -892     -890 
    -895     -896     -892     -889     -889     -892     -890     -892 
    -895     -889     -889     -895     -889     -890     -895     -889 
    -892     -893     -886     -889     -892     -890     -895     -890 
    -889     -896     -892     -893     -897     -890     -890     -893 
    -889     -892     -896     -893     -886     -888     -895     -893 
    -892     -896     -893     -888     -885     -892     -897     -896 
    -892     -890     -890     -890     -890     -895     -893     -895 
    -896     -889     -885     -892     -892     -892     -899     -899 
    -893     -889     -888     -892     -896     -890     -892     -893 
    -888     -895     -899     -889     -888     -895     -889     -888 
    -900     -897     -888     -893     -895     -889     -893     -893 
    -893     -895     -892     -892     -892     -889     -893     -896 
    -888     -890     -901     -892     -884     -890     -888     -890 
    -900     -890     -885     -897     -896     -885     -892     -897 
    -893     -895     -893     -889     -895     -893     -889     -893 
    -892     -889     -895     -893     -890     -893     -892     -889 
    -893     -892     -888     -901     -901     -886     -893     -896 
    -889     -893     -895     -888     -889     -897     -892     -886 
    -893     -892     -889     -896     -895     -892     -892     -888 
    -892     -895     -888     -890     -901     -895     -886     -892 
    -892     -888     -890     -890     -890     -897     -895     -886 
    -888     -892     -890     -893     -895     -890     -892     -895 
    -892     -892     -893     -892     -893     -895     -892     -893 
    -895     -888     -893     -897     -889     -895     -897     -888 
    -884     -885     -882     -877     -874     -862     -857     -862 
    -842     -826     -862     -893     -890     -935     -985     -919 
    -855     -928    -1008    -1013    -1088    -1229    -1158     -766 
    -445     -464     -498     -619    -1243    -1729    -1490     -997 
    -322      355      206     -588    -1482    -2272    -2346    -1649 
    -662      395      824       45    -1386    -2508    -2577    -1528 
    -191      603      679      -89    -1648    -2802    -2432     -934 
     307      504      383     -314    -2031    -2650    -1741     -872 
      75      499     -535    -1982    -2532    -1767     -461      284 
     321     -292    -1371    -1803    -1039     -248     -218     -714 
   -1350    -1472    -1418    -1644    -1124       70      526     -149 
   -1520    -2562    -2176     -882       41      284      -95    -1053 
   -2016    -1953    -1015     -680     -553      372      588     -639 
   -1692    -2111    -2351    -1583      159      897      -85    -1421 
   -1964    -1671    -1138     -751     -488     -337     -342     -793 
   -1485    -1456     -993     -893     -631     -398     -886    -1129 
    -872    -1028    -1131     -745     -661     -916     -843     -724 
   -1065    -1367    -1151     -702     -405     -451     -677     -903 
   -1347    -1667    -1235     -625     -450     -243     -292    -1183 
   -1844    -1630    -1233     -630       89       81     -685    -1474 
   -1767    -1560     -947     -197     -129     -766    -1171    -1197 
   -1166     -935     -571     -402     -572    -1026    -1360    -1215 
    -940     -923     -841     -637     -800    -1246    -1428    -1047 
    -523     -432     -584     -858    -1193    -1132     -901     -890 
    -726     -460     -669    -1115    -1279    -1291    -1161     -724 
    -437     -553     -697     -922    -1281    -1267     -864     -561 
    -579     -843    -1111    -1116     -978     -994    -1067     -924 
    -639     -696     -986     -900     -766     -938     -943     -767 
    -870    -1026     -841     -723     -926     -989     -804     -811 
   -1021     -999     -857     -842     -869    -1004    -1032     -901 
   -1005    -1057     -862     -859     -942     -830     -665     -589 
    -645     -819    -1075    -1277    -1175     -704     -453     -816 
   -1009     -900    -1043    -1047     -897     -946     -838     -677 
    -831    -1058    -1161    -1075     -745     -450     -523     -945 
   -1217     -945     -700     -901     -981     -974    -1119     -967 
    -870    -1107     -957     -625     -695     -681     -519     -811 
   -1192    -1093     -909    -1024    -1113     -793     -573     -947 
   -1185     -984    -1007    -1128     -832     -504     -670     -886 
    -881    -1113    -1185     -793     -638     -757     -776     -804 
   -1011    -1080     -756     -623     -885    -1050     -938     -676 
    -762    -1167    -1135     -885     -897     -911     -919    -1024 
   -1123    -1028     -625     -610    -1080     -985     -662     -886 
   -1120    -1070     -819     -511     -591     -814     -838    -1035 
   -1215     -950     -722     -787     -832     -935    -1017     -832 
    -861    -1264    -1177     -581     -523     -882     -955    -1011 
   -1158    -1185    -1090     -702     -400     -561     -645     -757 
   -1254    -1489    -1174     -746     -463     -419     -657    -1051 
   -1313    -1274    -1112     -923     -633     -508     -738     -947 
   -1071    -1306    -1140     -625     -639     -823     -681     -783 
   -1098    -1146     -929     -784     -855     -777     -666    -1024 
   -1270     -899     -677     -932     -993     -734     -693     -931 
   -1131    -1169     -912     -637     -728     -831     -884    -1094 
   -1024     -812     -893     -841     -695     -873    -1039    -1013 
    -982     -958     -816     -700     -838     -853     -772    -1113 
   -1230     -668     -395     -770    -1067    -1026    -1043    -1138 
    -918     -638     -714     -884     -999    -1073     -992     -855 
    -812     -963    -1060     -822     -669     -773     -920    -1089 
    -954     -637     -774    -1070     -918     -699     -831     -950 
    -868     -812     -893    -1055    -1017     -837     -931    -1071 
   -1013     -970     -789     -684     -897     -974     -924     -890 
    -872    -1032     -996     -637     -595     -916    -1016     -862 
    -758     -799    -1048    -1044     -565     -595    -1094    -1163 
   -1093     -962     -749     -801     -770     -783    -1046    -1107 
   -1170    -1139     -621     -368     -733    -1065    -1115    -1105 
   -1166     -970     -463     -369     -702     -934    -1246    -1378 
   -1057     -932     -811     -445     -556     -819     -789     -949 
   -1262    -1364     -919     -338     -553     -943     -886    -1036 
   -1189    -1042     -980     -886     -730     -639     -675     -987 
   -1225    -1264    -1185     -766     -399     -448     -750    -1169 
   -1271    -1009     -791     -788     -923     -728     -530     -918 
   -1120     -996    -1067    -1007     -907     -831     -568     -608 
    -876    -1086    -1426    -1264     -575     -429     -734     -945 
    -970     -832    -1057    -1304     -884     -677     -834     -654 
    -652     -949    -1165    -1287    -1048     -652     -646     -807 
    -784     -796    -1015    -1156     -889     -533     -750    -1140 
    -973     -811    -1163    -1143     -556     -619    -1125    -1011 
    -814     -928     -818     -649     -834    -1158    -1194     -858 
    -600     -702     -767     -784    -1060    -1260    -1158     -927 
    -724     -699     -758     -857    -1007    -1008     -949    -1023 
    -949     -652     -614     -853    -1020    -1085     -981     -799 
    -873     -929     -585     -556    -1201    -1476    -1146     -805 
    -511     -427     -720    -1132    -1269    -1107     -966     -741 
    -499     -619    -1021    -1281    -1148     -972     -757     -402 
    -649    -1089     -951    -1047    -1281     -949     -499     -398 
    -849    -1301    -1183    -1055    -1019     -792     -515     -446 
    -826    -1185    -1263    -1242     -849     -542     -710     -691 
    -643    -1019    -1273    -1198    -1113     -858     -434     -382 
    -780    -1019     -970     -982    -1004    -1123    -1431    -1139 
    -292     -449    -1605    -1989    -1367     -958     -847     -284 
     282       25     -464     -481     -689    -1688    -2324    -1271 
     464     1055       22    -1996    -3402    -2709     -172     1741 
     874    -1237    -2608    -3063    -2097     -546      214      479 
     475       67    -1140    -2802    -3141    -1852     -317      499 
     140     -999    -1881    -2045    -1304      157     1193     1008 
    -263    -1934    -2673    -1998    -1047     -739     -853     -873 
    -433      318       83    -1652    -2952    -2359     -733      500 
     540     -467    -1663    -2178    -1713     -549      565      451 
    -795    -1669    -2084    -2154     -934      263      -82     -544 
    -584    -1000    -1422    -1466    -1151     -872     -837     -591 
    -468     -695     -845    -1266    -1795    -1154      105      -67 
   -1020    -1030     -675     -607    -1007    -1980    -2199     -928 
     414      546     -291    -1270    -1930    -2093    -1683     -760 
     -60     -105     -139     -473    -1564    -2000    -1625    -1116 
    -368       40      -58     -484    -1325    -1602    -1081     -946 
   -1088    -1042    -1131     -864     -238     -276     -749    -1181 
   -1677    -1647     -939     -288      -76     -411    -1019    -1383 
   -1452    -1215     -761     -410     -263     -454    -1042    -1733 
   -1790     -935     -330     -287     -172     -657    -1584    -1780 
   -1485     -908      -49      121     -504    -1174    -1711    -1715 
   -1044     -506     -425     -753    -1210     -864     -383     -961 
   -1259     -810     -885     -959     -747     -919     -702     -349 
   -1217    -1941    -1116     -531     -745     -425     -471    -1389 
   -1547     -945     -558     -199     -143     -880    -1642    -1802 
   -1391     -604     -124     -307     -859    -1333    -1509    -1455 
    -903      -43       79     -728    -1548    -1773    -1439     -834 
    -229       51     -523    -1435    -1570    -1452    -1368     -430 
     459       87     -796    -1443    -1595    -1267     -974     -929 
   -1015     -870     -359     -232     -978    -1872    -1887    -1078 
    -433     -176       32     -276    -1329    -2116    -1949    -1028 
     136      472     -336    -1205    -1549    -1401    -1155    -1228 
    -947     -233     -187     -929    -1587    -1706    -1325     -603 
    -222     -314     -315     -922    -1863    -1462     -585     -621 
    -727     -692     -986     -955     -702     -978    -1167    -1026 
    -972     -635     -399     -903    -1302    -1133     -912     -722 
    -517     -525     -796    -1123    -1298    -1162     -797     -774 
    -986     -741     -649    -1062    -1017     -830    -1098    -1097 
    -807     -834     -974    -1000    -1101    -1071     -791     -606 
    -357     -259     -905    -1498    -1463    -1150     -562     -217 
    -571    -1048    -1247    -1217     -815     -305     -583    -1221 
   -1154     -986    -1320    -1530    -1213     -793     -672     -449 
    -225     -585     -974    -1150    -1457    -1429     -962     -441 
     -47     -199     -909    -1421    -1337    -1155     -918     -440 
    -503     -973    -1146    -1480    -1606     -955     -454     -355 
    -319     -654    -1035    -1119    -1258    -1067     -493     -549 
    -985     -749     -337     -838    -1707    -1760    -1193     -681 
    -451     -464     -552     -986    -1615    -1579     -924     -344 
    -257     -673    -1060    -1209    -1239    -1023     -774     -594 
    -275     -429    -1220    -1367     -931    -1062    -1198     -854 
    -660     -584     -515     -830    -1316    -1356    -1123    -1009 
    -770     -535     -614     -901    -1239    -1181     -942     -907 
    -463     -171     -808    -1209    -1038    -1124    -1170     -677 
    -237     -499    -1046    -1377    -1524    -1281     -699     -353 
    -450     -939    -1549    -1672    -1181     -445       -4     -444 
   -1227    -1408    -1312    -1129     -711     -535     -553     -480 
    -595     -949    -1336    -1337     -808     -451     -440     -488 
    -909    -1382    -1370    -1317    -1215     -735     -475     -577 
    -633    -1011    -1679    -1667     -932     -437     -375     -370 
    -630    -1209    -1580    -1405     -845     -341     -124     -295 
    -792    -1123    -1181    -1182    -1100    -1096    -1047     -676 
    -553     -843     -886     -783     -869    -1021    -1227    -1189 
    -751     -579     -815     -949     -893     -816    -1032    -1282 
    -967     -751     -954     -766     -518     -784     -993    -1062 
   -1368    -1317     -573     -144     -511     -877    -1055    -1487 
   -1663    -1190     -679     -248       67     -270    -1039    -1578 
   -1632    -1227     -827     -702     -481     -229     -483    -1109 
   -1444    -1273     -916     -712     -616     -611     -993    -1494 
   -1599    -1275     -571      -17     -272     -935    -1343    -1412 
   -1220     -869     -475     -280     -523     -897    -1169    -1375 
   -1181     -723     -622     -751     -710     -679    -1008    -1363 
   -1277     -977     -697     -533     -634     -962    -1382    -1401 
    -854     -467     -544     -579     -584    -1004    -1437    -1370 
   -1109     -738     -190     -120     -886    -1683    -1733    -1246 
    -700     -324     -309     -650    -1102    -1470    -1375     -837 
    -592     -625     -599     -815    -1167    -1386    -1397    -1000 
    -476     -263     -422     -886    -1251    -1246    -1097     -808 
    -398     -263     -666    -1206    -1258    -1107    -1107     -970 
    -908     -916     -572     -532    -1115    -1506    -1512    -1194 
    -606     -263     -382     -764    -1004    -1023    -1291    -1354 
    -712     -330     -444     -382     -529    -1086    -1410    -1451 
   -1329     -866     -557     -715     -838     -905    -1081    -1215 
   -1237     -912     -422     -352     -571     -876    -1375    -1478 
