Origin Time       2018/04/09 06:38:00
Lat.              35.2
Long.             132.6
Depth. (km)       10
Mag.              3.8
Station Code      HRS001
Station Lat.      35.0337
Station Long.     132.9018
Station Height(m) 566
Record Time       2018/04/09 06:38:55
Sampling Freq(Hz) 100Hz
Duration Time(s)  60
Dir.              U-D
Scale Factor      7845(gal)/8223790
Max. Acc. (gal)   3.284
Last Correction   2018/04/09 06:38:55
Memo.             
[...]
   16811    16809    16811    16812    16811    16811    16809    16811 
   16812    16811    16811    16812    16811    16811    16812    16811 
   16811    16811    16811    16811    16812    16812    16811    16809 
   16811    16809    16806    16808    16812    16812    16811    16811 
   16811    16808    16808    16811    16814    16814    16812    16812 
   16812    16811    16811    16812    16814    16812    16809    16811 
   16812    16812    16811    16811    16812    16814    16812    16812 
   16812    16809    16811    16812    16809    16809    16811    16811 
   16812    16812    16808    16808    16809    16812    16812    16812 
   16811    16811    16809    16809    16811    16811    16811    16811 
   16811    16811    16809    16809    16812    16812    16811    16812 
   16811    16809    16812    16811    16811    16812    16811    16811 
   16811    16811    16812    16811    16809    16811    16811    16808 
   16808    16811    16811    16812    16811    16809    16812    16811 
   16809    16809    16811    16812    16812    16811    16811    16811 
   16809    16811    16812    16809    16809    16811    16811    16811 
   16811    16811    16812    16814    16814    16811    16809    16811 
   16811    16811    16811    16811    16812    16812    16811    16809 
   16809    16809    16811    16811    16809    16811    16812    16811 
   16812    16812    16809    16809    16812    16811    16808    16811 
   16812    16811    16811    16812    16811    16809    16811    16811 
   16809    16811    16812    16812    16812    16812    16814    16814 
   16814    16814    16814    16812    16811    16808    16808    16814 
   16814    16811    16811    16811    16811    16811    16811    16811 
   16812    16812    16812    16812    16811    16811    16812    16812 
   16809    16811    16812    16811    16811    16811    16809    16809 
   16812    16812    16811    16809    16809    16811    16811    16811 
   16811    16812    16812    16809    16809    16811    16809    16811 
   16814    16812    16809    16811    16811    16808    16808    16812 
   16811    16808    16809    16809    16809    16811    16811    16811 
   16811    16809    16809    16811    16811    16809    16811    16811 
   16812    16812    16812    16812    16812    16812    16812    16809 
   16808    16809    16812    16811    16808    16809    16811    16811 
   16809    16808    16811    16809    16809    16811    16811    16811 
   16811    16809    16811    16811    16808    16811    16814    16811 
   16809    16812    16814    16812    16806    16806    16809    16812 
   16811    16809    16812    16814    16811    16808    16809    16814 
   16811    16806    16808    16809    16809    16811    16812    16811 
   16808    16809    16811    16809    16809    16811    16814    16812 
   16809    16811    16812    16812    16812    16812    16811    16812 
   16812    16811    16812    16812    16811    16809    16809    16811 
   16812    16811    16811    16812    16814    16812    16811    16812 
   16812    16808    16806    16811    16814    16812    16809    16812 
   16812    16809    16809    16811    16812    16814    16812    16811 
   16809    16809    16811    16811    16811    16812    16814    16814 
   16811    16812    16811    16806    16809    16812    16809    16809 
   16811    16814    16814    16811    16811    16814    16809    16808 
   16812    16811    16809    16812    16812    16809    16811    16812 
   16812    16814    16812    16809    16809    16809    16808    16809 
   16811    16809    16809    16812    16811    16806    16809    16812 
   16809    16808    16811    16814    16814    16814    16809    16806 
   16811    16814    16812    16811    16812    16811    16809    16809 
   16811    16812    16811    16808    16809    16811    16811    16811 
   16811    16809    16812    16814    16812    16811    16811    16811 
   16811    16811    16811    16811    16811    16812    16811    16808 
   16808    16811    16811    16811    16811    16809    16808    16811 
   16812    16811    16812    16814    16814    16809    16809    16811 
   16809    16811    16814    16811    16808    16811    16811    16811 
   16812    16812    16812    16812    16812    16809    16811    16814 
   16811    16809    16811    16814    16811    16811    16811    16808 
   16808    16812    16809    16809    16812    16814    16812    16814 
   16814    16809    16808    16809    16812    16814    16814    16814 
   16812    16809    16809    16812    16811    16808    16812    16814 
   16812    16812    16812    16812    16811    16809    16809    16809 
   16809    16812    16814    16811    16811    16812    16811    16809 
   16811    16809    16808    16809    16811    16811    16812    16811 
   16812    16812    16809    16809    16812    16814    16812    16812 
   16811    16808    16809    16809    16811    16811    16811    16811 
   16809    16808    16812    16814    16811    16812    16814    16812 
   16809    16809    16812    16814    16814    16812    16812    16812 
   16811    16809    16811    16812    16812    16812    16811    16811 
   16814    16812    16809    16811    16812    16812    16812    16812 
   16811    16812    16811    16809    16811    16811    16811    16812 
   16812    16812    16811    16811    16811    16811    16811    16814 
   16814    16812    16811    16809    16812    16812    16812    16811 
   16809    16809    16812    16814    16812    16809    16809    16814 
   16812    16809    16808    16811    16811    16811    16811    16812 
   16812    16811    16809    16811    16812    16812    16812    16812 
   16811    16809    16811    16811    16812    16811    16809    16809 
   16808    16809    16811    16811    16809    16808    16809    16811 
   16811    16811    16811    16811    16811    16812    16811    16808 
   16811    16814    16809    16811    16814    16808    16811    16814 
   16811    16809    16811    16808    16809    16812    16812    16811 
   16811    16812    16812    16811    16809    16808    16811    16812 
   16811    16814    16814    16811    16809    16811    16811    16809 
   16808    16809    16811    16812    16809    16808    16811    16812 
   16809    16812    16812    16808    16809    16812    16812    16809 
   16809    16812    16814    16811    16809    16814    16814    16811 
   16811    16809    16808    16811    16812    16812    16812    16811 
   16809    16809    16809    16809    16811    16809    16809    16812 
   16811    16809    16809    16811    16812    16809    16811    16812 
   16809    16811    16812    16808    16806    16811    16811    16809 
   16811    16811    16808    16809    16811    16812    16811    16811 
   16811    16811    16812    16812    16811    16812    16812    16809 
   16809    16812    16812    16809    16808    16809    16809    16809 
   16808    16808    16808    16811    16814    16814    16811    16809 
   16811    16812    16811    16811    16812    16811    16812    16814 
   16811    16809    16812    16812    16811    16811    16812    16814 
   16814    16811    16811    16812    16811    16809    16808    16812 
   16814    16812    16809    16809    16811    16811    16811    16814 
   16814    16812    16812    16809    16809    16814    16812    16811 
   16811    16811    16811    16811    16809    16809    16811    16812 
   16812    16812    16812    16812    16812    16811    16811    16811 
   16814    16812    16809    16811    16811    16811    16814    16812 
   16812    16814    16816    16814    16812    16812    16812    16811 
   16809    16811    16811    16806    16808    16811    16811    16812 
   16814    16811    16808    16811    16812    16812    16814    16811 
   16811    16811    16811    16809    16808    16811    16812    16812 
   16814    16811    16811    16814    16811    16809    16812    16812 
   16812    16814    16814    16811    16808    16811    16814    16811 
   16811    16812    16814    16814    16812    16812    16812    16811 
   16811    16811    16811    16812    16814    16811    16806    16808 
   16811    16811    16811    16812    16809    16809    16812    16811 
   16811    16811    16809    16812    16814    16814    16811    16809 
   16811    16812    16811    16811    16811    16814    16809    16806 
   16811    16814    16809    16809    16811    16808    16811    16812 
   16811    16809    16809    16809    16811    16811    16811    16811 
   16811    16814    16814    16812    16812    16812    16812    16811 
   16811    16812    16812    16812    16811    16808    16811    16811 
   16809    16809    16809    16809    16812    16814    16811    16811 
   16812    16812    16811    16809    16812    16811    16806    16808 
   16811    16812    16814    16812    16811    16812    16809    16809 
   16814    16812    16809    16812    16814    16812    16811    16811 
   16809    16811    16812    16812    16808    16808    16812    16812 
   16811    16812    16814    16811    16809    16811    16811    16809 
   16811    16812    16811    16809    16812    16814    16811    16809 
   16811    16812    16811    16809    16811    16814    16812    16811 
   16809    16809    16811    16812    16812    16811    16809    16809 
   16811    16811    16812    16812    16811    16812    16811    16808 
   16809    16812    16812    16811    16811    16811    16811    16812 
   16814    16812    16811    16811    16811    16811    16811    16809 
   16809    16811    16811    16809    16811    16811    16811    16811 
   16811    16812    16812    16811    16811    16811    16811    16811 
   16811    16812    16812    16809    16808    16809    16809    16812 
   16814    16811    16809    16809    16811    16814    16814    16812 
   16809    16808    16811    16811    16808    16809    16812    16811 
   16809    16811    16812    16809    16808    16809    16812    16814 
   16812    16811    16811    16811    16812    16811    16809    16812 
   16814    16814    16812    16812    16812    16811    16809    16809 
   16809    16812    16812    16811    16811    16811    16811    16811 
   16811    16811    16811    16811    16811    16809    16812    16814 
   16812    16809    16809    16811    16811    16811    16809    16809 
   16811    16811    16811    16812    16811    16809    16809    16809 
   16811    16809    16808    16809    16809    16812    16811    16809 
   16808    16811    16812    16809    16809    16811    16811    16812 
   16812    16811    16811    16812    16809    16811    16812    16811 
   16812    16811    16809    16812    16812    16812    16812    16811 
   16812    16812    16809    16808    16809    16811    16811    16812 
   16812    16812    16809    16809    16812    16812    16812    16812 
   16811    16811    16811    16811    16809    16809    16812    16812 
   16811    16811    16811    16811    16811    16811    16811    16811 
   16811    16809    16811    16811    16811    16811    16812    16812 
   16811    16812    16812    16812    16811    16811    16809    16809 
   16809    16811    16812    16812    16812    16812    16811    16811 
   16812    16811    16808    16812    16812    16808    16811    16814 
   16811    16809    16811    16809    16809    16811    16812    16812 
   16811    16811    16812    16814    16814    16811    16812    16812 
   16809    16809    16812    16811    16809    16811    16812    16811 
   16811    16812    16812    16811    16811    16811    16812    16812 
   16811    16814    16814    16814    16814    16814    16812    16812 
   16812    16812    16812    16811    16812    16812    16811    16811 
   16812    16811    16811    16811    16812    16812    16811    16808 
   16808    16811    16811    16811    16812    16811    16809    16812 
   16814    16814    16812    16811    16811    16811    16814    16814 
   16811    16808    16811    16812    16809    16809    16812    16812 
   16811    16809    16812    16814    16814    16812    16812    16812 
   16811    16811    16814    16814    16812    16812    16812    16811 
   16812    16812    16811    16809    16809    16812    16811    16809 
   16808    16808    16809    16811    16812    16811    16809    16809 
   16809    16811    16812    16809    16808    16811    16814    16811 
   16809    16811    16812    16812    16812    16811    16809    16812 
   16814    16811    16811    16812    16814    16812    16809    16809 
   16812    16814    16812    16814    16814    16812    16812    16811 
   16809    16811    16812    16811    16811    16811    16812    16811 
   16809    16811    16811    16808    16808    16812    16812    16811 
   16811    16812    16814    16812    16811    16811    16811    16811 
   16814    16814    16812    16809    16809    16809    16811    16812 
   16811    16809    16809    16811    16811    16809    16811    16812 
   16814    16812    16811    16811    16811    16811    16814    16814 
   16811    16811    16814    16812    16809    16811    16811    16811 
   16814    16812    16809    16809    16809    16811    16811    16811 
   16809    16809    16812    16814    16811    16808    16811    16811 
   16808    16796    16748    16660    16605    16687    16829    16742 
   16353    16109    16420    17018    17410    17593    17853    18115 
   17718    16312    15079    15658    17578    18639    17964    16726 
   15826    15093    14862    15606    16987    18783    19863    18241 
   14921    13369    14735    17055    18542    19141    18812    17185 
   15453    15105    15562    16322    17547    18087    17548    16931 
   16320    15741    15838    16659    17601    17795    17167    16710 
   16560    16428    16797    17419    17448    16915    16598    16826 
   16565    15718    15836    16865    17547    17626    17405    16932 
   16275    15962    16282    16972    17410    17197    16872    16768 
   16823    16909    16672    16546    16846    17034    17003    16669 
   16162    16355    17204    17620    17285    16866    16602    16344 
   16492    16946    17080    16934    16741    16684    16780    16762 
   16672    16457    16309    16829    17498    17400    16780    16456 
   16719    16946    16842    16929    17119    16892    16492    16503 
   16834    16964    16799    16656    16668    16734    16883    17143 
   17255    17069    16835    16540    16062    15992    16654    17433 
   17874    17717    16900    16180    16083    16212    16375    16645 
   16995    17417    17463    16954    16355    16025    16212    16691 
   17095    17560    17806    17388    16711    16297    16297    16579 
   16722    16761    16941    17008    16892    16825    16672    16417 
   16584    17132    17292    17066    16980    16922    16563    16225 
   16438    16929    17290    17536    17350    16664    16089    16017 
   16347    16771    17154    17319    17064    16800    16730    16576 
   16490    16471    16594    17145    17544    17328    16829    16353 
   16267    16511    16684    16961    17320    17413    17194    16780 
   16416    16268    16494    17081    17388    17081    16579    16244 
   16291    16692    17126    17419    17385    16946    16429    16147 
   16285    16752    17176    17366    17243    16868    16569    16433 
   16436    16684    17000    17107    17015    16771    16619    16777 
   16915    16875    16863    16760    16606    16688    16906    16960 
   16826    16783    16820    16764    16823    16915    16835    16789 
   16735    16638    16596    16572    16797    17161    17221    17061 
   16780    16568    16691    16722    16657    16852    16879    16863 
   17127    17128    16842    16544    16363    16555    16809    16972 
   17204    17128    16826    16717    16629    16580    16733    16869 
   16875    16803    16687    16744    17032    17132    16837    16487 
   16316    16370    16764    17216    17342    17293    17086    16571 
   16140    16185    16653    17263    17512    17216    16848    16646 
   16421    16375    16742    17131    17161    16920    16733    16746 
   16780    16748    16705    16748    16889    16888    16776    16796 
   16814    16745    16680    16698    16857    16958    16984    17107 
   16877    16326    16252    16632    17142    17496    17238    16831 
   16538    16144    16379    17104    17255    17069    16918    16646 
   16490    16598    16854    16997    16866    16756    16692    16586 
   16779    17032    16952    16932    16911    16610    16525    16700 
   16783    16935    17120    17027    16671    16502    16837    17174 
   17046    16800    16744    16690    16506    16515    16920    17257 
   17103    16629    16312    16487    16951    17124    16909    16837 
   17003    16969    16613    16355    16559    16895    17004    16972 
   16908    16918    16879    16609    16441    16648    17103    17304 
   16835    16457    16785    16892    16517    16588    17076    17273 
   17054    16761    16722    16740    16545    16417    16528    16869 
   17123    16762    16677    17429    17559    16764    16244    16289 
   16530    16796    17142    17293    17194    17347    17377    16872 
   16413    16283    16318    16379    16459    16636    16695    16686 
   16794    16964    17332    17514    17074    16488    16185    16454 
   16891    16627    16374    16783    17128    17138    17064    17180 
   17477    17285    16492    15916    16098    16695    17219    17516 
   17334    16729    15935    15511    16187    17070    17505    17856 
   17383    16513    16490    16649    16600    16897    17284    17212 
   16783    16501    16596    16796    16842    17015    17294    16988 
   16364    16220    16575    17207    17354    16865    16568    16225 
   16146    16863    17348    17451    17242    16503    16251    16669 
   17057    17058    16797    16865    16875    16568    16688    17093 
   17138    16696    16314    16478    16819    17015    16946    16735 
   16715    16621    16591    17011    17199    16839    16633    16856 
   17038    16954    16937    17010    16899    16703    16595    16707 
   16920    16733    16355    16413    16691    16883    17014    17138 
   17400    17315    16619    16202    16204    16289    16906    17631 
   17577    16862    16119    16140    16653    16785    16995    17281 
   16941    16717    16915    16811    16686    16756    16646    16575 
   16788    17118    17166    16886    16883    16984    16576    16179 
   16309    16726    17313    17756    17504    16721    16299    16517 
   16548    16368    16794    17305    17064    16638    16634    16826 
   16915    16883    16888    16988    16969    16791    16549    16244 
   16274    16769    17150    17277    17294    17055    16698    16497 
   16431    16476    16746    17050    17107    17066    16865    16511 
   16555    16949    17124    16854    16571    16842    17149    16997 
   16906    16869    16598    16452    16695    16991    17027    16997 
   16938    16734    16546    16434    16553    16812    16779    16760 
   16992    16989    16808    16811    16829    16648    16548    16934 
   17296    16989    16560    16424    16405    16660    17078    17268 
   17167    16746    16374    16657    17131    17097    16849    16641 
   16505    16594    16733    16868    17081    17155    16960    16576 
