Origin Time       2018/04/09 06:38:00
Lat.              35.2
Long.             132.6
Depth. (km)       10
Mag.              3.8
Station Code      HRS001
Station Lat.      35.0337
Station Long.     132.9018
Station Height(m) 566
Record Time       2018/04/09 06:38:55
Sampling Freq(Hz) 100Hz
Duration Time(s)  60
Dir.              N-S
Scale Factor      7845(gal)/8223790
Max. Acc. (gal)   2.347
Last Correction   2018/04/09 06:38:55
Memo.             
[...]
   -3554    -3557    -3557    -3555    -3554    -3554    -3554    -3555 
   -3555    -3555    -3554    -3554    -3554    -3554    -3554    -3555 
   -3555    -3554    -3557    -3557    -3553    -3554    -3557    -3554 
   -3553    -3554    -3554    -3554    -3555    -3555    -3555    -3555 
   -3557    -3557    -3555    -3557    -3557    -3554    -3553    -3554 
   -3555    -3554    -3555    -3555    -3555    -3555    -3554    -3553 
   -3553    -3551    -3554    -3555    -3554    -3554    -3554    -3555 
   -3558    -3555    -3551    -3554    -3555    -3554    -3555    -3554 
   -3554    -3555    -3555    -3554    -3555    -3558    -3557    -3554 
   -3553    -3553    -3555    -3558    -3557    -3553    -3554    -3557 
   -3557    -3557    -3557    -3554    -3553    -3554    -3558    -3558 
   -3553    -3553    -3557    -3554    -3554    -3557    -3555    -3555 
   -3555    -3557    -3557    -3554    -3555    -3555    -3553    -3554 
   -3554    -3554    -3557    -3555    -3554    -3554    -3555    -3555 
   -3554    -3554    -3554    -3554    -3554    -3554    -3553    -3553 
   -3553    -3553    -3554    -3555    -3555    -3558    -3558    -3554 
   -3553    -3555    -3555    -3555    -3555    -3554    -3555    -3555 
   -3554    -3554    -3557    -3555    -3554    -3555    -3555    -3557 
   -3555    -3554    -3553    -3555    -3555    -3554    -3555    -3555 
   -3553    -3554    -3555    -3555    -3555    -3554    -3554    -3554 
   -3555    -3555    -3555    -3554    -3554    -3557    -3558    -3555 
   -3557    -3558    -3554    -3553    -3555    -3555    -3555    -3555 
   -3554    -3554    -3555    -3558    -3555    -3551    -3554    -3555 
   -3554    -3555    -3555    -3554    -3555    -3557    -3554    -3551 
   -3553    -3557    -3557    -3554    -3553    -3554    -3554    -3554 
   -3554    -3555    -3557    -3558    -3557    -3554    -3554    -3554 
   -3554    -3555    -3554    -3553    -3554    -3555    -3555    -3555 
   -3554    -3553    -3555    -3557    -3554    -3553    -3553    -3555 
   -3557    -3557    -3557    -3557    -3554    -3554    -3557    -3555 
   -3553    -3554    -3558    -3557    -3551    -3553    -3557    -3555 
   -3554    -3555    -3555    -3554    -3555    -3555    -3555    -3555 
   -3555    -3557    -3555    -3555    -3557    -3554    -3554    -3557 
   -3554    -3553    -3558    -3557    -3553    -3554    -3555    -3554 
   -3551    -3551    -3558    -3559    -3555    -3557    -3557    -3555 
   -3555    -3551    -3551    -3554    -3553    -3554    -3555    -3553 
   -3554    -3557    -3557    -3555    -3554    -3553    -3555    -3555 
   -3554    -3554    -3555    -3554    -3555    -3557    -3555    -3555 
   -3557    -3555    -3555    -3554    -3551    -3551    -3555    -3557 
   -3557    -3557    -3557    -3559    -3558    -3553    -3557    -3561 
   -3554    -3549    -3549    -3553    -3558    -3554    -3549    -3558 
   -3563    -3559    -3557    -3554    -3550    -3554    -3558    -3555 
   -3553    -3553    -3557    -3558    -3553    -3554    -3555    -3555 
   -3557    -3555    -3549    -3546    -3549    -3557    -3562    -3561 
   -3554    -3551    -3555    -3555    -3554    -3553    -3554    -3555 
   -3558    -3557    -3553    -3554    -3554    -3553    -3557    -3561 
   -3558    -3555    -3554    -3551    -3551    -3553    -3551    -3555 
   -3558    -3554    -3554    -3554    -3551    -3553    -3557    -3558 
   -3557    -3554    -3553    -3555    -3558    -3557    -3554    -3554 
   -3555    -3555    -3555    -3553    -3551    -3554    -3557    -3555 
   -3553    -3554    -3558    -3555    -3553    -3554    -3558    -3558 
   -3554    -3553    -3553    -3555    -3557    -3554    -3550    -3551 
   -3553    -3553    -3557    -3555    -3555    -3557    -3555    -3555 
   -3557    -3555    -3555    -3557    -3557    -3557    -3555    -3554 
   -3557    -3555    -3551    -3554    -3555    -3554    -3558    -3557 
   -3550    -3550    -3557    -3558    -3554    -3554    -3558    -3557 
   -3554    -3555    -3554    -3553    -3553    -3554    -3555    -3555 
   -3553    -3554    -3557    -3555    -3555    -3555    -3555    -3558 
   -3562    -3557    -3553    -3555    -3555    -3553    -3553    -3553 
   -3553    -3554    -3554    -3553    -3554    -3554    -3555    -3558 
   -3557    -3555    -3557    -3557    -3554    -3554    -3553    -3553 
   -3555    -3557    -3554    -3555    -3558    -3559    -3557    -3555 
   -3554    -3554    -3553    -3554    -3555    -3554    -3555    -3558 
   -3557    -3555    -3557    -3555    -3555    -3554    -3553    -3553 
   -3551    -3550    -3554    -3554    -3555    -3557    -3557    -3555 
   -3555    -3558    -3558    -3555    -3551    -3550    -3553    -3554 
   -3553    -3553    -3555    -3557    -3558    -3557    -3554    -3553 
   -3555    -3557    -3553    -3553    -3557    -3555    -3555    -3555 
   -3555    -3558    -3559    -3555    -3551    -3551    -3554    -3555 
   -3551    -3551    -3557    -3555    -3554    -3557    -3558    -3557 
   -3557    -3555    -3554    -3555    -3558    -3557    -3555    -3554 
   -3550    -3551    -3557    -3558    -3555    -3554    -3555    -3558 
   -3557    -3553    -3551    -3555    -3557    -3555    -3554    -3553 
   -3553    -3553    -3555    -3555    -3554    -3557    -3557    -3555 
   -3554    -3554    -3555    -3553    -3553    -3558    -3559    -3555 
   -3553    -3553    -3557    -3558    -3557    -3555    -3554    -3553 
   -3555    -3555    -3554    -3554    -3555    -3557    -3554    -3551 
   -3553    -3553    -3554    -3557    -3557    -3553    -3553    -3553 
   -3553    -3554    -3554    -3555    -3555    -3553    -3553    -3555 
   -3557    -3553    -3553    -3554    -3555    -3555    -3554    -3553 
   -3553    -3553    -3554    -3557    -3555    -3555    -3557    -3555 
   -3555    -3557    -3554    -3554    -3553    -3551    -3554    -3555 
   -3555    -3555    -3555    -3557    -3558    -3554    -3554    -3554 
   -3553    -3554    -3554    -3551    -3551    -3554    -3557    -3558 
   -3555    -3555    -3555    -3553    -3553    -3554    -3554    -3555 
   -3555    -3555    -3558    -3557    -3553    -3554    -3554    -3554 
   -3557    -3557    -3554    -3557    -3557    -3553    -3553    -3555 
   -3554    -3554    -3557    -3555    -3557    -3558    -3555    -3554 
   -3554    -3554    -3555    -3558    -3557    -3554    -3553    -3554 
   -3557    -3558    -3554    -3554    -3555    -3555    -3555    -3555 
   -3554    -3553    -3553    -3554    -3554    -3553    -3551    -3555 
   -3557    -3554    -3554    -3554    -3553    -3553    -3557    -3558 
   -3553    -3551    -3555    -3557    -3555    -3554    -3554    -3555 
   -3557    -3555    -3555    -3555    -3555    -3555    -3555    -3555 
   -3557    -3555    -3555    -3555    -3553    -3553    -3557    -3557 
   -3554    -3557    -3557    -3555    -3555    -3557    -3557    -3555 
   -3554    -3553    -3554    -3557    -3557    -3557    -3557    -3554 
   -3553    -3554    -3555    -3555    -3559    -3558    -3554    -3555 
   -3558    -3555    -3553    -3554    -3555    -3555    -3555    -3557 
   -3555    -3551    -3553    -3554    -3553    -3553    -3555    -3558 
   -3558    -3557    -3554    -3553    -3557    -3559    -3555    -3553 
   -3554    -3555    -3554    -3555    -3554    -3553    -3555    -3558 
   -3555    -3554    -3555    -3558    -3557    -3555    -3557    -3555 
   -3555    -3555    -3553    -3551    -3553    -3554    -3554    -3557 
   -3558    -3555    -3555    -3558    -3557    -3555    -3555    -3555 
   -3555    -3554    -3555    -3555    -3555    -3557    -3555    -3554 
   -3554    -3555    -3557    -3555    -3557    -3557    -3554    -3554 
   -3557    -3555    -3554    -3554    -3554    -3557    -3558    -3555 
   -3554    -3555    -3555    -3554    -3557    -3555    -3554    -3553 
   -3553    -3555    -3555    -3554    -3555    -3558    -3555    -3554 
   -3555    -3553    -3551    -3555    -3557    -3554    -3554    -3555 
   -3554    -3555    -3557    -3555    -3555    -3555    -3554    -3553 
   -3554    -3555    -3554    -3551    -3553    -3557    -3555    -3554 
   -3554    -3553    -3554    -3555    -3555    -3557    -3554    -3551 
   -3553    -3555    -3554    -3554    -3554    -3553    -3554    -3555 
   -3554    -3554    -3555    -3555    -3554    -3555    -3557    -3555 
   -3555    -3558    -3558    -3554    -3551    -3553    -3554    -3555 
   -3555    -3554    -3554    -3555    -3554    -3554    -3555    -3557 
   -3554    -3554    -3554    -3553    -3554    -3555    -3554    -3555 
   -3555    -3554    -3555    -3557    -3555    -3554    -3555    -3555 
   -3555    -3554    -3554    -3554    -3555    -3555    -3557    -3557 
   -3554    -3554    -3557    -3557    -3555    -3555    -3554    -3554 
   -3557    -3555    -3555    -3555    -3553    -3554    -3557    -3557 
   -3555    -3557    -3555    -3557    -3555    -3553    -3554    -3553 
   -3553    -3555    -3557    -3554    -3554    -3554    -3555    -3557 
   -3554    -3555    -3557    -3555    -3553    -3554    -3557    -3557 
   -3555    -3555    -3557    -3554    -3555    -3557    -3555    -3555 
   -3557    -3557    -3554    -3555    -3557    -3555    -3555    -3554 
   -3553    -3555    -3558    -3555    -3554    -3554    -3554    -3555 
   -3558    -3555    -3554    -3555    -3557    -3554    -3554    -3554 
   -3553    -3555    -3554    -3553    -3555    -3555    -3555    -3554 
   -3551    -3554    -3555    -3554    -3555    -3555    -3554    -3555 
   -3555    -3557    -3557    -3554    -3553    -3553    -3554    -3555 
   -3555    -3554    -3553    -3554    -3553    -3551    -3554    -3554 
   -3553    -3554    -3554    -3554    -3555    -3555    -3557    -3554 
   -3553    -3555    -3558    -3554    -3554    -3554    -3551    -3551 
   -3554    -3555    -3554    -3555    -3557    -3557    -3553    -3554 
   -3559    -3558    -3555    -3555    -3555    -3553    -3554    -3555 
   -3555    -3554    -3553    -3554    -3555    -3554    -3554    -3557 
   -3557    -3554    -3553    -3554    -3555    -3555    -3554    -3554 
   -3557    -3557    -3555    -3555    -3557    -3557    -3555    -3555 
   -3555    -3555    -3555    -3553    -3555    -3557    -3554    -3553 
   -3555    -3555    -3554    -3553    -3554    -3555    -3557    -3555 
   -3554    -3553    -3554    -3554    -3554    -3557    -3557    -3555 
   -3555    -3555    -3557    -3555    -3555    -3555    -3557    -3557 
   -3557    -3557    -3557    -3555    -3554    -3553    -3554    -3554 
   -3553    -3555    -3557    -3557    -3557    -3554    -3553    -3554 
   -3554    -3551    -3553    -3557    -3558    -3558    -3558    -3558 
   -3555    -3557    -3554    -3553    -3555    -3557    -3555    -3554 
   -3554    -3557    -3557    -3555    -3557    -3558    -3554    -3554 
   -3557    -3554    -3553    -3554    -3557    -3557    -3554    -3554 
   -3557    -3557    -3554    -3553    -3554    -3554    -3554    -3555 
   -3554    -3554    -3555    -3557    -3555    -3557    -3557    -3555 
   -3554    -3554    -3554    -3554    -3555    -3554    -3555    -3559 
   -3557    -3554    -3555    -3554    -3554    -3557    -3555    -3553 
   -3555    -3555    -3553    -3554    -3555    -3557    -3557    -3555 
   -3553    -3551    -3553    -3557    -3557    -3553    -3555    -3555 
   -3554    -3557    -3555    -3553    -3555    -3555    -3553    -3555 
   -3554    -3551    -3554    -3555    -3555    -3555    -3555    -3555 
   -3555    -3555    -3554    -3554    -3554    -3555    -3554    -3554 
   -3555    -3555    -3555    -3557    -3558    -3557    -3554    -3553 
   -3555    -3555    -3551    -3553    -3555    -3555    -3555    -3558 
   -3558    -3557    -3555    -3554    -3557    -3555    -3553    -3554 
   -3555    -3553    -3553    -3554    -3555    -3555    -3554    -3553 
   -3555    -3555    -3551    -3553    -3554    -3553    -3555    -3558 
   -3555    -3553    -3554    -3555    -3555    -3555    -3557    -3555 
   -3554    -3553    -3553    -3555    -3555    -3555    -3557    -3554 
   -3554    -3558    -3555    -3553    -3554    -3553    -3554    -3555 
   -3555    -3555    -3554    -3555    -3557    -3555    -3555    -3557 
   -3557    -3555    -3555    -3554    -3554    -3557    -3557    -3553 
   -3554    -3558    -3557    -3554    -3554    -3557    -3555    -3553 
   -3553    -3555    -3555    -3553    -3553    -3555    -3555    -3555 
   -3555    -3555    -3553    -3554    -3554    -3557    -3558    -3555 
   -3553    -3553    -3553    -3554    -3555    -3554    -3554    -3557 
   -3557    -3555    -3554    -3554    -3555    -3557    -3555    -3555 
   -3555    -3557    -3557    -3555    -3553    -3553    -3555    -3557 
   -3558    -3558    -3555    -3558    -3558    -3554    -3555    -3557 
   -3554    -3554    -3554    -3554    -3555    -3555    -3554    -3554 
   -3555    -3555    -3557    -3557    -3555    -3553    -3551    -3554 
   -3555    -3555    -3555    -3554    -3554    -3557    -3557    -3557 
   -3557    -3555    -3553    -3553    -3554    -3555    -3557    -3554 
   -3554    -3558    -3557    -3555    -3557    -3557    -3555    -3554 
   -3555    -3555    -3554    -3549    -3537    -3524    -3520    -3501 
   -3446    -3385    -3399    -3447    -3353    -3146    -3186    -3577 
   -3906    -3870    -3750    -3997    -4510    -4556    -3844    -3375 
   -3989    -4710    -4083    -2555    -1880    -2442    -3005    -2934 
   -2639    -2853    -4017    -4868    -3902    -2431    -2779    -4758 
   -6015    -5144    -3397    -2533    -2799    -3481    -3511    -2917 
   -3186    -4247    -4225    -2836    -1539    -1590    -3423    -5539 
   -5540    -3792    -2666    -2986    -3919    -4509    -4456    -4220 
   -4163    -4055    -3497    -2832    -2822    -2953    -2671    -2748 
   -3169    -3180    -2952    -3041    -3586    -4066    -4255    -4646 
   -4852    -4284    -3643    -3511    -3669    -3703    -3275    -2863 
   -3100    -3325    -2898    -2594    -2967    -3491    -3948    -4329 
   -4178    -3701    -3619    -3766    -3781    -3708    -3518    -3643 
   -4149    -4043    -3400    -2964    -2577    -2359    -2624    -3348 
   -4266    -4522    -3885    -3265    -3456    -4407    -4946    -4113 
   -2887    -2844    -3782    -4151    -3524    -2839    -2678    -3127 
   -3789    -3705    -2924    -2737    -3504    -4149    -4050    -3728 
   -3719    -3991    -4162    -3909    -3524    -3395    -3334    -3316 
   -3591    -3776    -3519    -3163    -3022    -3188    -3434    -3238 
   -2843    -3055    -3856    -4444    -4271    -3674    -3457    -3846 
   -4220    -4114    -3765    -3483    -3414    -3543    -3338    -2720 
   -2600    -3225    -3878    -3977    -3510    -3308    -3658    -3670 
   -3358    -3464    -3847    -4140    -4256    -4086    -3678    -3381 
   -3420    -3447    -3252    -3119    -3061    -2937    -2944    -3333 
   -3790    -3750    -3578    -3689    -3850    -4189    -4369    -3975 
   -3715    -3694    -3542    -3361    -3021    -2810    -3075    -3399 
   -3615    -3713    -3651    -3607    -3484    -3291    -3364    -3790 
   -4258    -4139    -3504    -3267    -3562    -3816    -3716    -3355 
   -3207    -3404    -3462    -3148    -2863    -3146    -3877    -4336 
   -4194    -3713    -3342    -3503    -3827    -3666    -3396    -3458 
   -3649    -3724    -3478    -3123    -3219    -3623    -3815    -3792 
   -3651    -3369    -3237    -3380    -3500    -3562    -3686    -3730 
   -3690    -3520    -3177    -3210    -3726    -3947    -3819    -3780 
   -3577    -3213    -3167    -3231    -3183    -3354    -3861    -4324 
   -4178    -3717    -3684    -3744    -3634    -3623    -3519    -3439 
   -3501    -3388    -3227    -3171    -3241    -3499    -3619    -3511 
   -3461    -3480    -3611    -3854    -3870    -3661    -3496    -3420 
   -3511    -3665    -3572    -3416    -3464    -3450    -3353    -3468 
   -3600    -3658    -3951    -4036    -3522    -3152    -3260    -3433 
   -3561    -3568    -3497    -3753    -4088    -3769    -3142    -3141 
   -3593    -3775    -3630    -3543    -3731    -3946    -3773    -3360 
   -3090    -2992    -3169    -3593    -3771    -3645    -3622    -3719 
   -3750    -3685    -3477    -3366    -3608    -3790    -3746    -3728 
   -3624    -3507    -3395    -3171    -3202    -3387    -3477    -3771 
   -3974    -3774    -3628    -3632    -3528    -3384    -3364    -3526 
   -3735    -3681    -3380    -3208    -3404    -3794    -3880    -3609 
   -3433    -3368    -3402    -3657    -3662    -3439    -3581    -3802 
   -3646    -3388    -3450    -3784    -3939    -3640    -3187    -3177 
   -3555    -3627    -3459    -3516    -3604    -3495    -3335    -3287 
   -3492    -3959    -4139    -3669    -3272    -3569    -3997    -3840 
   -3254    -3007    -3442    -3863    -3523    -2914    -2951    -3501 
   -3948    -4044    -3854    -3766    -3896    -3789    -3492    -3354 
   -3254    -3317    -3559    -3403    -3034    -3150    -3588    -3890 
   -3983    -3905    -3784    -3786    -3794    -3503    -3127    -3339 
   -3765    -3407    -2817    -3037    -3628    -3867    -3774    -3605 
   -3574    -3693    -3789    -3620    -3387    -3886    -5080    -5823 
   -5208    -3438    -2228    -2606    -2710    -1431    -1215    -3068 
   -3947    -2836    -2350    -3109    -4276    -5533    -5175    -3553 
   -3507    -4118    -3669    -3577    -3877    -3510    -3177    -3115 
   -2565    -2079    -2961    -4379    -4849    -5208    -5385    -4233 
   -3302    -3187    -2677    -2890    -3811    -3208    -1767    -1420 
   -2304    -4109    -5525    -5103    -4276    -4563    -4379    -3172 
   -2856    -3242    -3211    -3527    -3719    -2941    -2609    -3172 
   -3681    -3962    -3965    -3869    -3893    -3422    -2552    -2866 
   -4393    -4816    -3663    -2920    -3283    -3984    -4353    -4024 
   -3518    -3537    -3788    -3943    -3827    -3087    -2458    -2903 
   -3581    -3403    -2683    -2123    -2208    -2952    -3882    -4661 
   -5097    -5304    -5158    -4149    -3061    -2866    -3118    -3535 
   -3866    -3466    -2863    -2830    -3063    -3276    -3643    -3854 
   -3470    -3362    -3931    -3828    -3287    -3411    -3580    -3904 
   -4696    -4548    -3350    -2691    -3014    -3392    -3218    -3171 
   -3568    -3784    -3984    -4077    -3267    -2538    -3138    -3996 
   -4136    -3865    -3226    -2755    -3121    -3689    -4036    -4303 
   -4088    -3550    -3450    -3563    -3222    -2675    -2702    -3456 
   -4195    -4344    -4258    -4415    -4526    -4047    -3424    -3658 
   -4107    -3350    -2027    -1525    -2031    -3198    -3910    -3457 
   -3298    -4317    -5143    -4637    -3411    -3052    -3740    -4093 
   -3796    -3306    -2926    -3171    -3647    -3666    -3523    -3357 
   -3210    -3651    -4220    -3828    -3141    -3256    -3603    -3609 
   -3631    -3724    -3666    -3563    -3450    -3450    -3844    -3970 
   -3483    -3245    -3164    -2776    -2579    -2781    -3200    -3639 
   -3942    -4087    -4104    -4260    -4461    -4380    -4297    -4145 
   -3477    -2743    -2650    -2967    -3146    -3223    -3213    -3132 
   -3422    -3819    -3753    -3615    -3738    -3842    -3766    -3823 
   -4149    -3943    -3111    -2910    -3584    -4309    -4200    -3186 
   -2992    -3697    -3268    -2608    -3123    -3478    -3520    -3844 
