Origin Time       2018/04/09 06:38:00
Lat.              35.2
Long.             132.6
Depth. (km)       10
Mag.              3.8
Station Code      HRS001
Station Lat.      35.0337
Station Long.     132.9018
Station Height(m) 566
Record Time       2018/04/09 06:38:55
Sampling Freq(Hz) 100Hz
Duration Time(s)  60
Dir.              E-W
Scale Factor      7845(gal)/8223790
Max. Acc. (gal)   2.626
Last Correction   2018/04/09 06:38:55
Memo.             
[...]
   -5530    -5530    -5532    -5533    -5535    -5533    -5533    -5532 
   -5532    -5535    -5535    -5532    -5533    -5533    -5533    -5533 
   -5532    -5533    -5535    -5533    -5533    -5533    -5530    -5530 
   -5532    -5532    -5532    -5535    -5536    -5533    -5530    -5530 
   -5530    -5532    -5535    -5535    -5532    -5532    -5533    -5535 
   -5533    -5532    -5530    -5533    -5536    -5532    -5530    -5533 
   -5533    -5533    -5533    -5532    -5532    -5532    -5535    -5535 
   -5533    -5532    -5535    -5533    -5532    -5533    -5535    -5532 
   -5533    -5536    -5535    -5535    -5535    -5533    -5532    -5533 
   -5535    -5535    -5533    -5535    -5533    -5533    -5535    -5535 
   -5535    -5535    -5533    -5532    -5533    -5535    -5535    -5535 
   -5532    -5535    -5536    -5532    -5530    -5532    -5533    -5536 
   -5536    -5535    -5533    -5532    -5533    -5536    -5536    -5532 
   -5530    -5532    -5533    -5536    -5535    -5532    -5533    -5533 
   -5533    -5532    -5532    -5533    -5533    -5533    -5533    -5532 
   -5533    -5535    -5533    -5533    -5535    -5536    -5533    -5530 
   -5532    -5533    -5532    -5532    -5532    -5533    -5533    -5533 
   -5535    -5532    -5532    -5536    -5535    -5533    -5536    -5536 
   -5533    -5533    -5533    -5530    -5533    -5536    -5532    -5530 
   -5535    -5535    -5532    -5532    -5533    -5533    -5533    -5536 
   -5536    -5533    -5533    -5535    -5533    -5532    -5532    -5532 
   -5535    -5536    -5536    -5535    -5533    -5533    -5533    -5533 
   -5532    -5530    -5533    -5533    -5530    -5530    -5533    -5532 
   -5533    -5535    -5533    -5533    -5535    -5533    -5533    -5533 
   -5535    -5536    -5535    -5532    -5533    -5533    -5533    -5535 
   -5535    -5533    -5533    -5535    -5535    -5535    -5535    -5532 
   -5532    -5533    -5535    -5535    -5533    -5533    -5535    -5533 
   -5532    -5533    -5533    -5533    -5535    -5536    -5530    -5529 
   -5533    -5533    -5530    -5536    -5539    -5533    -5533    -5535 
   -5533    -5532    -5532    -5532    -5533    -5535    -5535    -5535 
   -5535    -5533    -5532    -5535    -5535    -5533    -5532    -5532 
   -5533    -5533    -5532    -5532    -5533    -5536    -5536    -5532 
   -5530    -5533    -5533    -5532    -5530    -5530    -5532    -5532 
   -5536    -5535    -5532    -5533    -5536    -5533    -5530    -5533 
   -5537    -5535    -5530    -5532    -5533    -5533    -5536    -5536 
   -5530    -5529    -5533    -5536    -5533    -5532    -5535    -5533 
   -5533    -5536    -5533    -5529    -5530    -5535    -5535    -5533 
   -5533    -5533    -5532    -5535    -5535    -5533    -5532    -5533 
   -5535    -5535    -5532    -5529    -5529    -5533    -5537    -5539 
   -5533    -5529    -5530    -5536    -5536    -5535    -5535    -5530 
   -5533    -5539    -5533    -5528    -5530    -5536    -5537    -5530 
   -5529    -5536    -5536    -5535    -5533    -5533    -5535    -5533 
   -5535    -5539    -5535    -5529    -5530    -5537    -5537    -5530 
   -5529    -5535    -5535    -5532    -5533    -5533    -5533    -5536 
   -5537    -5533    -5530    -5529    -5532    -5536    -5536    -5533 
   -5535    -5535    -5532    -5530    -5535    -5539    -5535    -5530 
   -5535    -5535    -5532    -5532    -5533    -5535    -5533    -5532 
   -5532    -5530    -5532    -5535    -5536    -5532    -5530    -5536 
   -5539    -5532    -5530    -5533    -5535    -5536    -5533    -5530 
   -5532    -5535    -5536    -5533    -5530    -5533    -5535    -5535 
   -5532    -5530    -5533    -5537    -5537    -5533    -5533    -5533 
   -5532    -5535    -5536    -5530    -5529    -5535    -5536    -5535 
   -5533    -5532    -5530    -5532    -5537    -5536    -5529    -5530 
   -5535    -5535    -5532    -5533    -5533    -5532    -5536    -5539 
   -5533    -5530    -5535    -5536    -5532    -5532    -5535    -5535 
   -5533    -5536    -5536    -5536    -5537    -5536    -5533    -5536 
   -5535    -5529    -5530    -5533    -5535    -5532    -5530    -5533 
   -5537    -5536    -5533    -5532    -5533    -5533    -5533    -5530 
   -5532    -5535    -5535    -5533    -5536    -5536    -5532    -5530 
   -5535    -5536    -5535    -5532    -5533    -5535    -5532    -5532 
   -5533    -5535    -5535    -5535    -5532    -5530    -5535    -5536 
   -5533    -5530    -5530    -5533    -5536    -5535    -5532    -5533 
   -5536    -5536    -5535    -5533    -5533    -5532    -5535    -5536 
   -5533    -5532    -5532    -5530    -5533    -5535    -5535    -5535 
   -5533    -5535    -5536    -5529    -5530    -5537    -5536    -5533 
   -5536    -5535    -5532    -5532    -5532    -5532    -5535    -5536 
   -5535    -5533    -5533    -5530    -5529    -5532    -5532    -5530 
   -5532    -5535    -5536    -5536    -5539    -5536    -5532    -5535 
   -5536    -5532    -5532    -5533    -5533    -5533    -5533    -5533 
   -5535    -5535    -5535    -5535    -5532    -5532    -5535    -5535 
   -5532    -5532    -5530    -5532    -5536    -5537    -5536    -5533 
   -5533    -5533    -5532    -5532    -5535    -5536    -5536    -5535 
   -5533    -5535    -5535    -5533    -5536    -5536    -5532    -5533 
   -5536    -5536    -5530    -5529    -5533    -5536    -5533    -5533 
   -5533    -5532    -5533    -5536    -5533    -5532    -5533    -5535 
   -5536    -5530    -5532    -5537    -5537    -5530    -5532    -5536 
   -5535    -5533    -5532    -5532    -5532    -5533    -5535    -5536 
   -5532    -5530    -5535    -5537    -5532    -5530    -5535    -5537 
   -5536    -5536    -5535    -5533    -5535    -5536    -5535    -5532 
   -5530    -5533    -5532    -5528    -5530    -5536    -5535    -5535 
   -5533    -5530    -5533    -5535    -5533    -5532    -5533    -5533 
   -5537    -5537    -5533    -5532    -5533    -5535    -5535    -5533 
   -5533    -5533    -5535    -5536    -5535    -5533    -5535    -5532 
   -5532    -5535    -5533    -5532    -5536    -5536    -5533    -5535 
   -5536    -5533    -5536    -5539    -5536    -5532    -5532    -5535 
   -5533    -5530    -5533    -5533    -5532    -5535    -5533    -5530 
   -5532    -5535    -5535    -5533    -5533    -5536    -5537    -5533 
   -5532    -5532    -5533    -5533    -5535    -5533    -5533    -5533 
   -5533    -5537    -5537    -5533    -5533    -5535    -5535    -5535 
   -5535    -5533    -5533    -5533    -5535    -5535    -5533    -5532 
   -5536    -5536    -5532    -5535    -5537    -5535    -5535    -5536 
   -5532    -5529    -5532    -5536    -5537    -5536    -5533    -5533 
   -5535    -5536    -5535    -5533    -5533    -5535    -5535    -5535 
   -5535    -5535    -5533    -5532    -5535    -5536    -5535    -5533 
   -5535    -5533    -5530    -5533    -5535    -5533    -5533    -5533 
   -5530    -5528    -5533    -5536    -5533    -5533    -5535    -5533 
   -5533    -5533    -5533    -5533    -5535    -5533    -5532    -5530 
   -5533    -5536    -5533    -5530    -5533    -5537    -5536    -5533 
   -5533    -5537    -5535    -5529    -5530    -5533    -5535    -5536 
   -5535    -5533    -5533    -5533    -5536    -5533    -5530    -5533 
   -5537    -5536    -5535    -5533    -5529    -5532    -5536    -5532 
   -5532    -5536    -5533    -5533    -5536    -5533    -5532    -5535 
   -5535    -5533    -5532    -5533    -5535    -5535    -5536    -5536 
   -5532    -5532    -5535    -5535    -5532    -5533    -5536    -5533 
   -5532    -5535    -5532    -5532    -5532    -5532    -5533    -5536 
   -5535    -5533    -5535    -5533    -5530    -5532    -5535    -5533 
   -5533    -5535    -5532    -5532    -5537    -5537    -5533    -5532 
   -5533    -5535    -5533    -5533    -5533    -5535    -5535    -5533 
   -5533    -5535    -5532    -5533    -5536    -5535    -5533    -5533 
   -5532    -5535    -5535    -5533    -5535    -5535    -5535    -5535 
   -5535    -5535    -5533    -5535    -5535    -5533    -5535    -5535 
   -5533    -5533    -5533    -5532    -5533    -5533    -5532    -5535 
   -5536    -5535    -5536    -5535    -5532    -5535    -5535    -5533 
   -5535    -5535    -5532    -5533    -5535    -5535    -5535    -5536 
   -5535    -5532    -5535    -5537    -5535    -5533    -5535    -5532 
   -5530    -5532    -5536    -5535    -5533    -5536    -5535    -5532 
   -5532    -5532    -5530    -5530    -5533    -5535    -5533    -5533 
   -5533    -5532    -5532    -5535    -5535    -5535    -5533    -5532 
   -5535    -5536    -5532    -5533    -5536    -5533    -5533    -5535 
   -5533    -5533    -5533    -5535    -5537    -5535    -5532    -5533 
   -5533    -5532    -5535    -5535    -5533    -5535    -5535    -5532 
   -5533    -5536    -5535    -5536    -5537    -5536    -5535    -5533 
   -5533    -5536    -5537    -5533    -5532    -5535    -5535    -5533 
   -5532    -5532    -5535    -5536    -5533    -5535    -5537    -5533 
   -5530    -5533    -5532    -5532    -5533    -5533    -5533    -5532 
   -5533    -5535    -5535    -5536    -5536    -5533    -5535    -5535 
   -5530    -5532    -5536    -5536    -5533    -5532    -5535    -5533 
   -5532    -5535    -5533    -5533    -5533    -5536    -5537    -5535 
   -5532    -5532    -5533    -5536    -5536    -5533    -5532    -5533 
   -5535    -5535    -5533    -5533    -5535    -5536    -5532    -5532 
   -5535    -5535    -5532    -5533    -5535    -5535    -5535    -5536 
   -5536    -5536    -5533    -5533    -5535    -5533    -5535    -5537 
   -5536    -5532    -5533    -5535    -5536    -5536    -5533    -5532 
   -5536    -5540    -5536    -5533    -5535    -5535    -5533    -5535 
   -5533    -5530    -5532    -5535    -5535    -5533    -5533    -5535 
   -5535    -5533    -5533    -5533    -5532    -5535    -5533    -5532 
   -5535    -5535    -5532    -5532    -5535    -5535    -5533    -5533 
   -5535    -5535    -5533    -5536    -5536    -5532    -5533    -5535 
   -5532    -5533    -5536    -5536    -5533    -5532    -5530    -5533 
   -5536    -5533    -5533    -5535    -5535    -5537    -5536    -5533 
   -5533    -5536    -5536    -5536    -5533    -5532    -5535    -5536 
   -5532    -5532    -5536    -5537    -5535    -5533    -5533    -5532 
   -5533    -5535    -5535    -5533    -5533    -5535    -5533    -5532 
   -5536    -5536    -5532    -5532    -5533    -5536    -5536    -5532 
   -5532    -5535    -5535    -5535    -5535    -5533    -5533    -5535 
   -5533    -5533    -5532    -5532    -5533    -5533    -5533    -5535 
   -5535    -5535    -5536    -5533    -5530    -5532    -5535    -5533 
   -5532    -5533    -5533    -5533    -5533    -5533    -5532    -5530 
   -5532    -5533    -5532    -5530    -5533    -5537    -5536    -5532 
   -5533    -5535    -5533    -5533    -5533    -5532    -5532    -5533 
   -5533    -5532    -5532    -5533    -5532    -5530    -5532    -5535 
   -5536    -5536    -5533    -5533    -5532    -5530    -5532    -5533 
   -5532    -5532    -5532    -5530    -5533    -5535    -5532    -5532 
   -5533    -5532    -5529    -5530    -5533    -5533    -5533    -5535 
   -5533    -5532    -5535    -5535    -5530    -5532    -5536    -5533 
   -5533    -5533    -5533    -5533    -5535    -5536    -5537    -5533 
   -5532    -5536    -5536    -5533    -5533    -5533    -5532    -5535 
   -5536    -5537    -5535    -5533    -5535    -5535    -5533    -5533 
   -5535    -5536    -5536    -5535    -5535    -5533    -5535    -5537 
   -5536    -5535    -5535    -5535    -5533    -5532    -5532    -5533 
   -5533    -5533    -5535    -5535    -5535    -5535    -5535    -5535 
   -5535    -5536    -5536    -5536    -5535    -5535    -5536    -5533 
   -5532    -5533    -5535    -5533    -5533    -5536    -5535    -5532 
   -5533    -5533    -5532    -5533    -5533    -5533    -5535    -5535 
   -5533    -5535    -5535    -5533    -5533    -5533    -5533    -5535 
   -5535    -5533    -5532    -5533    -5533    -5533    -5535    -5536 
   -5535    -5530    -5532    -5536    -5536    -5532    -5533    -5535 
   -5533    -5532    -5533    -5535    -5535    -5536    -5536    -5535 
   -5536    -5536    -5533    -5533    -5535    -5535    -5532    -5530 
   -5532    -5536    -5535    -5532    -5532    -5533    -5535    -5535 
   -5533    -5535    -5535    -5535    -5535    -5535    -5532    -5533 
   -5533    -5533    -5533    -5533    -5535    -5533    -5530    -5530 
   -5532    -5532    -5532    -5532    -5532    -5535    -5535    -5533 
   -5532    -5530    -5532    -5536    -5536    -5533    -5533    -5533 
   -5533    -5535    -5533    -5530    -5532    -5533    -5535    -5536 
   -5535    -5532    -5535    -5536    -5532    -5533    -5536    -5532 
   -5533    -5536    -5533    -5532    -5535    -5535    -5535    -5532 
   -5533    -5536    -5535    -5530    -5530    -5535    -5533    -5530 
   -5533    -5533    -5532    -5535    -5537    -5535    -5533    -5536 
   -5536    -5533    -5533    -5536    -5533    -5532    -5536    -5533 
   -5532    -5533    -5530    -5528    -5543    -5584    -5633    -5660 
   -5674    -5711    -5768    -5850    -6016    -6181    -6057    -5537 
   -4916    -4556    -4504    -4488    -4378    -4521    -5209    -5868 
   -5557    -4615    -4691    -6296    -7827    -7901    -6947    -6282 
   -6393    -6351    -5221    -3701    -3684    -5530    -6837    -5640 
   -3461    -3059    -4714    -6369    -6247    -5111    -5323    -7236 
   -8141    -6124    -3434    -3541    -6259    -8286    -7437    -4807 
   -3442    -4830    -6727    -6370    -4442    -3510    -4438    -5686 
   -5580    -4734    -4903    -6124    -6825    -6355    -5831    -6081 
   -6592    -6698    -6347    -5623    -4735    -4449    -4868    -5157 
   -5084    -4826    -4504    -4475    -5023    -6072    -7003    -7092 
   -6282    -5302    -5146    -5778    -6235    -6189    -5691    -4891 
   -4461    -4541    -4629    -4914    -5653    -6076    -5831    -5923 
   -6581    -6605    -5634    -4792    -4878    -5472    -5927    -5917 
   -5196    -4473    -4884    -5803    -5954    -5522    -5268    -5689 
   -6673    -6903    -5602    -4078    -4020    -5513    -6832    -6331 
   -4850    -4587    -5715    -6386    -5710    -4595    -4297    -5375 
   -6763    -6656    -5319    -4702    -5456    -6323    -6006    -4881 
   -4464    -5043    -5792    -6359    -6380    -5707    -5317    -5825 
   -6285    -5942    -5398    -5127    -5017    -5212    -5518    -5179 
   -4437    -4525    -5530    -6297    -6197    -5759    -5684    -5783 
   -5632    -5470    -5467    -5435    -5644    -6110    -5945    -5107 
   -4619    -4918    -5552    -5813    -5652    -5676    -6016    -6133 
   -5749    -5270    -5030    -4999    -5279    -5736    -5783    -5390 
   -5185    -5383    -5727    -6089    -6417    -6463    -6056    -5406 
   -4718    -4287    -4623    -5377    -5699    -5513    -5255    -5390 
   -5853    -5869    -5367    -5213    -5759    -6403    -6400    -5877 
   -5626    -5645    -5467    -5223    -4932    -4587    -4808    -5757 
   -6297    -5614    -4841    -5252    -6208    -6477    -5944    -5235 
   -4942    -5304    -5823    -5759    -5324    -5265    -5644    -5831 
   -5625    -5475    -5443    -5393    -5476    -5655    -5663    -5387 
   -5220    -5432    -5524    -5371    -5459    -5665    -5713    -5803 
   -5973    -6041    -5921    -5584    -5182    -4980    -5044    -5219 
   -5366    -5514    -5697    -5755    -5638    -5519    -5509    -5562 
   -5601    -5622    -5498    -5227    -5206    -5509    -5833    -5962 
   -5692    -5248    -5152    -5344    -5508    -5572    -5547    -5653 
   -5998    -6147    -5850    -5437    -5213    -5124    -5104    -5339 
   -5701    -5710    -5587    -5744    -5809    -5541    -5254    -5239 
   -5560    -5756    -5539    -5436    -5652    -5860    -5952    -5749 
   -5162    -4723    -4846    -5167    -5440    -5815    -6061    -5973 
   -5760    -5448    -5124    -5171    -5541    -5803    -5756    -5575 
   -5628    -5806    -5674    -5443    -5481    -5548    -5481    -5470 
   -5447    -5337    -5410    -5618    -5667    -5589    -5575    -5576 
   -5347    -5050    -5227    -5834    -6120    -5868    -5691    -5727 
   -5606    -5405    -5166    -4878    -5050    -5603    -5809    -5678 
   -5535    -5428    -5607    -5856    -5593    -5220    -5364    -5896 
   -6216    -5826    -5289    -5355    -5593    -5501    -5115    -4722 
   -4994    -5879    -6378    -6037    -5260    -4855    -5271    -5864 
   -5849    -5498    -5528    -5864    -5842    -5421    -5263    -5557 
   -5738    -5452    -5098    -5215    -5552    -5599    -5556    -5660 
   -5767    -5788    -5659    -5502    -5524    -5702    -5890    -5740 
   -5232    -4980    -5308    -5717    -5585    -5103    -5084    -5678 
   -5981    -5597    -5313    -5548    -5887    -5935    -5617    -5282 
   -5224    -5394    -5671    -5694    -5479    -5533    -5691    -5431 
   -5043    -5293    -5925    -5957    -5587    -5341    -5151    -5394 
   -6107    -6463    -6259    -6153    -6151    -5485    -4457    -4217 
   -4681    -5100    -5321    -5316    -5265    -5529    -5746    -5653 
   -5873    -6320    -6123    -5416    -4827    -4648    -5146    -5888 
   -5915    -5412    -5335    -5729    -5962    -5722    -5350    -5564 
   -6142    -6023    -5519    -5805    -5922    -4602    -3537    -4477 
   -6497    -7398    -6100    -4676    -5405    -6839    -6824    -5760 
   -4567    -3608    -4107    -5910    -6434    -5544    -5323    -5721 
   -5988    -6039    -5441    -4698    -5121    -6044    -5823    -5327 
   -5846    -6110    -5225    -4376    -4834    -6434    -7279    -6397 
   -5019    -4148    -4236    -5454    -6663    -6367    -4989    -4668 
   -5942    -6723    -5833    -4873    -5232    -5944    -6041    -5967 
   -5733    -5328    -5298    -5042    -4351    -4295    -4843    -5452 
   -6004    -6018    -5373    -5047    -5663    -6438    -6694    -6477 
   -6046    -5859    -5616    -4841    -4288    -4590    -5211    -5709 
   -6002    -5857    -5678    -5892    -5975    -5906    -5913    -5532 
   -5186    -5656    -6162    -5694    -4768    -4325    -4401    -4770 
   -5470    -6089    -5995    -5625    -5819    -5921    -5339    -5184 
   -5706    -5736    -5209    -5167    -5892    -6262    -5664    -5206 
   -5383    -5597    -5844    -6127    -6002    -5385    -4861    -5042 
   -5601    -5790    -5478    -5134    -5205    -5495    -5737    -5864 
   -5505    -4978    -5277    -6106    -6255    -5582    -5163    -5665 
   -6282    -6161    -5683    -5270    -5008    -5069    -5042    -4617 
   -4661    -5606    -6438    -6489    -6273    -6138    -5798    -5173 
   -4631    -4661    -5105    -5225    -5267    -5864    -6285    -5829 
   -5235    -5443    -6184    -6316    -5644    -5117    -5171    -5589 
   -5904    -5425    -4666    -5023    -6034    -6250    -5846    -5420 
   -4899    -4743    -5337    -6006    -6079    -5698    -5563    -5976 
   -6042    -5225    -4650    -5063    -5499    -5254    -5050    -5364 
   -5644    -5706    -5923    -6141    -6025    -5940    -6031    -5589 
   -4834    -5049    -5836    -5614    -4833    -5008    -5925    -6382 
   -5956    -5339    -5352    -5590    -5505    -5346    -5013    -4622 
   -5027    -5958    -6000    -5231    -5135    -5991    -6922    -7083 
